<?xml version="1.0" encoding="UTF-8"?>
<gpx version="1.1" creator="fitAI Komoot downloader" xmlns="http://www.topografix.com/GPX/1/1">
  <metadata>
    <name>Aldea de Turza y Ezcaray - Recorrido circular desde Pazuengos</name>
    <desc>89 visitas · Dificultad: moderate · Distancia: 13.6 km · Desnivel +: 539 m</desc>
    <link href="https://www.komoot.com/smarttour/e38171340"><text>Komoot</text></link>
  </metadata>
  <trk>
    <name>Aldea de Turza y Ezcaray - Recorrido circular desde Pazuengos</name>
    <type>hike</type>
    <trkseg>
    <trkpt lat="42.319889" lon="-2.947641">
      <ele>1204.8</ele>
    </trkpt>
    <trkpt lat="42.319985" lon="-2.947917">
      <ele>1206.6</ele>
    </trkpt>
    <trkpt lat="42.32018" lon="-2.948094">
      <ele>1208.8</ele>
    </trkpt>
    <trkpt lat="42.320321" lon="-2.94849">
      <ele>1212.3</ele>
    </trkpt>
    <trkpt lat="42.320355" lon="-2.948958">
      <ele>1216.5</ele>
    </trkpt>
    <trkpt lat="42.320351" lon="-2.949294">
      <ele>1219.5</ele>
    </trkpt>
    <trkpt lat="42.320472" lon="-2.949648">
      <ele>1222.5</ele>
    </trkpt>
    <trkpt lat="42.3206" lon="-2.949793">
      <ele>1224.1</ele>
    </trkpt>
    <trkpt lat="42.320647" lon="-2.949971">
      <ele>1225.4</ele>
    </trkpt>
    <trkpt lat="42.320664" lon="-2.950484">
      <ele>1228.5</ele>
    </trkpt>
    <trkpt lat="42.32063" lon="-2.950961">
      <ele>1230.9</ele>
    </trkpt>
    <trkpt lat="42.32068" lon="-2.951179">
      <ele>1231.9</ele>
    </trkpt>
    <trkpt lat="42.320828" lon="-2.951529">
      <ele>1233.5</ele>
    </trkpt>
    <trkpt lat="42.321047" lon="-2.951933">
      <ele>1235.3</ele>
    </trkpt>
    <trkpt lat="42.321147" lon="-2.953218">
      <ele>1240.1</ele>
    </trkpt>
    <trkpt lat="42.32112" lon="-2.95355">
      <ele>1241.1</ele>
    </trkpt>
    <trkpt lat="42.321174" lon="-2.95424">
      <ele>1243.3</ele>
    </trkpt>
    <trkpt lat="42.321067" lon="-2.954486">
      <ele>1244.1</ele>
    </trkpt>
    <trkpt lat="42.320952" lon="-2.955112">
      <ele>1246</ele>
    </trkpt>
    <trkpt lat="42.320862" lon="-2.955376">
      <ele>1246.8</ele>
    </trkpt>
    <trkpt lat="42.320724" lon="-2.956216">
      <ele>1249</ele>
    </trkpt>
    <trkpt lat="42.320539" lon="-2.956907">
      <ele>1249.9</ele>
    </trkpt>
    <trkpt lat="42.320627" lon="-2.957129">
      <ele>1249.6</ele>
    </trkpt>
    <trkpt lat="42.320726" lon="-2.957513">
      <ele>1248.2</ele>
    </trkpt>
    <trkpt lat="42.320514" lon="-2.957517">
      <ele>1246.6</ele>
    </trkpt>
    <trkpt lat="42.320514" lon="-2.957592">
      <ele>1246.1</ele>
    </trkpt>
    <trkpt lat="42.320545" lon="-2.957666">
      <ele>1245.4</ele>
    </trkpt>
    <trkpt lat="42.320642" lon="-2.957903">
      <ele>1243.1</ele>
    </trkpt>
    <trkpt lat="42.320819" lon="-2.957992">
      <ele>1240.4</ele>
    </trkpt>
    <trkpt lat="42.321038" lon="-2.958051">
      <ele>1236.7</ele>
    </trkpt>
    <trkpt lat="42.321066" lon="-2.958091">
      <ele>1236</ele>
    </trkpt>
    <trkpt lat="42.321022" lon="-2.958169">
      <ele>1234.6</ele>
    </trkpt>
    <trkpt lat="42.320934" lon="-2.958601">
      <ele>1227.7</ele>
    </trkpt>
    <trkpt lat="42.320858" lon="-2.958741">
      <ele>1224.7</ele>
    </trkpt>
    <trkpt lat="42.320915" lon="-2.959084">
      <ele>1218.6</ele>
    </trkpt>
    <trkpt lat="42.321079" lon="-2.95953">
      <ele>1209.8</ele>
    </trkpt>
    <trkpt lat="42.32079" lon="-2.96075">
      <ele>1187.3</ele>
    </trkpt>
    <trkpt lat="42.320551" lon="-2.961005">
      <ele>1180.3</ele>
    </trkpt>
    <trkpt lat="42.320431" lon="-2.961266">
      <ele>1175</ele>
    </trkpt>
    <trkpt lat="42.320373" lon="-2.961854">
      <ele>1165.1</ele>
    </trkpt>
    <trkpt lat="42.320224" lon="-2.962431">
      <ele>1155.2</ele>
    </trkpt>
    <trkpt lat="42.320169" lon="-2.962816">
      <ele>1149.1</ele>
    </trkpt>
    <trkpt lat="42.320124" lon="-2.962981">
      <ele>1146.5</ele>
    </trkpt>
    <trkpt lat="42.320116" lon="-2.963183">
      <ele>1143.5</ele>
    </trkpt>
    <trkpt lat="42.319948" lon="-2.963701">
      <ele>1135.3</ele>
    </trkpt>
    <trkpt lat="42.319947" lon="-2.96382">
      <ele>1133.6</ele>
    </trkpt>
    <trkpt lat="42.319979" lon="-2.964062">
      <ele>1130.2</ele>
    </trkpt>
    <trkpt lat="42.319936" lon="-2.964268">
      <ele>1127.3</ele>
    </trkpt>
    <trkpt lat="42.319414" lon="-2.965335">
      <ele>1112.2</ele>
    </trkpt>
    <trkpt lat="42.319285" lon="-2.96551">
      <ele>1109.6</ele>
    </trkpt>
    <trkpt lat="42.319235" lon="-2.965681">
      <ele>1107.7</ele>
    </trkpt>
    <trkpt lat="42.319182" lon="-2.965726">
      <ele>1106.9</ele>
    </trkpt>
    <trkpt lat="42.319144" lon="-2.965765">
      <ele>1106.3</ele>
    </trkpt>
    <trkpt lat="42.319106" lon="-2.965939">
      <ele>1104.6</ele>
    </trkpt>
    <trkpt lat="42.318916" lon="-2.966134">
      <ele>1101.8</ele>
    </trkpt>
    <trkpt lat="42.318946" lon="-2.96617">
      <ele>1101.3</ele>
    </trkpt>
    <trkpt lat="42.318916" lon="-2.966134">
      <ele>1100.9</ele>
    </trkpt>
    <trkpt lat="42.318858" lon="-2.966185">
      <ele>1100.1</ele>
    </trkpt>
    <trkpt lat="42.318816" lon="-2.966255">
      <ele>1099.4</ele>
    </trkpt>
    <trkpt lat="42.318739" lon="-2.96653">
      <ele>1097</ele>
    </trkpt>
    <trkpt lat="42.31863" lon="-2.966637">
      <ele>1095.5</ele>
    </trkpt>
    <trkpt lat="42.318372" lon="-2.966704">
      <ele>1092.2</ele>
    </trkpt>
    <trkpt lat="42.318237" lon="-2.966843">
      <ele>1089.9</ele>
    </trkpt>
    <trkpt lat="42.317897" lon="-2.967386">
      <ele>1083</ele>
    </trkpt>
    <trkpt lat="42.317698" lon="-2.967557">
      <ele>1080.1</ele>
    </trkpt>
    <trkpt lat="42.317549" lon="-2.967797">
      <ele>1077.2</ele>
    </trkpt>
    <trkpt lat="42.317054" lon="-2.968417">
      <ele>1068.9</ele>
    </trkpt>
    <trkpt lat="42.316942" lon="-2.968608">
      <ele>1066.7</ele>
    </trkpt>
    <trkpt lat="42.316902" lon="-2.968744">
      <ele>1065.5</ele>
    </trkpt>
    <trkpt lat="42.316895" lon="-2.968882">
      <ele>1064.4</ele>
    </trkpt>
    <trkpt lat="42.316931" lon="-2.969102">
      <ele>1062.8</ele>
    </trkpt>
    <trkpt lat="42.316998" lon="-2.970606">
      <ele>1049.1</ele>
    </trkpt>
    <trkpt lat="42.317174" lon="-2.971861">
      <ele>1036.1</ele>
    </trkpt>
    <trkpt lat="42.317305" lon="-2.972419">
      <ele>1031</ele>
    </trkpt>
    <trkpt lat="42.317313" lon="-2.97269">
      <ele>1029.1</ele>
    </trkpt>
    <trkpt lat="42.317393" lon="-2.973321">
      <ele>1025.5</ele>
    </trkpt>
    <trkpt lat="42.317422" lon="-2.973864">
      <ele>1022.5</ele>
    </trkpt>
    <trkpt lat="42.317407" lon="-2.973938">
      <ele>1022.1</ele>
    </trkpt>
    <trkpt lat="42.31744" lon="-2.974286">
      <ele>1020</ele>
    </trkpt>
    <trkpt lat="42.317496" lon="-2.974518">
      <ele>1018.5</ele>
    </trkpt>
    <trkpt lat="42.317502" lon="-2.974815">
      <ele>1016.6</ele>
    </trkpt>
    <trkpt lat="42.31754" lon="-2.975086">
      <ele>1014.6</ele>
    </trkpt>
    <trkpt lat="42.317696" lon="-2.975469">
      <ele>1010.9</ele>
    </trkpt>
    <trkpt lat="42.317742" lon="-2.976513">
      <ele>1000.3</ele>
    </trkpt>
    <trkpt lat="42.317772" lon="-2.976718">
      <ele>998.3</ele>
    </trkpt>
    <trkpt lat="42.317762" lon="-2.976839">
      <ele>997.1</ele>
    </trkpt>
    <trkpt lat="42.317748" lon="-2.976999">
      <ele>995.6</ele>
    </trkpt>
    <trkpt lat="42.317635" lon="-2.977492">
      <ele>991</ele>
    </trkpt>
    <trkpt lat="42.317639" lon="-2.977642">
      <ele>989.7</ele>
    </trkpt>
    <trkpt lat="42.317863" lon="-2.978221">
      <ele>984.2</ele>
    </trkpt>
    <trkpt lat="42.318015" lon="-2.978846">
      <ele>979.5</ele>
    </trkpt>
    <trkpt lat="42.318092" lon="-2.9799">
      <ele>971.9</ele>
    </trkpt>
    <trkpt lat="42.318243" lon="-2.980281">
      <ele>969</ele>
    </trkpt>
    <trkpt lat="42.31816" lon="-2.980945">
      <ele>964.6</ele>
    </trkpt>
    <trkpt lat="42.318151" lon="-2.981421">
      <ele>961.8</ele>
    </trkpt>
    <trkpt lat="42.318371" lon="-2.982521">
      <ele>954.9</ele>
    </trkpt>
    <trkpt lat="42.318607" lon="-2.9831">
      <ele>950.4</ele>
    </trkpt>
    <trkpt lat="42.319035" lon="-2.984564">
      <ele>938.3</ele>
    </trkpt>
    <trkpt lat="42.319253" lon="-2.984883">
      <ele>935.1</ele>
    </trkpt>
    <trkpt lat="42.319307" lon="-2.985013">
      <ele>934</ele>
    </trkpt>
    <trkpt lat="42.319378" lon="-2.985541">
      <ele>930</ele>
    </trkpt>
    <trkpt lat="42.319598" lon="-2.986056">
      <ele>925.8</ele>
    </trkpt>
    <trkpt lat="42.319773" lon="-2.986313">
      <ele>923.4</ele>
    </trkpt>
    <trkpt lat="42.319807" lon="-2.986404">
      <ele>922.7</ele>
    </trkpt>
    <trkpt lat="42.31985" lon="-2.986689">
      <ele>920.7</ele>
    </trkpt>
    <trkpt lat="42.320003" lon="-2.987357">
      <ele>916.3</ele>
    </trkpt>
    <trkpt lat="42.320237" lon="-2.987695">
      <ele>913.7</ele>
    </trkpt>
    <trkpt lat="42.320342" lon="-2.987998">
      <ele>912.1</ele>
    </trkpt>
    <trkpt lat="42.320432" lon="-2.988387">
      <ele>910.1</ele>
    </trkpt>
    <trkpt lat="42.320417" lon="-2.988883">
      <ele>907.7</ele>
    </trkpt>
    <trkpt lat="42.32043" lon="-2.989005">
      <ele>907.1</ele>
    </trkpt>
    <trkpt lat="42.320624" lon="-2.989342">
      <ele>905.3</ele>
    </trkpt>
    <trkpt lat="42.320962" lon="-2.990204">
      <ele>901.3</ele>
    </trkpt>
    <trkpt lat="42.321375" lon="-2.990803">
      <ele>897.3</ele>
    </trkpt>
    <trkpt lat="42.321577" lon="-2.991057">
      <ele>895.4</ele>
    </trkpt>
    <trkpt lat="42.322331" lon="-2.991551">
      <ele>890.2</ele>
    </trkpt>
    <trkpt lat="42.32257" lon="-2.991824">
      <ele>888.3</ele>
    </trkpt>
    <trkpt lat="42.322672" lon="-2.991952">
      <ele>887.5</ele>
    </trkpt>
    <trkpt lat="42.322727" lon="-2.99233">
      <ele>886</ele>
    </trkpt>
    <trkpt lat="42.322833" lon="-2.992523">
      <ele>885.2</ele>
    </trkpt>
    <trkpt lat="42.323023" lon="-2.992763">
      <ele>884.2</ele>
    </trkpt>
    <trkpt lat="42.323345" lon="-2.992977">
      <ele>882.9</ele>
    </trkpt>
    <trkpt lat="42.323682" lon="-2.993132">
      <ele>881.7</ele>
    </trkpt>
    <trkpt lat="42.323815" lon="-2.993305">
      <ele>881.1</ele>
    </trkpt>
    <trkpt lat="42.323916" lon="-2.993816">
      <ele>879.7</ele>
    </trkpt>
    <trkpt lat="42.323866" lon="-2.994124">
      <ele>878.8</ele>
    </trkpt>
    <trkpt lat="42.323914" lon="-2.994261">
      <ele>878.3</ele>
    </trkpt>
    <trkpt lat="42.324045" lon="-2.994435">
      <ele>877.5</ele>
    </trkpt>
    <trkpt lat="42.324156" lon="-2.994636">
      <ele>876.6</ele>
    </trkpt>
    <trkpt lat="42.324313" lon="-2.995494">
      <ele>872.4</ele>
    </trkpt>
    <trkpt lat="42.324463" lon="-2.995855">
      <ele>870.2</ele>
    </trkpt>
    <trkpt lat="42.324584" lon="-2.995994">
      <ele>869</ele>
    </trkpt>
    <trkpt lat="42.324624" lon="-2.996128">
      <ele>868.2</ele>
    </trkpt>
    <trkpt lat="42.324942" lon="-2.99673">
      <ele>864</ele>
    </trkpt>
    <trkpt lat="42.325567" lon="-2.998109">
      <ele>855.8</ele>
    </trkpt>
    <trkpt lat="42.325741" lon="-2.998689">
      <ele>853.2</ele>
    </trkpt>
    <trkpt lat="42.325866" lon="-2.999081">
      <ele>851.4</ele>
    </trkpt>
    <trkpt lat="42.326066" lon="-2.999336">
      <ele>849.8</ele>
    </trkpt>
    <trkpt lat="42.32631" lon="-2.999528">
      <ele>848.3</ele>
    </trkpt>
    <trkpt lat="42.32636" lon="-2.999613">
      <ele>847.8</ele>
    </trkpt>
    <trkpt lat="42.326401" lon="-2.999938">
      <ele>846.4</ele>
    </trkpt>
    <trkpt lat="42.326482" lon="-3.000254">
      <ele>845</ele>
    </trkpt>
    <trkpt lat="42.326542" lon="-3.000436">
      <ele>844.3</ele>
    </trkpt>
    <trkpt lat="42.326625" lon="-3.000559">
      <ele>843.7</ele>
    </trkpt>
    <trkpt lat="42.326709" lon="-3.00069">
      <ele>843</ele>
    </trkpt>
    <trkpt lat="42.326887" lon="-3.001171">
      <ele>841</ele>
    </trkpt>
    <trkpt lat="42.32687" lon="-3.001729">
      <ele>838.9</ele>
    </trkpt>
    <trkpt lat="42.326909" lon="-3.001995">
      <ele>838</ele>
    </trkpt>
    <trkpt lat="42.327138" lon="-3.0026">
      <ele>835.4</ele>
    </trkpt>
    <trkpt lat="42.32777" lon="-3.003939">
      <ele>830.2</ele>
    </trkpt>
    <trkpt lat="42.327787" lon="-3.00407">
      <ele>829.8</ele>
    </trkpt>
    <trkpt lat="42.327723" lon="-3.004625">
      <ele>828.5</ele>
    </trkpt>
    <trkpt lat="42.327649" lon="-3.004851">
      <ele>828.1</ele>
    </trkpt>
    <trkpt lat="42.327569" lon="-3.005105">
      <ele>827.6</ele>
    </trkpt>
    <trkpt lat="42.327569" lon="-3.005629">
      <ele>826.9</ele>
    </trkpt>
    <trkpt lat="42.327471" lon="-3.006394">
      <ele>825.1</ele>
    </trkpt>
    <trkpt lat="42.327447" lon="-3.006773">
      <ele>823.6</ele>
    </trkpt>
    <trkpt lat="42.327476" lon="-3.007001">
      <ele>822.6</ele>
    </trkpt>
    <trkpt lat="42.327734" lon="-3.008426">
      <ele>813.7</ele>
    </trkpt>
    <trkpt lat="42.327702" lon="-3.008863">
      <ele>811.3</ele>
    </trkpt>
    <trkpt lat="42.327714" lon="-3.009151">
      <ele>810.1</ele>
    </trkpt>
    <trkpt lat="42.327743" lon="-3.009216">
      <ele>809.9</ele>
    </trkpt>
    <trkpt lat="42.327803" lon="-3.009353">
      <ele>809.3</ele>
    </trkpt>
    <trkpt lat="42.326898" lon="-3.00978">
      <ele>807.3</ele>
    </trkpt>
    <trkpt lat="42.3268" lon="-3.009826">
      <ele>807.4</ele>
    </trkpt>
    <trkpt lat="42.326805" lon="-3.010274">
      <ele>807.9</ele>
    </trkpt>
    <trkpt lat="42.326809" lon="-3.010944">
      <ele>808.7</ele>
    </trkpt>
    <trkpt lat="42.326813" lon="-3.011662">
      <ele>809.1</ele>
    </trkpt>
    <trkpt lat="42.326813" lon="-3.011773">
      <ele>809.2</ele>
    </trkpt>
    <trkpt lat="42.326812" lon="-3.011973">
      <ele>809.3</ele>
    </trkpt>
    <trkpt lat="42.326813" lon="-3.012366">
      <ele>809.5</ele>
    </trkpt>
    <trkpt lat="42.327318" lon="-3.012349">
      <ele>809.6</ele>
    </trkpt>
    <trkpt lat="42.328122" lon="-3.012318">
      <ele>808.6</ele>
    </trkpt>
    <trkpt lat="42.328734" lon="-3.012291">
      <ele>808.1</ele>
    </trkpt>
    <trkpt lat="42.328903" lon="-3.013825">
      <ele>807.6</ele>
    </trkpt>
    <trkpt lat="42.328999" lon="-3.013805">
      <ele>807.6</ele>
    </trkpt>
    <trkpt lat="42.329014" lon="-3.013877">
      <ele>807.7</ele>
    </trkpt>
    <trkpt lat="42.328985" lon="-3.014576">
      <ele>807.7</ele>
    </trkpt>
    <trkpt lat="42.32898" lon="-3.014688">
      <ele>807.7</ele>
    </trkpt>
    <trkpt lat="42.328849" lon="-3.014681">
      <ele>807.7</ele>
    </trkpt>
    <trkpt lat="42.32874" lon="-3.014671">
      <ele>807.8</ele>
    </trkpt>
    <trkpt lat="42.32872" lon="-3.014669">
      <ele>807.8</ele>
    </trkpt>
    <trkpt lat="42.328727" lon="-3.014478">
      <ele>807.8</ele>
    </trkpt>
    <trkpt lat="42.328688" lon="-3.014441">
      <ele>807.8</ele>
    </trkpt>
    <trkpt lat="42.328326" lon="-3.014539">
      <ele>808.1</ele>
    </trkpt>
    <trkpt lat="42.328248" lon="-3.013957">
      <ele>808.4</ele>
    </trkpt>
    <trkpt lat="42.328234" lon="-3.013782">
      <ele>808.4</ele>
    </trkpt>
    <trkpt lat="42.328187" lon="-3.013183">
      <ele>808.6</ele>
    </trkpt>
    <trkpt lat="42.328122" lon="-3.012318">
      <ele>808.9</ele>
    </trkpt>
    <trkpt lat="42.328071" lon="-3.011821">
      <ele>809.1</ele>
    </trkpt>
    <trkpt lat="42.327912" lon="-3.011888">
      <ele>809.2</ele>
    </trkpt>
    <trkpt lat="42.32721" lon="-3.011942">
      <ele>809.3</ele>
    </trkpt>
    <trkpt lat="42.326812" lon="-3.011973">
      <ele>809.1</ele>
    </trkpt>
    <trkpt lat="42.326813" lon="-3.011773">
      <ele>809</ele>
    </trkpt>
    <trkpt lat="42.326813" lon="-3.011662">
      <ele>809</ele>
    </trkpt>
    <trkpt lat="42.326809" lon="-3.010944">
      <ele>808.6</ele>
    </trkpt>
    <trkpt lat="42.326805" lon="-3.010274">
      <ele>807.9</ele>
    </trkpt>
    <trkpt lat="42.3268" lon="-3.009826">
      <ele>807.4</ele>
    </trkpt>
    <trkpt lat="42.327803" lon="-3.009353">
      <ele>809.3</ele>
    </trkpt>
    <trkpt lat="42.327743" lon="-3.009216">
      <ele>809.9</ele>
    </trkpt>
    <trkpt lat="42.327714" lon="-3.009151">
      <ele>810.1</ele>
    </trkpt>
    <trkpt lat="42.327702" lon="-3.008863">
      <ele>811.3</ele>
    </trkpt>
    <trkpt lat="42.327734" lon="-3.008426">
      <ele>813.7</ele>
    </trkpt>
    <trkpt lat="42.327476" lon="-3.007001">
      <ele>822.6</ele>
    </trkpt>
    <trkpt lat="42.327447" lon="-3.006773">
      <ele>823.6</ele>
    </trkpt>
    <trkpt lat="42.327471" lon="-3.006394">
      <ele>825.1</ele>
    </trkpt>
    <trkpt lat="42.327569" lon="-3.005629">
      <ele>826.9</ele>
    </trkpt>
    <trkpt lat="42.327569" lon="-3.005105">
      <ele>827.6</ele>
    </trkpt>
    <trkpt lat="42.327649" lon="-3.004851">
      <ele>828.1</ele>
    </trkpt>
    <trkpt lat="42.327723" lon="-3.004625">
      <ele>828.5</ele>
    </trkpt>
    <trkpt lat="42.327787" lon="-3.00407">
      <ele>829.8</ele>
    </trkpt>
    <trkpt lat="42.32777" lon="-3.003939">
      <ele>830.2</ele>
    </trkpt>
    <trkpt lat="42.327138" lon="-3.0026">
      <ele>835.4</ele>
    </trkpt>
    <trkpt lat="42.326909" lon="-3.001995">
      <ele>838</ele>
    </trkpt>
    <trkpt lat="42.32687" lon="-3.001729">
      <ele>838.9</ele>
    </trkpt>
    <trkpt lat="42.326887" lon="-3.001171">
      <ele>841</ele>
    </trkpt>
    <trkpt lat="42.326709" lon="-3.00069">
      <ele>843</ele>
    </trkpt>
    <trkpt lat="42.326625" lon="-3.000559">
      <ele>843.7</ele>
    </trkpt>
    <trkpt lat="42.326542" lon="-3.000436">
      <ele>844.3</ele>
    </trkpt>
    <trkpt lat="42.326482" lon="-3.000254">
      <ele>845</ele>
    </trkpt>
    <trkpt lat="42.326401" lon="-2.999938">
      <ele>846.4</ele>
    </trkpt>
    <trkpt lat="42.32636" lon="-2.999613">
      <ele>847.8</ele>
    </trkpt>
    <trkpt lat="42.32631" lon="-2.999528">
      <ele>848.3</ele>
    </trkpt>
    <trkpt lat="42.326066" lon="-2.999336">
      <ele>849.8</ele>
    </trkpt>
    <trkpt lat="42.325866" lon="-2.999081">
      <ele>851.4</ele>
    </trkpt>
    <trkpt lat="42.325741" lon="-2.998689">
      <ele>853.2</ele>
    </trkpt>
    <trkpt lat="42.325567" lon="-2.998109">
      <ele>855.8</ele>
    </trkpt>
    <trkpt lat="42.324942" lon="-2.99673">
      <ele>864</ele>
    </trkpt>
    <trkpt lat="42.324624" lon="-2.996128">
      <ele>868.2</ele>
    </trkpt>
    <trkpt lat="42.324584" lon="-2.995994">
      <ele>869</ele>
    </trkpt>
    <trkpt lat="42.324463" lon="-2.995855">
      <ele>870.2</ele>
    </trkpt>
    <trkpt lat="42.324313" lon="-2.995494">
      <ele>872.4</ele>
    </trkpt>
    <trkpt lat="42.324156" lon="-2.994636">
      <ele>876.6</ele>
    </trkpt>
    <trkpt lat="42.324045" lon="-2.994435">
      <ele>877.5</ele>
    </trkpt>
    <trkpt lat="42.323914" lon="-2.994261">
      <ele>878.3</ele>
    </trkpt>
    <trkpt lat="42.323866" lon="-2.994124">
      <ele>878.8</ele>
    </trkpt>
    <trkpt lat="42.323916" lon="-2.993816">
      <ele>879.7</ele>
    </trkpt>
    <trkpt lat="42.323815" lon="-2.993305">
      <ele>881.1</ele>
    </trkpt>
    <trkpt lat="42.323682" lon="-2.993132">
      <ele>881.7</ele>
    </trkpt>
    <trkpt lat="42.323345" lon="-2.992977">
      <ele>882.9</ele>
    </trkpt>
    <trkpt lat="42.323023" lon="-2.992763">
      <ele>884.2</ele>
    </trkpt>
    <trkpt lat="42.322833" lon="-2.992523">
      <ele>885.2</ele>
    </trkpt>
    <trkpt lat="42.322727" lon="-2.99233">
      <ele>886</ele>
    </trkpt>
    <trkpt lat="42.322672" lon="-2.991952">
      <ele>887.5</ele>
    </trkpt>
    <trkpt lat="42.32257" lon="-2.991824">
      <ele>888.3</ele>
    </trkpt>
    <trkpt lat="42.322331" lon="-2.991551">
      <ele>890.2</ele>
    </trkpt>
    <trkpt lat="42.321577" lon="-2.991057">
      <ele>895.4</ele>
    </trkpt>
    <trkpt lat="42.321375" lon="-2.990803">
      <ele>897.3</ele>
    </trkpt>
    <trkpt lat="42.320962" lon="-2.990204">
      <ele>901.3</ele>
    </trkpt>
    <trkpt lat="42.320624" lon="-2.989342">
      <ele>905.3</ele>
    </trkpt>
    <trkpt lat="42.32043" lon="-2.989005">
      <ele>907.1</ele>
    </trkpt>
    <trkpt lat="42.320417" lon="-2.988883">
      <ele>907.7</ele>
    </trkpt>
    <trkpt lat="42.320432" lon="-2.988387">
      <ele>910.1</ele>
    </trkpt>
    <trkpt lat="42.320342" lon="-2.987998">
      <ele>912.1</ele>
    </trkpt>
    <trkpt lat="42.320237" lon="-2.987695">
      <ele>913.7</ele>
    </trkpt>
    <trkpt lat="42.320003" lon="-2.987357">
      <ele>916.3</ele>
    </trkpt>
    <trkpt lat="42.31985" lon="-2.986689">
      <ele>920.7</ele>
    </trkpt>
    <trkpt lat="42.319807" lon="-2.986404">
      <ele>922.7</ele>
    </trkpt>
    <trkpt lat="42.319773" lon="-2.986313">
      <ele>923.4</ele>
    </trkpt>
    <trkpt lat="42.319598" lon="-2.986056">
      <ele>925.8</ele>
    </trkpt>
    <trkpt lat="42.319378" lon="-2.985541">
      <ele>930</ele>
    </trkpt>
    <trkpt lat="42.319307" lon="-2.985013">
      <ele>934</ele>
    </trkpt>
    <trkpt lat="42.319253" lon="-2.984883">
      <ele>935.1</ele>
    </trkpt>
    <trkpt lat="42.319035" lon="-2.984564">
      <ele>938.3</ele>
    </trkpt>
    <trkpt lat="42.318607" lon="-2.9831">
      <ele>950.4</ele>
    </trkpt>
    <trkpt lat="42.318371" lon="-2.982521">
      <ele>954.9</ele>
    </trkpt>
    <trkpt lat="42.318151" lon="-2.981421">
      <ele>961.8</ele>
    </trkpt>
    <trkpt lat="42.31816" lon="-2.980945">
      <ele>964.6</ele>
    </trkpt>
    <trkpt lat="42.318243" lon="-2.980281">
      <ele>969</ele>
    </trkpt>
    <trkpt lat="42.318092" lon="-2.9799">
      <ele>971.9</ele>
    </trkpt>
    <trkpt lat="42.318015" lon="-2.978846">
      <ele>979.5</ele>
    </trkpt>
    <trkpt lat="42.317863" lon="-2.978221">
      <ele>984.2</ele>
    </trkpt>
    <trkpt lat="42.317639" lon="-2.977642">
      <ele>989.7</ele>
    </trkpt>
    <trkpt lat="42.317635" lon="-2.977492">
      <ele>991</ele>
    </trkpt>
    <trkpt lat="42.317748" lon="-2.976999">
      <ele>995.6</ele>
    </trkpt>
    <trkpt lat="42.317772" lon="-2.976718">
      <ele>998.3</ele>
    </trkpt>
    <trkpt lat="42.317742" lon="-2.976513">
      <ele>1000.3</ele>
    </trkpt>
    <trkpt lat="42.317696" lon="-2.975469">
      <ele>1010.9</ele>
    </trkpt>
    <trkpt lat="42.31754" lon="-2.975086">
      <ele>1014.6</ele>
    </trkpt>
    <trkpt lat="42.317502" lon="-2.974815">
      <ele>1016.6</ele>
    </trkpt>
    <trkpt lat="42.317496" lon="-2.974518">
      <ele>1018.5</ele>
    </trkpt>
    <trkpt lat="42.31744" lon="-2.974286">
      <ele>1020</ele>
    </trkpt>
    <trkpt lat="42.317407" lon="-2.973938">
      <ele>1022.1</ele>
    </trkpt>
    <trkpt lat="42.317422" lon="-2.973864">
      <ele>1022.5</ele>
    </trkpt>
    <trkpt lat="42.317393" lon="-2.973321">
      <ele>1025.5</ele>
    </trkpt>
    <trkpt lat="42.317313" lon="-2.97269">
      <ele>1029.1</ele>
    </trkpt>
    <trkpt lat="42.317305" lon="-2.972419">
      <ele>1031</ele>
    </trkpt>
    <trkpt lat="42.317174" lon="-2.971861">
      <ele>1036.1</ele>
    </trkpt>
    <trkpt lat="42.316998" lon="-2.970606">
      <ele>1049.1</ele>
    </trkpt>
    <trkpt lat="42.316931" lon="-2.969102">
      <ele>1062.8</ele>
    </trkpt>
    <trkpt lat="42.316895" lon="-2.968882">
      <ele>1064.4</ele>
    </trkpt>
    <trkpt lat="42.316902" lon="-2.968744">
      <ele>1065.5</ele>
    </trkpt>
    <trkpt lat="42.316942" lon="-2.968608">
      <ele>1066.7</ele>
    </trkpt>
    <trkpt lat="42.317054" lon="-2.968417">
      <ele>1068.9</ele>
    </trkpt>
    <trkpt lat="42.317549" lon="-2.967797">
      <ele>1077.2</ele>
    </trkpt>
    <trkpt lat="42.317698" lon="-2.967557">
      <ele>1080.1</ele>
    </trkpt>
    <trkpt lat="42.317897" lon="-2.967386">
      <ele>1083</ele>
    </trkpt>
    <trkpt lat="42.318237" lon="-2.966843">
      <ele>1089.9</ele>
    </trkpt>
    <trkpt lat="42.318372" lon="-2.966704">
      <ele>1092.3</ele>
    </trkpt>
    <trkpt lat="42.31863" lon="-2.966637">
      <ele>1095.7</ele>
    </trkpt>
    <trkpt lat="42.318739" lon="-2.96653">
      <ele>1097.3</ele>
    </trkpt>
    <trkpt lat="42.318816" lon="-2.966255">
      <ele>1099.8</ele>
    </trkpt>
    <trkpt lat="42.318858" lon="-2.966185">
      <ele>1100.6</ele>
    </trkpt>
    <trkpt lat="42.318916" lon="-2.966134">
      <ele>1101.4</ele>
    </trkpt>
    <trkpt lat="42.319106" lon="-2.965939">
      <ele>1104.3</ele>
    </trkpt>
    <trkpt lat="42.319144" lon="-2.965765">
      <ele>1106</ele>
    </trkpt>
    <trkpt lat="42.319182" lon="-2.965726">
      <ele>1106.6</ele>
    </trkpt>
    <trkpt lat="42.319235" lon="-2.965681">
      <ele>1107.5</ele>
    </trkpt>
    <trkpt lat="42.319285" lon="-2.96551">
      <ele>1109.4</ele>
    </trkpt>
    <trkpt lat="42.319414" lon="-2.965335">
      <ele>1112</ele>
    </trkpt>
    <trkpt lat="42.319936" lon="-2.964268">
      <ele>1127.3</ele>
    </trkpt>
    <trkpt lat="42.319979" lon="-2.964062">
      <ele>1130.2</ele>
    </trkpt>
    <trkpt lat="42.319947" lon="-2.96382">
      <ele>1133.6</ele>
    </trkpt>
    <trkpt lat="42.319948" lon="-2.963701">
      <ele>1135.3</ele>
    </trkpt>
    <trkpt lat="42.320116" lon="-2.963183">
      <ele>1143.5</ele>
    </trkpt>
    <trkpt lat="42.320124" lon="-2.962981">
      <ele>1146.5</ele>
    </trkpt>
    <trkpt lat="42.320169" lon="-2.962816">
      <ele>1149.1</ele>
    </trkpt>
    <trkpt lat="42.320224" lon="-2.962431">
      <ele>1155.2</ele>
    </trkpt>
    <trkpt lat="42.320373" lon="-2.961854">
      <ele>1165.1</ele>
    </trkpt>
    <trkpt lat="42.320431" lon="-2.961266">
      <ele>1175</ele>
    </trkpt>
    <trkpt lat="42.320551" lon="-2.961005">
      <ele>1180.3</ele>
    </trkpt>
    <trkpt lat="42.32079" lon="-2.96075">
      <ele>1187.3</ele>
    </trkpt>
    <trkpt lat="42.321079" lon="-2.95953">
      <ele>1209.8</ele>
    </trkpt>
    <trkpt lat="42.320915" lon="-2.959084">
      <ele>1218.6</ele>
    </trkpt>
    <trkpt lat="42.320858" lon="-2.958741">
      <ele>1224.7</ele>
    </trkpt>
    <trkpt lat="42.320934" lon="-2.958601">
      <ele>1227.7</ele>
    </trkpt>
    <trkpt lat="42.321022" lon="-2.958169">
      <ele>1234.8</ele>
    </trkpt>
    <trkpt lat="42.321066" lon="-2.958091">
      <ele>1236.2</ele>
    </trkpt>
    <trkpt lat="42.321038" lon="-2.958051">
      <ele>1236.9</ele>
    </trkpt>
    <trkpt lat="42.320819" lon="-2.957992">
      <ele>1240.6</ele>
    </trkpt>
    <trkpt lat="42.320642" lon="-2.957903">
      <ele>1243.1</ele>
    </trkpt>
    <trkpt lat="42.320514" lon="-2.957592">
      <ele>1245.6</ele>
    </trkpt>
    <trkpt lat="42.320514" lon="-2.957517">
      <ele>1245.9</ele>
    </trkpt>
    <trkpt lat="42.32043" lon="-2.95741">
      <ele>1246.5</ele>
    </trkpt>
    <trkpt lat="42.320374" lon="-2.9572">
      <ele>1247</ele>
    </trkpt>
    <trkpt lat="42.32031" lon="-2.95696">
      <ele>1246.9</ele>
    </trkpt>
    <trkpt lat="42.32" lon="-2.95658">
      <ele>1244.7</ele>
    </trkpt>
    <trkpt lat="42.319884" lon="-2.956217">
      <ele>1241.6</ele>
    </trkpt>
    <trkpt lat="42.319871" lon="-2.955623">
      <ele>1235.4</ele>
    </trkpt>
    <trkpt lat="42.319983" lon="-2.954348">
      <ele>1220.4</ele>
    </trkpt>
    <trkpt lat="42.319874" lon="-2.953687">
      <ele>1211.7</ele>
    </trkpt>
    <trkpt lat="42.31988" lon="-2.95287">
      <ele>1200.7</ele>
    </trkpt>
    <trkpt lat="42.31979" lon="-2.95253">
      <ele>1195.6</ele>
    </trkpt>
    <trkpt lat="42.31956" lon="-2.95214">
      <ele>1188.6</ele>
    </trkpt>
    <trkpt lat="42.31877" lon="-2.95037">
      <ele>1160.9</ele>
    </trkpt>
    <trkpt lat="42.31858" lon="-2.95012">
      <ele>1156.6</ele>
    </trkpt>
    <trkpt lat="42.3184" lon="-2.94976">
      <ele>1151.5</ele>
    </trkpt>
    <trkpt lat="42.31815" lon="-2.94949">
      <ele>1148.1</ele>
    </trkpt>
    <trkpt lat="42.318" lon="-2.94917">
      <ele>1146.3</ele>
    </trkpt>
    <trkpt lat="42.317776" lon="-2.949041">
      <ele>1145.6</ele>
    </trkpt>
    <trkpt lat="42.317696" lon="-2.948903">
      <ele>1145.4</ele>
    </trkpt>
    <trkpt lat="42.318024" lon="-2.948571">
      <ele>1146.2</ele>
    </trkpt>
    <trkpt lat="42.318098" lon="-2.948367">
      <ele>1146.9</ele>
    </trkpt>
    <trkpt lat="42.318249" lon="-2.94824">
      <ele>1147.8</ele>
    </trkpt>
    <trkpt lat="42.318323" lon="-2.947904">
      <ele>1149.8</ele>
    </trkpt>
    <trkpt lat="42.318366" lon="-2.94715">
      <ele>1155.3</ele>
    </trkpt>
    <trkpt lat="42.318279" lon="-2.946605">
      <ele>1159.2</ele>
    </trkpt>
    <trkpt lat="42.318158" lon="-2.94625">
      <ele>1162.3</ele>
    </trkpt>
    <trkpt lat="42.318135" lon="-2.945978">
      <ele>1164.7</ele>
    </trkpt>
    <trkpt lat="42.318296" lon="-2.945896">
      <ele>1166.9</ele>
    </trkpt>
    <trkpt lat="42.319015" lon="-2.946187">
      <ele>1177.7</ele>
    </trkpt>
    <trkpt lat="42.319273" lon="-2.946369">
      <ele>1182.4</ele>
    </trkpt>
    <trkpt lat="42.319619" lon="-2.947172">
      <ele>1192</ele>
    </trkpt>
    <trkpt lat="42.319864" lon="-2.947572">
      <ele>1195.6</ele>
    </trkpt>
    <trkpt lat="42.319889" lon="-2.947641">
      <ele>1196.1</ele>
    </trkpt>
    </trkseg>
  </trk>
</gpx>
