<?xml version="1.0" encoding="UTF-8"?>
<gpx version="1.1" creator="fitAI Komoot downloader" xmlns="http://www.topografix.com/GPX/1/1">
  <metadata>
    <name>Ascensión al Toloño desde Labastida — Sierra de Toloño</name>
    <desc>35 visitas · Dificultad: difficult · Distancia: 18.6 km · Desnivel +: 718 m</desc>
    <link href="https://www.komoot.com/smarttour/e1497797950"><text>Komoot</text></link>
  </metadata>
  <trk>
    <name>Ascensión al Toloño desde Labastida — Sierra de Toloño</name>
    <type>hike</type>
    <trkseg>
    <trkpt lat="42.589056" lon="-2.791157">
      <ele>539.2</ele>
    </trkpt>
    <trkpt lat="42.589082" lon="-2.791311">
      <ele>539.4</ele>
    </trkpt>
    <trkpt lat="42.588991" lon="-2.791359">
      <ele>539.5</ele>
    </trkpt>
    <trkpt lat="42.589124" lon="-2.791606">
      <ele>539.9</ele>
    </trkpt>
    <trkpt lat="42.589486" lon="-2.792006">
      <ele>541.6</ele>
    </trkpt>
    <trkpt lat="42.589686" lon="-2.792184">
      <ele>542.3</ele>
    </trkpt>
    <trkpt lat="42.589942" lon="-2.792401">
      <ele>543.4</ele>
    </trkpt>
    <trkpt lat="42.590116" lon="-2.792547">
      <ele>544.5</ele>
    </trkpt>
    <trkpt lat="42.59015" lon="-2.792523">
      <ele>544.7</ele>
    </trkpt>
    <trkpt lat="42.590459" lon="-2.792769">
      <ele>546.7</ele>
    </trkpt>
    <trkpt lat="42.590595" lon="-2.792854">
      <ele>547.7</ele>
    </trkpt>
    <trkpt lat="42.590719" lon="-2.79285">
      <ele>548.7</ele>
    </trkpt>
    <trkpt lat="42.590856" lon="-2.793059">
      <ele>550.3</ele>
    </trkpt>
    <trkpt lat="42.590983" lon="-2.793239">
      <ele>552.1</ele>
    </trkpt>
    <trkpt lat="42.591219" lon="-2.793476">
      <ele>555.1</ele>
    </trkpt>
    <trkpt lat="42.591273" lon="-2.793515">
      <ele>555.7</ele>
    </trkpt>
    <trkpt lat="42.59136" lon="-2.793464">
      <ele>556.7</ele>
    </trkpt>
    <trkpt lat="42.591413" lon="-2.793466">
      <ele>557.2</ele>
    </trkpt>
    <trkpt lat="42.591477" lon="-2.793217">
      <ele>559.3</ele>
    </trkpt>
    <trkpt lat="42.591492" lon="-2.793157">
      <ele>559.7</ele>
    </trkpt>
    <trkpt lat="42.591548" lon="-2.792959">
      <ele>561.2</ele>
    </trkpt>
    <trkpt lat="42.591536" lon="-2.792818">
      <ele>562.2</ele>
    </trkpt>
    <trkpt lat="42.591589" lon="-2.792782">
      <ele>562.8</ele>
    </trkpt>
    <trkpt lat="42.591575" lon="-2.792718">
      <ele>563.1</ele>
    </trkpt>
    <trkpt lat="42.59164" lon="-2.792066">
      <ele>566.9</ele>
    </trkpt>
    <trkpt lat="42.591697" lon="-2.791926">
      <ele>567.8</ele>
    </trkpt>
    <trkpt lat="42.592005" lon="-2.79158">
      <ele>570.4</ele>
    </trkpt>
    <trkpt lat="42.592095" lon="-2.791301">
      <ele>571.7</ele>
    </trkpt>
    <trkpt lat="42.592123" lon="-2.791049">
      <ele>572.6</ele>
    </trkpt>
    <trkpt lat="42.592155" lon="-2.790965">
      <ele>572.9</ele>
    </trkpt>
    <trkpt lat="42.592382" lon="-2.790703">
      <ele>574.1</ele>
    </trkpt>
    <trkpt lat="42.592622" lon="-2.790569">
      <ele>574.9</ele>
    </trkpt>
    <trkpt lat="42.592932" lon="-2.790517">
      <ele>575.6</ele>
    </trkpt>
    <trkpt lat="42.593204" lon="-2.790431">
      <ele>576.1</ele>
    </trkpt>
    <trkpt lat="42.59354" lon="-2.790434">
      <ele>576.5</ele>
    </trkpt>
    <trkpt lat="42.593838" lon="-2.790492">
      <ele>576.9</ele>
    </trkpt>
    <trkpt lat="42.59393" lon="-2.790472">
      <ele>577.1</ele>
    </trkpt>
    <trkpt lat="42.594045" lon="-2.79043">
      <ele>577.1</ele>
    </trkpt>
    <trkpt lat="42.594433" lon="-2.790173">
      <ele>577.4</ele>
    </trkpt>
    <trkpt lat="42.594844" lon="-2.789748">
      <ele>577.6</ele>
    </trkpt>
    <trkpt lat="42.595002" lon="-2.789647">
      <ele>577.5</ele>
    </trkpt>
    <trkpt lat="42.595174" lon="-2.789577">
      <ele>577.8</ele>
    </trkpt>
    <trkpt lat="42.595632" lon="-2.789579">
      <ele>578</ele>
    </trkpt>
    <trkpt lat="42.595962" lon="-2.789614">
      <ele>578.5</ele>
    </trkpt>
    <trkpt lat="42.596171" lon="-2.789674">
      <ele>578.8</ele>
    </trkpt>
    <trkpt lat="42.596572" lon="-2.789879">
      <ele>579.4</ele>
    </trkpt>
    <trkpt lat="42.596685" lon="-2.789908">
      <ele>579.5</ele>
    </trkpt>
    <trkpt lat="42.596792" lon="-2.789903">
      <ele>579.6</ele>
    </trkpt>
    <trkpt lat="42.597447" lon="-2.789718">
      <ele>581.4</ele>
    </trkpt>
    <trkpt lat="42.597582" lon="-2.789582">
      <ele>582.1</ele>
    </trkpt>
    <trkpt lat="42.597932" lon="-2.789117">
      <ele>584.5</ele>
    </trkpt>
    <trkpt lat="42.598064" lon="-2.788996">
      <ele>585.3</ele>
    </trkpt>
    <trkpt lat="42.598684" lon="-2.788682">
      <ele>588.3</ele>
    </trkpt>
    <trkpt lat="42.598858" lon="-2.788562">
      <ele>589.2</ele>
    </trkpt>
    <trkpt lat="42.599108" lon="-2.788325">
      <ele>590.4</ele>
    </trkpt>
    <trkpt lat="42.599959" lon="-2.787835">
      <ele>593.3</ele>
    </trkpt>
    <trkpt lat="42.60024" lon="-2.787542">
      <ele>594</ele>
    </trkpt>
    <trkpt lat="42.600707" lon="-2.786657">
      <ele>595.2</ele>
    </trkpt>
    <trkpt lat="42.600847" lon="-2.786456">
      <ele>595.5</ele>
    </trkpt>
    <trkpt lat="42.601082" lon="-2.786217">
      <ele>596</ele>
    </trkpt>
    <trkpt lat="42.601661" lon="-2.785519">
      <ele>597.7</ele>
    </trkpt>
    <trkpt lat="42.602021" lon="-2.785141">
      <ele>599.4</ele>
    </trkpt>
    <trkpt lat="42.602683" lon="-2.784513">
      <ele>603.7</ele>
    </trkpt>
    <trkpt lat="42.603493" lon="-2.783795">
      <ele>610.8</ele>
    </trkpt>
    <trkpt lat="42.604071" lon="-2.783368">
      <ele>616.6</ele>
    </trkpt>
    <trkpt lat="42.604107" lon="-2.783457">
      <ele>617.3</ele>
    </trkpt>
    <trkpt lat="42.604428" lon="-2.783312">
      <ele>620.5</ele>
    </trkpt>
    <trkpt lat="42.605327" lon="-2.783383">
      <ele>628.7</ele>
    </trkpt>
    <trkpt lat="42.605699" lon="-2.783346">
      <ele>632.2</ele>
    </trkpt>
    <trkpt lat="42.605794" lon="-2.783288">
      <ele>633.1</ele>
    </trkpt>
    <trkpt lat="42.606631" lon="-2.783316">
      <ele>640.7</ele>
    </trkpt>
    <trkpt lat="42.6074" lon="-2.783078">
      <ele>647.8</ele>
    </trkpt>
    <trkpt lat="42.608158" lon="-2.782998">
      <ele>655.3</ele>
    </trkpt>
    <trkpt lat="42.609041" lon="-2.782966">
      <ele>665.7</ele>
    </trkpt>
    <trkpt lat="42.609473" lon="-2.782842">
      <ele>671.5</ele>
    </trkpt>
    <trkpt lat="42.610116" lon="-2.782726">
      <ele>680.7</ele>
    </trkpt>
    <trkpt lat="42.61055" lon="-2.782597">
      <ele>687.2</ele>
    </trkpt>
    <trkpt lat="42.610662" lon="-2.782532">
      <ele>689</ele>
    </trkpt>
    <trkpt lat="42.610785" lon="-2.782394">
      <ele>691.5</ele>
    </trkpt>
    <trkpt lat="42.610933" lon="-2.782283">
      <ele>693.9</ele>
    </trkpt>
    <trkpt lat="42.611274" lon="-2.782151">
      <ele>699.7</ele>
    </trkpt>
    <trkpt lat="42.6114" lon="-2.78218">
      <ele>701.8</ele>
    </trkpt>
    <trkpt lat="42.611611" lon="-2.782325">
      <ele>705.7</ele>
    </trkpt>
    <trkpt lat="42.612286" lon="-2.78299">
      <ele>720.7</ele>
    </trkpt>
    <trkpt lat="42.612286" lon="-2.783165">
      <ele>722.9</ele>
    </trkpt>
    <trkpt lat="42.612314" lon="-2.783216">
      <ele>723.7</ele>
    </trkpt>
    <trkpt lat="42.612363" lon="-2.783231">
      <ele>724.8</ele>
    </trkpt>
    <trkpt lat="42.612513" lon="-2.783621">
      <ele>730.6</ele>
    </trkpt>
    <trkpt lat="42.612798" lon="-2.784044">
      <ele>739.1</ele>
    </trkpt>
    <trkpt lat="42.612903" lon="-2.784112">
      <ele>741.6</ele>
    </trkpt>
    <trkpt lat="42.613149" lon="-2.784551">
      <ele>750.9</ele>
    </trkpt>
    <trkpt lat="42.613205" lon="-2.784531">
      <ele>752.3</ele>
    </trkpt>
    <trkpt lat="42.613338" lon="-2.78465">
      <ele>756.4</ele>
    </trkpt>
    <trkpt lat="42.613523" lon="-2.784906">
      <ele>763.2</ele>
    </trkpt>
    <trkpt lat="42.613622" lon="-2.78498">
      <ele>766.2</ele>
    </trkpt>
    <trkpt lat="42.614055" lon="-2.785079">
      <ele>777.6</ele>
    </trkpt>
    <trkpt lat="42.614369" lon="-2.785027">
      <ele>785</ele>
    </trkpt>
    <trkpt lat="42.614881" lon="-2.785259">
      <ele>797</ele>
    </trkpt>
    <trkpt lat="42.615369" lon="-2.78534">
      <ele>807.7</ele>
    </trkpt>
    <trkpt lat="42.615615" lon="-2.785473">
      <ele>813.4</ele>
    </trkpt>
    <trkpt lat="42.616078" lon="-2.785802">
      <ele>823.2</ele>
    </trkpt>
    <trkpt lat="42.616231" lon="-2.785808">
      <ele>826</ele>
    </trkpt>
    <trkpt lat="42.616688" lon="-2.785993">
      <ele>833.3</ele>
    </trkpt>
    <trkpt lat="42.616798" lon="-2.786001">
      <ele>834.8</ele>
    </trkpt>
    <trkpt lat="42.616964" lon="-2.785934">
      <ele>837.4</ele>
    </trkpt>
    <trkpt lat="42.617232" lon="-2.785491">
      <ele>843.8</ele>
    </trkpt>
    <trkpt lat="42.617288" lon="-2.785237">
      <ele>847.1</ele>
    </trkpt>
    <trkpt lat="42.617504" lon="-2.784448">
      <ele>858.1</ele>
    </trkpt>
    <trkpt lat="42.617523" lon="-2.784295">
      <ele>860</ele>
    </trkpt>
    <trkpt lat="42.61804" lon="-2.783339">
      <ele>875.1</ele>
    </trkpt>
    <trkpt lat="42.618085" lon="-2.783199">
      <ele>876.8</ele>
    </trkpt>
    <trkpt lat="42.618104" lon="-2.782994">
      <ele>879.3</ele>
    </trkpt>
    <trkpt lat="42.618188" lon="-2.782845">
      <ele>881.9</ele>
    </trkpt>
    <trkpt lat="42.618198" lon="-2.782503">
      <ele>886.1</ele>
    </trkpt>
    <trkpt lat="42.618244" lon="-2.782333">
      <ele>888.5</ele>
    </trkpt>
    <trkpt lat="42.618383" lon="-2.782035">
      <ele>892.8</ele>
    </trkpt>
    <trkpt lat="42.618397" lon="-2.781878">
      <ele>894.8</ele>
    </trkpt>
    <trkpt lat="42.618304" lon="-2.781261">
      <ele>902.4</ele>
    </trkpt>
    <trkpt lat="42.618375" lon="-2.780688">
      <ele>909.9</ele>
    </trkpt>
    <trkpt lat="42.618459" lon="-2.780403">
      <ele>914</ele>
    </trkpt>
    <trkpt lat="42.618717" lon="-2.7797">
      <ele>924.5</ele>
    </trkpt>
    <trkpt lat="42.61906" lon="-2.779014">
      <ele>935.2</ele>
    </trkpt>
    <trkpt lat="42.619116" lon="-2.778455">
      <ele>942.6</ele>
    </trkpt>
    <trkpt lat="42.619169" lon="-2.7782">
      <ele>946.3</ele>
    </trkpt>
    <trkpt lat="42.619392" lon="-2.777599">
      <ele>956.6</ele>
    </trkpt>
    <trkpt lat="42.619581" lon="-2.777381">
      <ele>962.5</ele>
    </trkpt>
    <trkpt lat="42.61973" lon="-2.777166">
      <ele>968.1</ele>
    </trkpt>
    <trkpt lat="42.619783" lon="-2.777089">
      <ele>969.9</ele>
    </trkpt>
    <trkpt lat="42.620168" lon="-2.776368">
      <ele>986.6</ele>
    </trkpt>
    <trkpt lat="42.620249" lon="-2.776257">
      <ele>989.3</ele>
    </trkpt>
    <trkpt lat="42.620499" lon="-2.775606">
      <ele>1003.8</ele>
    </trkpt>
    <trkpt lat="42.620508" lon="-2.77551">
      <ele>1005.6</ele>
    </trkpt>
    <trkpt lat="42.620662" lon="-2.775324">
      <ele>1011.3</ele>
    </trkpt>
    <trkpt lat="42.620935" lon="-2.774787">
      <ele>1023.9</ele>
    </trkpt>
    <trkpt lat="42.620911" lon="-2.774682">
      <ele>1026.1</ele>
    </trkpt>
    <trkpt lat="42.620818" lon="-2.774577">
      <ele>1029.1</ele>
    </trkpt>
    <trkpt lat="42.620533" lon="-2.774124">
      <ele>1040.5</ele>
    </trkpt>
    <trkpt lat="42.620416" lon="-2.77413">
      <ele>1043.1</ele>
    </trkpt>
    <trkpt lat="42.620425" lon="-2.774068">
      <ele>1044.2</ele>
    </trkpt>
    <trkpt lat="42.620312" lon="-2.773999">
      <ele>1046.8</ele>
    </trkpt>
    <trkpt lat="42.620262" lon="-2.773693">
      <ele>1051.8</ele>
    </trkpt>
    <trkpt lat="42.62016" lon="-2.773701">
      <ele>1053.8</ele>
    </trkpt>
    <trkpt lat="42.620262" lon="-2.773693">
      <ele>1056.1</ele>
    </trkpt>
    <trkpt lat="42.620268" lon="-2.773697">
      <ele>1056.2</ele>
    </trkpt>
    <trkpt lat="42.620328" lon="-2.77374">
      <ele>1057.4</ele>
    </trkpt>
    <trkpt lat="42.620652" lon="-2.773528">
      <ele>1064.6</ele>
    </trkpt>
    <trkpt lat="42.620846" lon="-2.77344">
      <ele>1068.6</ele>
    </trkpt>
    <trkpt lat="42.620866" lon="-2.773393">
      <ele>1069.4</ele>
    </trkpt>
    <trkpt lat="42.620826" lon="-2.773327">
      <ele>1070.7</ele>
    </trkpt>
    <trkpt lat="42.620786" lon="-2.77316">
      <ele>1073.3</ele>
    </trkpt>
    <trkpt lat="42.620624" lon="-2.772489">
      <ele>1082.6</ele>
    </trkpt>
    <trkpt lat="42.620573" lon="-2.771959">
      <ele>1089.7</ele>
    </trkpt>
    <trkpt lat="42.62059" lon="-2.771828">
      <ele>1091.6</ele>
    </trkpt>
    <trkpt lat="42.620452" lon="-2.771309">
      <ele>1099.2</ele>
    </trkpt>
    <trkpt lat="42.620466" lon="-2.771075">
      <ele>1102.8</ele>
    </trkpt>
    <trkpt lat="42.620416" lon="-2.770953">
      <ele>1105.1</ele>
    </trkpt>
    <trkpt lat="42.62037" lon="-2.770449">
      <ele>1113.8</ele>
    </trkpt>
    <trkpt lat="42.620334" lon="-2.770356">
      <ele>1115.7</ele>
    </trkpt>
    <trkpt lat="42.620324" lon="-2.770021">
      <ele>1121.6</ele>
    </trkpt>
    <trkpt lat="42.620286" lon="-2.769673">
      <ele>1128.3</ele>
    </trkpt>
    <trkpt lat="42.62032" lon="-2.769567">
      <ele>1130.5</ele>
    </trkpt>
    <trkpt lat="42.620358" lon="-2.769564">
      <ele>1131.5</ele>
    </trkpt>
    <trkpt lat="42.620392" lon="-2.769611">
      <ele>1132.9</ele>
    </trkpt>
    <trkpt lat="42.620492" lon="-2.76966">
      <ele>1135.7</ele>
    </trkpt>
    <trkpt lat="42.620587" lon="-2.769667">
      <ele>1138</ele>
    </trkpt>
    <trkpt lat="42.620723" lon="-2.769559">
      <ele>1142.3</ele>
    </trkpt>
    <trkpt lat="42.620829" lon="-2.769203">
      <ele>1149.5</ele>
    </trkpt>
    <trkpt lat="42.62089" lon="-2.769032">
      <ele>1153.1</ele>
    </trkpt>
    <trkpt lat="42.621115" lon="-2.768717">
      <ele>1160.4</ele>
    </trkpt>
    <trkpt lat="42.621245" lon="-2.768668">
      <ele>1163.1</ele>
    </trkpt>
    <trkpt lat="42.621278" lon="-2.768673">
      <ele>1163.9</ele>
    </trkpt>
    <trkpt lat="42.621296" lon="-2.76872">
      <ele>1164.7</ele>
    </trkpt>
    <trkpt lat="42.621365" lon="-2.768665">
      <ele>1166.5</ele>
    </trkpt>
    <trkpt lat="42.621459" lon="-2.768702">
      <ele>1168.7</ele>
    </trkpt>
    <trkpt lat="42.621521" lon="-2.768964">
      <ele>1172.5</ele>
    </trkpt>
    <trkpt lat="42.621545" lon="-2.768953">
      <ele>1173</ele>
    </trkpt>
    <trkpt lat="42.621648" lon="-2.768949">
      <ele>1175</ele>
    </trkpt>
    <trkpt lat="42.621681" lon="-2.76892">
      <ele>1175.6</ele>
    </trkpt>
    <trkpt lat="42.621762" lon="-2.768975">
      <ele>1176.7</ele>
    </trkpt>
    <trkpt lat="42.62181" lon="-2.768965">
      <ele>1177.4</ele>
    </trkpt>
    <trkpt lat="42.621679" lon="-2.768606">
      <ele>1181.4</ele>
    </trkpt>
    <trkpt lat="42.621652" lon="-2.768531">
      <ele>1182.1</ele>
    </trkpt>
    <trkpt lat="42.621532" lon="-2.768296">
      <ele>1184.8</ele>
    </trkpt>
    <trkpt lat="42.621445" lon="-2.768172">
      <ele>1186</ele>
    </trkpt>
    <trkpt lat="42.621553" lon="-2.768247">
      <ele>1187.5</ele>
    </trkpt>
    <trkpt lat="42.621601" lon="-2.768238">
      <ele>1188.3</ele>
    </trkpt>
    <trkpt lat="42.621716" lon="-2.768184">
      <ele>1189.6</ele>
    </trkpt>
    <trkpt lat="42.621816" lon="-2.767915">
      <ele>1191.7</ele>
    </trkpt>
    <trkpt lat="42.621937" lon="-2.767813">
      <ele>1193.1</ele>
    </trkpt>
    <trkpt lat="42.622049" lon="-2.767638">
      <ele>1194.9</ele>
    </trkpt>
    <trkpt lat="42.622293" lon="-2.767057">
      <ele>1200.9</ele>
    </trkpt>
    <trkpt lat="42.622303" lon="-2.766804">
      <ele>1203.5</ele>
    </trkpt>
    <trkpt lat="42.622369" lon="-2.766628">
      <ele>1206.4</ele>
    </trkpt>
    <trkpt lat="42.622274" lon="-2.766064">
      <ele>1213</ele>
    </trkpt>
    <trkpt lat="42.622282" lon="-2.76594">
      <ele>1214.3</ele>
    </trkpt>
    <trkpt lat="42.62224" lon="-2.765827">
      <ele>1215.6</ele>
    </trkpt>
    <trkpt lat="42.62232" lon="-2.765814">
      <ele>1216.6</ele>
    </trkpt>
    <trkpt lat="42.622332" lon="-2.765728">
      <ele>1217.3</ele>
    </trkpt>
    <trkpt lat="42.622312" lon="-2.765675">
      <ele>1217.7</ele>
    </trkpt>
    <trkpt lat="42.622363" lon="-2.765616">
      <ele>1218.8</ele>
    </trkpt>
    <trkpt lat="42.622386" lon="-2.765307">
      <ele>1221.9</ele>
    </trkpt>
    <trkpt lat="42.622476" lon="-2.764876">
      <ele>1225.7</ele>
    </trkpt>
    <trkpt lat="42.622646" lon="-2.764632">
      <ele>1227.9</ele>
    </trkpt>
    <trkpt lat="42.622779" lon="-2.764391">
      <ele>1229.3</ele>
    </trkpt>
    <trkpt lat="42.622789" lon="-2.764321">
      <ele>1229.8</ele>
    </trkpt>
    <trkpt lat="42.622829" lon="-2.764243">
      <ele>1230.3</ele>
    </trkpt>
    <trkpt lat="42.622815" lon="-2.764013">
      <ele>1231.3</ele>
    </trkpt>
    <trkpt lat="42.622859" lon="-2.76399">
      <ele>1231.4</ele>
    </trkpt>
    <trkpt lat="42.622815" lon="-2.764013">
      <ele>1231.8</ele>
    </trkpt>
    <trkpt lat="42.622829" lon="-2.764243">
      <ele>1232.5</ele>
    </trkpt>
    <trkpt lat="42.622789" lon="-2.764321">
      <ele>1232.7</ele>
    </trkpt>
    <trkpt lat="42.622705" lon="-2.76423">
      <ele>1233</ele>
    </trkpt>
    <trkpt lat="42.622629" lon="-2.764215">
      <ele>1233.2</ele>
    </trkpt>
    <trkpt lat="42.622532" lon="-2.76411">
      <ele>1233.3</ele>
    </trkpt>
    <trkpt lat="42.622301" lon="-2.763616">
      <ele>1233</ele>
    </trkpt>
    <trkpt lat="42.622107" lon="-2.763444">
      <ele>1232.7</ele>
    </trkpt>
    <trkpt lat="42.621707" lon="-2.762819">
      <ele>1233.1</ele>
    </trkpt>
    <trkpt lat="42.621559" lon="-2.762649">
      <ele>1232.5</ele>
    </trkpt>
    <trkpt lat="42.621482" lon="-2.7625">
      <ele>1232.3</ele>
    </trkpt>
    <trkpt lat="42.621399" lon="-2.762218">
      <ele>1231.6</ele>
    </trkpt>
    <trkpt lat="42.621305" lon="-2.762013">
      <ele>1231.1</ele>
    </trkpt>
    <trkpt lat="42.621164" lon="-2.761865">
      <ele>1230.2</ele>
    </trkpt>
    <trkpt lat="42.62113" lon="-2.761761">
      <ele>1229.8</ele>
    </trkpt>
    <trkpt lat="42.621091" lon="-2.76164">
      <ele>1229.3</ele>
    </trkpt>
    <trkpt lat="42.621044" lon="-2.761686">
      <ele>1228.9</ele>
    </trkpt>
    <trkpt lat="42.620922" lon="-2.761592">
      <ele>1227.8</ele>
    </trkpt>
    <trkpt lat="42.620881" lon="-2.761436">
      <ele>1226.9</ele>
    </trkpt>
    <trkpt lat="42.620825" lon="-2.76135">
      <ele>1226.2</ele>
    </trkpt>
    <trkpt lat="42.620813" lon="-2.761286">
      <ele>1225.8</ele>
    </trkpt>
    <trkpt lat="42.620758" lon="-2.761224">
      <ele>1225.1</ele>
    </trkpt>
    <trkpt lat="42.6207" lon="-2.761011">
      <ele>1223.5</ele>
    </trkpt>
    <trkpt lat="42.620613" lon="-2.760846">
      <ele>1221.9</ele>
    </trkpt>
    <trkpt lat="42.62063" lon="-2.760688">
      <ele>1220.6</ele>
    </trkpt>
    <trkpt lat="42.620687" lon="-2.760701">
      <ele>1219.9</ele>
    </trkpt>
    <trkpt lat="42.620765" lon="-2.760672">
      <ele>1219</ele>
    </trkpt>
    <trkpt lat="42.620789" lon="-2.760633">
      <ele>1218.5</ele>
    </trkpt>
    <trkpt lat="42.62076" lon="-2.760347">
      <ele>1215.9</ele>
    </trkpt>
    <trkpt lat="42.620776" lon="-2.760273">
      <ele>1215.2</ele>
    </trkpt>
    <trkpt lat="42.620784" lon="-2.760234">
      <ele>1214.8</ele>
    </trkpt>
    <trkpt lat="42.620721" lon="-2.760085">
      <ele>1213.1</ele>
    </trkpt>
    <trkpt lat="42.620763" lon="-2.759872">
      <ele>1210.7</ele>
    </trkpt>
    <trkpt lat="42.620715" lon="-2.759724">
      <ele>1209</ele>
    </trkpt>
    <trkpt lat="42.62065" lon="-2.759674">
      <ele>1207.9</ele>
    </trkpt>
    <trkpt lat="42.620609" lon="-2.759707">
      <ele>1207.2</ele>
    </trkpt>
    <trkpt lat="42.620469" lon="-2.759458">
      <ele>1203.9</ele>
    </trkpt>
    <trkpt lat="42.620344" lon="-2.759306">
      <ele>1201.5</ele>
    </trkpt>
    <trkpt lat="42.620281" lon="-2.759293">
      <ele>1200.5</ele>
    </trkpt>
    <trkpt lat="42.620244" lon="-2.759144">
      <ele>1198.9</ele>
    </trkpt>
    <trkpt lat="42.620166" lon="-2.759058">
      <ele>1197.4</ele>
    </trkpt>
    <trkpt lat="42.620146" lon="-2.758866">
      <ele>1195.4</ele>
    </trkpt>
    <trkpt lat="42.62006" lon="-2.758684">
      <ele>1193</ele>
    </trkpt>
    <trkpt lat="42.62" lon="-2.758636">
      <ele>1192.1</ele>
    </trkpt>
    <trkpt lat="42.619971" lon="-2.758575">
      <ele>1191.3</ele>
    </trkpt>
    <trkpt lat="42.619972" lon="-2.758444">
      <ele>1189.9</ele>
    </trkpt>
    <trkpt lat="42.619925" lon="-2.758272">
      <ele>1188.1</ele>
    </trkpt>
    <trkpt lat="42.619929" lon="-2.758039">
      <ele>1185.8</ele>
    </trkpt>
    <trkpt lat="42.619913" lon="-2.757975">
      <ele>1185.1</ele>
    </trkpt>
    <trkpt lat="42.619968" lon="-2.757738">
      <ele>1182.5</ele>
    </trkpt>
    <trkpt lat="42.620046" lon="-2.757645">
      <ele>1181.1</ele>
    </trkpt>
    <trkpt lat="42.620064" lon="-2.75752">
      <ele>1179.8</ele>
    </trkpt>
    <trkpt lat="42.620232" lon="-2.757173">
      <ele>1175.7</ele>
    </trkpt>
    <trkpt lat="42.620355" lon="-2.756881">
      <ele>1172.2</ele>
    </trkpt>
    <trkpt lat="42.620336" lon="-2.756285">
      <ele>1166.2</ele>
    </trkpt>
    <trkpt lat="42.620584" lon="-2.755773">
      <ele>1159.3</ele>
    </trkpt>
    <trkpt lat="42.620582" lon="-2.755707">
      <ele>1158.5</ele>
    </trkpt>
    <trkpt lat="42.620768" lon="-2.755155">
      <ele>1151.9</ele>
    </trkpt>
    <trkpt lat="42.620724" lon="-2.754724">
      <ele>1147.5</ele>
    </trkpt>
    <trkpt lat="42.620687" lon="-2.754609">
      <ele>1146.2</ele>
    </trkpt>
    <trkpt lat="42.620728" lon="-2.754405">
      <ele>1144.2</ele>
    </trkpt>
    <trkpt lat="42.62077" lon="-2.754345">
      <ele>1143.4</ele>
    </trkpt>
    <trkpt lat="42.62082" lon="-2.754">
      <ele>1139.9</ele>
    </trkpt>
    <trkpt lat="42.620922" lon="-2.753989">
      <ele>1138.6</ele>
    </trkpt>
    <trkpt lat="42.620983" lon="-2.754071">
      <ele>1137.5</ele>
    </trkpt>
    <trkpt lat="42.62122" lon="-2.754165">
      <ele>1134.5</ele>
    </trkpt>
    <trkpt lat="42.621364" lon="-2.754343">
      <ele>1132.2</ele>
    </trkpt>
    <trkpt lat="42.621409" lon="-2.754548">
      <ele>1130.5</ele>
    </trkpt>
    <trkpt lat="42.621463" lon="-2.754611">
      <ele>1129.5</ele>
    </trkpt>
    <trkpt lat="42.621521" lon="-2.754746">
      <ele>1128.2</ele>
    </trkpt>
    <trkpt lat="42.621559" lon="-2.754922">
      <ele>1126.8</ele>
    </trkpt>
    <trkpt lat="42.621706" lon="-2.755607">
      <ele>1120.9</ele>
    </trkpt>
    <trkpt lat="42.621919" lon="-2.755858">
      <ele>1118.1</ele>
    </trkpt>
    <trkpt lat="42.62209" lon="-2.756149">
      <ele>1115.4</ele>
    </trkpt>
    <trkpt lat="42.622746" lon="-2.757442">
      <ele>1104.6</ele>
    </trkpt>
    <trkpt lat="42.622949" lon="-2.757904">
      <ele>1102.1</ele>
    </trkpt>
    <trkpt lat="42.623176" lon="-2.758252">
      <ele>1100.2</ele>
    </trkpt>
    <trkpt lat="42.623596" lon="-2.759056">
      <ele>1095.9</ele>
    </trkpt>
    <trkpt lat="42.623948" lon="-2.759661">
      <ele>1091.9</ele>
    </trkpt>
    <trkpt lat="42.624043" lon="-2.759969">
      <ele>1090</ele>
    </trkpt>
    <trkpt lat="42.624127" lon="-2.760097">
      <ele>1089</ele>
    </trkpt>
    <trkpt lat="42.624193" lon="-2.760181">
      <ele>1088.3</ele>
    </trkpt>
    <trkpt lat="42.624321" lon="-2.760151">
      <ele>1087.2</ele>
    </trkpt>
    <trkpt lat="42.624427" lon="-2.760054">
      <ele>1086.2</ele>
    </trkpt>
    <trkpt lat="42.62459" lon="-2.759964">
      <ele>1084.8</ele>
    </trkpt>
    <trkpt lat="42.624838" lon="-2.759866">
      <ele>1082.8</ele>
    </trkpt>
    <trkpt lat="42.625164" lon="-2.759775">
      <ele>1080.3</ele>
    </trkpt>
    <trkpt lat="42.625573" lon="-2.759759">
      <ele>1077.3</ele>
    </trkpt>
    <trkpt lat="42.62572" lon="-2.759705">
      <ele>1076.1</ele>
    </trkpt>
    <trkpt lat="42.625863" lon="-2.759575">
      <ele>1075.1</ele>
    </trkpt>
    <trkpt lat="42.62576" lon="-2.760594">
      <ele>1073.5</ele>
    </trkpt>
    <trkpt lat="42.625786" lon="-2.760884">
      <ele>1073.6</ele>
    </trkpt>
    <trkpt lat="42.625845" lon="-2.761034">
      <ele>1073.7</ele>
    </trkpt>
    <trkpt lat="42.626196" lon="-2.761485">
      <ele>1074.6</ele>
    </trkpt>
    <trkpt lat="42.626233" lon="-2.761624">
      <ele>1074.8</ele>
    </trkpt>
    <trkpt lat="42.6262" lon="-2.761846">
      <ele>1075.2</ele>
    </trkpt>
    <trkpt lat="42.626213" lon="-2.762136">
      <ele>1075.6</ele>
    </trkpt>
    <trkpt lat="42.626276" lon="-2.762381">
      <ele>1076</ele>
    </trkpt>
    <trkpt lat="42.626469" lon="-2.763459">
      <ele>1077.6</ele>
    </trkpt>
    <trkpt lat="42.626876" lon="-2.76468">
      <ele>1080</ele>
    </trkpt>
    <trkpt lat="42.626786" lon="-2.764738">
      <ele>1080.3</ele>
    </trkpt>
    <trkpt lat="42.626749" lon="-2.765018">
      <ele>1080.8</ele>
    </trkpt>
    <trkpt lat="42.626654" lon="-2.765367">
      <ele>1081.4</ele>
    </trkpt>
    <trkpt lat="42.626665" lon="-2.765534">
      <ele>1081.6</ele>
    </trkpt>
    <trkpt lat="42.62695" lon="-2.766276">
      <ele>1082.1</ele>
    </trkpt>
    <trkpt lat="42.627084" lon="-2.767031">
      <ele>1081.4</ele>
    </trkpt>
    <trkpt lat="42.627277" lon="-2.767744">
      <ele>1079.1</ele>
    </trkpt>
    <trkpt lat="42.627566" lon="-2.768375">
      <ele>1075.9</ele>
    </trkpt>
    <trkpt lat="42.627762" lon="-2.768864">
      <ele>1073.1</ele>
    </trkpt>
    <trkpt lat="42.627861" lon="-2.769112">
      <ele>1071.6</ele>
    </trkpt>
    <trkpt lat="42.628477" lon="-2.771082">
      <ele>1061.7</ele>
    </trkpt>
    <trkpt lat="42.628532" lon="-2.770892">
      <ele>1060.9</ele>
    </trkpt>
    <trkpt lat="42.62841" lon="-2.770515">
      <ele>1059.5</ele>
    </trkpt>
    <trkpt lat="42.628407" lon="-2.770338">
      <ele>1058.9</ele>
    </trkpt>
    <trkpt lat="42.628441" lon="-2.77018">
      <ele>1058.3</ele>
    </trkpt>
    <trkpt lat="42.628544" lon="-2.76993">
      <ele>1057.2</ele>
    </trkpt>
    <trkpt lat="42.628694" lon="-2.7697">
      <ele>1055.9</ele>
    </trkpt>
    <trkpt lat="42.628613" lon="-2.769995">
      <ele>1054.6</ele>
    </trkpt>
    <trkpt lat="42.628623" lon="-2.77032">
      <ele>1053.2</ele>
    </trkpt>
    <trkpt lat="42.628719" lon="-2.770694">
      <ele>1051.5</ele>
    </trkpt>
    <trkpt lat="42.628934" lon="-2.771352">
      <ele>1048.4</ele>
    </trkpt>
    <trkpt lat="42.629013" lon="-2.771475">
      <ele>1047.6</ele>
    </trkpt>
    <trkpt lat="42.629193" lon="-2.771666">
      <ele>1046.5</ele>
    </trkpt>
    <trkpt lat="42.629797" lon="-2.772143">
      <ele>1042.6</ele>
    </trkpt>
    <trkpt lat="42.630053" lon="-2.77229">
      <ele>1041.2</ele>
    </trkpt>
    <trkpt lat="42.6302" lon="-2.772331">
      <ele>1040.4</ele>
    </trkpt>
    <trkpt lat="42.630338" lon="-2.772325">
      <ele>1039.7</ele>
    </trkpt>
    <trkpt lat="42.630529" lon="-2.772264">
      <ele>1038.8</ele>
    </trkpt>
    <trkpt lat="42.630776" lon="-2.772074">
      <ele>1037.6</ele>
    </trkpt>
    <trkpt lat="42.630908" lon="-2.772009">
      <ele>1037</ele>
    </trkpt>
    <trkpt lat="42.631231" lon="-2.771963">
      <ele>1035.8</ele>
    </trkpt>
    <trkpt lat="42.631693" lon="-2.771818">
      <ele>1033.8</ele>
    </trkpt>
    <trkpt lat="42.632394" lon="-2.771454">
      <ele>1029.5</ele>
    </trkpt>
    <trkpt lat="42.63252" lon="-2.771416">
      <ele>1028.5</ele>
    </trkpt>
    <trkpt lat="42.63266" lon="-2.771435">
      <ele>1027.4</ele>
    </trkpt>
    <trkpt lat="42.632832" lon="-2.771548">
      <ele>1025.8</ele>
    </trkpt>
    <trkpt lat="42.633519" lon="-2.772124">
      <ele>1018.8</ele>
    </trkpt>
    <trkpt lat="42.633726" lon="-2.77217">
      <ele>1016.9</ele>
    </trkpt>
    <trkpt lat="42.634043" lon="-2.772162">
      <ele>1014.1</ele>
    </trkpt>
    <trkpt lat="42.634318" lon="-2.772014">
      <ele>1011.1</ele>
    </trkpt>
    <trkpt lat="42.634541" lon="-2.77184">
      <ele>1008.4</ele>
    </trkpt>
    <trkpt lat="42.635209" lon="-2.771184">
      <ele>1000.7</ele>
    </trkpt>
    <trkpt lat="42.635384" lon="-2.771095">
      <ele>999</ele>
    </trkpt>
    <trkpt lat="42.635424" lon="-2.771139">
      <ele>998.5</ele>
    </trkpt>
    <trkpt lat="42.63545" lon="-2.77121">
      <ele>998</ele>
    </trkpt>
    <trkpt lat="42.6351" lon="-2.772338">
      <ele>991</ele>
    </trkpt>
    <trkpt lat="42.635086" lon="-2.772443">
      <ele>990.4</ele>
    </trkpt>
    <trkpt lat="42.635009" lon="-2.773017">
      <ele>987.2</ele>
    </trkpt>
    <trkpt lat="42.634748" lon="-2.773764">
      <ele>983.4</ele>
    </trkpt>
    <trkpt lat="42.634631" lon="-2.77446">
      <ele>981.1</ele>
    </trkpt>
    <trkpt lat="42.634618" lon="-2.774767">
      <ele>980.4</ele>
    </trkpt>
    <trkpt lat="42.634637" lon="-2.775109">
      <ele>979.9</ele>
    </trkpt>
    <trkpt lat="42.634669" lon="-2.775317">
      <ele>979.8</ele>
    </trkpt>
    <trkpt lat="42.634734" lon="-2.77552">
      <ele>979.7</ele>
    </trkpt>
    <trkpt lat="42.634782" lon="-2.775594">
      <ele>979.7</ele>
    </trkpt>
    <trkpt lat="42.635078" lon="-2.776001">
      <ele>980.2</ele>
    </trkpt>
    <trkpt lat="42.635362" lon="-2.776301">
      <ele>980.8</ele>
    </trkpt>
    <trkpt lat="42.635466" lon="-2.77659">
      <ele>981.1</ele>
    </trkpt>
    <trkpt lat="42.635393" lon="-2.777293">
      <ele>982</ele>
    </trkpt>
    <trkpt lat="42.635381" lon="-2.777711">
      <ele>982.6</ele>
    </trkpt>
    <trkpt lat="42.635431" lon="-2.778433">
      <ele>983</ele>
    </trkpt>
    <trkpt lat="42.635324" lon="-2.779161">
      <ele>982.8</ele>
    </trkpt>
    <trkpt lat="42.63527" lon="-2.779306">
      <ele>982.7</ele>
    </trkpt>
    <trkpt lat="42.634834" lon="-2.779811">
      <ele>981.7</ele>
    </trkpt>
    <trkpt lat="42.63458" lon="-2.780245">
      <ele>980.8</ele>
    </trkpt>
    <trkpt lat="42.634323" lon="-2.780776">
      <ele>979.9</ele>
    </trkpt>
    <trkpt lat="42.634163" lon="-2.781325">
      <ele>979.1</ele>
    </trkpt>
    <trkpt lat="42.634054" lon="-2.781806">
      <ele>978.2</ele>
    </trkpt>
    <trkpt lat="42.633801" lon="-2.782161">
      <ele>977.1</ele>
    </trkpt>
    <trkpt lat="42.633769" lon="-2.782376">
      <ele>976.6</ele>
    </trkpt>
    <trkpt lat="42.633776" lon="-2.783171">
      <ele>974.1</ele>
    </trkpt>
    <trkpt lat="42.633604" lon="-2.783652">
      <ele>972.5</ele>
    </trkpt>
    <trkpt lat="42.633524" lon="-2.784553">
      <ele>969.5</ele>
    </trkpt>
    <trkpt lat="42.633439" lon="-2.78465">
      <ele>968.8</ele>
    </trkpt>
    <trkpt lat="42.633082" lon="-2.784662">
      <ele>966.3</ele>
    </trkpt>
    <trkpt lat="42.632869" lon="-2.784737">
      <ele>964.3</ele>
    </trkpt>
    <trkpt lat="42.632671" lon="-2.784898">
      <ele>961.9</ele>
    </trkpt>
    <trkpt lat="42.632379" lon="-2.785445">
      <ele>955.7</ele>
    </trkpt>
    <trkpt lat="42.632155" lon="-2.785484">
      <ele>952.7</ele>
    </trkpt>
    <trkpt lat="42.631391" lon="-2.7859">
      <ele>940.6</ele>
    </trkpt>
    <trkpt lat="42.63117" lon="-2.785978">
      <ele>936.6</ele>
    </trkpt>
    <trkpt lat="42.630812" lon="-2.786021">
      <ele>930.1</ele>
    </trkpt>
    <trkpt lat="42.630669" lon="-2.786008">
      <ele>927.4</ele>
    </trkpt>
    <trkpt lat="42.63017" lon="-2.785962">
      <ele>918.1</ele>
    </trkpt>
    <trkpt lat="42.629627" lon="-2.785662">
      <ele>908.4</ele>
    </trkpt>
    <trkpt lat="42.629491" lon="-2.785691">
      <ele>906.3</ele>
    </trkpt>
    <trkpt lat="42.629422" lon="-2.78578">
      <ele>904.9</ele>
    </trkpt>
    <trkpt lat="42.629292" lon="-2.786122">
      <ele>900.7</ele>
    </trkpt>
    <trkpt lat="42.629199" lon="-2.7863">
      <ele>898.4</ele>
    </trkpt>
    <trkpt lat="42.628954" lon="-2.786501">
      <ele>894.3</ele>
    </trkpt>
    <trkpt lat="42.628852" lon="-2.786503">
      <ele>892.9</ele>
    </trkpt>
    <trkpt lat="42.62866" lon="-2.786445">
      <ele>890.2</ele>
    </trkpt>
    <trkpt lat="42.628611" lon="-2.786474">
      <ele>889.5</ele>
    </trkpt>
    <trkpt lat="42.628404" lon="-2.786968">
      <ele>884.1</ele>
    </trkpt>
    <trkpt lat="42.628329" lon="-2.787077">
      <ele>882.7</ele>
    </trkpt>
    <trkpt lat="42.627905" lon="-2.78738">
      <ele>877.1</ele>
    </trkpt>
    <trkpt lat="42.627628" lon="-2.787649">
      <ele>873.4</ele>
    </trkpt>
    <trkpt lat="42.627356" lon="-2.787783">
      <ele>870.5</ele>
    </trkpt>
    <trkpt lat="42.627026" lon="-2.787824">
      <ele>867.2</ele>
    </trkpt>
    <trkpt lat="42.62687" lon="-2.787783">
      <ele>865.5</ele>
    </trkpt>
    <trkpt lat="42.626416" lon="-2.78758">
      <ele>860.4</ele>
    </trkpt>
    <trkpt lat="42.625968" lon="-2.787488">
      <ele>855.2</ele>
    </trkpt>
    <trkpt lat="42.625749" lon="-2.787491">
      <ele>852.5</ele>
    </trkpt>
    <trkpt lat="42.625668" lon="-2.787451">
      <ele>851.5</ele>
    </trkpt>
    <trkpt lat="42.625558" lon="-2.787284">
      <ele>849.6</ele>
    </trkpt>
    <trkpt lat="42.625522" lon="-2.787164">
      <ele>848.4</ele>
    </trkpt>
    <trkpt lat="42.625467" lon="-2.786595">
      <ele>843.5</ele>
    </trkpt>
    <trkpt lat="42.625531" lon="-2.78619">
      <ele>839.9</ele>
    </trkpt>
    <trkpt lat="42.625526" lon="-2.785986">
      <ele>838.1</ele>
    </trkpt>
    <trkpt lat="42.625439" lon="-2.785723">
      <ele>835.4</ele>
    </trkpt>
    <trkpt lat="42.625351" lon="-2.78446">
      <ele>822.7</ele>
    </trkpt>
    <trkpt lat="42.625319" lon="-2.784377">
      <ele>821.7</ele>
    </trkpt>
    <trkpt lat="42.625258" lon="-2.784305">
      <ele>820.6</ele>
    </trkpt>
    <trkpt lat="42.625118" lon="-2.78424">
      <ele>818.6</ele>
    </trkpt>
    <trkpt lat="42.625029" lon="-2.784256">
      <ele>817.3</ele>
    </trkpt>
    <trkpt lat="42.624741" lon="-2.784549">
      <ele>812.5</ele>
    </trkpt>
    <trkpt lat="42.624648" lon="-2.784594">
      <ele>811.2</ele>
    </trkpt>
    <trkpt lat="42.624567" lon="-2.784592">
      <ele>810.1</ele>
    </trkpt>
    <trkpt lat="42.62438" lon="-2.784476">
      <ele>807.4</ele>
    </trkpt>
    <trkpt lat="42.624066" lon="-2.78438">
      <ele>803</ele>
    </trkpt>
    <trkpt lat="42.623566" lon="-2.784401">
      <ele>796.1</ele>
    </trkpt>
    <trkpt lat="42.623216" lon="-2.784288">
      <ele>791.1</ele>
    </trkpt>
    <trkpt lat="42.622953" lon="-2.784128">
      <ele>787.1</ele>
    </trkpt>
    <trkpt lat="42.622852" lon="-2.784117">
      <ele>785.7</ele>
    </trkpt>
    <trkpt lat="42.622807" lon="-2.78413">
      <ele>785</ele>
    </trkpt>
    <trkpt lat="42.622446" lon="-2.784425">
      <ele>779.2</ele>
    </trkpt>
    <trkpt lat="42.622345" lon="-2.784636">
      <ele>776.6</ele>
    </trkpt>
    <trkpt lat="42.62227" lon="-2.784889">
      <ele>773.7</ele>
    </trkpt>
    <trkpt lat="42.622228" lon="-2.785155">
      <ele>770.6</ele>
    </trkpt>
    <trkpt lat="42.622256" lon="-2.785782">
      <ele>763.5</ele>
    </trkpt>
    <trkpt lat="42.622213" lon="-2.785922">
      <ele>761.7</ele>
    </trkpt>
    <trkpt lat="42.622023" lon="-2.786243">
      <ele>757</ele>
    </trkpt>
    <trkpt lat="42.621968" lon="-2.78656">
      <ele>753.1</ele>
    </trkpt>
    <trkpt lat="42.62183" lon="-2.786928">
      <ele>748.1</ele>
    </trkpt>
    <trkpt lat="42.621735" lon="-2.787316">
      <ele>743.2</ele>
    </trkpt>
    <trkpt lat="42.621719" lon="-2.787604">
      <ele>740</ele>
    </trkpt>
    <trkpt lat="42.621762" lon="-2.788411">
      <ele>731.7</ele>
    </trkpt>
    <trkpt lat="42.621865" lon="-2.789213">
      <ele>724</ele>
    </trkpt>
    <trkpt lat="42.622031" lon="-2.789916">
      <ele>717.5</ele>
    </trkpt>
    <trkpt lat="42.622094" lon="-2.790511">
      <ele>712.3</ele>
    </trkpt>
    <trkpt lat="42.622162" lon="-2.790717">
      <ele>710.3</ele>
    </trkpt>
    <trkpt lat="42.622083" lon="-2.79105">
      <ele>707.4</ele>
    </trkpt>
    <trkpt lat="42.622023" lon="-2.791606">
      <ele>702.9</ele>
    </trkpt>
    <trkpt lat="42.622031" lon="-2.791901">
      <ele>700.6</ele>
    </trkpt>
    <trkpt lat="42.621984" lon="-2.792209">
      <ele>697.9</ele>
    </trkpt>
    <trkpt lat="42.621897" lon="-2.79245">
      <ele>695.6</ele>
    </trkpt>
    <trkpt lat="42.621723" lon="-2.792732">
      <ele>692.3</ele>
    </trkpt>
    <trkpt lat="42.621451" lon="-2.792968">
      <ele>688.8</ele>
    </trkpt>
    <trkpt lat="42.621198" lon="-2.793284">
      <ele>685.5</ele>
    </trkpt>
    <trkpt lat="42.620756" lon="-2.793767">
      <ele>680.8</ele>
    </trkpt>
    <trkpt lat="42.620507" lon="-2.793939">
      <ele>678.6</ele>
    </trkpt>
    <trkpt lat="42.620337" lon="-2.793993">
      <ele>677.3</ele>
    </trkpt>
    <trkpt lat="42.620176" lon="-2.793993">
      <ele>676.1</ele>
    </trkpt>
    <trkpt lat="42.620026" lon="-2.79388">
      <ele>674.8</ele>
    </trkpt>
    <trkpt lat="42.619801" lon="-2.793655">
      <ele>672.8</ele>
    </trkpt>
    <trkpt lat="42.619682" lon="-2.793612">
      <ele>672</ele>
    </trkpt>
    <trkpt lat="42.619595" lon="-2.793617">
      <ele>671.4</ele>
    </trkpt>
    <trkpt lat="42.619516" lon="-2.793671">
      <ele>670.8</ele>
    </trkpt>
    <trkpt lat="42.619327" lon="-2.793891">
      <ele>669.4</ele>
    </trkpt>
    <trkpt lat="42.61922" lon="-2.794143">
      <ele>668.2</ele>
    </trkpt>
    <trkpt lat="42.619055" lon="-2.794395">
      <ele>666.9</ele>
    </trkpt>
    <trkpt lat="42.618798" lon="-2.794567">
      <ele>665.4</ele>
    </trkpt>
    <trkpt lat="42.618474" lon="-2.794647">
      <ele>663.5</ele>
    </trkpt>
    <trkpt lat="42.618119" lon="-2.794658">
      <ele>661.2</ele>
    </trkpt>
    <trkpt lat="42.617164" lon="-2.79499">
      <ele>654.8</ele>
    </trkpt>
    <trkpt lat="42.616366" lon="-2.795377">
      <ele>650.9</ele>
    </trkpt>
    <trkpt lat="42.615991" lon="-2.795468">
      <ele>649.7</ele>
    </trkpt>
    <trkpt lat="42.615927" lon="-2.795405">
      <ele>649.5</ele>
    </trkpt>
    <trkpt lat="42.615601" lon="-2.795411">
      <ele>648.7</ele>
    </trkpt>
    <trkpt lat="42.615431" lon="-2.795299">
      <ele>648.4</ele>
    </trkpt>
    <trkpt lat="42.615337" lon="-2.795196">
      <ele>648.2</ele>
    </trkpt>
    <trkpt lat="42.615147" lon="-2.795122">
      <ele>648</ele>
    </trkpt>
    <trkpt lat="42.614184" lon="-2.794993">
      <ele>648.5</ele>
    </trkpt>
    <trkpt lat="42.61375" lon="-2.794855">
      <ele>649</ele>
    </trkpt>
    <trkpt lat="42.613383" lon="-2.794698">
      <ele>649.1</ele>
    </trkpt>
    <trkpt lat="42.613373" lon="-2.794691">
      <ele>649.1</ele>
    </trkpt>
    <trkpt lat="42.613194" lon="-2.794551">
      <ele>649.1</ele>
    </trkpt>
    <trkpt lat="42.612739" lon="-2.793897">
      <ele>649.6</ele>
    </trkpt>
    <trkpt lat="42.612414" lon="-2.793381">
      <ele>650.7</ele>
    </trkpt>
    <trkpt lat="42.612358" lon="-2.793074">
      <ele>651</ele>
    </trkpt>
    <trkpt lat="42.61242" lon="-2.79284">
      <ele>651.2</ele>
    </trkpt>
    <trkpt lat="42.612575" lon="-2.792717">
      <ele>651.4</ele>
    </trkpt>
    <trkpt lat="42.612697" lon="-2.792733">
      <ele>651.5</ele>
    </trkpt>
    <trkpt lat="42.613099" lon="-2.792712">
      <ele>651.7</ele>
    </trkpt>
    <trkpt lat="42.613297" lon="-2.792645">
      <ele>651.8</ele>
    </trkpt>
    <trkpt lat="42.613479" lon="-2.792533">
      <ele>652</ele>
    </trkpt>
    <trkpt lat="42.613579" lon="-2.792358">
      <ele>652.2</ele>
    </trkpt>
    <trkpt lat="42.613622" lon="-2.79225">
      <ele>652.4</ele>
    </trkpt>
    <trkpt lat="42.613628" lon="-2.792062">
      <ele>652.7</ele>
    </trkpt>
    <trkpt lat="42.613557" lon="-2.791217">
      <ele>654.2</ele>
    </trkpt>
    <trkpt lat="42.613486" lon="-2.790918">
      <ele>654.6</ele>
    </trkpt>
    <trkpt lat="42.613371" lon="-2.790589">
      <ele>655</ele>
    </trkpt>
    <trkpt lat="42.613326" lon="-2.78996">
      <ele>655.8</ele>
    </trkpt>
    <trkpt lat="42.613301" lon="-2.789848">
      <ele>656</ele>
    </trkpt>
    <trkpt lat="42.613186" lon="-2.789607">
      <ele>656.4</ele>
    </trkpt>
    <trkpt lat="42.613044" lon="-2.789489">
      <ele>656.7</ele>
    </trkpt>
    <trkpt lat="42.612724" lon="-2.788984">
      <ele>657.7</ele>
    </trkpt>
    <trkpt lat="42.612554" lon="-2.788772">
      <ele>658</ele>
    </trkpt>
    <trkpt lat="42.6123" lon="-2.788574">
      <ele>658.4</ele>
    </trkpt>
    <trkpt lat="42.611972" lon="-2.788075">
      <ele>658.8</ele>
    </trkpt>
    <trkpt lat="42.611814" lon="-2.787856">
      <ele>659</ele>
    </trkpt>
    <trkpt lat="42.61155" lon="-2.78762">
      <ele>659.1</ele>
    </trkpt>
    <trkpt lat="42.611439" lon="-2.787432">
      <ele>659.2</ele>
    </trkpt>
    <trkpt lat="42.61137" lon="-2.787271">
      <ele>659.2</ele>
    </trkpt>
    <trkpt lat="42.611158" lon="-2.786455">
      <ele>659.5</ele>
    </trkpt>
    <trkpt lat="42.61105" lon="-2.786233">
      <ele>659.6</ele>
    </trkpt>
    <trkpt lat="42.610133" lon="-2.785124">
      <ele>658.2</ele>
    </trkpt>
    <trkpt lat="42.609897" lon="-2.784912">
      <ele>657.4</ele>
    </trkpt>
    <trkpt lat="42.60973" lon="-2.784785">
      <ele>656.8</ele>
    </trkpt>
    <trkpt lat="42.609147" lon="-2.784501">
      <ele>654.5</ele>
    </trkpt>
    <trkpt lat="42.608584" lon="-2.783902">
      <ele>650.8</ele>
    </trkpt>
    <trkpt lat="42.60831" lon="-2.783732">
      <ele>649.2</ele>
    </trkpt>
    <trkpt lat="42.60781" lon="-2.783562">
      <ele>646.4</ele>
    </trkpt>
    <trkpt lat="42.606631" lon="-2.783316">
      <ele>639.5</ele>
    </trkpt>
    <trkpt lat="42.605794" lon="-2.783288">
      <ele>632.9</ele>
    </trkpt>
    <trkpt lat="42.605699" lon="-2.783346">
      <ele>632</ele>
    </trkpt>
    <trkpt lat="42.605327" lon="-2.783383">
      <ele>628.7</ele>
    </trkpt>
    <trkpt lat="42.604428" lon="-2.783312">
      <ele>620.5</ele>
    </trkpt>
    <trkpt lat="42.604107" lon="-2.783457">
      <ele>617.3</ele>
    </trkpt>
    <trkpt lat="42.604071" lon="-2.783368">
      <ele>616.6</ele>
    </trkpt>
    <trkpt lat="42.603493" lon="-2.783795">
      <ele>610.8</ele>
    </trkpt>
    <trkpt lat="42.603088" lon="-2.784154">
      <ele>606.9</ele>
    </trkpt>
    <trkpt lat="42.602683" lon="-2.784513">
      <ele>603.7</ele>
    </trkpt>
    <trkpt lat="42.602021" lon="-2.785141">
      <ele>599.4</ele>
    </trkpt>
    <trkpt lat="42.601661" lon="-2.785519">
      <ele>597.7</ele>
    </trkpt>
    <trkpt lat="42.601082" lon="-2.786217">
      <ele>596</ele>
    </trkpt>
    <trkpt lat="42.600847" lon="-2.786456">
      <ele>595.5</ele>
    </trkpt>
    <trkpt lat="42.600707" lon="-2.786657">
      <ele>595.2</ele>
    </trkpt>
    <trkpt lat="42.60024" lon="-2.787542">
      <ele>594</ele>
    </trkpt>
    <trkpt lat="42.599959" lon="-2.787835">
      <ele>593.3</ele>
    </trkpt>
    <trkpt lat="42.599108" lon="-2.788325">
      <ele>590.4</ele>
    </trkpt>
    <trkpt lat="42.598858" lon="-2.788562">
      <ele>589.2</ele>
    </trkpt>
    <trkpt lat="42.598684" lon="-2.788682">
      <ele>588.3</ele>
    </trkpt>
    <trkpt lat="42.598064" lon="-2.788996">
      <ele>585.3</ele>
    </trkpt>
    <trkpt lat="42.597932" lon="-2.789117">
      <ele>584.5</ele>
    </trkpt>
    <trkpt lat="42.597582" lon="-2.789582">
      <ele>582.1</ele>
    </trkpt>
    <trkpt lat="42.597447" lon="-2.789718">
      <ele>581.4</ele>
    </trkpt>
    <trkpt lat="42.596792" lon="-2.789903">
      <ele>579.6</ele>
    </trkpt>
    <trkpt lat="42.596685" lon="-2.789908">
      <ele>579.5</ele>
    </trkpt>
    <trkpt lat="42.596572" lon="-2.789879">
      <ele>579.4</ele>
    </trkpt>
    <trkpt lat="42.596171" lon="-2.789674">
      <ele>578.8</ele>
    </trkpt>
    <trkpt lat="42.595962" lon="-2.789614">
      <ele>578.5</ele>
    </trkpt>
    <trkpt lat="42.595632" lon="-2.789579">
      <ele>578</ele>
    </trkpt>
    <trkpt lat="42.595174" lon="-2.789577">
      <ele>577.8</ele>
    </trkpt>
    <trkpt lat="42.595002" lon="-2.789647">
      <ele>577.5</ele>
    </trkpt>
    <trkpt lat="42.594844" lon="-2.789748">
      <ele>577.6</ele>
    </trkpt>
    <trkpt lat="42.594433" lon="-2.790173">
      <ele>577.4</ele>
    </trkpt>
    <trkpt lat="42.594045" lon="-2.79043">
      <ele>577.1</ele>
    </trkpt>
    <trkpt lat="42.59393" lon="-2.790472">
      <ele>577.1</ele>
    </trkpt>
    <trkpt lat="42.593838" lon="-2.790492">
      <ele>576.9</ele>
    </trkpt>
    <trkpt lat="42.59354" lon="-2.790434">
      <ele>576.5</ele>
    </trkpt>
    <trkpt lat="42.593204" lon="-2.790431">
      <ele>576.1</ele>
    </trkpt>
    <trkpt lat="42.592932" lon="-2.790517">
      <ele>575.6</ele>
    </trkpt>
    <trkpt lat="42.592622" lon="-2.790569">
      <ele>574.9</ele>
    </trkpt>
    <trkpt lat="42.592382" lon="-2.790703">
      <ele>574.1</ele>
    </trkpt>
    <trkpt lat="42.592155" lon="-2.790965">
      <ele>572.9</ele>
    </trkpt>
    <trkpt lat="42.592123" lon="-2.791049">
      <ele>572.6</ele>
    </trkpt>
    <trkpt lat="42.592095" lon="-2.791301">
      <ele>571.7</ele>
    </trkpt>
    <trkpt lat="42.592005" lon="-2.79158">
      <ele>570.4</ele>
    </trkpt>
    <trkpt lat="42.591697" lon="-2.791926">
      <ele>567.8</ele>
    </trkpt>
    <trkpt lat="42.59164" lon="-2.792066">
      <ele>566.9</ele>
    </trkpt>
    <trkpt lat="42.591575" lon="-2.792718">
      <ele>563.1</ele>
    </trkpt>
    <trkpt lat="42.591589" lon="-2.792782">
      <ele>562.8</ele>
    </trkpt>
    <trkpt lat="42.591536" lon="-2.792818">
      <ele>562.2</ele>
    </trkpt>
    <trkpt lat="42.591548" lon="-2.792959">
      <ele>561.2</ele>
    </trkpt>
    <trkpt lat="42.591492" lon="-2.793157">
      <ele>559.7</ele>
    </trkpt>
    <trkpt lat="42.591477" lon="-2.793217">
      <ele>559.3</ele>
    </trkpt>
    <trkpt lat="42.591413" lon="-2.793466">
      <ele>557.2</ele>
    </trkpt>
    <trkpt lat="42.59136" lon="-2.793464">
      <ele>556.7</ele>
    </trkpt>
    <trkpt lat="42.591273" lon="-2.793515">
      <ele>555.7</ele>
    </trkpt>
    <trkpt lat="42.591219" lon="-2.793476">
      <ele>555.1</ele>
    </trkpt>
    <trkpt lat="42.590983" lon="-2.793239">
      <ele>552.1</ele>
    </trkpt>
    <trkpt lat="42.590856" lon="-2.793059">
      <ele>550.3</ele>
    </trkpt>
    <trkpt lat="42.590719" lon="-2.79285">
      <ele>548.7</ele>
    </trkpt>
    <trkpt lat="42.590595" lon="-2.792854">
      <ele>547.7</ele>
    </trkpt>
    <trkpt lat="42.590459" lon="-2.792769">
      <ele>546.7</ele>
    </trkpt>
    <trkpt lat="42.59015" lon="-2.792523">
      <ele>544.7</ele>
    </trkpt>
    <trkpt lat="42.590116" lon="-2.792547">
      <ele>544.5</ele>
    </trkpt>
    <trkpt lat="42.589942" lon="-2.792401">
      <ele>543.4</ele>
    </trkpt>
    <trkpt lat="42.589686" lon="-2.792184">
      <ele>542.3</ele>
    </trkpt>
    <trkpt lat="42.589486" lon="-2.792006">
      <ele>541.6</ele>
    </trkpt>
    <trkpt lat="42.589124" lon="-2.791606">
      <ele>539.9</ele>
    </trkpt>
    <trkpt lat="42.588991" lon="-2.791359">
      <ele>539.5</ele>
    </trkpt>
    <trkpt lat="42.589082" lon="-2.791311">
      <ele>539.4</ele>
    </trkpt>
    <trkpt lat="42.589056" lon="-2.791157">
      <ele>539.2</ele>
    </trkpt>
    </trkseg>
  </trk>
</gpx>
