<?xml version="1.0" encoding="UTF-8"?>
<gpx version="1.1" creator="fitAI Komoot downloader" xmlns="http://www.topografix.com/GPX/1/1">
  <metadata>
    <name>Autol y sus Picuezos y Vía Verde del Cidacos - Recorrido circular desde Calahorra</name>
    <desc>47 visitas · Dificultad: moderate · Distancia: 50.0 km · Desnivel +: 403 m</desc>
    <link href="https://www.komoot.com/smarttour/e31477063"><text>Komoot</text></link>
  </metadata>
  <trk>
    <name>Autol y sus Picuezos y Vía Verde del Cidacos - Recorrido circular desde Calahorra</name>
    <type>racebike</type>
    <trkseg>
    <trkpt lat="42.310487" lon="-1.957881">
      <ele>322.2</ele>
    </trkpt>
    <trkpt lat="42.310365" lon="-1.957766">
      <ele>322.3</ele>
    </trkpt>
    <trkpt lat="42.310314" lon="-1.957864">
      <ele>322.4</ele>
    </trkpt>
    <trkpt lat="42.309373" lon="-1.956881">
      <ele>322.4</ele>
    </trkpt>
    <trkpt lat="42.309877" lon="-1.956068">
      <ele>322.1</ele>
    </trkpt>
    <trkpt lat="42.310083" lon="-1.955855">
      <ele>322.2</ele>
    </trkpt>
    <trkpt lat="42.309877" lon="-1.956068">
      <ele>322.3</ele>
    </trkpt>
    <trkpt lat="42.309373" lon="-1.956881">
      <ele>323.7</ele>
    </trkpt>
    <trkpt lat="42.308976" lon="-1.957492">
      <ele>324.8</ele>
    </trkpt>
    <trkpt lat="42.308478" lon="-1.957926">
      <ele>325.7</ele>
    </trkpt>
    <trkpt lat="42.307136" lon="-1.959052">
      <ele>328.3</ele>
    </trkpt>
    <trkpt lat="42.307" lon="-1.959185">
      <ele>328.7</ele>
    </trkpt>
    <trkpt lat="42.306949" lon="-1.959159">
      <ele>328.9</ele>
    </trkpt>
    <trkpt lat="42.306816" lon="-1.959214">
      <ele>329.4</ele>
    </trkpt>
    <trkpt lat="42.306022" lon="-1.959577">
      <ele>333.6</ele>
    </trkpt>
    <trkpt lat="42.305646" lon="-1.959796">
      <ele>336.2</ele>
    </trkpt>
    <trkpt lat="42.305563" lon="-1.959773">
      <ele>336.7</ele>
    </trkpt>
    <trkpt lat="42.305299" lon="-1.959759">
      <ele>338.4</ele>
    </trkpt>
    <trkpt lat="42.304802" lon="-1.959869">
      <ele>341.8</ele>
    </trkpt>
    <trkpt lat="42.304106" lon="-1.958795">
      <ele>347.8</ele>
    </trkpt>
    <trkpt lat="42.304076" lon="-1.958716">
      <ele>348.1</ele>
    </trkpt>
    <trkpt lat="42.303755" lon="-1.958328">
      <ele>349.6</ele>
    </trkpt>
    <trkpt lat="42.303689" lon="-1.958764">
      <ele>350.7</ele>
    </trkpt>
    <trkpt lat="42.303407" lon="-1.958601">
      <ele>351.8</ele>
    </trkpt>
    <trkpt lat="42.30323" lon="-1.958533">
      <ele>352.5</ele>
    </trkpt>
    <trkpt lat="42.302997" lon="-1.958562">
      <ele>353.5</ele>
    </trkpt>
    <trkpt lat="42.302684" lon="-1.958523">
      <ele>354.8</ele>
    </trkpt>
    <trkpt lat="42.302629" lon="-1.958665">
      <ele>355.2</ele>
    </trkpt>
    <trkpt lat="42.302626" lon="-1.958856">
      <ele>355.7</ele>
    </trkpt>
    <trkpt lat="42.302515" lon="-1.959495">
      <ele>357.4</ele>
    </trkpt>
    <trkpt lat="42.302206" lon="-1.959388">
      <ele>358.2</ele>
    </trkpt>
    <trkpt lat="42.301967" lon="-1.959292">
      <ele>358.7</ele>
    </trkpt>
    <trkpt lat="42.301708" lon="-1.959189">
      <ele>358.6</ele>
    </trkpt>
    <trkpt lat="42.301696" lon="-1.95909">
      <ele>358.4</ele>
    </trkpt>
    <trkpt lat="42.301679" lon="-1.958947">
      <ele>358</ele>
    </trkpt>
    <trkpt lat="42.300999" lon="-1.959003">
      <ele>354.1</ele>
    </trkpt>
    <trkpt lat="42.300544" lon="-1.95902">
      <ele>351.2</ele>
    </trkpt>
    <trkpt lat="42.300432" lon="-1.959098">
      <ele>350.1</ele>
    </trkpt>
    <trkpt lat="42.300323" lon="-1.959106">
      <ele>349</ele>
    </trkpt>
    <trkpt lat="42.300432" lon="-1.959098">
      <ele>348.1</ele>
    </trkpt>
    <trkpt lat="42.300544" lon="-1.95902">
      <ele>347.1</ele>
    </trkpt>
    <trkpt lat="42.30057" lon="-1.959123">
      <ele>346.3</ele>
    </trkpt>
    <trkpt lat="42.300624" lon="-1.959347">
      <ele>344.8</ele>
    </trkpt>
    <trkpt lat="42.300661" lon="-1.95942">
      <ele>344.3</ele>
    </trkpt>
    <trkpt lat="42.30071" lon="-1.959465">
      <ele>343.8</ele>
    </trkpt>
    <trkpt lat="42.300574" lon="-1.959694">
      <ele>342.4</ele>
    </trkpt>
    <trkpt lat="42.300534" lon="-1.95995">
      <ele>341.4</ele>
    </trkpt>
    <trkpt lat="42.30053" lon="-1.959993">
      <ele>341.3</ele>
    </trkpt>
    <trkpt lat="42.300566" lon="-1.960721">
      <ele>340</ele>
    </trkpt>
    <trkpt lat="42.300631" lon="-1.96106">
      <ele>339.4</ele>
    </trkpt>
    <trkpt lat="42.300671" lon="-1.961323">
      <ele>339</ele>
    </trkpt>
    <trkpt lat="42.300719" lon="-1.96145">
      <ele>339</ele>
    </trkpt>
    <trkpt lat="42.30079" lon="-1.961738">
      <ele>339</ele>
    </trkpt>
    <trkpt lat="42.300883" lon="-1.961755">
      <ele>339.1</ele>
    </trkpt>
    <trkpt lat="42.300972" lon="-1.962346">
      <ele>339.4</ele>
    </trkpt>
    <trkpt lat="42.301151" lon="-1.962763">
      <ele>340.4</ele>
    </trkpt>
    <trkpt lat="42.30125" lon="-1.963399">
      <ele>342.4</ele>
    </trkpt>
    <trkpt lat="42.301303" lon="-1.963589">
      <ele>342.9</ele>
    </trkpt>
    <trkpt lat="42.301366" lon="-1.963673">
      <ele>343.3</ele>
    </trkpt>
    <trkpt lat="42.301573" lon="-1.963771">
      <ele>344.2</ele>
    </trkpt>
    <trkpt lat="42.302114" lon="-1.963911">
      <ele>347.2</ele>
    </trkpt>
    <trkpt lat="42.302119" lon="-1.964052">
      <ele>347.6</ele>
    </trkpt>
    <trkpt lat="42.302871" lon="-1.964388">
      <ele>350.8</ele>
    </trkpt>
    <trkpt lat="42.303159" lon="-1.964673">
      <ele>350.9</ele>
    </trkpt>
    <trkpt lat="42.303279" lon="-1.964459">
      <ele>350.8</ele>
    </trkpt>
    <trkpt lat="42.303431" lon="-1.964445">
      <ele>350.8</ele>
    </trkpt>
    <trkpt lat="42.303641" lon="-1.964176">
      <ele>350.8</ele>
    </trkpt>
    <trkpt lat="42.303431" lon="-1.964445">
      <ele>350.6</ele>
    </trkpt>
    <trkpt lat="42.303536" lon="-1.964579">
      <ele>350.5</ele>
    </trkpt>
    <trkpt lat="42.303507" lon="-1.964753">
      <ele>350.3</ele>
    </trkpt>
    <trkpt lat="42.303404" lon="-1.964896">
      <ele>350.1</ele>
    </trkpt>
    <trkpt lat="42.303312" lon="-1.964935">
      <ele>350</ele>
    </trkpt>
    <trkpt lat="42.303181" lon="-1.964886">
      <ele>349.8</ele>
    </trkpt>
    <trkpt lat="42.303128" lon="-1.965098">
      <ele>349.5</ele>
    </trkpt>
    <trkpt lat="42.303099" lon="-1.9665">
      <ele>347.4</ele>
    </trkpt>
    <trkpt lat="42.303093" lon="-1.96678">
      <ele>346.9</ele>
    </trkpt>
    <trkpt lat="42.30308" lon="-1.967108">
      <ele>346.3</ele>
    </trkpt>
    <trkpt lat="42.303058" lon="-1.967661">
      <ele>345.3</ele>
    </trkpt>
    <trkpt lat="42.30305" lon="-1.96785">
      <ele>345</ele>
    </trkpt>
    <trkpt lat="42.303" lon="-1.969687">
      <ele>343.7</ele>
    </trkpt>
    <trkpt lat="42.302997" lon="-1.970103">
      <ele>343.8</ele>
    </trkpt>
    <trkpt lat="42.302993" lon="-1.97021">
      <ele>343.8</ele>
    </trkpt>
    <trkpt lat="42.302978" lon="-1.970758">
      <ele>343.9</ele>
    </trkpt>
    <trkpt lat="42.302921" lon="-1.972225">
      <ele>343.9</ele>
    </trkpt>
    <trkpt lat="42.30289" lon="-1.97312">
      <ele>343.3</ele>
    </trkpt>
    <trkpt lat="42.302857" lon="-1.97398">
      <ele>342.6</ele>
    </trkpt>
    <trkpt lat="42.302852" lon="-1.974109">
      <ele>342.5</ele>
    </trkpt>
    <trkpt lat="42.302847" lon="-1.974214">
      <ele>342.4</ele>
    </trkpt>
    <trkpt lat="42.302806" lon="-1.975776">
      <ele>341.8</ele>
    </trkpt>
    <trkpt lat="42.302783" lon="-1.976271">
      <ele>341.9</ele>
    </trkpt>
    <trkpt lat="42.302783" lon="-1.976365">
      <ele>341.9</ele>
    </trkpt>
    <trkpt lat="42.302778" lon="-1.97672">
      <ele>342.1</ele>
    </trkpt>
    <trkpt lat="42.302774" lon="-1.976857">
      <ele>342.2</ele>
    </trkpt>
    <trkpt lat="42.30277" lon="-1.977032">
      <ele>342.3</ele>
    </trkpt>
    <trkpt lat="42.302729" lon="-1.97864">
      <ele>342.5</ele>
    </trkpt>
    <trkpt lat="42.302728" lon="-1.978737">
      <ele>342.4</ele>
    </trkpt>
    <trkpt lat="42.302712" lon="-1.978852">
      <ele>342.4</ele>
    </trkpt>
    <trkpt lat="42.302692" lon="-1.979478">
      <ele>341.9</ele>
    </trkpt>
    <trkpt lat="42.302669" lon="-1.979762">
      <ele>341.7</ele>
    </trkpt>
    <trkpt lat="42.302661" lon="-1.979828">
      <ele>341.7</ele>
    </trkpt>
    <trkpt lat="42.30263" lon="-1.980084">
      <ele>341.5</ele>
    </trkpt>
    <trkpt lat="42.302506" lon="-1.980684">
      <ele>341.4</ele>
    </trkpt>
    <trkpt lat="42.302334" lon="-1.981246">
      <ele>341.9</ele>
    </trkpt>
    <trkpt lat="42.30219" lon="-1.98194">
      <ele>342.9</ele>
    </trkpt>
    <trkpt lat="42.302193" lon="-1.982162">
      <ele>343.3</ele>
    </trkpt>
    <trkpt lat="42.302256" lon="-1.982278">
      <ele>343.5</ele>
    </trkpt>
    <trkpt lat="42.302277" lon="-1.98242">
      <ele>343.7</ele>
    </trkpt>
    <trkpt lat="42.302267" lon="-1.982504">
      <ele>343.8</ele>
    </trkpt>
    <trkpt lat="42.302203" lon="-1.98265">
      <ele>344.1</ele>
    </trkpt>
    <trkpt lat="42.302188" lon="-1.982668">
      <ele>344.1</ele>
    </trkpt>
    <trkpt lat="42.302124" lon="-1.98272">
      <ele>344.3</ele>
    </trkpt>
    <trkpt lat="42.302117" lon="-1.982724">
      <ele>344.3</ele>
    </trkpt>
    <trkpt lat="42.302097" lon="-1.982812">
      <ele>344.4</ele>
    </trkpt>
    <trkpt lat="42.301996" lon="-1.982939">
      <ele>344.6</ele>
    </trkpt>
    <trkpt lat="42.301819" lon="-1.983264">
      <ele>345</ele>
    </trkpt>
    <trkpt lat="42.30157" lon="-1.984045">
      <ele>344.9</ele>
    </trkpt>
    <trkpt lat="42.301383" lon="-1.984491">
      <ele>344.5</ele>
    </trkpt>
    <trkpt lat="42.301043" lon="-1.985055">
      <ele>343.8</ele>
    </trkpt>
    <trkpt lat="42.300513" lon="-1.985785">
      <ele>342.9</ele>
    </trkpt>
    <trkpt lat="42.299504" lon="-1.987579">
      <ele>342.2</ele>
    </trkpt>
    <trkpt lat="42.29799" lon="-1.990304">
      <ele>342.7</ele>
    </trkpt>
    <trkpt lat="42.297265" lon="-1.99161">
      <ele>343.9</ele>
    </trkpt>
    <trkpt lat="42.295421" lon="-1.99491">
      <ele>350.2</ele>
    </trkpt>
    <trkpt lat="42.295029" lon="-1.995677">
      <ele>351.8</ele>
    </trkpt>
    <trkpt lat="42.295017" lon="-1.9957">
      <ele>351.8</ele>
    </trkpt>
    <trkpt lat="42.294953" lon="-1.995896">
      <ele>352.1</ele>
    </trkpt>
    <trkpt lat="42.29505" lon="-1.996438">
      <ele>352.7</ele>
    </trkpt>
    <trkpt lat="42.295009" lon="-1.996714">
      <ele>353</ele>
    </trkpt>
    <trkpt lat="42.294967" lon="-1.996813">
      <ele>353.1</ele>
    </trkpt>
    <trkpt lat="42.294788" lon="-1.996694">
      <ele>353.5</ele>
    </trkpt>
    <trkpt lat="42.294712" lon="-1.996821">
      <ele>353.7</ele>
    </trkpt>
    <trkpt lat="42.294608" lon="-1.996915">
      <ele>353.9</ele>
    </trkpt>
    <trkpt lat="42.294488" lon="-1.996962">
      <ele>354.1</ele>
    </trkpt>
    <trkpt lat="42.294363" lon="-1.996959">
      <ele>354.3</ele>
    </trkpt>
    <trkpt lat="42.294131" lon="-1.997237">
      <ele>354.8</ele>
    </trkpt>
    <trkpt lat="42.293578" lon="-1.998007">
      <ele>356.4</ele>
    </trkpt>
    <trkpt lat="42.291912" lon="-2.000996">
      <ele>363.2</ele>
    </trkpt>
    <trkpt lat="42.287548" lon="-2.00883">
      <ele>373.5</ele>
    </trkpt>
    <trkpt lat="42.28662" lon="-2.010424">
      <ele>377.3</ele>
    </trkpt>
    <trkpt lat="42.28617" lon="-2.01128">
      <ele>380.2</ele>
    </trkpt>
    <trkpt lat="42.285806" lon="-2.012124">
      <ele>382.3</ele>
    </trkpt>
    <trkpt lat="42.285667" lon="-2.012163">
      <ele>382.6</ele>
    </trkpt>
    <trkpt lat="42.285547" lon="-2.012162">
      <ele>382.8</ele>
    </trkpt>
    <trkpt lat="42.285451" lon="-2.012125">
      <ele>382.9</ele>
    </trkpt>
    <trkpt lat="42.285375" lon="-2.012044">
      <ele>383.1</ele>
    </trkpt>
    <trkpt lat="42.285109" lon="-2.011939">
      <ele>383.2</ele>
    </trkpt>
    <trkpt lat="42.284856" lon="-2.011934">
      <ele>383.1</ele>
    </trkpt>
    <trkpt lat="42.282205" lon="-2.011887">
      <ele>377</ele>
    </trkpt>
    <trkpt lat="42.281816" lon="-2.011821">
      <ele>375.7</ele>
    </trkpt>
    <trkpt lat="42.281533" lon="-2.01167">
      <ele>374.9</ele>
    </trkpt>
    <trkpt lat="42.281256" lon="-2.011433">
      <ele>374</ele>
    </trkpt>
    <trkpt lat="42.280506" lon="-2.010697">
      <ele>373.1</ele>
    </trkpt>
    <trkpt lat="42.280291" lon="-2.010577">
      <ele>373.2</ele>
    </trkpt>
    <trkpt lat="42.280008" lon="-2.010495">
      <ele>373.5</ele>
    </trkpt>
    <trkpt lat="42.279689" lon="-2.010457">
      <ele>373.9</ele>
    </trkpt>
    <trkpt lat="42.278068" lon="-2.010266">
      <ele>376.5</ele>
    </trkpt>
    <trkpt lat="42.277557" lon="-2.010297">
      <ele>377.2</ele>
    </trkpt>
    <trkpt lat="42.27712" lon="-2.01044">
      <ele>377.9</ele>
    </trkpt>
    <trkpt lat="42.276864" lon="-2.010566">
      <ele>378.3</ele>
    </trkpt>
    <trkpt lat="42.274266" lon="-2.012235">
      <ele>383.1</ele>
    </trkpt>
    <trkpt lat="42.27388" lon="-2.012418">
      <ele>384.1</ele>
    </trkpt>
    <trkpt lat="42.273355" lon="-2.012606">
      <ele>385.5</ele>
    </trkpt>
    <trkpt lat="42.273029" lon="-2.01266">
      <ele>386.4</ele>
    </trkpt>
    <trkpt lat="42.272814" lon="-2.012684">
      <ele>386.8</ele>
    </trkpt>
    <trkpt lat="42.272717" lon="-2.012696">
      <ele>387.1</ele>
    </trkpt>
    <trkpt lat="42.272342" lon="-2.012694">
      <ele>387.7</ele>
    </trkpt>
    <trkpt lat="42.271965" lon="-2.012651">
      <ele>388.2</ele>
    </trkpt>
    <trkpt lat="42.271989" lon="-2.012543">
      <ele>388.3</ele>
    </trkpt>
    <trkpt lat="42.271633" lon="-2.012485">
      <ele>388.8</ele>
    </trkpt>
    <trkpt lat="42.269979" lon="-2.01218">
      <ele>390.5</ele>
    </trkpt>
    <trkpt lat="42.26294" lon="-2.010875">
      <ele>397.6</ele>
    </trkpt>
    <trkpt lat="42.262229" lon="-2.010743">
      <ele>398.4</ele>
    </trkpt>
    <trkpt lat="42.255715" lon="-2.009529">
      <ele>405.1</ele>
    </trkpt>
    <trkpt lat="42.250705" lon="-2.008614">
      <ele>411.3</ele>
    </trkpt>
    <trkpt lat="42.243311" lon="-2.007242">
      <ele>420.8</ele>
    </trkpt>
    <trkpt lat="42.241897" lon="-2.007018">
      <ele>422.4</ele>
    </trkpt>
    <trkpt lat="42.240129" lon="-2.00667">
      <ele>425</ele>
    </trkpt>
    <trkpt lat="42.231305" lon="-2.005083">
      <ele>436.1</ele>
    </trkpt>
    <trkpt lat="42.230917" lon="-2.005055">
      <ele>436.7</ele>
    </trkpt>
    <trkpt lat="42.230834" lon="-2.005116">
      <ele>436.8</ele>
    </trkpt>
    <trkpt lat="42.230271" lon="-2.005115">
      <ele>437.6</ele>
    </trkpt>
    <trkpt lat="42.227362" lon="-2.005859">
      <ele>439.5</ele>
    </trkpt>
    <trkpt lat="42.22546" lon="-2.006609">
      <ele>434.1</ele>
    </trkpt>
    <trkpt lat="42.225159" lon="-2.006698">
      <ele>434.2</ele>
    </trkpt>
    <trkpt lat="42.224933" lon="-2.006718">
      <ele>434.7</ele>
    </trkpt>
    <trkpt lat="42.224705" lon="-2.006666">
      <ele>435.5</ele>
    </trkpt>
    <trkpt lat="42.224407" lon="-2.006503">
      <ele>437.2</ele>
    </trkpt>
    <trkpt lat="42.223625" lon="-2.005929">
      <ele>443</ele>
    </trkpt>
    <trkpt lat="42.22343" lon="-2.005874">
      <ele>444.2</ele>
    </trkpt>
    <trkpt lat="42.223268" lon="-2.005869">
      <ele>445</ele>
    </trkpt>
    <trkpt lat="42.223209" lon="-2.005867">
      <ele>445.2</ele>
    </trkpt>
    <trkpt lat="42.222323" lon="-2.00584">
      <ele>444.8</ele>
    </trkpt>
    <trkpt lat="42.221591" lon="-2.005818">
      <ele>441.3</ele>
    </trkpt>
    <trkpt lat="42.221322" lon="-2.00583">
      <ele>439.9</ele>
    </trkpt>
    <trkpt lat="42.220047" lon="-2.006427">
      <ele>436.1</ele>
    </trkpt>
    <trkpt lat="42.219816" lon="-2.006468">
      <ele>436.2</ele>
    </trkpt>
    <trkpt lat="42.219209" lon="-2.006302">
      <ele>436.1</ele>
    </trkpt>
    <trkpt lat="42.218598" lon="-2.006294">
      <ele>436.1</ele>
    </trkpt>
    <trkpt lat="42.218388" lon="-2.006278">
      <ele>436.4</ele>
    </trkpt>
    <trkpt lat="42.218201" lon="-2.006227">
      <ele>436.6</ele>
    </trkpt>
    <trkpt lat="42.218042" lon="-2.006113">
      <ele>436.9</ele>
    </trkpt>
    <trkpt lat="42.217884" lon="-2.006121">
      <ele>437</ele>
    </trkpt>
    <trkpt lat="42.217713" lon="-2.006091">
      <ele>437.2</ele>
    </trkpt>
    <trkpt lat="42.217548" lon="-2.006014">
      <ele>437.3</ele>
    </trkpt>
    <trkpt lat="42.217186" lon="-2.005776">
      <ele>437.8</ele>
    </trkpt>
    <trkpt lat="42.217076" lon="-2.005739">
      <ele>438.2</ele>
    </trkpt>
    <trkpt lat="42.216852" lon="-2.005719">
      <ele>439.2</ele>
    </trkpt>
    <trkpt lat="42.216679" lon="-2.005907">
      <ele>440.1</ele>
    </trkpt>
    <trkpt lat="42.216554" lon="-2.005986">
      <ele>440.6</ele>
    </trkpt>
    <trkpt lat="42.216085" lon="-2.006391">
      <ele>442.8</ele>
    </trkpt>
    <trkpt lat="42.216072" lon="-2.006436">
      <ele>443</ele>
    </trkpt>
    <trkpt lat="42.215923" lon="-2.00662">
      <ele>444.3</ele>
    </trkpt>
    <trkpt lat="42.215866" lon="-2.006733">
      <ele>445</ele>
    </trkpt>
    <trkpt lat="42.215733" lon="-2.00686">
      <ele>446</ele>
    </trkpt>
    <trkpt lat="42.215713" lon="-2.006906">
      <ele>446.2</ele>
    </trkpt>
    <trkpt lat="42.215691" lon="-2.007274">
      <ele>447.2</ele>
    </trkpt>
    <trkpt lat="42.215654" lon="-2.007412">
      <ele>447.4</ele>
    </trkpt>
    <trkpt lat="42.215691" lon="-2.007962">
      <ele>447.7</ele>
    </trkpt>
    <trkpt lat="42.215668" lon="-2.008032">
      <ele>447.6</ele>
    </trkpt>
    <trkpt lat="42.215592" lon="-2.008099">
      <ele>447.6</ele>
    </trkpt>
    <trkpt lat="42.215589" lon="-2.008218">
      <ele>447.4</ele>
    </trkpt>
    <trkpt lat="42.215685" lon="-2.008766">
      <ele>446.3</ele>
    </trkpt>
    <trkpt lat="42.215604" lon="-2.008649">
      <ele>445.7</ele>
    </trkpt>
    <trkpt lat="42.21572" lon="-2.009009">
      <ele>444</ele>
    </trkpt>
    <trkpt lat="42.215755" lon="-2.009116">
      <ele>443.3</ele>
    </trkpt>
    <trkpt lat="42.215599" lon="-2.009585">
      <ele>440.9</ele>
    </trkpt>
    <trkpt lat="42.215532" lon="-2.009787">
      <ele>440.3</ele>
    </trkpt>
    <trkpt lat="42.215416" lon="-2.009966">
      <ele>439.8</ele>
    </trkpt>
    <trkpt lat="42.215492" lon="-2.010403">
      <ele>439</ele>
    </trkpt>
    <trkpt lat="42.215596" lon="-2.011712">
      <ele>437.7</ele>
    </trkpt>
    <trkpt lat="42.215586" lon="-2.01208">
      <ele>437.5</ele>
    </trkpt>
    <trkpt lat="42.21548" lon="-2.012978">
      <ele>437.5</ele>
    </trkpt>
    <trkpt lat="42.215425" lon="-2.014155">
      <ele>436.8</ele>
    </trkpt>
    <trkpt lat="42.215415" lon="-2.014876">
      <ele>436.6</ele>
    </trkpt>
    <trkpt lat="42.215446" lon="-2.015096">
      <ele>436.6</ele>
    </trkpt>
    <trkpt lat="42.215504" lon="-2.015291">
      <ele>436.6</ele>
    </trkpt>
    <trkpt lat="42.215598" lon="-2.01545">
      <ele>436.5</ele>
    </trkpt>
    <trkpt lat="42.216431" lon="-2.016562">
      <ele>437.5</ele>
    </trkpt>
    <trkpt lat="42.216612" lon="-2.016887">
      <ele>437.9</ele>
    </trkpt>
    <trkpt lat="42.217861" lon="-2.019699">
      <ele>440.8</ele>
    </trkpt>
    <trkpt lat="42.218596" lon="-2.021412">
      <ele>443.7</ele>
    </trkpt>
    <trkpt lat="42.219451" lon="-2.023567">
      <ele>448.9</ele>
    </trkpt>
    <trkpt lat="42.220276" lon="-2.025639">
      <ele>449.7</ele>
    </trkpt>
    <trkpt lat="42.223867" lon="-2.034236">
      <ele>459.1</ele>
    </trkpt>
    <trkpt lat="42.224168" lon="-2.035104">
      <ele>460.1</ele>
    </trkpt>
    <trkpt lat="42.224849" lon="-2.037217">
      <ele>461</ele>
    </trkpt>
    <trkpt lat="42.225114" lon="-2.037811">
      <ele>461.5</ele>
    </trkpt>
    <trkpt lat="42.225733" lon="-2.039">
      <ele>463.1</ele>
    </trkpt>
    <trkpt lat="42.225881" lon="-2.039382">
      <ele>463.6</ele>
    </trkpt>
    <trkpt lat="42.225975" lon="-2.039735">
      <ele>463.8</ele>
    </trkpt>
    <trkpt lat="42.226026" lon="-2.040032">
      <ele>464</ele>
    </trkpt>
    <trkpt lat="42.226063" lon="-2.040648">
      <ele>464.1</ele>
    </trkpt>
    <trkpt lat="42.226108" lon="-2.042253">
      <ele>464.2</ele>
    </trkpt>
    <trkpt lat="42.226164" lon="-2.04265">
      <ele>464.3</ele>
    </trkpt>
    <trkpt lat="42.227029" lon="-2.045682">
      <ele>463.7</ele>
    </trkpt>
    <trkpt lat="42.226476" lon="-2.045746">
      <ele>463.3</ele>
    </trkpt>
    <trkpt lat="42.226874" lon="-2.047495">
      <ele>464.3</ele>
    </trkpt>
    <trkpt lat="42.227259" lon="-2.049179">
      <ele>467.1</ele>
    </trkpt>
    <trkpt lat="42.227674" lon="-2.050945">
      <ele>469</ele>
    </trkpt>
    <trkpt lat="42.227764" lon="-2.051394">
      <ele>469.2</ele>
    </trkpt>
    <trkpt lat="42.227771" lon="-2.051432">
      <ele>469.2</ele>
    </trkpt>
    <trkpt lat="42.22769" lon="-2.051555">
      <ele>469.2</ele>
    </trkpt>
    <trkpt lat="42.22813" lon="-2.05357">
      <ele>469.5</ele>
    </trkpt>
    <trkpt lat="42.228283" lon="-2.053518">
      <ele>469.5</ele>
    </trkpt>
    <trkpt lat="42.229172" lon="-2.057392">
      <ele>472.8</ele>
    </trkpt>
    <trkpt lat="42.229283" lon="-2.057851">
      <ele>473.2</ele>
    </trkpt>
    <trkpt lat="42.229443" lon="-2.058585">
      <ele>474</ele>
    </trkpt>
    <trkpt lat="42.22971" lon="-2.059558">
      <ele>475.2</ele>
    </trkpt>
    <trkpt lat="42.229797" lon="-2.059747">
      <ele>475.5</ele>
    </trkpt>
    <trkpt lat="42.229871" lon="-2.059875">
      <ele>475.6</ele>
    </trkpt>
    <trkpt lat="42.230373" lon="-2.06047">
      <ele>476.5</ele>
    </trkpt>
    <trkpt lat="42.231889" lon="-2.062294">
      <ele>478</ele>
    </trkpt>
    <trkpt lat="42.23211" lon="-2.062676">
      <ele>478.4</ele>
    </trkpt>
    <trkpt lat="42.232207" lon="-2.062952">
      <ele>478.6</ele>
    </trkpt>
    <trkpt lat="42.23296" lon="-2.066005">
      <ele>480.8</ele>
    </trkpt>
    <trkpt lat="42.233377" lon="-2.067671">
      <ele>481.7</ele>
    </trkpt>
    <trkpt lat="42.233474" lon="-2.068297">
      <ele>482.1</ele>
    </trkpt>
    <trkpt lat="42.233449" lon="-2.068971">
      <ele>482.7</ele>
    </trkpt>
    <trkpt lat="42.232745" lon="-2.074773">
      <ele>488.3</ele>
    </trkpt>
    <trkpt lat="42.232689" lon="-2.075198">
      <ele>488.6</ele>
    </trkpt>
    <trkpt lat="42.232585" lon="-2.075496">
      <ele>488.9</ele>
    </trkpt>
    <trkpt lat="42.232412" lon="-2.075836">
      <ele>489.2</ele>
    </trkpt>
    <trkpt lat="42.232264" lon="-2.076041">
      <ele>489.3</ele>
    </trkpt>
    <trkpt lat="42.232042" lon="-2.076252">
      <ele>489.5</ele>
    </trkpt>
    <trkpt lat="42.231815" lon="-2.076525">
      <ele>489.7</ele>
    </trkpt>
    <trkpt lat="42.231698" lon="-2.076803">
      <ele>489.8</ele>
    </trkpt>
    <trkpt lat="42.231601" lon="-2.077535">
      <ele>489.9</ele>
    </trkpt>
    <trkpt lat="42.231453" lon="-2.078112">
      <ele>490.2</ele>
    </trkpt>
    <trkpt lat="42.231151" lon="-2.0791">
      <ele>490.9</ele>
    </trkpt>
    <trkpt lat="42.23111" lon="-2.07943">
      <ele>491.2</ele>
    </trkpt>
    <trkpt lat="42.231089" lon="-2.081134">
      <ele>493.1</ele>
    </trkpt>
    <trkpt lat="42.231057" lon="-2.081844">
      <ele>493.7</ele>
    </trkpt>
    <trkpt lat="42.231038" lon="-2.082063">
      <ele>493.9</ele>
    </trkpt>
    <trkpt lat="42.230919" lon="-2.08258">
      <ele>494.2</ele>
    </trkpt>
    <trkpt lat="42.230839" lon="-2.08282">
      <ele>494.2</ele>
    </trkpt>
    <trkpt lat="42.230336" lon="-2.084333">
      <ele>494.8</ele>
    </trkpt>
    <trkpt lat="42.230128" lon="-2.085065">
      <ele>495.3</ele>
    </trkpt>
    <trkpt lat="42.229984" lon="-2.08552">
      <ele>495.8</ele>
    </trkpt>
    <trkpt lat="42.229795" lon="-2.086089">
      <ele>496.4</ele>
    </trkpt>
    <trkpt lat="42.229648" lon="-2.086604">
      <ele>497</ele>
    </trkpt>
    <trkpt lat="42.229079" lon="-2.088306">
      <ele>499.2</ele>
    </trkpt>
    <trkpt lat="42.22897" lon="-2.088685">
      <ele>499.5</ele>
    </trkpt>
    <trkpt lat="42.22883" lon="-2.089093">
      <ele>499.8</ele>
    </trkpt>
    <trkpt lat="42.228519" lon="-2.090149">
      <ele>500.5</ele>
    </trkpt>
    <trkpt lat="42.22783" lon="-2.09221">
      <ele>502.8</ele>
    </trkpt>
    <trkpt lat="42.227466" lon="-2.093397">
      <ele>504.4</ele>
    </trkpt>
    <trkpt lat="42.227347" lon="-2.093649">
      <ele>504.7</ele>
    </trkpt>
    <trkpt lat="42.227321" lon="-2.093727">
      <ele>504.8</ele>
    </trkpt>
    <trkpt lat="42.227322" lon="-2.09388">
      <ele>505</ele>
    </trkpt>
    <trkpt lat="42.227364" lon="-2.093906">
      <ele>505.1</ele>
    </trkpt>
    <trkpt lat="42.227412" lon="-2.093993">
      <ele>505.3</ele>
    </trkpt>
    <trkpt lat="42.227418" lon="-2.094072">
      <ele>505.4</ele>
    </trkpt>
    <trkpt lat="42.227369" lon="-2.09419">
      <ele>505.6</ele>
    </trkpt>
    <trkpt lat="42.227282" lon="-2.094228">
      <ele>505.9</ele>
    </trkpt>
    <trkpt lat="42.227188" lon="-2.094357">
      <ele>506.2</ele>
    </trkpt>
    <trkpt lat="42.227128" lon="-2.094444">
      <ele>506.5</ele>
    </trkpt>
    <trkpt lat="42.227005" lon="-2.094851">
      <ele>507.6</ele>
    </trkpt>
    <trkpt lat="42.226903" lon="-2.095144">
      <ele>508.4</ele>
    </trkpt>
    <trkpt lat="42.226883" lon="-2.095201">
      <ele>508.5</ele>
    </trkpt>
    <trkpt lat="42.226844" lon="-2.095332">
      <ele>508.8</ele>
    </trkpt>
    <trkpt lat="42.226543" lon="-2.096265">
      <ele>510.8</ele>
    </trkpt>
    <trkpt lat="42.226353" lon="-2.096786">
      <ele>511.7</ele>
    </trkpt>
    <trkpt lat="42.226279" lon="-2.096962">
      <ele>511.9</ele>
    </trkpt>
    <trkpt lat="42.22625" lon="-2.097026">
      <ele>512</ele>
    </trkpt>
    <trkpt lat="42.225805" lon="-2.098001">
      <ele>513</ele>
    </trkpt>
    <trkpt lat="42.225668" lon="-2.09832">
      <ele>513.4</ele>
    </trkpt>
    <trkpt lat="42.225267" lon="-2.099205">
      <ele>514.9</ele>
    </trkpt>
    <trkpt lat="42.224923" lon="-2.099957">
      <ele>515.9</ele>
    </trkpt>
    <trkpt lat="42.224891" lon="-2.100033">
      <ele>516</ele>
    </trkpt>
    <trkpt lat="42.224875" lon="-2.100347">
      <ele>516.1</ele>
    </trkpt>
    <trkpt lat="42.224883" lon="-2.100386">
      <ele>516.2</ele>
    </trkpt>
    <trkpt lat="42.224873" lon="-2.100512">
      <ele>516.2</ele>
    </trkpt>
    <trkpt lat="42.224849" lon="-2.100563">
      <ele>516.2</ele>
    </trkpt>
    <trkpt lat="42.224777" lon="-2.100629">
      <ele>516.2</ele>
    </trkpt>
    <trkpt lat="42.224715" lon="-2.100637">
      <ele>516.1</ele>
    </trkpt>
    <trkpt lat="42.22462" lon="-2.100582">
      <ele>516.1</ele>
    </trkpt>
    <trkpt lat="42.224572" lon="-2.100465">
      <ele>516</ele>
    </trkpt>
    <trkpt lat="42.224571" lon="-2.100393">
      <ele>515.9</ele>
    </trkpt>
    <trkpt lat="42.224446" lon="-2.100267">
      <ele>515.7</ele>
    </trkpt>
    <trkpt lat="42.223825" lon="-2.099905">
      <ele>514.3</ele>
    </trkpt>
    <trkpt lat="42.223065" lon="-2.099466">
      <ele>512.2</ele>
    </trkpt>
    <trkpt lat="42.22302" lon="-2.09944">
      <ele>512.1</ele>
    </trkpt>
    <trkpt lat="42.223003" lon="-2.09943">
      <ele>512.1</ele>
    </trkpt>
    <trkpt lat="42.222243" lon="-2.098977">
      <ele>511.3</ele>
    </trkpt>
    <trkpt lat="42.22213" lon="-2.098918">
      <ele>511.2</ele>
    </trkpt>
    <trkpt lat="42.221597" lon="-2.09862">
      <ele>510.9</ele>
    </trkpt>
    <trkpt lat="42.22213" lon="-2.098918">
      <ele>511.2</ele>
    </trkpt>
    <trkpt lat="42.222243" lon="-2.098977">
      <ele>511.3</ele>
    </trkpt>
    <trkpt lat="42.223003" lon="-2.09943">
      <ele>512.1</ele>
    </trkpt>
    <trkpt lat="42.22302" lon="-2.09944">
      <ele>512.1</ele>
    </trkpt>
    <trkpt lat="42.223065" lon="-2.099466">
      <ele>512.2</ele>
    </trkpt>
    <trkpt lat="42.223825" lon="-2.099905">
      <ele>514.3</ele>
    </trkpt>
    <trkpt lat="42.224446" lon="-2.100267">
      <ele>516.1</ele>
    </trkpt>
    <trkpt lat="42.224614" lon="-2.100275">
      <ele>516.7</ele>
    </trkpt>
    <trkpt lat="42.224698" lon="-2.100216">
      <ele>517</ele>
    </trkpt>
    <trkpt lat="42.224804" lon="-2.100237">
      <ele>517.4</ele>
    </trkpt>
    <trkpt lat="42.224875" lon="-2.100347">
      <ele>517.9</ele>
    </trkpt>
    <trkpt lat="42.224883" lon="-2.100386">
      <ele>518</ele>
    </trkpt>
    <trkpt lat="42.225017" lon="-2.100585">
      <ele>518.8</ele>
    </trkpt>
    <trkpt lat="42.22549" lon="-2.10085">
      <ele>521.1</ele>
    </trkpt>
    <trkpt lat="42.226459" lon="-2.101409">
      <ele>525.7</ele>
    </trkpt>
    <trkpt lat="42.226633" lon="-2.100702">
      <ele>527</ele>
    </trkpt>
    <trkpt lat="42.226644" lon="-2.100653">
      <ele>527</ele>
    </trkpt>
    <trkpt lat="42.226746" lon="-2.100269">
      <ele>527.3</ele>
    </trkpt>
    <trkpt lat="42.226911" lon="-2.099686">
      <ele>527.2</ele>
    </trkpt>
    <trkpt lat="42.226998" lon="-2.099376">
      <ele>526.9</ele>
    </trkpt>
    <trkpt lat="42.227102" lon="-2.099007">
      <ele>526.5</ele>
    </trkpt>
    <trkpt lat="42.227132" lon="-2.098909">
      <ele>526.4</ele>
    </trkpt>
    <trkpt lat="42.227448" lon="-2.09785">
      <ele>524.8</ele>
    </trkpt>
    <trkpt lat="42.227471" lon="-2.09776">
      <ele>524.6</ele>
    </trkpt>
    <trkpt lat="42.227657" lon="-2.096973">
      <ele>522</ele>
    </trkpt>
    <trkpt lat="42.227803" lon="-2.096368">
      <ele>520.2</ele>
    </trkpt>
    <trkpt lat="42.227823" lon="-2.096283">
      <ele>520</ele>
    </trkpt>
    <trkpt lat="42.227909" lon="-2.095935">
      <ele>519.2</ele>
    </trkpt>
    <trkpt lat="42.227927" lon="-2.095864">
      <ele>519</ele>
    </trkpt>
    <trkpt lat="42.227972" lon="-2.095555">
      <ele>518.2</ele>
    </trkpt>
    <trkpt lat="42.227964" lon="-2.095421">
      <ele>517.8</ele>
    </trkpt>
    <trkpt lat="42.22803" lon="-2.09532">
      <ele>517.6</ele>
    </trkpt>
    <trkpt lat="42.22814" lon="-2.095318">
      <ele>517.4</ele>
    </trkpt>
    <trkpt lat="42.228176" lon="-2.095353">
      <ele>517.3</ele>
    </trkpt>
    <trkpt lat="42.228215" lon="-2.095383">
      <ele>517.2</ele>
    </trkpt>
    <trkpt lat="42.228303" lon="-2.09538">
      <ele>517.2</ele>
    </trkpt>
    <trkpt lat="42.228394" lon="-2.095309">
      <ele>517.1</ele>
    </trkpt>
    <trkpt lat="42.228462" lon="-2.095198">
      <ele>517.1</ele>
    </trkpt>
    <trkpt lat="42.228797" lon="-2.094432">
      <ele>518</ele>
    </trkpt>
    <trkpt lat="42.228842" lon="-2.094352">
      <ele>518</ele>
    </trkpt>
    <trkpt lat="42.22894" lon="-2.09426">
      <ele>518.1</ele>
    </trkpt>
    <trkpt lat="42.229095" lon="-2.094206">
      <ele>517.9</ele>
    </trkpt>
    <trkpt lat="42.22925" lon="-2.094191">
      <ele>517.8</ele>
    </trkpt>
    <trkpt lat="42.229562" lon="-2.094242">
      <ele>517.4</ele>
    </trkpt>
    <trkpt lat="42.2298" lon="-2.094301">
      <ele>517</ele>
    </trkpt>
    <trkpt lat="42.230753" lon="-2.094766">
      <ele>514.7</ele>
    </trkpt>
    <trkpt lat="42.230954" lon="-2.094836">
      <ele>514.3</ele>
    </trkpt>
    <trkpt lat="42.231195" lon="-2.094807">
      <ele>514</ele>
    </trkpt>
    <trkpt lat="42.231979" lon="-2.094379">
      <ele>514</ele>
    </trkpt>
    <trkpt lat="42.232044" lon="-2.094344">
      <ele>514.1</ele>
    </trkpt>
    <trkpt lat="42.232472" lon="-2.093996">
      <ele>514.6</ele>
    </trkpt>
    <trkpt lat="42.233227" lon="-2.093187">
      <ele>515.6</ele>
    </trkpt>
    <trkpt lat="42.233331" lon="-2.093098">
      <ele>515.7</ele>
    </trkpt>
    <trkpt lat="42.233427" lon="-2.09306">
      <ele>515.9</ele>
    </trkpt>
    <trkpt lat="42.23385" lon="-2.092965">
      <ele>516.9</ele>
    </trkpt>
    <trkpt lat="42.233996" lon="-2.092843">
      <ele>517.4</ele>
    </trkpt>
    <trkpt lat="42.234838" lon="-2.092109">
      <ele>522.2</ele>
    </trkpt>
    <trkpt lat="42.235158" lon="-2.091582">
      <ele>525.5</ele>
    </trkpt>
    <trkpt lat="42.235703" lon="-2.089836">
      <ele>532.8</ele>
    </trkpt>
    <trkpt lat="42.235747" lon="-2.0898">
      <ele>533</ele>
    </trkpt>
    <trkpt lat="42.235799" lon="-2.089793">
      <ele>533.2</ele>
    </trkpt>
    <trkpt lat="42.235835" lon="-2.08982">
      <ele>533.3</ele>
    </trkpt>
    <trkpt lat="42.235857" lon="-2.089908">
      <ele>533.6</ele>
    </trkpt>
    <trkpt lat="42.235723" lon="-2.090473">
      <ele>535.1</ele>
    </trkpt>
    <trkpt lat="42.235684" lon="-2.09072">
      <ele>535.5</ele>
    </trkpt>
    <trkpt lat="42.235697" lon="-2.090885">
      <ele>535.9</ele>
    </trkpt>
    <trkpt lat="42.235773" lon="-2.091022">
      <ele>536.2</ele>
    </trkpt>
    <trkpt lat="42.235875" lon="-2.091048">
      <ele>536.5</ele>
    </trkpt>
    <trkpt lat="42.235969" lon="-2.091006">
      <ele>536.8</ele>
    </trkpt>
    <trkpt lat="42.236013" lon="-2.090947">
      <ele>537</ele>
    </trkpt>
    <trkpt lat="42.236032" lon="-2.090833">
      <ele>537.4</ele>
    </trkpt>
    <trkpt lat="42.235978" lon="-2.090402">
      <ele>539</ele>
    </trkpt>
    <trkpt lat="42.236043" lon="-2.090072">
      <ele>540.5</ele>
    </trkpt>
    <trkpt lat="42.23612" lon="-2.089937">
      <ele>541.4</ele>
    </trkpt>
    <trkpt lat="42.236251" lon="-2.089903">
      <ele>542.2</ele>
    </trkpt>
    <trkpt lat="42.236849" lon="-2.090045">
      <ele>545.5</ele>
    </trkpt>
    <trkpt lat="42.236922" lon="-2.089996">
      <ele>545.9</ele>
    </trkpt>
    <trkpt lat="42.236938" lon="-2.089916">
      <ele>546.3</ele>
    </trkpt>
    <trkpt lat="42.23676" lon="-2.089464">
      <ele>548.4</ele>
    </trkpt>
    <trkpt lat="42.236722" lon="-2.089243">
      <ele>549.2</ele>
    </trkpt>
    <trkpt lat="42.236771" lon="-2.088949">
      <ele>550.2</ele>
    </trkpt>
    <trkpt lat="42.237004" lon="-2.088417">
      <ele>551.8</ele>
    </trkpt>
    <trkpt lat="42.237084" lon="-2.0883">
      <ele>552.1</ele>
    </trkpt>
    <trkpt lat="42.237611" lon="-2.087722">
      <ele>555</ele>
    </trkpt>
    <trkpt lat="42.237666" lon="-2.087617">
      <ele>555.4</ele>
    </trkpt>
    <trkpt lat="42.237761" lon="-2.087138">
      <ele>557.1</ele>
    </trkpt>
    <trkpt lat="42.237835" lon="-2.08708">
      <ele>557.4</ele>
    </trkpt>
    <trkpt lat="42.237955" lon="-2.087106">
      <ele>557.9</ele>
    </trkpt>
    <trkpt lat="42.238011" lon="-2.087225">
      <ele>558.3</ele>
    </trkpt>
    <trkpt lat="42.237958" lon="-2.087603">
      <ele>559.3</ele>
    </trkpt>
    <trkpt lat="42.237879" lon="-2.08777">
      <ele>559.8</ele>
    </trkpt>
    <trkpt lat="42.237421" lon="-2.088306">
      <ele>563</ele>
    </trkpt>
    <trkpt lat="42.237319" lon="-2.088468">
      <ele>563.9</ele>
    </trkpt>
    <trkpt lat="42.237291" lon="-2.088706">
      <ele>564.9</ele>
    </trkpt>
    <trkpt lat="42.237457" lon="-2.089313">
      <ele>567.6</ele>
    </trkpt>
    <trkpt lat="42.23753" lon="-2.089453">
      <ele>568.5</ele>
    </trkpt>
    <trkpt lat="42.237732" lon="-2.089633">
      <ele>570.2</ele>
    </trkpt>
    <trkpt lat="42.238729" lon="-2.089958">
      <ele>576.5</ele>
    </trkpt>
    <trkpt lat="42.238852" lon="-2.090032">
      <ele>577.1</ele>
    </trkpt>
    <trkpt lat="42.239064" lon="-2.090412">
      <ele>578.3</ele>
    </trkpt>
    <trkpt lat="42.239243" lon="-2.090415">
      <ele>578.8</ele>
    </trkpt>
    <trkpt lat="42.23936" lon="-2.090307">
      <ele>579.2</ele>
    </trkpt>
    <trkpt lat="42.239365" lon="-2.090181">
      <ele>579.3</ele>
    </trkpt>
    <trkpt lat="42.239393" lon="-2.090072">
      <ele>579.5</ele>
    </trkpt>
    <trkpt lat="42.239507" lon="-2.089904">
      <ele>579.7</ele>
    </trkpt>
    <trkpt lat="42.239596" lon="-2.089853">
      <ele>579.8</ele>
    </trkpt>
    <trkpt lat="42.239726" lon="-2.089847">
      <ele>579.9</ele>
    </trkpt>
    <trkpt lat="42.239851" lon="-2.089915">
      <ele>580</ele>
    </trkpt>
    <trkpt lat="42.23995" lon="-2.090063">
      <ele>580.1</ele>
    </trkpt>
    <trkpt lat="42.240112" lon="-2.090205">
      <ele>580.2</ele>
    </trkpt>
    <trkpt lat="42.240328" lon="-2.090338">
      <ele>580.2</ele>
    </trkpt>
    <trkpt lat="42.2401" lon="-2.090404">
      <ele>580.2</ele>
    </trkpt>
    <trkpt lat="42.23994" lon="-2.09049">
      <ele>580</ele>
    </trkpt>
    <trkpt lat="42.239849" lon="-2.090612">
      <ele>579.9</ele>
    </trkpt>
    <trkpt lat="42.239702" lon="-2.090688">
      <ele>579.8</ele>
    </trkpt>
    <trkpt lat="42.239606" lon="-2.09068">
      <ele>579.8</ele>
    </trkpt>
    <trkpt lat="42.239534" lon="-2.090646">
      <ele>579.7</ele>
    </trkpt>
    <trkpt lat="42.239419" lon="-2.090515">
      <ele>579.7</ele>
    </trkpt>
    <trkpt lat="42.23936" lon="-2.090307">
      <ele>579.7</ele>
    </trkpt>
    <trkpt lat="42.239365" lon="-2.090181">
      <ele>579.7</ele>
    </trkpt>
    <trkpt lat="42.239291" lon="-2.090011">
      <ele>579.7</ele>
    </trkpt>
    <trkpt lat="42.239067" lon="-2.089796">
      <ele>579.8</ele>
    </trkpt>
    <trkpt lat="42.239009" lon="-2.089671">
      <ele>579.8</ele>
    </trkpt>
    <trkpt lat="42.23891" lon="-2.089427">
      <ele>579.8</ele>
    </trkpt>
    <trkpt lat="42.238815" lon="-2.088958">
      <ele>579.8</ele>
    </trkpt>
    <trkpt lat="42.238815" lon="-2.088633">
      <ele>579.6</ele>
    </trkpt>
    <trkpt lat="42.238844" lon="-2.088395">
      <ele>579.3</ele>
    </trkpt>
    <trkpt lat="42.238962" lon="-2.087834">
      <ele>578.1</ele>
    </trkpt>
    <trkpt lat="42.238994" lon="-2.087423">
      <ele>576.8</ele>
    </trkpt>
    <trkpt lat="42.238986" lon="-2.087217">
      <ele>576</ele>
    </trkpt>
    <trkpt lat="42.238945" lon="-2.086992">
      <ele>575</ele>
    </trkpt>
    <trkpt lat="42.238817" lon="-2.08658">
      <ele>572.9</ele>
    </trkpt>
    <trkpt lat="42.2387" lon="-2.086364">
      <ele>571.5</ele>
    </trkpt>
    <trkpt lat="42.238538" lon="-2.086188">
      <ele>570</ele>
    </trkpt>
    <trkpt lat="42.236656" lon="-2.084825">
      <ele>555.4</ele>
    </trkpt>
    <trkpt lat="42.236478" lon="-2.08465">
      <ele>554</ele>
    </trkpt>
    <trkpt lat="42.236246" lon="-2.084261">
      <ele>551.6</ele>
    </trkpt>
    <trkpt lat="42.236162" lon="-2.083989">
      <ele>550.1</ele>
    </trkpt>
    <trkpt lat="42.236062" lon="-2.083331">
      <ele>546.7</ele>
    </trkpt>
    <trkpt lat="42.235964" lon="-2.082858">
      <ele>544</ele>
    </trkpt>
    <trkpt lat="42.235764" lon="-2.082423">
      <ele>541</ele>
    </trkpt>
    <trkpt lat="42.235526" lon="-2.08211">
      <ele>538.2</ele>
    </trkpt>
    <trkpt lat="42.235161" lon="-2.081901">
      <ele>534.8</ele>
    </trkpt>
    <trkpt lat="42.234037" lon="-2.081725">
      <ele>525.2</ele>
    </trkpt>
    <trkpt lat="42.233752" lon="-2.081644">
      <ele>523.1</ele>
    </trkpt>
    <trkpt lat="42.233503" lon="-2.081534">
      <ele>521.3</ele>
    </trkpt>
    <trkpt lat="42.23331" lon="-2.081348">
      <ele>519.8</ele>
    </trkpt>
    <trkpt lat="42.233162" lon="-2.081089">
      <ele>518.2</ele>
    </trkpt>
    <trkpt lat="42.23304" lon="-2.080762">
      <ele>516.5</ele>
    </trkpt>
    <trkpt lat="42.232967" lon="-2.080454">
      <ele>515</ele>
    </trkpt>
    <trkpt lat="42.232946" lon="-2.080152">
      <ele>513.7</ele>
    </trkpt>
    <trkpt lat="42.232971" lon="-2.079797">
      <ele>512</ele>
    </trkpt>
    <trkpt lat="42.233157" lon="-2.078729">
      <ele>507.1</ele>
    </trkpt>
    <trkpt lat="42.233115" lon="-2.078261">
      <ele>505.1</ele>
    </trkpt>
    <trkpt lat="42.233064" lon="-2.078028">
      <ele>504</ele>
    </trkpt>
    <trkpt lat="42.232981" lon="-2.077802">
      <ele>502.8</ele>
    </trkpt>
    <trkpt lat="42.232898" lon="-2.077659">
      <ele>501.9</ele>
    </trkpt>
    <trkpt lat="42.232691" lon="-2.077446">
      <ele>500.3</ele>
    </trkpt>
    <trkpt lat="42.232356" lon="-2.077385">
      <ele>498.6</ele>
    </trkpt>
    <trkpt lat="42.232242" lon="-2.077451">
      <ele>497.9</ele>
    </trkpt>
    <trkpt lat="42.232121" lon="-2.077424">
      <ele>497.3</ele>
    </trkpt>
    <trkpt lat="42.232027" lon="-2.077336">
      <ele>496.7</ele>
    </trkpt>
    <trkpt lat="42.231985" lon="-2.07724">
      <ele>496.3</ele>
    </trkpt>
    <trkpt lat="42.231982" lon="-2.077049">
      <ele>495.6</ele>
    </trkpt>
    <trkpt lat="42.232019" lon="-2.076951">
      <ele>495.2</ele>
    </trkpt>
    <trkpt lat="42.232127" lon="-2.076847">
      <ele>494.5</ele>
    </trkpt>
    <trkpt lat="42.23233" lon="-2.076486">
      <ele>493</ele>
    </trkpt>
    <trkpt lat="42.232774" lon="-2.075559">
      <ele>491.2</ele>
    </trkpt>
    <trkpt lat="42.232881" lon="-2.075385">
      <ele>490.9</ele>
    </trkpt>
    <trkpt lat="42.232975" lon="-2.075327">
      <ele>490.8</ele>
    </trkpt>
    <trkpt lat="42.233097" lon="-2.075006">
      <ele>490.5</ele>
    </trkpt>
    <trkpt lat="42.233292" lon="-2.074574">
      <ele>490.2</ele>
    </trkpt>
    <trkpt lat="42.233399" lon="-2.074219">
      <ele>490.1</ele>
    </trkpt>
    <trkpt lat="42.233443" lon="-2.073901">
      <ele>490.1</ele>
    </trkpt>
    <trkpt lat="42.233474" lon="-2.073133">
      <ele>490.3</ele>
    </trkpt>
    <trkpt lat="42.233532" lon="-2.072498">
      <ele>490.8</ele>
    </trkpt>
    <trkpt lat="42.233611" lon="-2.072152">
      <ele>491.1</ele>
    </trkpt>
    <trkpt lat="42.234232" lon="-2.070333">
      <ele>493.6</ele>
    </trkpt>
    <trkpt lat="42.234544" lon="-2.069054">
      <ele>495.4</ele>
    </trkpt>
    <trkpt lat="42.234713" lon="-2.06816">
      <ele>496.1</ele>
    </trkpt>
    <trkpt lat="42.234789" lon="-2.067366">
      <ele>496.3</ele>
    </trkpt>
    <trkpt lat="42.234751" lon="-2.066711">
      <ele>496.1</ele>
    </trkpt>
    <trkpt lat="42.23462" lon="-2.06602">
      <ele>495.4</ele>
    </trkpt>
    <trkpt lat="42.234538" lon="-2.065784">
      <ele>495.1</ele>
    </trkpt>
    <trkpt lat="42.234289" lon="-2.065065">
      <ele>493.6</ele>
    </trkpt>
    <trkpt lat="42.233798" lon="-2.063873">
      <ele>489.9</ele>
    </trkpt>
    <trkpt lat="42.233674" lon="-2.063882">
      <ele>489.5</ele>
    </trkpt>
    <trkpt lat="42.233578" lon="-2.063765">
      <ele>489.2</ele>
    </trkpt>
    <trkpt lat="42.233574" lon="-2.063593">
      <ele>488.8</ele>
    </trkpt>
    <trkpt lat="42.233659" lon="-2.06347">
      <ele>488.5</ele>
    </trkpt>
    <trkpt lat="42.233563" lon="-2.063117">
      <ele>487.9</ele>
    </trkpt>
    <trkpt lat="42.233403" lon="-2.061336">
      <ele>486.5</ele>
    </trkpt>
    <trkpt lat="42.233363" lon="-2.061114">
      <ele>486.4</ele>
    </trkpt>
    <trkpt lat="42.232982" lon="-2.059632">
      <ele>486.2</ele>
    </trkpt>
    <trkpt lat="42.232915" lon="-2.059253">
      <ele>486.4</ele>
    </trkpt>
    <trkpt lat="42.232934" lon="-2.058614">
      <ele>486.9</ele>
    </trkpt>
    <trkpt lat="42.233011" lon="-2.058198">
      <ele>487.5</ele>
    </trkpt>
    <trkpt lat="42.233345" lon="-2.057056">
      <ele>489.4</ele>
    </trkpt>
    <trkpt lat="42.233399" lon="-2.05678">
      <ele>489.7</ele>
    </trkpt>
    <trkpt lat="42.233404" lon="-2.056477">
      <ele>489.9</ele>
    </trkpt>
    <trkpt lat="42.233349" lon="-2.056165">
      <ele>489.9</ele>
    </trkpt>
    <trkpt lat="42.233273" lon="-2.055944">
      <ele>489.9</ele>
    </trkpt>
    <trkpt lat="42.233067" lon="-2.055609">
      <ele>489.4</ele>
    </trkpt>
    <trkpt lat="42.232637" lon="-2.055061">
      <ele>488</ele>
    </trkpt>
    <trkpt lat="42.232399" lon="-2.054759">
      <ele>487.1</ele>
    </trkpt>
    <trkpt lat="42.231476" lon="-2.053584">
      <ele>484.7</ele>
    </trkpt>
    <trkpt lat="42.231216" lon="-2.053253">
      <ele>484</ele>
    </trkpt>
    <trkpt lat="42.230467" lon="-2.0523">
      <ele>480</ele>
    </trkpt>
    <trkpt lat="42.230049" lon="-2.051743">
      <ele>477.4</ele>
    </trkpt>
    <trkpt lat="42.229478" lon="-2.050971">
      <ele>474.4</ele>
    </trkpt>
    <trkpt lat="42.229393" lon="-2.050815">
      <ele>474</ele>
    </trkpt>
    <trkpt lat="42.228917" lon="-2.049804">
      <ele>472.8</ele>
    </trkpt>
    <trkpt lat="42.228292" lon="-2.048456">
      <ele>472.4</ele>
    </trkpt>
    <trkpt lat="42.228222" lon="-2.048304">
      <ele>472.4</ele>
    </trkpt>
    <trkpt lat="42.227732" lon="-2.047241">
      <ele>471.1</ele>
    </trkpt>
    <trkpt lat="42.227716" lon="-2.047207">
      <ele>471</ele>
    </trkpt>
    <trkpt lat="42.227596" lon="-2.046952">
      <ele>470.3</ele>
    </trkpt>
    <trkpt lat="42.227029" lon="-2.045682">
      <ele>466.4</ele>
    </trkpt>
    <trkpt lat="42.226164" lon="-2.04265">
      <ele>464.3</ele>
    </trkpt>
    <trkpt lat="42.226108" lon="-2.042253">
      <ele>464.2</ele>
    </trkpt>
    <trkpt lat="42.226063" lon="-2.040648">
      <ele>464.1</ele>
    </trkpt>
    <trkpt lat="42.226026" lon="-2.040032">
      <ele>464</ele>
    </trkpt>
    <trkpt lat="42.225975" lon="-2.039735">
      <ele>463.8</ele>
    </trkpt>
    <trkpt lat="42.225881" lon="-2.039382">
      <ele>463.6</ele>
    </trkpt>
    <trkpt lat="42.225733" lon="-2.039">
      <ele>463.1</ele>
    </trkpt>
    <trkpt lat="42.225114" lon="-2.037811">
      <ele>461.5</ele>
    </trkpt>
    <trkpt lat="42.224849" lon="-2.037217">
      <ele>461</ele>
    </trkpt>
    <trkpt lat="42.224168" lon="-2.035104">
      <ele>460.1</ele>
    </trkpt>
    <trkpt lat="42.223867" lon="-2.034236">
      <ele>459.1</ele>
    </trkpt>
    <trkpt lat="42.220276" lon="-2.025639">
      <ele>449.7</ele>
    </trkpt>
    <trkpt lat="42.219451" lon="-2.023567">
      <ele>448.9</ele>
    </trkpt>
    <trkpt lat="42.218596" lon="-2.021412">
      <ele>443.7</ele>
    </trkpt>
    <trkpt lat="42.217861" lon="-2.019699">
      <ele>440.8</ele>
    </trkpt>
    <trkpt lat="42.216612" lon="-2.016887">
      <ele>437.9</ele>
    </trkpt>
    <trkpt lat="42.216431" lon="-2.016562">
      <ele>437.5</ele>
    </trkpt>
    <trkpt lat="42.215598" lon="-2.01545">
      <ele>436.5</ele>
    </trkpt>
    <trkpt lat="42.215504" lon="-2.015291">
      <ele>436.6</ele>
    </trkpt>
    <trkpt lat="42.215446" lon="-2.015096">
      <ele>436.6</ele>
    </trkpt>
    <trkpt lat="42.215415" lon="-2.014876">
      <ele>436.6</ele>
    </trkpt>
    <trkpt lat="42.215425" lon="-2.014155">
      <ele>436.8</ele>
    </trkpt>
    <trkpt lat="42.21548" lon="-2.012978">
      <ele>437.5</ele>
    </trkpt>
    <trkpt lat="42.215586" lon="-2.01208">
      <ele>437.5</ele>
    </trkpt>
    <trkpt lat="42.215596" lon="-2.011712">
      <ele>437.7</ele>
    </trkpt>
    <trkpt lat="42.215492" lon="-2.010403">
      <ele>437.8</ele>
    </trkpt>
    <trkpt lat="42.215416" lon="-2.009966">
      <ele>437.7</ele>
    </trkpt>
    <trkpt lat="42.215407" lon="-2.00991">
      <ele>437.7</ele>
    </trkpt>
    <trkpt lat="42.215187" lon="-2.009044">
      <ele>438.8</ele>
    </trkpt>
    <trkpt lat="42.215054" lon="-2.008741">
      <ele>439.3</ele>
    </trkpt>
    <trkpt lat="42.214746" lon="-2.008451">
      <ele>439.3</ele>
    </trkpt>
    <trkpt lat="42.214588" lon="-2.008352">
      <ele>439.1</ele>
    </trkpt>
    <trkpt lat="42.214508" lon="-2.008332">
      <ele>438.9</ele>
    </trkpt>
    <trkpt lat="42.214324" lon="-2.008286">
      <ele>438.5</ele>
    </trkpt>
    <trkpt lat="42.213545" lon="-2.008432">
      <ele>436.5</ele>
    </trkpt>
    <trkpt lat="42.213269" lon="-2.008426">
      <ele>435.3</ele>
    </trkpt>
    <trkpt lat="42.213119" lon="-2.008316">
      <ele>434.3</ele>
    </trkpt>
    <trkpt lat="42.21305" lon="-2.008212">
      <ele>433.9</ele>
    </trkpt>
    <trkpt lat="42.21294" lon="-2.007947">
      <ele>433.1</ele>
    </trkpt>
    <trkpt lat="42.212911" lon="-2.007768">
      <ele>432.7</ele>
    </trkpt>
    <trkpt lat="42.212877" lon="-2.007565">
      <ele>432.5</ele>
    </trkpt>
    <trkpt lat="42.212911" lon="-2.00675">
      <ele>432.1</ele>
    </trkpt>
    <trkpt lat="42.212998" lon="-2.006048">
      <ele>432.6</ele>
    </trkpt>
    <trkpt lat="42.213052" lon="-2.00597">
      <ele>432.7</ele>
    </trkpt>
    <trkpt lat="42.213148" lon="-2.005831">
      <ele>432.8</ele>
    </trkpt>
    <trkpt lat="42.213683" lon="-2.005696">
      <ele>433.5</ele>
    </trkpt>
    <trkpt lat="42.213968" lon="-2.005623">
      <ele>433.8</ele>
    </trkpt>
    <trkpt lat="42.214018" lon="-2.00561">
      <ele>433.9</ele>
    </trkpt>
    <trkpt lat="42.214284" lon="-2.005543">
      <ele>434.1</ele>
    </trkpt>
    <trkpt lat="42.214823" lon="-2.005394">
      <ele>434.1</ele>
    </trkpt>
    <trkpt lat="42.215349" lon="-2.00529">
      <ele>433.1</ele>
    </trkpt>
    <trkpt lat="42.215878" lon="-2.005185">
      <ele>432.5</ele>
    </trkpt>
    <trkpt lat="42.216421" lon="-2.005096">
      <ele>432.2</ele>
    </trkpt>
    <trkpt lat="42.216712" lon="-2.005048">
      <ele>432.2</ele>
    </trkpt>
    <trkpt lat="42.216842" lon="-2.005103">
      <ele>432.3</ele>
    </trkpt>
    <trkpt lat="42.21701" lon="-2.005242">
      <ele>432.4</ele>
    </trkpt>
    <trkpt lat="42.218042" lon="-2.006113">
      <ele>434.4</ele>
    </trkpt>
    <trkpt lat="42.218201" lon="-2.006227">
      <ele>434.7</ele>
    </trkpt>
    <trkpt lat="42.218388" lon="-2.006278">
      <ele>435</ele>
    </trkpt>
    <trkpt lat="42.218598" lon="-2.006294">
      <ele>435.3</ele>
    </trkpt>
    <trkpt lat="42.219209" lon="-2.006302">
      <ele>436.1</ele>
    </trkpt>
    <trkpt lat="42.219816" lon="-2.006468">
      <ele>436.2</ele>
    </trkpt>
    <trkpt lat="42.220047" lon="-2.006427">
      <ele>436.1</ele>
    </trkpt>
    <trkpt lat="42.221322" lon="-2.00583">
      <ele>439.9</ele>
    </trkpt>
    <trkpt lat="42.221591" lon="-2.005818">
      <ele>441.3</ele>
    </trkpt>
    <trkpt lat="42.222323" lon="-2.00584">
      <ele>444.8</ele>
    </trkpt>
    <trkpt lat="42.223209" lon="-2.005867">
      <ele>445.2</ele>
    </trkpt>
    <trkpt lat="42.223268" lon="-2.005869">
      <ele>445</ele>
    </trkpt>
    <trkpt lat="42.22343" lon="-2.005874">
      <ele>444.2</ele>
    </trkpt>
    <trkpt lat="42.223625" lon="-2.005929">
      <ele>443</ele>
    </trkpt>
    <trkpt lat="42.224407" lon="-2.006503">
      <ele>437.2</ele>
    </trkpt>
    <trkpt lat="42.224705" lon="-2.006666">
      <ele>435.5</ele>
    </trkpt>
    <trkpt lat="42.224933" lon="-2.006718">
      <ele>434.7</ele>
    </trkpt>
    <trkpt lat="42.225159" lon="-2.006698">
      <ele>434.2</ele>
    </trkpt>
    <trkpt lat="42.22546" lon="-2.006609">
      <ele>434.1</ele>
    </trkpt>
    <trkpt lat="42.227362" lon="-2.005859">
      <ele>439.5</ele>
    </trkpt>
    <trkpt lat="42.230271" lon="-2.005115">
      <ele>437.6</ele>
    </trkpt>
    <trkpt lat="42.230834" lon="-2.005116">
      <ele>436.8</ele>
    </trkpt>
    <trkpt lat="42.230917" lon="-2.005055">
      <ele>436.7</ele>
    </trkpt>
    <trkpt lat="42.231305" lon="-2.005083">
      <ele>436.1</ele>
    </trkpt>
    <trkpt lat="42.240129" lon="-2.00667">
      <ele>425</ele>
    </trkpt>
    <trkpt lat="42.241897" lon="-2.007018">
      <ele>422.4</ele>
    </trkpt>
    <trkpt lat="42.243311" lon="-2.007242">
      <ele>420.8</ele>
    </trkpt>
    <trkpt lat="42.250705" lon="-2.008614">
      <ele>411.3</ele>
    </trkpt>
    <trkpt lat="42.255715" lon="-2.009529">
      <ele>405.1</ele>
    </trkpt>
    <trkpt lat="42.262229" lon="-2.010743">
      <ele>398.4</ele>
    </trkpt>
    <trkpt lat="42.26294" lon="-2.010875">
      <ele>397.6</ele>
    </trkpt>
    <trkpt lat="42.269979" lon="-2.01218">
      <ele>390.7</ele>
    </trkpt>
    <trkpt lat="42.270032" lon="-2.012318">
      <ele>390.5</ele>
    </trkpt>
    <trkpt lat="42.271965" lon="-2.012651">
      <ele>388.3</ele>
    </trkpt>
    <trkpt lat="42.272342" lon="-2.012694">
      <ele>387.8</ele>
    </trkpt>
    <trkpt lat="42.272717" lon="-2.012696">
      <ele>387.1</ele>
    </trkpt>
    <trkpt lat="42.273029" lon="-2.01266">
      <ele>386.4</ele>
    </trkpt>
    <trkpt lat="42.273355" lon="-2.012606">
      <ele>385.5</ele>
    </trkpt>
    <trkpt lat="42.27388" lon="-2.012418">
      <ele>384.1</ele>
    </trkpt>
    <trkpt lat="42.274266" lon="-2.012235">
      <ele>383.1</ele>
    </trkpt>
    <trkpt lat="42.276864" lon="-2.010566">
      <ele>378.3</ele>
    </trkpt>
    <trkpt lat="42.27712" lon="-2.01044">
      <ele>377.9</ele>
    </trkpt>
    <trkpt lat="42.277557" lon="-2.010297">
      <ele>377.2</ele>
    </trkpt>
    <trkpt lat="42.278068" lon="-2.010266">
      <ele>376.5</ele>
    </trkpt>
    <trkpt lat="42.279689" lon="-2.010457">
      <ele>373.9</ele>
    </trkpt>
    <trkpt lat="42.280008" lon="-2.010495">
      <ele>373.5</ele>
    </trkpt>
    <trkpt lat="42.280291" lon="-2.010577">
      <ele>373.2</ele>
    </trkpt>
    <trkpt lat="42.280506" lon="-2.010697">
      <ele>373.1</ele>
    </trkpt>
    <trkpt lat="42.281256" lon="-2.011433">
      <ele>374</ele>
    </trkpt>
    <trkpt lat="42.281533" lon="-2.01167">
      <ele>374.9</ele>
    </trkpt>
    <trkpt lat="42.281816" lon="-2.011821">
      <ele>375.7</ele>
    </trkpt>
    <trkpt lat="42.282205" lon="-2.011887">
      <ele>377</ele>
    </trkpt>
    <trkpt lat="42.284856" lon="-2.011934">
      <ele>382.4</ele>
    </trkpt>
    <trkpt lat="42.285109" lon="-2.011939">
      <ele>382.2</ele>
    </trkpt>
    <trkpt lat="42.28537" lon="-2.011855">
      <ele>381.9</ele>
    </trkpt>
    <trkpt lat="42.285486" lon="-2.011753">
      <ele>381.6</ele>
    </trkpt>
    <trkpt lat="42.285592" lon="-2.011763">
      <ele>381.4</ele>
    </trkpt>
    <trkpt lat="42.285736" lon="-2.011776">
      <ele>381.1</ele>
    </trkpt>
    <trkpt lat="42.285885" lon="-2.011664">
      <ele>380.7</ele>
    </trkpt>
    <trkpt lat="42.285902" lon="-2.01164">
      <ele>380.6</ele>
    </trkpt>
    <trkpt lat="42.286006" lon="-2.011493">
      <ele>380.1</ele>
    </trkpt>
    <trkpt lat="42.286088" lon="-2.011328">
      <ele>379.7</ele>
    </trkpt>
    <trkpt lat="42.28617" lon="-2.01128">
      <ele>379.4</ele>
    </trkpt>
    <trkpt lat="42.28662" lon="-2.010424">
      <ele>377.2</ele>
    </trkpt>
    <trkpt lat="42.287548" lon="-2.00883">
      <ele>373.5</ele>
    </trkpt>
    <trkpt lat="42.291912" lon="-2.000996">
      <ele>363.2</ele>
    </trkpt>
    <trkpt lat="42.293578" lon="-1.998007">
      <ele>356.3</ele>
    </trkpt>
    <trkpt lat="42.294066" lon="-1.997065">
      <ele>354.1</ele>
    </trkpt>
    <trkpt lat="42.294103" lon="-1.996741">
      <ele>353.6</ele>
    </trkpt>
    <trkpt lat="42.294029" lon="-1.99651">
      <ele>353.2</ele>
    </trkpt>
    <trkpt lat="42.294038" lon="-1.996258">
      <ele>352.9</ele>
    </trkpt>
    <trkpt lat="42.294089" lon="-1.996107">
      <ele>352.7</ele>
    </trkpt>
    <trkpt lat="42.294153" lon="-1.996007">
      <ele>352.5</ele>
    </trkpt>
    <trkpt lat="42.294222" lon="-1.995934">
      <ele>352.4</ele>
    </trkpt>
    <trkpt lat="42.294336" lon="-1.99587">
      <ele>352.2</ele>
    </trkpt>
    <trkpt lat="42.29452" lon="-1.995866">
      <ele>351.9</ele>
    </trkpt>
    <trkpt lat="42.29464" lon="-1.995813">
      <ele>351.8</ele>
    </trkpt>
    <trkpt lat="42.294824" lon="-1.995623">
      <ele>351.4</ele>
    </trkpt>
    <trkpt lat="42.295194" lon="-1.995125">
      <ele>350.6</ele>
    </trkpt>
    <trkpt lat="42.296031" lon="-1.993622">
      <ele>347.5</ele>
    </trkpt>
    <trkpt lat="42.297316" lon="-1.991315">
      <ele>343.8</ele>
    </trkpt>
    <trkpt lat="42.298372" lon="-1.989419">
      <ele>342.6</ele>
    </trkpt>
    <trkpt lat="42.30053" lon="-1.985545">
      <ele>343.4</ele>
    </trkpt>
    <trkpt lat="42.300967" lon="-1.984994">
      <ele>343.9</ele>
    </trkpt>
    <trkpt lat="42.301335" lon="-1.984369">
      <ele>344</ele>
    </trkpt>
    <trkpt lat="42.301698" lon="-1.983117">
      <ele>342.6</ele>
    </trkpt>
    <trkpt lat="42.3018" lon="-1.982665">
      <ele>341.9</ele>
    </trkpt>
    <trkpt lat="42.301803" lon="-1.982538">
      <ele>341.8</ele>
    </trkpt>
    <trkpt lat="42.301785" lon="-1.982392">
      <ele>341.6</ele>
    </trkpt>
    <trkpt lat="42.301816" lon="-1.98225">
      <ele>341.4</ele>
    </trkpt>
    <trkpt lat="42.301896" lon="-1.982133">
      <ele>341.3</ele>
    </trkpt>
    <trkpt lat="42.301962" lon="-1.982092">
      <ele>341.2</ele>
    </trkpt>
    <trkpt lat="42.302111" lon="-1.981824">
      <ele>340.9</ele>
    </trkpt>
    <trkpt lat="42.302334" lon="-1.981246">
      <ele>340.6</ele>
    </trkpt>
    <trkpt lat="42.302506" lon="-1.980684">
      <ele>341</ele>
    </trkpt>
    <trkpt lat="42.30263" lon="-1.980084">
      <ele>341.5</ele>
    </trkpt>
    <trkpt lat="42.302661" lon="-1.979828">
      <ele>341.7</ele>
    </trkpt>
    <trkpt lat="42.302669" lon="-1.979762">
      <ele>341.7</ele>
    </trkpt>
    <trkpt lat="42.302692" lon="-1.979478">
      <ele>341.9</ele>
    </trkpt>
    <trkpt lat="42.302712" lon="-1.978852">
      <ele>342.4</ele>
    </trkpt>
    <trkpt lat="42.302728" lon="-1.978737">
      <ele>342.4</ele>
    </trkpt>
    <trkpt lat="42.302729" lon="-1.97864">
      <ele>342.5</ele>
    </trkpt>
    <trkpt lat="42.30277" lon="-1.977032">
      <ele>342.3</ele>
    </trkpt>
    <trkpt lat="42.302774" lon="-1.976857">
      <ele>342.2</ele>
    </trkpt>
    <trkpt lat="42.302778" lon="-1.97672">
      <ele>342.1</ele>
    </trkpt>
    <trkpt lat="42.302783" lon="-1.976365">
      <ele>341.9</ele>
    </trkpt>
    <trkpt lat="42.302783" lon="-1.976271">
      <ele>341.9</ele>
    </trkpt>
    <trkpt lat="42.302806" lon="-1.975776">
      <ele>341.8</ele>
    </trkpt>
    <trkpt lat="42.302847" lon="-1.974214">
      <ele>342.4</ele>
    </trkpt>
    <trkpt lat="42.302852" lon="-1.974109">
      <ele>342.5</ele>
    </trkpt>
    <trkpt lat="42.302857" lon="-1.97398">
      <ele>342.6</ele>
    </trkpt>
    <trkpt lat="42.30289" lon="-1.97312">
      <ele>343.3</ele>
    </trkpt>
    <trkpt lat="42.302921" lon="-1.972225">
      <ele>343.9</ele>
    </trkpt>
    <trkpt lat="42.302978" lon="-1.970758">
      <ele>343.9</ele>
    </trkpt>
    <trkpt lat="42.302993" lon="-1.97021">
      <ele>343.8</ele>
    </trkpt>
    <trkpt lat="42.302997" lon="-1.970103">
      <ele>343.8</ele>
    </trkpt>
    <trkpt lat="42.303" lon="-1.969687">
      <ele>343.7</ele>
    </trkpt>
    <trkpt lat="42.30305" lon="-1.96785">
      <ele>345</ele>
    </trkpt>
    <trkpt lat="42.303058" lon="-1.967661">
      <ele>345.3</ele>
    </trkpt>
    <trkpt lat="42.30308" lon="-1.967108">
      <ele>346.3</ele>
    </trkpt>
    <trkpt lat="42.303093" lon="-1.96678">
      <ele>346.9</ele>
    </trkpt>
    <trkpt lat="42.303099" lon="-1.9665">
      <ele>347.4</ele>
    </trkpt>
    <trkpt lat="42.303128" lon="-1.965098">
      <ele>350.1</ele>
    </trkpt>
    <trkpt lat="42.303181" lon="-1.964886">
      <ele>350.4</ele>
    </trkpt>
    <trkpt lat="42.303146" lon="-1.96479">
      <ele>350.5</ele>
    </trkpt>
    <trkpt lat="42.303159" lon="-1.964673">
      <ele>350.6</ele>
    </trkpt>
    <trkpt lat="42.303279" lon="-1.964459">
      <ele>350.9</ele>
    </trkpt>
    <trkpt lat="42.303431" lon="-1.964445">
      <ele>351</ele>
    </trkpt>
    <trkpt lat="42.304563" lon="-1.962992">
      <ele>350.5</ele>
    </trkpt>
    <trkpt lat="42.304814" lon="-1.962641">
      <ele>349.9</ele>
    </trkpt>
    <trkpt lat="42.305213" lon="-1.962148">
      <ele>347.7</ele>
    </trkpt>
    <trkpt lat="42.305231" lon="-1.962024">
      <ele>347.3</ele>
    </trkpt>
    <trkpt lat="42.305432" lon="-1.961502">
      <ele>344.7</ele>
    </trkpt>
    <trkpt lat="42.305719" lon="-1.960827">
      <ele>341</ele>
    </trkpt>
    <trkpt lat="42.306233" lon="-1.960165">
      <ele>335.7</ele>
    </trkpt>
    <trkpt lat="42.307" lon="-1.959185">
      <ele>329.6</ele>
    </trkpt>
    <trkpt lat="42.307136" lon="-1.959052">
      <ele>328.8</ele>
    </trkpt>
    <trkpt lat="42.308478" lon="-1.957926">
      <ele>325.7</ele>
    </trkpt>
    <trkpt lat="42.308976" lon="-1.957492">
      <ele>325</ele>
    </trkpt>
    <trkpt lat="42.309373" lon="-1.956881">
      <ele>324.3</ele>
    </trkpt>
    <trkpt lat="42.310314" lon="-1.957864">
      <ele>322.4</ele>
    </trkpt>
    <trkpt lat="42.310365" lon="-1.957766">
      <ele>322.3</ele>
    </trkpt>
    <trkpt lat="42.310487" lon="-1.957881">
      <ele>322.2</ele>
    </trkpt>
    </trkseg>
  </trk>
</gpx>
