<?xml version="1.0" encoding="UTF-8"?>
<gpx version="1.1" creator="fitAI Komoot downloader" xmlns="http://www.topografix.com/GPX/1/1">
  <metadata>
    <name>Casco antiguo de Calahorra y Calahorra - Recorrido circular desde Calahorra</name>
    <desc>29 visitas · Dificultad: moderate · Distancia: 7.4 km · Desnivel +: 74 m</desc>
    <link href="https://www.komoot.com/smarttour/e31849260"><text>Komoot</text></link>
  </metadata>
  <trk>
    <name>Casco antiguo de Calahorra y Calahorra - Recorrido circular desde Calahorra</name>
    <type>jogging</type>
    <trkseg>
    <trkpt lat="42.310487" lon="-1.957881">
      <ele>322.2</ele>
    </trkpt>
    <trkpt lat="42.310365" lon="-1.957766">
      <ele>322.3</ele>
    </trkpt>
    <trkpt lat="42.310314" lon="-1.957864">
      <ele>322.4</ele>
    </trkpt>
    <trkpt lat="42.309373" lon="-1.956881">
      <ele>324.3</ele>
    </trkpt>
    <trkpt lat="42.308976" lon="-1.957492">
      <ele>325</ele>
    </trkpt>
    <trkpt lat="42.308478" lon="-1.957926">
      <ele>325.7</ele>
    </trkpt>
    <trkpt lat="42.307136" lon="-1.959052">
      <ele>328.8</ele>
    </trkpt>
    <trkpt lat="42.307" lon="-1.959185">
      <ele>329.6</ele>
    </trkpt>
    <trkpt lat="42.306233" lon="-1.960165">
      <ele>335.7</ele>
    </trkpt>
    <trkpt lat="42.305719" lon="-1.960827">
      <ele>341</ele>
    </trkpt>
    <trkpt lat="42.305432" lon="-1.961502">
      <ele>344.7</ele>
    </trkpt>
    <trkpt lat="42.305231" lon="-1.962024">
      <ele>347.3</ele>
    </trkpt>
    <trkpt lat="42.305213" lon="-1.962148">
      <ele>347.7</ele>
    </trkpt>
    <trkpt lat="42.304814" lon="-1.962641">
      <ele>349.9</ele>
    </trkpt>
    <trkpt lat="42.304563" lon="-1.962992">
      <ele>350.5</ele>
    </trkpt>
    <trkpt lat="42.303641" lon="-1.964176">
      <ele>351.4</ele>
    </trkpt>
    <trkpt lat="42.303431" lon="-1.964445">
      <ele>351.3</ele>
    </trkpt>
    <trkpt lat="42.303279" lon="-1.964459">
      <ele>351.2</ele>
    </trkpt>
    <trkpt lat="42.303159" lon="-1.964673">
      <ele>351</ele>
    </trkpt>
    <trkpt lat="42.302871" lon="-1.964388">
      <ele>350.2</ele>
    </trkpt>
    <trkpt lat="42.302119" lon="-1.964052">
      <ele>344.7</ele>
    </trkpt>
    <trkpt lat="42.301487" lon="-1.963938">
      <ele>339.3</ele>
    </trkpt>
    <trkpt lat="42.30132" lon="-1.963868">
      <ele>337.9</ele>
    </trkpt>
    <trkpt lat="42.301183" lon="-1.963714">
      <ele>336.6</ele>
    </trkpt>
    <trkpt lat="42.301083" lon="-1.963516">
      <ele>335.5</ele>
    </trkpt>
    <trkpt lat="42.301008" lon="-1.963282">
      <ele>334.6</ele>
    </trkpt>
    <trkpt lat="42.300779" lon="-1.962565">
      <ele>335.3</ele>
    </trkpt>
    <trkpt lat="42.300845" lon="-1.962498">
      <ele>335.9</ele>
    </trkpt>
    <trkpt lat="42.300766" lon="-1.962208">
      <ele>337.4</ele>
    </trkpt>
    <trkpt lat="42.300741" lon="-1.961729">
      <ele>340.7</ele>
    </trkpt>
    <trkpt lat="42.30079" lon="-1.961738">
      <ele>341.3</ele>
    </trkpt>
    <trkpt lat="42.300883" lon="-1.961755">
      <ele>342.3</ele>
    </trkpt>
    <trkpt lat="42.301052" lon="-1.961768">
      <ele>344.3</ele>
    </trkpt>
    <trkpt lat="42.301078" lon="-1.961615">
      <ele>345.5</ele>
    </trkpt>
    <trkpt lat="42.3011" lon="-1.961382">
      <ele>347.3</ele>
    </trkpt>
    <trkpt lat="42.301152" lon="-1.961305">
      <ele>348.1</ele>
    </trkpt>
    <trkpt lat="42.301189" lon="-1.961125">
      <ele>349.3</ele>
    </trkpt>
    <trkpt lat="42.301154" lon="-1.96089">
      <ele>350.9</ele>
    </trkpt>
    <trkpt lat="42.301165" lon="-1.960855">
      <ele>351.1</ele>
    </trkpt>
    <trkpt lat="42.30135" lon="-1.960757">
      <ele>352.5</ele>
    </trkpt>
    <trkpt lat="42.301372" lon="-1.960801">
      <ele>352.7</ele>
    </trkpt>
    <trkpt lat="42.301416" lon="-1.960891">
      <ele>353</ele>
    </trkpt>
    <trkpt lat="42.301372" lon="-1.960801">
      <ele>353.2</ele>
    </trkpt>
    <trkpt lat="42.30135" lon="-1.960757">
      <ele>353.3</ele>
    </trkpt>
    <trkpt lat="42.301239" lon="-1.960518">
      <ele>353.3</ele>
    </trkpt>
    <trkpt lat="42.301084" lon="-1.960174">
      <ele>353.4</ele>
    </trkpt>
    <trkpt lat="42.300965" lon="-1.959854">
      <ele>352.4</ele>
    </trkpt>
    <trkpt lat="42.300764" lon="-1.959496">
      <ele>351</ele>
    </trkpt>
    <trkpt lat="42.300749" lon="-1.959488">
      <ele>350.8</ele>
    </trkpt>
    <trkpt lat="42.30071" lon="-1.959465">
      <ele>350.4</ele>
    </trkpt>
    <trkpt lat="42.300661" lon="-1.95942">
      <ele>350.1</ele>
    </trkpt>
    <trkpt lat="42.300624" lon="-1.959347">
      <ele>349.5</ele>
    </trkpt>
    <trkpt lat="42.30057" lon="-1.959123">
      <ele>347.6</ele>
    </trkpt>
    <trkpt lat="42.300544" lon="-1.95902">
      <ele>346.7</ele>
    </trkpt>
    <trkpt lat="42.300432" lon="-1.959098">
      <ele>345</ele>
    </trkpt>
    <trkpt lat="42.300323" lon="-1.959106">
      <ele>343.5</ele>
    </trkpt>
    <trkpt lat="42.300432" lon="-1.959098">
      <ele>342.2</ele>
    </trkpt>
    <trkpt lat="42.300544" lon="-1.95902">
      <ele>340.5</ele>
    </trkpt>
    <trkpt lat="42.30057" lon="-1.959123">
      <ele>339.3</ele>
    </trkpt>
    <trkpt lat="42.300383" lon="-1.959357">
      <ele>336.1</ele>
    </trkpt>
    <trkpt lat="42.300186" lon="-1.959516">
      <ele>333.2</ele>
    </trkpt>
    <trkpt lat="42.300011" lon="-1.959658">
      <ele>330.6</ele>
    </trkpt>
    <trkpt lat="42.299864" lon="-1.959776">
      <ele>328.7</ele>
    </trkpt>
    <trkpt lat="42.299712" lon="-1.959862">
      <ele>326.7</ele>
    </trkpt>
    <trkpt lat="42.299772" lon="-1.959974">
      <ele>325.3</ele>
    </trkpt>
    <trkpt lat="42.299533" lon="-1.960113">
      <ele>322.3</ele>
    </trkpt>
    <trkpt lat="42.299426" lon="-1.960193">
      <ele>321.2</ele>
    </trkpt>
    <trkpt lat="42.299197" lon="-1.960363">
      <ele>319.7</ele>
    </trkpt>
    <trkpt lat="42.299139" lon="-1.960403">
      <ele>319.4</ele>
    </trkpt>
    <trkpt lat="42.299" lon="-1.960496">
      <ele>318.8</ele>
    </trkpt>
    <trkpt lat="42.298955" lon="-1.960578">
      <ele>318.4</ele>
    </trkpt>
    <trkpt lat="42.29883" lon="-1.960483">
      <ele>318</ele>
    </trkpt>
    <trkpt lat="42.298795" lon="-1.960372">
      <ele>317.7</ele>
    </trkpt>
    <trkpt lat="42.298754" lon="-1.959859">
      <ele>316.7</ele>
    </trkpt>
    <trkpt lat="42.298772" lon="-1.959702">
      <ele>316.5</ele>
    </trkpt>
    <trkpt lat="42.298434" lon="-1.95938">
      <ele>315.8</ele>
    </trkpt>
    <trkpt lat="42.298483" lon="-1.959266">
      <ele>315.7</ele>
    </trkpt>
    <trkpt lat="42.29851" lon="-1.958655">
      <ele>314.9</ele>
    </trkpt>
    <trkpt lat="42.29858" lon="-1.958436">
      <ele>314.7</ele>
    </trkpt>
    <trkpt lat="42.298343" lon="-1.958212">
      <ele>314.3</ele>
    </trkpt>
    <trkpt lat="42.298182" lon="-1.9593">
      <ele>314.3</ele>
    </trkpt>
    <trkpt lat="42.298161" lon="-1.959839">
      <ele>314.5</ele>
    </trkpt>
    <trkpt lat="42.298269" lon="-1.960757">
      <ele>315.2</ele>
    </trkpt>
    <trkpt lat="42.298397" lon="-1.961375">
      <ele>315.8</ele>
    </trkpt>
    <trkpt lat="42.298892" lon="-1.962921">
      <ele>317.4</ele>
    </trkpt>
    <trkpt lat="42.300067" lon="-1.965544">
      <ele>320.4</ele>
    </trkpt>
    <trkpt lat="42.300424" lon="-1.96627">
      <ele>321.4</ele>
    </trkpt>
    <trkpt lat="42.300566" lon="-1.966663">
      <ele>321.8</ele>
    </trkpt>
    <trkpt lat="42.300604" lon="-1.9667">
      <ele>321.9</ele>
    </trkpt>
    <trkpt lat="42.30063" lon="-1.966649">
      <ele>322</ele>
    </trkpt>
    <trkpt lat="42.300732" lon="-1.96645">
      <ele>322.2</ele>
    </trkpt>
    <trkpt lat="42.300759" lon="-1.966543">
      <ele>322.3</ele>
    </trkpt>
    <trkpt lat="42.301095" lon="-1.967531">
      <ele>323</ele>
    </trkpt>
    <trkpt lat="42.301169" lon="-1.967629">
      <ele>323.1</ele>
    </trkpt>
    <trkpt lat="42.301093" lon="-1.967746">
      <ele>323.1</ele>
    </trkpt>
    <trkpt lat="42.301052" lon="-1.968056">
      <ele>323.1</ele>
    </trkpt>
    <trkpt lat="42.300962" lon="-1.968306">
      <ele>323.1</ele>
    </trkpt>
    <trkpt lat="42.300838" lon="-1.968492">
      <ele>323</ele>
    </trkpt>
    <trkpt lat="42.3008" lon="-1.968651">
      <ele>323</ele>
    </trkpt>
    <trkpt lat="42.300476" lon="-1.969205">
      <ele>322.8</ele>
    </trkpt>
    <trkpt lat="42.300111" lon="-1.96968">
      <ele>322.7</ele>
    </trkpt>
    <trkpt lat="42.299945" lon="-1.969727">
      <ele>322.8</ele>
    </trkpt>
    <trkpt lat="42.299142" lon="-1.970928">
      <ele>323.8</ele>
    </trkpt>
    <trkpt lat="42.298503" lon="-1.972166">
      <ele>325</ele>
    </trkpt>
    <trkpt lat="42.298458" lon="-1.972395">
      <ele>325.2</ele>
    </trkpt>
    <trkpt lat="42.297967" lon="-1.971938">
      <ele>325.5</ele>
    </trkpt>
    <trkpt lat="42.298214" lon="-1.971597">
      <ele>325.5</ele>
    </trkpt>
    <trkpt lat="42.29857" lon="-1.970881">
      <ele>325.4</ele>
    </trkpt>
    <trkpt lat="42.299437" lon="-1.969381">
      <ele>324.4</ele>
    </trkpt>
    <trkpt lat="42.299673" lon="-1.96886">
      <ele>324</ele>
    </trkpt>
    <trkpt lat="42.300001" lon="-1.968297">
      <ele>323.5</ele>
    </trkpt>
    <trkpt lat="42.30008" lon="-1.967985">
      <ele>323.1</ele>
    </trkpt>
    <trkpt lat="42.300094" lon="-1.967641">
      <ele>322.7</ele>
    </trkpt>
    <trkpt lat="42.300077" lon="-1.967269">
      <ele>322.3</ele>
    </trkpt>
    <trkpt lat="42.300026" lon="-1.967047">
      <ele>322</ele>
    </trkpt>
    <trkpt lat="42.299867" lon="-1.966594">
      <ele>321.3</ele>
    </trkpt>
    <trkpt lat="42.299358" lon="-1.965253">
      <ele>319.5</ele>
    </trkpt>
    <trkpt lat="42.298766" lon="-1.963923">
      <ele>318.1</ele>
    </trkpt>
    <trkpt lat="42.29832" lon="-1.962819">
      <ele>317.2</ele>
    </trkpt>
    <trkpt lat="42.297969" lon="-1.961843">
      <ele>316.5</ele>
    </trkpt>
    <trkpt lat="42.297774" lon="-1.961193">
      <ele>316.2</ele>
    </trkpt>
    <trkpt lat="42.297689" lon="-1.960815">
      <ele>316</ele>
    </trkpt>
    <trkpt lat="42.29761" lon="-1.960055">
      <ele>315.7</ele>
    </trkpt>
    <trkpt lat="42.297618" lon="-1.959175">
      <ele>315.6</ele>
    </trkpt>
    <trkpt lat="42.297658" lon="-1.958895">
      <ele>315.7</ele>
    </trkpt>
    <trkpt lat="42.297877" lon="-1.957807">
      <ele>315.5</ele>
    </trkpt>
    <trkpt lat="42.297956" lon="-1.957471">
      <ele>315.4</ele>
    </trkpt>
    <trkpt lat="42.298066" lon="-1.95682">
      <ele>315.1</ele>
    </trkpt>
    <trkpt lat="42.298084" lon="-1.956485">
      <ele>314.9</ele>
    </trkpt>
    <trkpt lat="42.297968" lon="-1.954355">
      <ele>313.4</ele>
    </trkpt>
    <trkpt lat="42.297974" lon="-1.954111">
      <ele>313.2</ele>
    </trkpt>
    <trkpt lat="42.297979" lon="-1.953867">
      <ele>313</ele>
    </trkpt>
    <trkpt lat="42.298432" lon="-1.953973">
      <ele>312.2</ele>
    </trkpt>
    <trkpt lat="42.298576" lon="-1.953857">
      <ele>311.9</ele>
    </trkpt>
    <trkpt lat="42.298924" lon="-1.954006">
      <ele>311.2</ele>
    </trkpt>
    <trkpt lat="42.299057" lon="-1.953616">
      <ele>310.5</ele>
    </trkpt>
    <trkpt lat="42.299136" lon="-1.953301">
      <ele>310.1</ele>
    </trkpt>
    <trkpt lat="42.299676" lon="-1.952627">
      <ele>309.3</ele>
    </trkpt>
    <trkpt lat="42.30015" lon="-1.952271">
      <ele>308.9</ele>
    </trkpt>
    <trkpt lat="42.300525" lon="-1.951927">
      <ele>308.7</ele>
    </trkpt>
    <trkpt lat="42.300646" lon="-1.951805">
      <ele>308.7</ele>
    </trkpt>
    <trkpt lat="42.30097" lon="-1.951287">
      <ele>308.5</ele>
    </trkpt>
    <trkpt lat="42.301453" lon="-1.950657">
      <ele>308.3</ele>
    </trkpt>
    <trkpt lat="42.30176" lon="-1.95044">
      <ele>308.3</ele>
    </trkpt>
    <trkpt lat="42.301933" lon="-1.950264">
      <ele>308.4</ele>
    </trkpt>
    <trkpt lat="42.302056" lon="-1.950267">
      <ele>308.5</ele>
    </trkpt>
    <trkpt lat="42.302322" lon="-1.950358">
      <ele>308.6</ele>
    </trkpt>
    <trkpt lat="42.30278" lon="-1.950453">
      <ele>308.9</ele>
    </trkpt>
    <trkpt lat="42.303259" lon="-1.950623">
      <ele>309.5</ele>
    </trkpt>
    <trkpt lat="42.303883" lon="-1.950896">
      <ele>310.2</ele>
    </trkpt>
    <trkpt lat="42.304653" lon="-1.951365">
      <ele>311.1</ele>
    </trkpt>
    <trkpt lat="42.305582" lon="-1.952081">
      <ele>312.5</ele>
    </trkpt>
    <trkpt lat="42.307494" lon="-1.954135">
      <ele>317</ele>
    </trkpt>
    <trkpt lat="42.307604" lon="-1.954197">
      <ele>317.2</ele>
    </trkpt>
    <trkpt lat="42.307849" lon="-1.954189">
      <ele>317.6</ele>
    </trkpt>
    <trkpt lat="42.308201" lon="-1.953909">
      <ele>318.1</ele>
    </trkpt>
    <trkpt lat="42.309077" lon="-1.955111">
      <ele>319.6</ele>
    </trkpt>
    <trkpt lat="42.309877" lon="-1.956068">
      <ele>321.4</ele>
    </trkpt>
    <trkpt lat="42.309373" lon="-1.956881">
      <ele>322.4</ele>
    </trkpt>
    <trkpt lat="42.310314" lon="-1.957864">
      <ele>322.4</ele>
    </trkpt>
    <trkpt lat="42.310365" lon="-1.957766">
      <ele>322.3</ele>
    </trkpt>
    <trkpt lat="42.310487" lon="-1.957881">
      <ele>322.2</ele>
    </trkpt>
    </trkseg>
  </trk>
</gpx>
