<?xml version="1.0" encoding="UTF-8"?>
<gpx version="1.1" creator="fitAI Komoot downloader" xmlns="http://www.topografix.com/GPX/1/1">
  <metadata>
    <name>Castillo de Sajazarra y Monasterio de Herrera - Recorrido circular desde Cuzcurrita de Río Tirón</name>
    <desc>66 visitas · Dificultad: difficult · Distancia: 47.8 km · Desnivel +: 885 m</desc>
    <link href="https://www.komoot.com/smarttour/e20511090"><text>Komoot</text></link>
  </metadata>
  <trk>
    <name>Castillo de Sajazarra y Monasterio de Herrera - Recorrido circular desde Cuzcurrita de Río Tirón</name>
    <type>mtb</type>
    <trkseg>
    <trkpt lat="42.540773" lon="-2.961796">
      <ele>529.7</ele>
    </trkpt>
    <trkpt lat="42.54069" lon="-2.961895">
      <ele>529.3</ele>
    </trkpt>
    <trkpt lat="42.540764" lon="-2.961976">
      <ele>528.9</ele>
    </trkpt>
    <trkpt lat="42.540801" lon="-2.961953">
      <ele>528.8</ele>
    </trkpt>
    <trkpt lat="42.54063" lon="-2.962306">
      <ele>527.6</ele>
    </trkpt>
    <trkpt lat="42.540611" lon="-2.962357">
      <ele>527.4</ele>
    </trkpt>
    <trkpt lat="42.540575" lon="-2.962452">
      <ele>527.2</ele>
    </trkpt>
    <trkpt lat="42.540391" lon="-2.963069">
      <ele>526.1</ele>
    </trkpt>
    <trkpt lat="42.54033" lon="-2.963414">
      <ele>525.7</ele>
    </trkpt>
    <trkpt lat="42.540163" lon="-2.963774">
      <ele>525.9</ele>
    </trkpt>
    <trkpt lat="42.540019" lon="-2.963653">
      <ele>526.3</ele>
    </trkpt>
    <trkpt lat="42.53988" lon="-2.963936">
      <ele>526.8</ele>
    </trkpt>
    <trkpt lat="42.53964" lon="-2.963836">
      <ele>527.3</ele>
    </trkpt>
    <trkpt lat="42.539497" lon="-2.963964">
      <ele>527.8</ele>
    </trkpt>
    <trkpt lat="42.539468" lon="-2.963989">
      <ele>527.9</ele>
    </trkpt>
    <trkpt lat="42.539186" lon="-2.963936">
      <ele>529.2</ele>
    </trkpt>
    <trkpt lat="42.538872" lon="-2.964001">
      <ele>530.8</ele>
    </trkpt>
    <trkpt lat="42.53877" lon="-2.964124">
      <ele>531.6</ele>
    </trkpt>
    <trkpt lat="42.538562" lon="-2.964143">
      <ele>532.9</ele>
    </trkpt>
    <trkpt lat="42.538367" lon="-2.964087">
      <ele>534.2</ele>
    </trkpt>
    <trkpt lat="42.53829" lon="-2.964103">
      <ele>534.7</ele>
    </trkpt>
    <trkpt lat="42.538104" lon="-2.9642">
      <ele>535.9</ele>
    </trkpt>
    <trkpt lat="42.537693" lon="-2.964136">
      <ele>537.9</ele>
    </trkpt>
    <trkpt lat="42.537382" lon="-2.964407">
      <ele>538.7</ele>
    </trkpt>
    <trkpt lat="42.537341" lon="-2.964429">
      <ele>538.7</ele>
    </trkpt>
    <trkpt lat="42.537382" lon="-2.964407">
      <ele>538.7</ele>
    </trkpt>
    <trkpt lat="42.537693" lon="-2.964136">
      <ele>537.9</ele>
    </trkpt>
    <trkpt lat="42.538104" lon="-2.9642">
      <ele>535.9</ele>
    </trkpt>
    <trkpt lat="42.53829" lon="-2.964103">
      <ele>534.7</ele>
    </trkpt>
    <trkpt lat="42.538367" lon="-2.964087">
      <ele>534.2</ele>
    </trkpt>
    <trkpt lat="42.538562" lon="-2.964143">
      <ele>532.9</ele>
    </trkpt>
    <trkpt lat="42.53877" lon="-2.964124">
      <ele>531.6</ele>
    </trkpt>
    <trkpt lat="42.538872" lon="-2.964001">
      <ele>530.8</ele>
    </trkpt>
    <trkpt lat="42.539186" lon="-2.963936">
      <ele>529.2</ele>
    </trkpt>
    <trkpt lat="42.539468" lon="-2.963989">
      <ele>527.8</ele>
    </trkpt>
    <trkpt lat="42.539497" lon="-2.963964">
      <ele>527.6</ele>
    </trkpt>
    <trkpt lat="42.53964" lon="-2.963836">
      <ele>526.9</ele>
    </trkpt>
    <trkpt lat="42.53988" lon="-2.963936">
      <ele>525.8</ele>
    </trkpt>
    <trkpt lat="42.540019" lon="-2.963653">
      <ele>524.5</ele>
    </trkpt>
    <trkpt lat="42.540163" lon="-2.963774">
      <ele>523.5</ele>
    </trkpt>
    <trkpt lat="42.540502" lon="-2.964161">
      <ele>521.1</ele>
    </trkpt>
    <trkpt lat="42.540573" lon="-2.964256">
      <ele>520.7</ele>
    </trkpt>
    <trkpt lat="42.540624" lon="-2.964328">
      <ele>520.4</ele>
    </trkpt>
    <trkpt lat="42.540822" lon="-2.96461">
      <ele>519.5</ele>
    </trkpt>
    <trkpt lat="42.541086" lon="-2.964979">
      <ele>518.9</ele>
    </trkpt>
    <trkpt lat="42.541187" lon="-2.96496">
      <ele>518.9</ele>
    </trkpt>
    <trkpt lat="42.541612" lon="-2.964972">
      <ele>519.5</ele>
    </trkpt>
    <trkpt lat="42.541935" lon="-2.965006">
      <ele>520.3</ele>
    </trkpt>
    <trkpt lat="42.542135" lon="-2.965027">
      <ele>520.9</ele>
    </trkpt>
    <trkpt lat="42.542227" lon="-2.964712">
      <ele>521.6</ele>
    </trkpt>
    <trkpt lat="42.542364" lon="-2.964053">
      <ele>522</ele>
    </trkpt>
    <trkpt lat="42.542618" lon="-2.964132">
      <ele>522</ele>
    </trkpt>
    <trkpt lat="42.542966" lon="-2.964086">
      <ele>521.8</ele>
    </trkpt>
    <trkpt lat="42.543307" lon="-2.963955">
      <ele>521.5</ele>
    </trkpt>
    <trkpt lat="42.543396" lon="-2.963895">
      <ele>521.5</ele>
    </trkpt>
    <trkpt lat="42.543941" lon="-2.964189">
      <ele>521.2</ele>
    </trkpt>
    <trkpt lat="42.544788" lon="-2.964469">
      <ele>521.3</ele>
    </trkpt>
    <trkpt lat="42.544838" lon="-2.964379">
      <ele>521.3</ele>
    </trkpt>
    <trkpt lat="42.545115" lon="-2.964017">
      <ele>521.2</ele>
    </trkpt>
    <trkpt lat="42.545633" lon="-2.963339">
      <ele>520.7</ele>
    </trkpt>
    <trkpt lat="42.545973" lon="-2.962895">
      <ele>520</ele>
    </trkpt>
    <trkpt lat="42.546183" lon="-2.962555">
      <ele>519.6</ele>
    </trkpt>
    <trkpt lat="42.546213" lon="-2.962496">
      <ele>519.5</ele>
    </trkpt>
    <trkpt lat="42.546837" lon="-2.961435">
      <ele>517.9</ele>
    </trkpt>
    <trkpt lat="42.547685" lon="-2.959913">
      <ele>516.3</ele>
    </trkpt>
    <trkpt lat="42.548369" lon="-2.959003">
      <ele>515.6</ele>
    </trkpt>
    <trkpt lat="42.549393" lon="-2.957441">
      <ele>514.3</ele>
    </trkpt>
    <trkpt lat="42.55014" lon="-2.956293">
      <ele>512.9</ele>
    </trkpt>
    <trkpt lat="42.551767" lon="-2.95394">
      <ele>510</ele>
    </trkpt>
    <trkpt lat="42.552504" lon="-2.952829">
      <ele>509.3</ele>
    </trkpt>
    <trkpt lat="42.552496" lon="-2.952742">
      <ele>509.3</ele>
    </trkpt>
    <trkpt lat="42.55273" lon="-2.952804">
      <ele>509.4</ele>
    </trkpt>
    <trkpt lat="42.55325" lon="-2.952943">
      <ele>509.8</ele>
    </trkpt>
    <trkpt lat="42.554299" lon="-2.953248">
      <ele>511.2</ele>
    </trkpt>
    <trkpt lat="42.55459" lon="-2.953328">
      <ele>511.6</ele>
    </trkpt>
    <trkpt lat="42.554822" lon="-2.953384">
      <ele>511.9</ele>
    </trkpt>
    <trkpt lat="42.5553" lon="-2.953525">
      <ele>512.1</ele>
    </trkpt>
    <trkpt lat="42.555467" lon="-2.953569">
      <ele>512.2</ele>
    </trkpt>
    <trkpt lat="42.556043" lon="-2.953707">
      <ele>512.1</ele>
    </trkpt>
    <trkpt lat="42.556514" lon="-2.953838">
      <ele>511.7</ele>
    </trkpt>
    <trkpt lat="42.557824" lon="-2.954167">
      <ele>510.6</ele>
    </trkpt>
    <trkpt lat="42.558065" lon="-2.954231">
      <ele>510.4</ele>
    </trkpt>
    <trkpt lat="42.558308" lon="-2.954298">
      <ele>510.3</ele>
    </trkpt>
    <trkpt lat="42.558593" lon="-2.95437">
      <ele>510.1</ele>
    </trkpt>
    <trkpt lat="42.559103" lon="-2.954509">
      <ele>509.7</ele>
    </trkpt>
    <trkpt lat="42.56131" lon="-2.955097">
      <ele>508.3</ele>
    </trkpt>
    <trkpt lat="42.561527" lon="-2.955156">
      <ele>508.1</ele>
    </trkpt>
    <trkpt lat="42.561728" lon="-2.953397">
      <ele>507.2</ele>
    </trkpt>
    <trkpt lat="42.56188" lon="-2.952379">
      <ele>506.6</ele>
    </trkpt>
    <trkpt lat="42.561998" lon="-2.951326">
      <ele>506.1</ele>
    </trkpt>
    <trkpt lat="42.562068" lon="-2.951228">
      <ele>506</ele>
    </trkpt>
    <trkpt lat="42.562906" lon="-2.951055">
      <ele>505.5</ele>
    </trkpt>
    <trkpt lat="42.563392" lon="-2.951065">
      <ele>505.1</ele>
    </trkpt>
    <trkpt lat="42.565544" lon="-2.95077">
      <ele>503.3</ele>
    </trkpt>
    <trkpt lat="42.567013" lon="-2.950542">
      <ele>502.2</ele>
    </trkpt>
    <trkpt lat="42.566615" lon="-2.950123">
      <ele>501.8</ele>
    </trkpt>
    <trkpt lat="42.56675" lon="-2.949947">
      <ele>501.6</ele>
    </trkpt>
    <trkpt lat="42.567524" lon="-2.949186">
      <ele>500.9</ele>
    </trkpt>
    <trkpt lat="42.567761" lon="-2.948892">
      <ele>500.7</ele>
    </trkpt>
    <trkpt lat="42.568705" lon="-2.947005">
      <ele>499.7</ele>
    </trkpt>
    <trkpt lat="42.571263" lon="-2.94857">
      <ele>498.5</ele>
    </trkpt>
    <trkpt lat="42.573036" lon="-2.950019">
      <ele>496.1</ele>
    </trkpt>
    <trkpt lat="42.573247" lon="-2.950245">
      <ele>495.4</ele>
    </trkpt>
    <trkpt lat="42.57356" lon="-2.95067">
      <ele>494.5</ele>
    </trkpt>
    <trkpt lat="42.573736" lon="-2.950838">
      <ele>494.2</ele>
    </trkpt>
    <trkpt lat="42.57388" lon="-2.950919">
      <ele>494</ele>
    </trkpt>
    <trkpt lat="42.573985" lon="-2.950938">
      <ele>493.9</ele>
    </trkpt>
    <trkpt lat="42.574238" lon="-2.951077">
      <ele>493.7</ele>
    </trkpt>
    <trkpt lat="42.574936" lon="-2.951325">
      <ele>494.4</ele>
    </trkpt>
    <trkpt lat="42.575191" lon="-2.951458">
      <ele>495.1</ele>
    </trkpt>
    <trkpt lat="42.575485" lon="-2.951733">
      <ele>496</ele>
    </trkpt>
    <trkpt lat="42.575961" lon="-2.952504">
      <ele>497.7</ele>
    </trkpt>
    <trkpt lat="42.576313" lon="-2.95277">
      <ele>498.2</ele>
    </trkpt>
    <trkpt lat="42.576698" lon="-2.953124">
      <ele>498</ele>
    </trkpt>
    <trkpt lat="42.577649" lon="-2.952015">
      <ele>496.2</ele>
    </trkpt>
    <trkpt lat="42.57769" lon="-2.951967">
      <ele>496.1</ele>
    </trkpt>
    <trkpt lat="42.578511" lon="-2.950974">
      <ele>497</ele>
    </trkpt>
    <trkpt lat="42.578847" lon="-2.950583">
      <ele>498</ele>
    </trkpt>
    <trkpt lat="42.579842" lon="-2.951877">
      <ele>499.9</ele>
    </trkpt>
    <trkpt lat="42.580235" lon="-2.952409">
      <ele>500.3</ele>
    </trkpt>
    <trkpt lat="42.581666" lon="-2.954271">
      <ele>501.7</ele>
    </trkpt>
    <trkpt lat="42.583691" lon="-2.957524">
      <ele>507.8</ele>
    </trkpt>
    <trkpt lat="42.583819" lon="-2.957693">
      <ele>507.9</ele>
    </trkpt>
    <trkpt lat="42.584438" lon="-2.957951">
      <ele>507.8</ele>
    </trkpt>
    <trkpt lat="42.584864" lon="-2.958318">
      <ele>507.4</ele>
    </trkpt>
    <trkpt lat="42.585072" lon="-2.958368">
      <ele>507.3</ele>
    </trkpt>
    <trkpt lat="42.585258" lon="-2.958307">
      <ele>507.3</ele>
    </trkpt>
    <trkpt lat="42.585442" lon="-2.958181">
      <ele>507.2</ele>
    </trkpt>
    <trkpt lat="42.585926" lon="-2.958017">
      <ele>507</ele>
    </trkpt>
    <trkpt lat="42.586427" lon="-2.957651">
      <ele>506.8</ele>
    </trkpt>
    <trkpt lat="42.586717" lon="-2.95786">
      <ele>506.7</ele>
    </trkpt>
    <trkpt lat="42.587758" lon="-2.958709">
      <ele>506.7</ele>
    </trkpt>
    <trkpt lat="42.587855" lon="-2.958834">
      <ele>507</ele>
    </trkpt>
    <trkpt lat="42.58797" lon="-2.959078">
      <ele>507.6</ele>
    </trkpt>
    <trkpt lat="42.588106" lon="-2.95947">
      <ele>508.9</ele>
    </trkpt>
    <trkpt lat="42.588191" lon="-2.959833">
      <ele>510.2</ele>
    </trkpt>
    <trkpt lat="42.588227" lon="-2.96">
      <ele>510.8</ele>
    </trkpt>
    <trkpt lat="42.588315" lon="-2.960147">
      <ele>511.5</ele>
    </trkpt>
    <trkpt lat="42.5884" lon="-2.960188">
      <ele>512</ele>
    </trkpt>
    <trkpt lat="42.588499" lon="-2.960177">
      <ele>512.5</ele>
    </trkpt>
    <trkpt lat="42.588672" lon="-2.960089">
      <ele>513.5</ele>
    </trkpt>
    <trkpt lat="42.588702" lon="-2.960069">
      <ele>513.6</ele>
    </trkpt>
    <trkpt lat="42.588833" lon="-2.959986">
      <ele>514.3</ele>
    </trkpt>
    <trkpt lat="42.588869" lon="-2.959961">
      <ele>514.5</ele>
    </trkpt>
    <trkpt lat="42.589113" lon="-2.959804">
      <ele>515.7</ele>
    </trkpt>
    <trkpt lat="42.589219" lon="-2.959762">
      <ele>516.1</ele>
    </trkpt>
    <trkpt lat="42.589266" lon="-2.959775">
      <ele>516.2</ele>
    </trkpt>
    <trkpt lat="42.589242" lon="-2.959887">
      <ele>516.5</ele>
    </trkpt>
    <trkpt lat="42.589194" lon="-2.960291">
      <ele>517.1</ele>
    </trkpt>
    <trkpt lat="42.589242" lon="-2.959887">
      <ele>517.2</ele>
    </trkpt>
    <trkpt lat="42.589266" lon="-2.959775">
      <ele>517.2</ele>
    </trkpt>
    <trkpt lat="42.589314" lon="-2.959669">
      <ele>517.2</ele>
    </trkpt>
    <trkpt lat="42.589402" lon="-2.959577">
      <ele>517.1</ele>
    </trkpt>
    <trkpt lat="42.589476" lon="-2.959555">
      <ele>517.1</ele>
    </trkpt>
    <trkpt lat="42.589504" lon="-2.95955">
      <ele>517.1</ele>
    </trkpt>
    <trkpt lat="42.589601" lon="-2.959542">
      <ele>517</ele>
    </trkpt>
    <trkpt lat="42.589726" lon="-2.959392">
      <ele>516.9</ele>
    </trkpt>
    <trkpt lat="42.589844" lon="-2.959319">
      <ele>516.8</ele>
    </trkpt>
    <trkpt lat="42.590136" lon="-2.959314">
      <ele>516.7</ele>
    </trkpt>
    <trkpt lat="42.590282" lon="-2.959275">
      <ele>516.7</ele>
    </trkpt>
    <trkpt lat="42.590662" lon="-2.959139">
      <ele>517</ele>
    </trkpt>
    <trkpt lat="42.591453" lon="-2.958774">
      <ele>518.2</ele>
    </trkpt>
    <trkpt lat="42.592007" lon="-2.958003">
      <ele>518.8</ele>
    </trkpt>
    <trkpt lat="42.592265" lon="-2.957058">
      <ele>518.1</ele>
    </trkpt>
    <trkpt lat="42.592503" lon="-2.95607">
      <ele>517</ele>
    </trkpt>
    <trkpt lat="42.59283" lon="-2.95511">
      <ele>517</ele>
    </trkpt>
    <trkpt lat="42.592986" lon="-2.954799">
      <ele>517.4</ele>
    </trkpt>
    <trkpt lat="42.594263" lon="-2.953112">
      <ele>524.3</ele>
    </trkpt>
    <trkpt lat="42.594445" lon="-2.952798">
      <ele>525.7</ele>
    </trkpt>
    <trkpt lat="42.594696" lon="-2.952198">
      <ele>528</ele>
    </trkpt>
    <trkpt lat="42.594852" lon="-2.951825">
      <ele>529.4</ele>
    </trkpt>
    <trkpt lat="42.595006" lon="-2.951243">
      <ele>531.2</ele>
    </trkpt>
    <trkpt lat="42.595065" lon="-2.951095">
      <ele>531.7</ele>
    </trkpt>
    <trkpt lat="42.5962" lon="-2.948815">
      <ele>538.9</ele>
    </trkpt>
    <trkpt lat="42.596358" lon="-2.94845">
      <ele>540</ele>
    </trkpt>
    <trkpt lat="42.597369" lon="-2.945569">
      <ele>548.6</ele>
    </trkpt>
    <trkpt lat="42.597511" lon="-2.945152">
      <ele>549.6</ele>
    </trkpt>
    <trkpt lat="42.598273" lon="-2.94294">
      <ele>553.6</ele>
    </trkpt>
    <trkpt lat="42.598368" lon="-2.942729">
      <ele>553.8</ele>
    </trkpt>
    <trkpt lat="42.598495" lon="-2.942531">
      <ele>554</ele>
    </trkpt>
    <trkpt lat="42.598775" lon="-2.94223">
      <ele>554.4</ele>
    </trkpt>
    <trkpt lat="42.599101" lon="-2.941941">
      <ele>554.9</ele>
    </trkpt>
    <trkpt lat="42.599691" lon="-2.941538">
      <ele>556</ele>
    </trkpt>
    <trkpt lat="42.60015" lon="-2.941152">
      <ele>557.3</ele>
    </trkpt>
    <trkpt lat="42.601049" lon="-2.940244">
      <ele>561.1</ele>
    </trkpt>
    <trkpt lat="42.601245" lon="-2.940122">
      <ele>561.8</ele>
    </trkpt>
    <trkpt lat="42.601374" lon="-2.940094">
      <ele>562.2</ele>
    </trkpt>
    <trkpt lat="42.601713" lon="-2.940182">
      <ele>563</ele>
    </trkpt>
    <trkpt lat="42.602264" lon="-2.939956">
      <ele>564.6</ele>
    </trkpt>
    <trkpt lat="42.602321" lon="-2.939888">
      <ele>564.8</ele>
    </trkpt>
    <trkpt lat="42.602367" lon="-2.939774">
      <ele>565.1</ele>
    </trkpt>
    <trkpt lat="42.602406" lon="-2.939613">
      <ele>565.4</ele>
    </trkpt>
    <trkpt lat="42.602459" lon="-2.939139">
      <ele>566.4</ele>
    </trkpt>
    <trkpt lat="42.602518" lon="-2.938201">
      <ele>568.8</ele>
    </trkpt>
    <trkpt lat="42.602521" lon="-2.937887">
      <ele>569.6</ele>
    </trkpt>
    <trkpt lat="42.602481" lon="-2.937504">
      <ele>570.8</ele>
    </trkpt>
    <trkpt lat="42.602704" lon="-2.937007">
      <ele>572.5</ele>
    </trkpt>
    <trkpt lat="42.602804" lon="-2.936765">
      <ele>573.1</ele>
    </trkpt>
    <trkpt lat="42.60288" lon="-2.936603">
      <ele>573.5</ele>
    </trkpt>
    <trkpt lat="42.603138" lon="-2.936536">
      <ele>574.1</ele>
    </trkpt>
    <trkpt lat="42.603318" lon="-2.936482">
      <ele>574.3</ele>
    </trkpt>
    <trkpt lat="42.603825" lon="-2.936179">
      <ele>574.6</ele>
    </trkpt>
    <trkpt lat="42.604487" lon="-2.935912">
      <ele>574.2</ele>
    </trkpt>
    <trkpt lat="42.604634" lon="-2.935811">
      <ele>574</ele>
    </trkpt>
    <trkpt lat="42.605198" lon="-2.934763">
      <ele>571.5</ele>
    </trkpt>
    <trkpt lat="42.605344" lon="-2.93409">
      <ele>569.1</ele>
    </trkpt>
    <trkpt lat="42.605423" lon="-2.933886">
      <ele>568.3</ele>
    </trkpt>
    <trkpt lat="42.60563" lon="-2.933463">
      <ele>566.5</ele>
    </trkpt>
    <trkpt lat="42.605676" lon="-2.933161">
      <ele>565.4</ele>
    </trkpt>
    <trkpt lat="42.605685" lon="-2.932937">
      <ele>564.7</ele>
    </trkpt>
    <trkpt lat="42.605557" lon="-2.931771">
      <ele>562.7</ele>
    </trkpt>
    <trkpt lat="42.605558" lon="-2.931546">
      <ele>562.9</ele>
    </trkpt>
    <trkpt lat="42.605817" lon="-2.930419">
      <ele>565.9</ele>
    </trkpt>
    <trkpt lat="42.605837" lon="-2.92975">
      <ele>568.8</ele>
    </trkpt>
    <trkpt lat="42.605951" lon="-2.928999">
      <ele>572.6</ele>
    </trkpt>
    <trkpt lat="42.60639" lon="-2.926762">
      <ele>585.1</ele>
    </trkpt>
    <trkpt lat="42.606517" lon="-2.926243">
      <ele>587.5</ele>
    </trkpt>
    <trkpt lat="42.607062" lon="-2.925059">
      <ele>593.2</ele>
    </trkpt>
    <trkpt lat="42.609055" lon="-2.925005">
      <ele>607.1</ele>
    </trkpt>
    <trkpt lat="42.6098" lon="-2.925076">
      <ele>612.9</ele>
    </trkpt>
    <trkpt lat="42.610169" lon="-2.925091">
      <ele>615.9</ele>
    </trkpt>
    <trkpt lat="42.611298" lon="-2.924629">
      <ele>626.6</ele>
    </trkpt>
    <trkpt lat="42.611743" lon="-2.924615">
      <ele>631.8</ele>
    </trkpt>
    <trkpt lat="42.611922" lon="-2.92465">
      <ele>634</ele>
    </trkpt>
    <trkpt lat="42.612117" lon="-2.924563">
      <ele>636.6</ele>
    </trkpt>
    <trkpt lat="42.612569" lon="-2.924215">
      <ele>643.3</ele>
    </trkpt>
    <trkpt lat="42.612959" lon="-2.923961">
      <ele>649.1</ele>
    </trkpt>
    <trkpt lat="42.613168" lon="-2.923902">
      <ele>652.3</ele>
    </trkpt>
    <trkpt lat="42.613579" lon="-2.923652">
      <ele>659.1</ele>
    </trkpt>
    <trkpt lat="42.613782" lon="-2.923556">
      <ele>662.7</ele>
    </trkpt>
    <trkpt lat="42.613944" lon="-2.92348">
      <ele>665.2</ele>
    </trkpt>
    <trkpt lat="42.614469" lon="-2.923317">
      <ele>671.7</ele>
    </trkpt>
    <trkpt lat="42.614673" lon="-2.923098">
      <ele>674.3</ele>
    </trkpt>
    <trkpt lat="42.614713" lon="-2.923081">
      <ele>674.7</ele>
    </trkpt>
    <trkpt lat="42.614757" lon="-2.923141">
      <ele>675.4</ele>
    </trkpt>
    <trkpt lat="42.61466" lon="-2.922893">
      <ele>677.1</ele>
    </trkpt>
    <trkpt lat="42.61434" lon="-2.922695">
      <ele>679.9</ele>
    </trkpt>
    <trkpt lat="42.614084" lon="-2.922351">
      <ele>682.1</ele>
    </trkpt>
    <trkpt lat="42.613843" lon="-2.922175">
      <ele>682.8</ele>
    </trkpt>
    <trkpt lat="42.613761" lon="-2.922004">
      <ele>683.2</ele>
    </trkpt>
    <trkpt lat="42.613638" lon="-2.921483">
      <ele>684.3</ele>
    </trkpt>
    <trkpt lat="42.613571" lon="-2.920613">
      <ele>685.3</ele>
    </trkpt>
    <trkpt lat="42.613378" lon="-2.920164">
      <ele>684.8</ele>
    </trkpt>
    <trkpt lat="42.613314" lon="-2.9199">
      <ele>684</ele>
    </trkpt>
    <trkpt lat="42.613291" lon="-2.91969">
      <ele>683.2</ele>
    </trkpt>
    <trkpt lat="42.613278" lon="-2.91957">
      <ele>682.6</ele>
    </trkpt>
    <trkpt lat="42.613195" lon="-2.91865">
      <ele>677.1</ele>
    </trkpt>
    <trkpt lat="42.613262" lon="-2.918178">
      <ele>673.8</ele>
    </trkpt>
    <trkpt lat="42.613323" lon="-2.917973">
      <ele>672.3</ele>
    </trkpt>
    <trkpt lat="42.613561" lon="-2.91766">
      <ele>669.2</ele>
    </trkpt>
    <trkpt lat="42.613627" lon="-2.917462">
      <ele>667.7</ele>
    </trkpt>
    <trkpt lat="42.613605" lon="-2.917165">
      <ele>665.9</ele>
    </trkpt>
    <trkpt lat="42.613613" lon="-2.916914">
      <ele>664.4</ele>
    </trkpt>
    <trkpt lat="42.613646" lon="-2.916726">
      <ele>663.2</ele>
    </trkpt>
    <trkpt lat="42.613789" lon="-2.916269">
      <ele>660</ele>
    </trkpt>
    <trkpt lat="42.613748" lon="-2.916128">
      <ele>659</ele>
    </trkpt>
    <trkpt lat="42.613809" lon="-2.91598">
      <ele>657.8</ele>
    </trkpt>
    <trkpt lat="42.613716" lon="-2.915764">
      <ele>656.4</ele>
    </trkpt>
    <trkpt lat="42.613501" lon="-2.915466">
      <ele>654.2</ele>
    </trkpt>
    <trkpt lat="42.613278" lon="-2.915242">
      <ele>652.3</ele>
    </trkpt>
    <trkpt lat="42.613219" lon="-2.914884">
      <ele>650.7</ele>
    </trkpt>
    <trkpt lat="42.613423" lon="-2.914694">
      <ele>649.2</ele>
    </trkpt>
    <trkpt lat="42.613466" lon="-2.914234">
      <ele>647.1</ele>
    </trkpt>
    <trkpt lat="42.613553" lon="-2.913664">
      <ele>645.4</ele>
    </trkpt>
    <trkpt lat="42.613539" lon="-2.913364">
      <ele>644.8</ele>
    </trkpt>
    <trkpt lat="42.613655" lon="-2.912707">
      <ele>643.6</ele>
    </trkpt>
    <trkpt lat="42.613596" lon="-2.912292">
      <ele>643.3</ele>
    </trkpt>
    <trkpt lat="42.613621" lon="-2.912223">
      <ele>643.3</ele>
    </trkpt>
    <trkpt lat="42.613676" lon="-2.912174">
      <ele>643.3</ele>
    </trkpt>
    <trkpt lat="42.613847" lon="-2.912167">
      <ele>643.3</ele>
    </trkpt>
    <trkpt lat="42.61387" lon="-2.912128">
      <ele>643.3</ele>
    </trkpt>
    <trkpt lat="42.613878" lon="-2.912006">
      <ele>643.3</ele>
    </trkpt>
    <trkpt lat="42.613853" lon="-2.911823">
      <ele>643.3</ele>
    </trkpt>
    <trkpt lat="42.613911" lon="-2.911643">
      <ele>643.3</ele>
    </trkpt>
    <trkpt lat="42.614201" lon="-2.911494">
      <ele>643</ele>
    </trkpt>
    <trkpt lat="42.614226" lon="-2.911388">
      <ele>643</ele>
    </trkpt>
    <trkpt lat="42.61422" lon="-2.911021">
      <ele>642.4</ele>
    </trkpt>
    <trkpt lat="42.614187" lon="-2.910925">
      <ele>642.1</ele>
    </trkpt>
    <trkpt lat="42.614134" lon="-2.910869">
      <ele>641.9</ele>
    </trkpt>
    <trkpt lat="42.613837" lon="-2.910828">
      <ele>640.9</ele>
    </trkpt>
    <trkpt lat="42.613534" lon="-2.910986">
      <ele>639.4</ele>
    </trkpt>
    <trkpt lat="42.613311" lon="-2.911046">
      <ele>638.2</ele>
    </trkpt>
    <trkpt lat="42.612855" lon="-2.910568">
      <ele>635.5</ele>
    </trkpt>
    <trkpt lat="42.612852" lon="-2.910423">
      <ele>635.2</ele>
    </trkpt>
    <trkpt lat="42.612988" lon="-2.910306">
      <ele>634.9</ele>
    </trkpt>
    <trkpt lat="42.613155" lon="-2.909969">
      <ele>634.9</ele>
    </trkpt>
    <trkpt lat="42.61307" lon="-2.909759">
      <ele>635.4</ele>
    </trkpt>
    <trkpt lat="42.613009" lon="-2.909689">
      <ele>635.6</ele>
    </trkpt>
    <trkpt lat="42.612746" lon="-2.909664">
      <ele>636.9</ele>
    </trkpt>
    <trkpt lat="42.612731" lon="-2.909585">
      <ele>637.3</ele>
    </trkpt>
    <trkpt lat="42.61276" lon="-2.90937">
      <ele>638.4</ele>
    </trkpt>
    <trkpt lat="42.612805" lon="-2.909244">
      <ele>639.2</ele>
    </trkpt>
    <trkpt lat="42.612907" lon="-2.909231">
      <ele>640</ele>
    </trkpt>
    <trkpt lat="42.613826" lon="-2.909781">
      <ele>647.5</ele>
    </trkpt>
    <trkpt lat="42.613944" lon="-2.909745">
      <ele>648.3</ele>
    </trkpt>
    <trkpt lat="42.614033" lon="-2.909661">
      <ele>649</ele>
    </trkpt>
    <trkpt lat="42.614233" lon="-2.909054">
      <ele>651.6</ele>
    </trkpt>
    <trkpt lat="42.614317" lon="-2.909018">
      <ele>651.7</ele>
    </trkpt>
    <trkpt lat="42.614345" lon="-2.908942">
      <ele>651.8</ele>
    </trkpt>
    <trkpt lat="42.614317" lon="-2.908866">
      <ele>651.9</ele>
    </trkpt>
    <trkpt lat="42.614159" lon="-2.908743">
      <ele>651.7</ele>
    </trkpt>
    <trkpt lat="42.614317" lon="-2.908266">
      <ele>650.4</ele>
    </trkpt>
    <trkpt lat="42.613411" lon="-2.907906">
      <ele>645</ele>
    </trkpt>
    <trkpt lat="42.613061" lon="-2.90761">
      <ele>642</ele>
    </trkpt>
    <trkpt lat="42.61299" lon="-2.907345">
      <ele>640.7</ele>
    </trkpt>
    <trkpt lat="42.612952" lon="-2.907199">
      <ele>640.1</ele>
    </trkpt>
    <trkpt lat="42.612959" lon="-2.906662">
      <ele>638</ele>
    </trkpt>
    <trkpt lat="42.613038" lon="-2.906233">
      <ele>636.8</ele>
    </trkpt>
    <trkpt lat="42.613026" lon="-2.906029">
      <ele>636.3</ele>
    </trkpt>
    <trkpt lat="42.612927" lon="-2.905883">
      <ele>635.8</ele>
    </trkpt>
    <trkpt lat="42.612861" lon="-2.905573">
      <ele>634.9</ele>
    </trkpt>
    <trkpt lat="42.612596" lon="-2.905321">
      <ele>633.8</ele>
    </trkpt>
    <trkpt lat="42.612722" lon="-2.90493">
      <ele>632.3</ele>
    </trkpt>
    <trkpt lat="42.612912" lon="-2.904591">
      <ele>630.9</ele>
    </trkpt>
    <trkpt lat="42.612697" lon="-2.904354">
      <ele>629.8</ele>
    </trkpt>
    <trkpt lat="42.612592" lon="-2.904076">
      <ele>629</ele>
    </trkpt>
    <trkpt lat="42.612668" lon="-2.903714">
      <ele>628.8</ele>
    </trkpt>
    <trkpt lat="42.612722" lon="-2.903532">
      <ele>629</ele>
    </trkpt>
    <trkpt lat="42.612589" lon="-2.903088">
      <ele>630.2</ele>
    </trkpt>
    <trkpt lat="42.612566" lon="-2.902729">
      <ele>631.6</ele>
    </trkpt>
    <trkpt lat="42.612609" lon="-2.902222">
      <ele>634.6</ele>
    </trkpt>
    <trkpt lat="42.612659" lon="-2.902099">
      <ele>635.4</ele>
    </trkpt>
    <trkpt lat="42.612805" lon="-2.901997">
      <ele>636.8</ele>
    </trkpt>
    <trkpt lat="42.613054" lon="-2.90196">
      <ele>639</ele>
    </trkpt>
    <trkpt lat="42.613136" lon="-2.901909">
      <ele>639.8</ele>
    </trkpt>
    <trkpt lat="42.613475" lon="-2.901549">
      <ele>642.6</ele>
    </trkpt>
    <trkpt lat="42.613508" lon="-2.901493">
      <ele>642.8</ele>
    </trkpt>
    <trkpt lat="42.613507" lon="-2.901447">
      <ele>643</ele>
    </trkpt>
    <trkpt lat="42.613459" lon="-2.901324">
      <ele>643.2</ele>
    </trkpt>
    <trkpt lat="42.613332" lon="-2.901123">
      <ele>643.3</ele>
    </trkpt>
    <trkpt lat="42.613281" lon="-2.900932">
      <ele>643.3</ele>
    </trkpt>
    <trkpt lat="42.61325" lon="-2.900895">
      <ele>643.3</ele>
    </trkpt>
    <trkpt lat="42.61259" lon="-2.900549">
      <ele>641.4</ele>
    </trkpt>
    <trkpt lat="42.612458" lon="-2.900385">
      <ele>640.8</ele>
    </trkpt>
    <trkpt lat="42.612014" lon="-2.899232">
      <ele>640.5</ele>
    </trkpt>
    <trkpt lat="42.611941" lon="-2.898964">
      <ele>641.3</ele>
    </trkpt>
    <trkpt lat="42.611865" lon="-2.898513">
      <ele>643</ele>
    </trkpt>
    <trkpt lat="42.61182" lon="-2.897909">
      <ele>645.7</ele>
    </trkpt>
    <trkpt lat="42.611829" lon="-2.89751">
      <ele>647.8</ele>
    </trkpt>
    <trkpt lat="42.611941" lon="-2.897236">
      <ele>649.4</ele>
    </trkpt>
    <trkpt lat="42.612143" lon="-2.89704">
      <ele>651</ele>
    </trkpt>
    <trkpt lat="42.612531" lon="-2.896408">
      <ele>653.9</ele>
    </trkpt>
    <trkpt lat="42.612734" lon="-2.895745">
      <ele>655.3</ele>
    </trkpt>
    <trkpt lat="42.613246" lon="-2.894753">
      <ele>652.9</ele>
    </trkpt>
    <trkpt lat="42.613255" lon="-2.894707">
      <ele>652.7</ele>
    </trkpt>
    <trkpt lat="42.613155" lon="-2.894498">
      <ele>651.4</ele>
    </trkpt>
    <trkpt lat="42.613174" lon="-2.894374">
      <ele>650.7</ele>
    </trkpt>
    <trkpt lat="42.613225" lon="-2.894302">
      <ele>650.1</ele>
    </trkpt>
    <trkpt lat="42.613297" lon="-2.894264">
      <ele>649.5</ele>
    </trkpt>
    <trkpt lat="42.613545" lon="-2.893961">
      <ele>646.7</ele>
    </trkpt>
    <trkpt lat="42.613553" lon="-2.893897">
      <ele>646.3</ele>
    </trkpt>
    <trkpt lat="42.613476" lon="-2.893722">
      <ele>645</ele>
    </trkpt>
    <trkpt lat="42.61343" lon="-2.893103">
      <ele>641.2</ele>
    </trkpt>
    <trkpt lat="42.613438" lon="-2.89295">
      <ele>640.4</ele>
    </trkpt>
    <trkpt lat="42.613501" lon="-2.892746">
      <ele>639.3</ele>
    </trkpt>
    <trkpt lat="42.613529" lon="-2.8924">
      <ele>638</ele>
    </trkpt>
    <trkpt lat="42.613624" lon="-2.89214">
      <ele>637</ele>
    </trkpt>
    <trkpt lat="42.613934" lon="-2.891625">
      <ele>635.2</ele>
    </trkpt>
    <trkpt lat="42.614137" lon="-2.89155">
      <ele>634.2</ele>
    </trkpt>
    <trkpt lat="42.614253" lon="-2.89155">
      <ele>633.6</ele>
    </trkpt>
    <trkpt lat="42.614601" lon="-2.891453">
      <ele>631.1</ele>
    </trkpt>
    <trkpt lat="42.614717" lon="-2.891386">
      <ele>630</ele>
    </trkpt>
    <trkpt lat="42.614765" lon="-2.891268">
      <ele>629.1</ele>
    </trkpt>
    <trkpt lat="42.614648" lon="-2.890952">
      <ele>626.1</ele>
    </trkpt>
    <trkpt lat="42.614447" lon="-2.890566">
      <ele>621.3</ele>
    </trkpt>
    <trkpt lat="42.614291" lon="-2.890131">
      <ele>615.6</ele>
    </trkpt>
    <trkpt lat="42.614179" lon="-2.889739">
      <ele>610.4</ele>
    </trkpt>
    <trkpt lat="42.614119" lon="-2.889662">
      <ele>609</ele>
    </trkpt>
    <trkpt lat="42.613799" lon="-2.889447">
      <ele>603.3</ele>
    </trkpt>
    <trkpt lat="42.613756" lon="-2.889391">
      <ele>602.4</ele>
    </trkpt>
    <trkpt lat="42.613701" lon="-2.88905">
      <ele>598.7</ele>
    </trkpt>
    <trkpt lat="42.613579" lon="-2.888895">
      <ele>596.4</ele>
    </trkpt>
    <trkpt lat="42.612651" lon="-2.888063">
      <ele>585.7</ele>
    </trkpt>
    <trkpt lat="42.61245" lon="-2.887937">
      <ele>584.2</ele>
    </trkpt>
    <trkpt lat="42.612257" lon="-2.887817">
      <ele>582.7</ele>
    </trkpt>
    <trkpt lat="42.611866" lon="-2.887741">
      <ele>580.4</ele>
    </trkpt>
    <trkpt lat="42.611593" lon="-2.88762">
      <ele>578.8</ele>
    </trkpt>
    <trkpt lat="42.611496" lon="-2.887374">
      <ele>577.7</ele>
    </trkpt>
    <trkpt lat="42.611434" lon="-2.887216">
      <ele>577</ele>
    </trkpt>
    <trkpt lat="42.611313" lon="-2.887124">
      <ele>576.4</ele>
    </trkpt>
    <trkpt lat="42.611226" lon="-2.887058">
      <ele>576</ele>
    </trkpt>
    <trkpt lat="42.611137" lon="-2.88699">
      <ele>575.6</ele>
    </trkpt>
    <trkpt lat="42.610828" lon="-2.886726">
      <ele>574.4</ele>
    </trkpt>
    <trkpt lat="42.610675" lon="-2.886552">
      <ele>573.9</ele>
    </trkpt>
    <trkpt lat="42.610632" lon="-2.886502">
      <ele>573.8</ele>
    </trkpt>
    <trkpt lat="42.611263" lon="-2.885617">
      <ele>574.3</ele>
    </trkpt>
    <trkpt lat="42.611357" lon="-2.885399">
      <ele>574.9</ele>
    </trkpt>
    <trkpt lat="42.611371" lon="-2.885249">
      <ele>575.3</ele>
    </trkpt>
    <trkpt lat="42.611348" lon="-2.883396">
      <ele>587.4</ele>
    </trkpt>
    <trkpt lat="42.61188" lon="-2.883375">
      <ele>596.6</ele>
    </trkpt>
    <trkpt lat="42.612049" lon="-2.883335">
      <ele>600</ele>
    </trkpt>
    <trkpt lat="42.612735" lon="-2.882989">
      <ele>616.1</ele>
    </trkpt>
    <trkpt lat="42.612955" lon="-2.882765">
      <ele>621.7</ele>
    </trkpt>
    <trkpt lat="42.613062" lon="-2.88289">
      <ele>624.3</ele>
    </trkpt>
    <trkpt lat="42.613453" lon="-2.883142">
      <ele>631.2</ele>
    </trkpt>
    <trkpt lat="42.613797" lon="-2.883457">
      <ele>636.6</ele>
    </trkpt>
    <trkpt lat="42.61394" lon="-2.883541">
      <ele>638.2</ele>
    </trkpt>
    <trkpt lat="42.616837" lon="-2.885919">
      <ele>666</ele>
    </trkpt>
    <trkpt lat="42.61729" lon="-2.885655">
      <ele>670.6</ele>
    </trkpt>
    <trkpt lat="42.617355" lon="-2.885569">
      <ele>671.5</ele>
    </trkpt>
    <trkpt lat="42.617659" lon="-2.885047">
      <ele>676.2</ele>
    </trkpt>
    <trkpt lat="42.617697" lon="-2.884909">
      <ele>677.3</ele>
    </trkpt>
    <trkpt lat="42.617693" lon="-2.884718">
      <ele>678.6</ele>
    </trkpt>
    <trkpt lat="42.617657" lon="-2.884593">
      <ele>679.5</ele>
    </trkpt>
    <trkpt lat="42.617268" lon="-2.883863">
      <ele>685.1</ele>
    </trkpt>
    <trkpt lat="42.617184" lon="-2.883777">
      <ele>685.9</ele>
    </trkpt>
    <trkpt lat="42.616982" lon="-2.883396">
      <ele>688</ele>
    </trkpt>
    <trkpt lat="42.616828" lon="-2.88303">
      <ele>689.3</ele>
    </trkpt>
    <trkpt lat="42.616743" lon="-2.882759">
      <ele>689.8</ele>
    </trkpt>
    <trkpt lat="42.616497" lon="-2.882463">
      <ele>689.9</ele>
    </trkpt>
    <trkpt lat="42.616349" lon="-2.882007">
      <ele>689</ele>
    </trkpt>
    <trkpt lat="42.616226" lon="-2.881717">
      <ele>688</ele>
    </trkpt>
    <trkpt lat="42.616141" lon="-2.881352">
      <ele>686.4</ele>
    </trkpt>
    <trkpt lat="42.615985" lon="-2.880937">
      <ele>684</ele>
    </trkpt>
    <trkpt lat="42.615932" lon="-2.880852">
      <ele>683.3</ele>
    </trkpt>
    <trkpt lat="42.6158" lon="-2.88077">
      <ele>682.3</ele>
    </trkpt>
    <trkpt lat="42.615747" lon="-2.880698">
      <ele>681.8</ele>
    </trkpt>
    <trkpt lat="42.615691" lon="-2.880556">
      <ele>680.9</ele>
    </trkpt>
    <trkpt lat="42.61565" lon="-2.880014">
      <ele>678.4</ele>
    </trkpt>
    <trkpt lat="42.615622" lon="-2.879888">
      <ele>677.9</ele>
    </trkpt>
    <trkpt lat="42.615448" lon="-2.879648">
      <ele>676.7</ele>
    </trkpt>
    <trkpt lat="42.615587" lon="-2.879637">
      <ele>676.1</ele>
    </trkpt>
    <trkpt lat="42.615705" lon="-2.879586">
      <ele>675.7</ele>
    </trkpt>
    <trkpt lat="42.615776" lon="-2.879481">
      <ele>675.3</ele>
    </trkpt>
    <trkpt lat="42.61594" lon="-2.878977">
      <ele>674.7</ele>
    </trkpt>
    <trkpt lat="42.616209" lon="-2.877952">
      <ele>678.6</ele>
    </trkpt>
    <trkpt lat="42.616374" lon="-2.877977">
      <ele>680</ele>
    </trkpt>
    <trkpt lat="42.616526" lon="-2.878111">
      <ele>681.7</ele>
    </trkpt>
    <trkpt lat="42.616798" lon="-2.87846">
      <ele>685.8</ele>
    </trkpt>
    <trkpt lat="42.616842" lon="-2.878478">
      <ele>686.3</ele>
    </trkpt>
    <trkpt lat="42.617144" lon="-2.878422">
      <ele>690.1</ele>
    </trkpt>
    <trkpt lat="42.617426" lon="-2.878513">
      <ele>693.9</ele>
    </trkpt>
    <trkpt lat="42.617886" lon="-2.878432">
      <ele>697.8</ele>
    </trkpt>
    <trkpt lat="42.618163" lon="-2.878566">
      <ele>698.9</ele>
    </trkpt>
    <trkpt lat="42.618248" lon="-2.878639">
      <ele>699.1</ele>
    </trkpt>
    <trkpt lat="42.618429" lon="-2.878534">
      <ele>699.2</ele>
    </trkpt>
    <trkpt lat="42.618518" lon="-2.878534">
      <ele>699.1</ele>
    </trkpt>
    <trkpt lat="42.61864" lon="-2.878416">
      <ele>698.9</ele>
    </trkpt>
    <trkpt lat="42.618655" lon="-2.878325">
      <ele>698.8</ele>
    </trkpt>
    <trkpt lat="42.618711" lon="-2.878242">
      <ele>698.6</ele>
    </trkpt>
    <trkpt lat="42.619256" lon="-2.878088">
      <ele>696.8</ele>
    </trkpt>
    <trkpt lat="42.619475" lon="-2.878083">
      <ele>695.1</ele>
    </trkpt>
    <trkpt lat="42.619576" lon="-2.878166">
      <ele>693.9</ele>
    </trkpt>
    <trkpt lat="42.619688" lon="-2.878172">
      <ele>692.7</ele>
    </trkpt>
    <trkpt lat="42.61988" lon="-2.878268">
      <ele>690.8</ele>
    </trkpt>
    <trkpt lat="42.619986" lon="-2.878281">
      <ele>689.7</ele>
    </trkpt>
    <trkpt lat="42.620154" lon="-2.878391">
      <ele>687.8</ele>
    </trkpt>
    <trkpt lat="42.62018" lon="-2.878397">
      <ele>687.6</ele>
    </trkpt>
    <trkpt lat="42.62026" lon="-2.878106">
      <ele>685.1</ele>
    </trkpt>
    <trkpt lat="42.620379" lon="-2.87804">
      <ele>683.7</ele>
    </trkpt>
    <trkpt lat="42.620532" lon="-2.878136">
      <ele>681.8</ele>
    </trkpt>
    <trkpt lat="42.620956" lon="-2.878131">
      <ele>676.1</ele>
    </trkpt>
    <trkpt lat="42.621042" lon="-2.878066">
      <ele>674.6</ele>
    </trkpt>
    <trkpt lat="42.621425" lon="-2.878167">
      <ele>668</ele>
    </trkpt>
    <trkpt lat="42.621589" lon="-2.878147">
      <ele>665.4</ele>
    </trkpt>
    <trkpt lat="42.621819" lon="-2.878049">
      <ele>661.6</ele>
    </trkpt>
    <trkpt lat="42.62189" lon="-2.877833">
      <ele>658.8</ele>
    </trkpt>
    <trkpt lat="42.622076" lon="-2.876981">
      <ele>647.6</ele>
    </trkpt>
    <trkpt lat="42.62222" lon="-2.87618">
      <ele>637.5</ele>
    </trkpt>
    <trkpt lat="42.622295" lon="-2.875932">
      <ele>634.9</ele>
    </trkpt>
    <trkpt lat="42.622498" lon="-2.875587">
      <ele>631.4</ele>
    </trkpt>
    <trkpt lat="42.622646" lon="-2.875573">
      <ele>630.1</ele>
    </trkpt>
    <trkpt lat="42.622816" lon="-2.875804">
      <ele>628.4</ele>
    </trkpt>
    <trkpt lat="42.622846" lon="-2.876353">
      <ele>626.5</ele>
    </trkpt>
    <trkpt lat="42.623076" lon="-2.87673">
      <ele>625.5</ele>
    </trkpt>
    <trkpt lat="42.623481" lon="-2.877301">
      <ele>623.5</ele>
    </trkpt>
    <trkpt lat="42.623755" lon="-2.877615">
      <ele>621</ele>
    </trkpt>
    <trkpt lat="42.623991" lon="-2.877666">
      <ele>618.9</ele>
    </trkpt>
    <trkpt lat="42.624462" lon="-2.877537">
      <ele>614</ele>
    </trkpt>
    <trkpt lat="42.624707" lon="-2.877519">
      <ele>611.3</ele>
    </trkpt>
    <trkpt lat="42.625047" lon="-2.877395">
      <ele>607.7</ele>
    </trkpt>
    <trkpt lat="42.625352" lon="-2.877332">
      <ele>605</ele>
    </trkpt>
    <trkpt lat="42.625456" lon="-2.877358">
      <ele>604.2</ele>
    </trkpt>
    <trkpt lat="42.625501" lon="-2.877426">
      <ele>603.7</ele>
    </trkpt>
    <trkpt lat="42.6256" lon="-2.877448">
      <ele>603.1</ele>
    </trkpt>
    <trkpt lat="42.625666" lon="-2.877516">
      <ele>602.6</ele>
    </trkpt>
    <trkpt lat="42.625813" lon="-2.877577">
      <ele>601.9</ele>
    </trkpt>
    <trkpt lat="42.626013" lon="-2.877876">
      <ele>600.7</ele>
    </trkpt>
    <trkpt lat="42.626309" lon="-2.878913">
      <ele>599.5</ele>
    </trkpt>
    <trkpt lat="42.626422" lon="-2.879417">
      <ele>599.4</ele>
    </trkpt>
    <trkpt lat="42.626787" lon="-2.880545">
      <ele>600.5</ele>
    </trkpt>
    <trkpt lat="42.627075" lon="-2.881259">
      <ele>601.7</ele>
    </trkpt>
    <trkpt lat="42.627448" lon="-2.881895">
      <ele>603</ele>
    </trkpt>
    <trkpt lat="42.627732" lon="-2.882226">
      <ele>603.7</ele>
    </trkpt>
    <trkpt lat="42.628038" lon="-2.882666">
      <ele>604.1</ele>
    </trkpt>
    <trkpt lat="42.628364" lon="-2.883026">
      <ele>604.4</ele>
    </trkpt>
    <trkpt lat="42.628887" lon="-2.883866">
      <ele>604.8</ele>
    </trkpt>
    <trkpt lat="42.628964" lon="-2.883915">
      <ele>604.9</ele>
    </trkpt>
    <trkpt lat="42.629015" lon="-2.884008">
      <ele>604.9</ele>
    </trkpt>
    <trkpt lat="42.628994" lon="-2.884291">
      <ele>604.8</ele>
    </trkpt>
    <trkpt lat="42.629201" lon="-2.884952">
      <ele>604.1</ele>
    </trkpt>
    <trkpt lat="42.629356" lon="-2.885248">
      <ele>603.4</ele>
    </trkpt>
    <trkpt lat="42.629481" lon="-2.885332">
      <ele>603</ele>
    </trkpt>
    <trkpt lat="42.630066" lon="-2.885455">
      <ele>600.9</ele>
    </trkpt>
    <trkpt lat="42.630269" lon="-2.885405">
      <ele>599.8</ele>
    </trkpt>
    <trkpt lat="42.630423" lon="-2.885638">
      <ele>598.5</ele>
    </trkpt>
    <trkpt lat="42.630533" lon="-2.885982">
      <ele>596.6</ele>
    </trkpt>
    <trkpt lat="42.630547" lon="-2.886299">
      <ele>595.1</ele>
    </trkpt>
    <trkpt lat="42.63062" lon="-2.886041">
      <ele>593.7</ele>
    </trkpt>
    <trkpt lat="42.630783" lon="-2.885716">
      <ele>591.7</ele>
    </trkpt>
    <trkpt lat="42.630856" lon="-2.88557">
      <ele>590.6</ele>
    </trkpt>
    <trkpt lat="42.630971" lon="-2.885303">
      <ele>588.7</ele>
    </trkpt>
    <trkpt lat="42.630996" lon="-2.885162">
      <ele>587.8</ele>
    </trkpt>
    <trkpt lat="42.630924" lon="-2.884715">
      <ele>584.6</ele>
    </trkpt>
    <trkpt lat="42.630926" lon="-2.884597">
      <ele>583.8</ele>
    </trkpt>
    <trkpt lat="42.630709" lon="-2.884237">
      <ele>580.5</ele>
    </trkpt>
    <trkpt lat="42.630696" lon="-2.884149">
      <ele>579.9</ele>
    </trkpt>
    <trkpt lat="42.630873" lon="-2.88336">
      <ele>573.7</ele>
    </trkpt>
    <trkpt lat="42.630876" lon="-2.883212">
      <ele>572.6</ele>
    </trkpt>
    <trkpt lat="42.630811" lon="-2.882565">
      <ele>568.5</ele>
    </trkpt>
    <trkpt lat="42.630876" lon="-2.882218">
      <ele>566.5</ele>
    </trkpt>
    <trkpt lat="42.630801" lon="-2.882066">
      <ele>565.6</ele>
    </trkpt>
    <trkpt lat="42.630676" lon="-2.882033">
      <ele>564.7</ele>
    </trkpt>
    <trkpt lat="42.630536" lon="-2.881827">
      <ele>563.4</ele>
    </trkpt>
    <trkpt lat="42.630119" lon="-2.880954">
      <ele>559.3</ele>
    </trkpt>
    <trkpt lat="42.630069" lon="-2.88085">
      <ele>559</ele>
    </trkpt>
    <trkpt lat="42.629576" lon="-2.880023">
      <ele>556.4</ele>
    </trkpt>
    <trkpt lat="42.628964" lon="-2.87945">
      <ele>555.4</ele>
    </trkpt>
    <trkpt lat="42.628648" lon="-2.87922">
      <ele>555.4</ele>
    </trkpt>
    <trkpt lat="42.628466" lon="-2.879026">
      <ele>555.5</ele>
    </trkpt>
    <trkpt lat="42.628289" lon="-2.878388">
      <ele>555.4</ele>
    </trkpt>
    <trkpt lat="42.628002" lon="-2.877982">
      <ele>555</ele>
    </trkpt>
    <trkpt lat="42.62799" lon="-2.877876">
      <ele>554.9</ele>
    </trkpt>
    <trkpt lat="42.62803" lon="-2.877475">
      <ele>554.6</ele>
    </trkpt>
    <trkpt lat="42.62796" lon="-2.877241">
      <ele>554.3</ele>
    </trkpt>
    <trkpt lat="42.6277" lon="-2.876818">
      <ele>553.7</ele>
    </trkpt>
    <trkpt lat="42.627554" lon="-2.87641">
      <ele>553.4</ele>
    </trkpt>
    <trkpt lat="42.627312" lon="-2.875933">
      <ele>553.3</ele>
    </trkpt>
    <trkpt lat="42.627143" lon="-2.875484">
      <ele>553.4</ele>
    </trkpt>
    <trkpt lat="42.627006" lon="-2.875284">
      <ele>553.6</ele>
    </trkpt>
    <trkpt lat="42.626637" lon="-2.874937">
      <ele>554.4</ele>
    </trkpt>
    <trkpt lat="42.626485" lon="-2.874754">
      <ele>554.9</ele>
    </trkpt>
    <trkpt lat="42.626229" lon="-2.874389">
      <ele>556.4</ele>
    </trkpt>
    <trkpt lat="42.626025" lon="-2.874152">
      <ele>557.7</ele>
    </trkpt>
    <trkpt lat="42.62595" lon="-2.873953">
      <ele>558.7</ele>
    </trkpt>
    <trkpt lat="42.625742" lon="-2.873358">
      <ele>561.9</ele>
    </trkpt>
    <trkpt lat="42.625529" lon="-2.872892">
      <ele>564.8</ele>
    </trkpt>
    <trkpt lat="42.625339" lon="-2.872388">
      <ele>567.8</ele>
    </trkpt>
    <trkpt lat="42.625269" lon="-2.872273">
      <ele>568.5</ele>
    </trkpt>
    <trkpt lat="42.625237" lon="-2.872151">
      <ele>569.1</ele>
    </trkpt>
    <trkpt lat="42.625224" lon="-2.871902">
      <ele>570.4</ele>
    </trkpt>
    <trkpt lat="42.625241" lon="-2.871803">
      <ele>570.9</ele>
    </trkpt>
    <trkpt lat="42.625302" lon="-2.871699">
      <ele>571.6</ele>
    </trkpt>
    <trkpt lat="42.625407" lon="-2.87159">
      <ele>572.6</ele>
    </trkpt>
    <trkpt lat="42.625491" lon="-2.871542">
      <ele>573.3</ele>
    </trkpt>
    <trkpt lat="42.625745" lon="-2.871622">
      <ele>575.6</ele>
    </trkpt>
    <trkpt lat="42.625887" lon="-2.871606">
      <ele>576.9</ele>
    </trkpt>
    <trkpt lat="42.626059" lon="-2.871493">
      <ele>578.9</ele>
    </trkpt>
    <trkpt lat="42.626078" lon="-2.871405">
      <ele>579.6</ele>
    </trkpt>
    <trkpt lat="42.626017" lon="-2.871297">
      <ele>580.6</ele>
    </trkpt>
    <trkpt lat="42.625909" lon="-2.870955">
      <ele>583.6</ele>
    </trkpt>
    <trkpt lat="42.625877" lon="-2.870652">
      <ele>586.2</ele>
    </trkpt>
    <trkpt lat="42.625736" lon="-2.870125">
      <ele>590.3</ele>
    </trkpt>
    <trkpt lat="42.625718" lon="-2.869691">
      <ele>592.5</ele>
    </trkpt>
    <trkpt lat="42.625652" lon="-2.869406">
      <ele>593.4</ele>
    </trkpt>
    <trkpt lat="42.625512" lon="-2.869272">
      <ele>593.7</ele>
    </trkpt>
    <trkpt lat="42.625237" lon="-2.869174">
      <ele>593.4</ele>
    </trkpt>
    <trkpt lat="42.625224" lon="-2.869064">
      <ele>593.2</ele>
    </trkpt>
    <trkpt lat="42.625261" lon="-2.868849">
      <ele>592.6</ele>
    </trkpt>
    <trkpt lat="42.625304" lon="-2.868251">
      <ele>590.5</ele>
    </trkpt>
    <trkpt lat="42.6253" lon="-2.867983">
      <ele>589.6</ele>
    </trkpt>
    <trkpt lat="42.625268" lon="-2.867877">
      <ele>589.2</ele>
    </trkpt>
    <trkpt lat="42.62475" lon="-2.867748">
      <ele>588.1</ele>
    </trkpt>
    <trkpt lat="42.624533" lon="-2.86761">
      <ele>587.8</ele>
    </trkpt>
    <trkpt lat="42.624086" lon="-2.867411">
      <ele>588</ele>
    </trkpt>
    <trkpt lat="42.623905" lon="-2.86724">
      <ele>588.3</ele>
    </trkpt>
    <trkpt lat="42.623782" lon="-2.866713">
      <ele>588.8</ele>
    </trkpt>
    <trkpt lat="42.623773" lon="-2.866627">
      <ele>588.9</ele>
    </trkpt>
    <trkpt lat="42.623807" lon="-2.866324">
      <ele>588.9</ele>
    </trkpt>
    <trkpt lat="42.623695" lon="-2.865983">
      <ele>588.6</ele>
    </trkpt>
    <trkpt lat="42.623617" lon="-2.865657">
      <ele>588.1</ele>
    </trkpt>
    <trkpt lat="42.623578" lon="-2.865117">
      <ele>587.7</ele>
    </trkpt>
    <trkpt lat="42.62354" lon="-2.864591">
      <ele>587.7</ele>
    </trkpt>
    <trkpt lat="42.623497" lon="-2.864403">
      <ele>587.8</ele>
    </trkpt>
    <trkpt lat="42.623458" lon="-2.864323">
      <ele>587.9</ele>
    </trkpt>
    <trkpt lat="42.623278" lon="-2.864134">
      <ele>588.4</ele>
    </trkpt>
    <trkpt lat="42.623199" lon="-2.864">
      <ele>588.8</ele>
    </trkpt>
    <trkpt lat="42.623115" lon="-2.863725">
      <ele>589.6</ele>
    </trkpt>
    <trkpt lat="42.622941" lon="-2.863426">
      <ele>590.8</ele>
    </trkpt>
    <trkpt lat="42.622477" lon="-2.863015">
      <ele>592.4</ele>
    </trkpt>
    <trkpt lat="42.622378" lon="-2.862956">
      <ele>592.5</ele>
    </trkpt>
    <trkpt lat="42.622152" lon="-2.862722">
      <ele>592.5</ele>
    </trkpt>
    <trkpt lat="42.622324" lon="-2.862613">
      <ele>592.2</ele>
    </trkpt>
    <trkpt lat="42.622455" lon="-2.862618">
      <ele>591.9</ele>
    </trkpt>
    <trkpt lat="42.622542" lon="-2.862653">
      <ele>591.5</ele>
    </trkpt>
    <trkpt lat="42.62268" lon="-2.862774">
      <ele>590.8</ele>
    </trkpt>
    <trkpt lat="42.622771" lon="-2.862954">
      <ele>589.9</ele>
    </trkpt>
    <trkpt lat="42.623291" lon="-2.863293">
      <ele>585.3</ele>
    </trkpt>
    <trkpt lat="42.623393" lon="-2.863338">
      <ele>584.4</ele>
    </trkpt>
    <trkpt lat="42.623625" lon="-2.863357">
      <ele>582.5</ele>
    </trkpt>
    <trkpt lat="42.623858" lon="-2.86345">
      <ele>580.5</ele>
    </trkpt>
    <trkpt lat="42.623973" lon="-2.863522">
      <ele>579.5</ele>
    </trkpt>
    <trkpt lat="42.624068" lon="-2.863545">
      <ele>578.7</ele>
    </trkpt>
    <trkpt lat="42.62426" lon="-2.863717">
      <ele>576.9</ele>
    </trkpt>
    <trkpt lat="42.624332" lon="-2.863725">
      <ele>576.4</ele>
    </trkpt>
    <trkpt lat="42.624403" lon="-2.863771">
      <ele>575.8</ele>
    </trkpt>
    <trkpt lat="42.624417" lon="-2.863774">
      <ele>575.7</ele>
    </trkpt>
    <trkpt lat="42.624676" lon="-2.863827">
      <ele>573.9</ele>
    </trkpt>
    <trkpt lat="42.624775" lon="-2.863897">
      <ele>573.1</ele>
    </trkpt>
    <trkpt lat="42.625026" lon="-2.863902">
      <ele>571.2</ele>
    </trkpt>
    <trkpt lat="42.625088" lon="-2.863957">
      <ele>570.7</ele>
    </trkpt>
    <trkpt lat="42.625565" lon="-2.864032">
      <ele>567</ele>
    </trkpt>
    <trkpt lat="42.625777" lon="-2.864197">
      <ele>565.2</ele>
    </trkpt>
    <trkpt lat="42.626081" lon="-2.864219">
      <ele>563</ele>
    </trkpt>
    <trkpt lat="42.626508" lon="-2.864442">
      <ele>559.8</ele>
    </trkpt>
    <trkpt lat="42.62675" lon="-2.864468">
      <ele>558</ele>
    </trkpt>
    <trkpt lat="42.627241" lon="-2.864192">
      <ele>554.2</ele>
    </trkpt>
    <trkpt lat="42.627522" lon="-2.863751">
      <ele>550.9</ele>
    </trkpt>
    <trkpt lat="42.628007" lon="-2.863222">
      <ele>545.2</ele>
    </trkpt>
    <trkpt lat="42.628441" lon="-2.863019">
      <ele>540.2</ele>
    </trkpt>
    <trkpt lat="42.628716" lon="-2.863126">
      <ele>536.8</ele>
    </trkpt>
    <trkpt lat="42.629167" lon="-2.863806">
      <ele>528.3</ele>
    </trkpt>
    <trkpt lat="42.629556" lon="-2.863826">
      <ele>523.2</ele>
    </trkpt>
    <trkpt lat="42.630105" lon="-2.864096">
      <ele>515.8</ele>
    </trkpt>
    <trkpt lat="42.630496" lon="-2.864129">
      <ele>511.5</ele>
    </trkpt>
    <trkpt lat="42.630608" lon="-2.864074">
      <ele>510.3</ele>
    </trkpt>
    <trkpt lat="42.630818" lon="-2.863869">
      <ele>508.1</ele>
    </trkpt>
    <trkpt lat="42.631159" lon="-2.863327">
      <ele>504.8</ele>
    </trkpt>
    <trkpt lat="42.631291" lon="-2.862793">
      <ele>503.3</ele>
    </trkpt>
    <trkpt lat="42.631288" lon="-2.862698">
      <ele>503.1</ele>
    </trkpt>
    <trkpt lat="42.631331" lon="-2.862552">
      <ele>502.9</ele>
    </trkpt>
    <trkpt lat="42.631347" lon="-2.862193">
      <ele>502.4</ele>
    </trkpt>
    <trkpt lat="42.631415" lon="-2.862043">
      <ele>502.1</ele>
    </trkpt>
    <trkpt lat="42.63156" lon="-2.861504">
      <ele>500.3</ele>
    </trkpt>
    <trkpt lat="42.631722" lon="-2.861197">
      <ele>498.6</ele>
    </trkpt>
    <trkpt lat="42.631789" lon="-2.861152">
      <ele>498.1</ele>
    </trkpt>
    <trkpt lat="42.632347" lon="-2.861664">
      <ele>492.4</ele>
    </trkpt>
    <trkpt lat="42.632908" lon="-2.861829">
      <ele>486.5</ele>
    </trkpt>
    <trkpt lat="42.633174" lon="-2.861963">
      <ele>483.6</ele>
    </trkpt>
    <trkpt lat="42.633444" lon="-2.862184">
      <ele>481.2</ele>
    </trkpt>
    <trkpt lat="42.633583" lon="-2.862589">
      <ele>479.4</ele>
    </trkpt>
    <trkpt lat="42.633698" lon="-2.862791">
      <ele>478.7</ele>
    </trkpt>
    <trkpt lat="42.633753" lon="-2.863104">
      <ele>478.1</ele>
    </trkpt>
    <trkpt lat="42.63382" lon="-2.863276">
      <ele>477.9</ele>
    </trkpt>
    <trkpt lat="42.633717" lon="-2.863496">
      <ele>477.7</ele>
    </trkpt>
    <trkpt lat="42.633567" lon="-2.864001">
      <ele>477.9</ele>
    </trkpt>
    <trkpt lat="42.633273" lon="-2.865347">
      <ele>481.4</ele>
    </trkpt>
    <trkpt lat="42.633249" lon="-2.865743">
      <ele>482.6</ele>
    </trkpt>
    <trkpt lat="42.633361" lon="-2.866641">
      <ele>485.6</ele>
    </trkpt>
    <trkpt lat="42.633404" lon="-2.867317">
      <ele>488.1</ele>
    </trkpt>
    <trkpt lat="42.633332" lon="-2.867879">
      <ele>489.9</ele>
    </trkpt>
    <trkpt lat="42.633293" lon="-2.868389">
      <ele>491.3</ele>
    </trkpt>
    <trkpt lat="42.633246" lon="-2.868641">
      <ele>491.9</ele>
    </trkpt>
    <trkpt lat="42.633171" lon="-2.868844">
      <ele>492.4</ele>
    </trkpt>
    <trkpt lat="42.633043" lon="-2.869051">
      <ele>493</ele>
    </trkpt>
    <trkpt lat="42.632859" lon="-2.86948">
      <ele>493.8</ele>
    </trkpt>
    <trkpt lat="42.6328" lon="-2.870266">
      <ele>494.9</ele>
    </trkpt>
    <trkpt lat="42.632727" lon="-2.870576">
      <ele>495.3</ele>
    </trkpt>
    <trkpt lat="42.632614" lon="-2.87092">
      <ele>496</ele>
    </trkpt>
    <trkpt lat="42.632356" lon="-2.871702">
      <ele>497.6</ele>
    </trkpt>
    <trkpt lat="42.632059" lon="-2.872476">
      <ele>499.8</ele>
    </trkpt>
    <trkpt lat="42.632003" lon="-2.872742">
      <ele>500.5</ele>
    </trkpt>
    <trkpt lat="42.632035" lon="-2.873247">
      <ele>502</ele>
    </trkpt>
    <trkpt lat="42.631991" lon="-2.873557">
      <ele>503</ele>
    </trkpt>
    <trkpt lat="42.631861" lon="-2.873923">
      <ele>504.3</ele>
    </trkpt>
    <trkpt lat="42.631807" lon="-2.874257">
      <ele>505.4</ele>
    </trkpt>
    <trkpt lat="42.63182" lon="-2.874573">
      <ele>506.4</ele>
    </trkpt>
    <trkpt lat="42.631898" lon="-2.875278">
      <ele>508.5</ele>
    </trkpt>
    <trkpt lat="42.6319" lon="-2.875685">
      <ele>509.4</ele>
    </trkpt>
    <trkpt lat="42.631817" lon="-2.875993">
      <ele>510.1</ele>
    </trkpt>
    <trkpt lat="42.631564" lon="-2.876487">
      <ele>511</ele>
    </trkpt>
    <trkpt lat="42.631531" lon="-2.876876">
      <ele>511.4</ele>
    </trkpt>
    <trkpt lat="42.631349" lon="-2.877885">
      <ele>513.1</ele>
    </trkpt>
    <trkpt lat="42.631348" lon="-2.87806">
      <ele>513.4</ele>
    </trkpt>
    <trkpt lat="42.631392" lon="-2.878163">
      <ele>513.7</ele>
    </trkpt>
    <trkpt lat="42.631643" lon="-2.878328">
      <ele>514.9</ele>
    </trkpt>
    <trkpt lat="42.632012" lon="-2.878852">
      <ele>518.2</ele>
    </trkpt>
    <trkpt lat="42.632095" lon="-2.878872">
      <ele>518.9</ele>
    </trkpt>
    <trkpt lat="42.632155" lon="-2.878831">
      <ele>519.4</ele>
    </trkpt>
    <trkpt lat="42.632247" lon="-2.878586">
      <ele>521.2</ele>
    </trkpt>
    <trkpt lat="42.632291" lon="-2.878537">
      <ele>521.7</ele>
    </trkpt>
    <trkpt lat="42.632541" lon="-2.878514">
      <ele>524</ele>
    </trkpt>
    <trkpt lat="42.632782" lon="-2.878387">
      <ele>526.5</ele>
    </trkpt>
    <trkpt lat="42.632946" lon="-2.87837">
      <ele>527.9</ele>
    </trkpt>
    <trkpt lat="42.633042" lon="-2.878435">
      <ele>528.8</ele>
    </trkpt>
    <trkpt lat="42.633244" lon="-2.878754">
      <ele>531.4</ele>
    </trkpt>
    <trkpt lat="42.633556" lon="-2.879106">
      <ele>534.6</ele>
    </trkpt>
    <trkpt lat="42.633563" lon="-2.879195">
      <ele>535.1</ele>
    </trkpt>
    <trkpt lat="42.633523" lon="-2.879518">
      <ele>537</ele>
    </trkpt>
    <trkpt lat="42.633636" lon="-2.879951">
      <ele>539.6</ele>
    </trkpt>
    <trkpt lat="42.633815" lon="-2.880303">
      <ele>542</ele>
    </trkpt>
    <trkpt lat="42.633946" lon="-2.880475">
      <ele>543.3</ele>
    </trkpt>
    <trkpt lat="42.634268" lon="-2.881019">
      <ele>547.9</ele>
    </trkpt>
    <trkpt lat="42.634452" lon="-2.881202">
      <ele>550.1</ele>
    </trkpt>
    <trkpt lat="42.63527" lon="-2.881583">
      <ele>558.5</ele>
    </trkpt>
    <trkpt lat="42.635395" lon="-2.881606">
      <ele>559.7</ele>
    </trkpt>
    <trkpt lat="42.635634" lon="-2.881533">
      <ele>561.9</ele>
    </trkpt>
    <trkpt lat="42.635799" lon="-2.8814">
      <ele>563.6</ele>
    </trkpt>
    <trkpt lat="42.636019" lon="-2.881296">
      <ele>565.6</ele>
    </trkpt>
    <trkpt lat="42.636248" lon="-2.881266">
      <ele>567.3</ele>
    </trkpt>
    <trkpt lat="42.636471" lon="-2.881308">
      <ele>568.9</ele>
    </trkpt>
    <trkpt lat="42.637" lon="-2.881552">
      <ele>572.9</ele>
    </trkpt>
    <trkpt lat="42.637063" lon="-2.881537">
      <ele>573.3</ele>
    </trkpt>
    <trkpt lat="42.637294" lon="-2.881267">
      <ele>575.5</ele>
    </trkpt>
    <trkpt lat="42.637393" lon="-2.881437">
      <ele>576.6</ele>
    </trkpt>
    <trkpt lat="42.637567" lon="-2.881861">
      <ele>579</ele>
    </trkpt>
    <trkpt lat="42.637659" lon="-2.882467">
      <ele>582.4</ele>
    </trkpt>
    <trkpt lat="42.637729" lon="-2.882767">
      <ele>584.4</ele>
    </trkpt>
    <trkpt lat="42.637737" lon="-2.883019">
      <ele>586</ele>
    </trkpt>
    <trkpt lat="42.637934" lon="-2.883899">
      <ele>592.2</ele>
    </trkpt>
    <trkpt lat="42.638226" lon="-2.884816">
      <ele>599.7</ele>
    </trkpt>
    <trkpt lat="42.638447" lon="-2.885266">
      <ele>603.8</ele>
    </trkpt>
    <trkpt lat="42.638771" lon="-2.88607">
      <ele>610.6</ele>
    </trkpt>
    <trkpt lat="42.639004" lon="-2.886867">
      <ele>616.5</ele>
    </trkpt>
    <trkpt lat="42.639181" lon="-2.887701">
      <ele>622.1</ele>
    </trkpt>
    <trkpt lat="42.639275" lon="-2.888559">
      <ele>627.3</ele>
    </trkpt>
    <trkpt lat="42.639261" lon="-2.888877">
      <ele>629</ele>
    </trkpt>
    <trkpt lat="42.639277" lon="-2.888987">
      <ele>629.6</ele>
    </trkpt>
    <trkpt lat="42.639453" lon="-2.889639">
      <ele>633.6</ele>
    </trkpt>
    <trkpt lat="42.639577" lon="-2.890096">
      <ele>636.9</ele>
    </trkpt>
    <trkpt lat="42.639585" lon="-2.890273">
      <ele>638.2</ele>
    </trkpt>
    <trkpt lat="42.639554" lon="-2.890485">
      <ele>639.8</ele>
    </trkpt>
    <trkpt lat="42.639641" lon="-2.890421">
      <ele>641</ele>
    </trkpt>
    <trkpt lat="42.639831" lon="-2.891332">
      <ele>650.8</ele>
    </trkpt>
    <trkpt lat="42.640056" lon="-2.892165">
      <ele>659.9</ele>
    </trkpt>
    <trkpt lat="42.640355" lon="-2.892754">
      <ele>663.1</ele>
    </trkpt>
    <trkpt lat="42.639494" lon="-2.891954">
      <ele>658.9</ele>
    </trkpt>
    <trkpt lat="42.639263" lon="-2.891803">
      <ele>656.5</ele>
    </trkpt>
    <trkpt lat="42.638856" lon="-2.891886">
      <ele>654.2</ele>
    </trkpt>
    <trkpt lat="42.638584" lon="-2.891879">
      <ele>653.3</ele>
    </trkpt>
    <trkpt lat="42.638281" lon="-2.892168">
      <ele>652.2</ele>
    </trkpt>
    <trkpt lat="42.638161" lon="-2.892215">
      <ele>651.9</ele>
    </trkpt>
    <trkpt lat="42.638076" lon="-2.892145">
      <ele>651.6</ele>
    </trkpt>
    <trkpt lat="42.637988" lon="-2.891725">
      <ele>650.4</ele>
    </trkpt>
    <trkpt lat="42.638272" lon="-2.890471">
      <ele>641.5</ele>
    </trkpt>
    <trkpt lat="42.638285" lon="-2.890411">
      <ele>640.9</ele>
    </trkpt>
    <trkpt lat="42.638292" lon="-2.890319">
      <ele>639.9</ele>
    </trkpt>
    <trkpt lat="42.638254" lon="-2.890215">
      <ele>638.6</ele>
    </trkpt>
    <trkpt lat="42.638157" lon="-2.890124">
      <ele>636.9</ele>
    </trkpt>
    <trkpt lat="42.637847" lon="-2.889686">
      <ele>629.9</ele>
    </trkpt>
    <trkpt lat="42.637699" lon="-2.889597">
      <ele>627.3</ele>
    </trkpt>
    <trkpt lat="42.637652" lon="-2.889518">
      <ele>626.1</ele>
    </trkpt>
    <trkpt lat="42.637277" lon="-2.889381">
      <ele>620</ele>
    </trkpt>
    <trkpt lat="42.637014" lon="-2.889162">
      <ele>615.3</ele>
    </trkpt>
    <trkpt lat="42.636824" lon="-2.889067">
      <ele>612.3</ele>
    </trkpt>
    <trkpt lat="42.636717" lon="-2.888927">
      <ele>610.2</ele>
    </trkpt>
    <trkpt lat="42.636303" lon="-2.888745">
      <ele>604.3</ele>
    </trkpt>
    <trkpt lat="42.636173" lon="-2.888655">
      <ele>602.4</ele>
    </trkpt>
    <trkpt lat="42.635847" lon="-2.887953">
      <ele>595.1</ele>
    </trkpt>
    <trkpt lat="42.635657" lon="-2.887633">
      <ele>591.7</ele>
    </trkpt>
    <trkpt lat="42.63545" lon="-2.887398">
      <ele>588.8</ele>
    </trkpt>
    <trkpt lat="42.635252" lon="-2.88726">
      <ele>586.6</ele>
    </trkpt>
    <trkpt lat="42.63505" lon="-2.887162">
      <ele>584.6</ele>
    </trkpt>
    <trkpt lat="42.63488" lon="-2.887148">
      <ele>583.1</ele>
    </trkpt>
    <trkpt lat="42.634725" lon="-2.88723">
      <ele>581.9</ele>
    </trkpt>
    <trkpt lat="42.634398" lon="-2.887299">
      <ele>579.9</ele>
    </trkpt>
    <trkpt lat="42.634357" lon="-2.887301">
      <ele>579.7</ele>
    </trkpt>
    <trkpt lat="42.63431" lon="-2.887242">
      <ele>579.4</ele>
    </trkpt>
    <trkpt lat="42.634281" lon="-2.887243">
      <ele>579.3</ele>
    </trkpt>
    <trkpt lat="42.634201" lon="-2.887405">
      <ele>578.8</ele>
    </trkpt>
    <trkpt lat="42.634043" lon="-2.887491">
      <ele>578.3</ele>
    </trkpt>
    <trkpt lat="42.633938" lon="-2.887513">
      <ele>578.1</ele>
    </trkpt>
    <trkpt lat="42.633901" lon="-2.887515">
      <ele>578</ele>
    </trkpt>
    <trkpt lat="42.633688" lon="-2.887395">
      <ele>577.7</ele>
    </trkpt>
    <trkpt lat="42.633426" lon="-2.887467">
      <ele>577.7</ele>
    </trkpt>
    <trkpt lat="42.633047" lon="-2.887396">
      <ele>577.9</ele>
    </trkpt>
    <trkpt lat="42.632945" lon="-2.887482">
      <ele>578</ele>
    </trkpt>
    <trkpt lat="42.632841" lon="-2.887523">
      <ele>578.1</ele>
    </trkpt>
    <trkpt lat="42.632576" lon="-2.887513">
      <ele>578.5</ele>
    </trkpt>
    <trkpt lat="42.632405" lon="-2.887541">
      <ele>578.8</ele>
    </trkpt>
    <trkpt lat="42.632282" lon="-2.887682">
      <ele>579.1</ele>
    </trkpt>
    <trkpt lat="42.632128" lon="-2.888042">
      <ele>579.9</ele>
    </trkpt>
    <trkpt lat="42.631919" lon="-2.888355">
      <ele>580.9</ele>
    </trkpt>
    <trkpt lat="42.631551" lon="-2.888832">
      <ele>583.4</ele>
    </trkpt>
    <trkpt lat="42.631268" lon="-2.889291">
      <ele>586.9</ele>
    </trkpt>
    <trkpt lat="42.631115" lon="-2.889432">
      <ele>588.6</ele>
    </trkpt>
    <trkpt lat="42.631009" lon="-2.889438">
      <ele>589.6</ele>
    </trkpt>
    <trkpt lat="42.630746" lon="-2.889325">
      <ele>592.1</ele>
    </trkpt>
    <trkpt lat="42.630643" lon="-2.889215">
      <ele>593.2</ele>
    </trkpt>
    <trkpt lat="42.630486" lon="-2.888909">
      <ele>595.6</ele>
    </trkpt>
    <trkpt lat="42.630423" lon="-2.889016">
      <ele>596.4</ele>
    </trkpt>
    <trkpt lat="42.630418" lon="-2.889023">
      <ele>596.5</ele>
    </trkpt>
    <trkpt lat="42.63035" lon="-2.889239">
      <ele>597.7</ele>
    </trkpt>
    <trkpt lat="42.630144" lon="-2.890151">
      <ele>601.2</ele>
    </trkpt>
    <trkpt lat="42.629793" lon="-2.890991">
      <ele>601.9</ele>
    </trkpt>
    <trkpt lat="42.629803" lon="-2.891409">
      <ele>602.4</ele>
    </trkpt>
    <trkpt lat="42.629861" lon="-2.891728">
      <ele>603</ele>
    </trkpt>
    <trkpt lat="42.629853" lon="-2.892037">
      <ele>603.7</ele>
    </trkpt>
    <trkpt lat="42.629793" lon="-2.892263">
      <ele>604.5</ele>
    </trkpt>
    <trkpt lat="42.629651" lon="-2.892492">
      <ele>605.6</ele>
    </trkpt>
    <trkpt lat="42.62961" lon="-2.892624">
      <ele>606.2</ele>
    </trkpt>
    <trkpt lat="42.629639" lon="-2.892883">
      <ele>607.5</ele>
    </trkpt>
    <trkpt lat="42.629956" lon="-2.893959">
      <ele>615.5</ele>
    </trkpt>
    <trkpt lat="42.629963" lon="-2.894065">
      <ele>616.3</ele>
    </trkpt>
    <trkpt lat="42.629939" lon="-2.894155">
      <ele>617</ele>
    </trkpt>
    <trkpt lat="42.629734" lon="-2.894575">
      <ele>620.8</ele>
    </trkpt>
    <trkpt lat="42.629638" lon="-2.894675">
      <ele>622.2</ele>
    </trkpt>
    <trkpt lat="42.629384" lon="-2.8948">
      <ele>625.5</ele>
    </trkpt>
    <trkpt lat="42.629198" lon="-2.894776">
      <ele>628</ele>
    </trkpt>
    <trkpt lat="42.62875" lon="-2.894955">
      <ele>633.3</ele>
    </trkpt>
    <trkpt lat="42.628555" lon="-2.894857">
      <ele>635.2</ele>
    </trkpt>
    <trkpt lat="42.628434" lon="-2.894748">
      <ele>636.4</ele>
    </trkpt>
    <trkpt lat="42.628139" lon="-2.894628">
      <ele>639.1</ele>
    </trkpt>
    <trkpt lat="42.628047" lon="-2.894503">
      <ele>640.2</ele>
    </trkpt>
    <trkpt lat="42.627965" lon="-2.894221">
      <ele>642.2</ele>
    </trkpt>
    <trkpt lat="42.62796" lon="-2.893849">
      <ele>644.7</ele>
    </trkpt>
    <trkpt lat="42.627857" lon="-2.893286">
      <ele>647.5</ele>
    </trkpt>
    <trkpt lat="42.627737" lon="-2.892922">
      <ele>648.9</ele>
    </trkpt>
    <trkpt lat="42.627475" lon="-2.892405">
      <ele>652.3</ele>
    </trkpt>
    <trkpt lat="42.627387" lon="-2.892187">
      <ele>653.7</ele>
    </trkpt>
    <trkpt lat="42.627301" lon="-2.892043">
      <ele>654.8</ele>
    </trkpt>
    <trkpt lat="42.627086" lon="-2.891894">
      <ele>656.5</ele>
    </trkpt>
    <trkpt lat="42.62693" lon="-2.891842">
      <ele>657.6</ele>
    </trkpt>
    <trkpt lat="42.626789" lon="-2.891837">
      <ele>658.5</ele>
    </trkpt>
    <trkpt lat="42.626561" lon="-2.891881">
      <ele>659.9</ele>
    </trkpt>
    <trkpt lat="42.626434" lon="-2.891838">
      <ele>660.7</ele>
    </trkpt>
    <trkpt lat="42.626281" lon="-2.891577">
      <ele>662.3</ele>
    </trkpt>
    <trkpt lat="42.626019" lon="-2.890973">
      <ele>666.2</ele>
    </trkpt>
    <trkpt lat="42.625838" lon="-2.890807">
      <ele>667.7</ele>
    </trkpt>
    <trkpt lat="42.625724" lon="-2.890774">
      <ele>668.4</ele>
    </trkpt>
    <trkpt lat="42.625622" lon="-2.890795">
      <ele>669.1</ele>
    </trkpt>
    <trkpt lat="42.625279" lon="-2.891058">
      <ele>671.7</ele>
    </trkpt>
    <trkpt lat="42.62505" lon="-2.891157">
      <ele>673.4</ele>
    </trkpt>
    <trkpt lat="42.624949" lon="-2.89115">
      <ele>674.1</ele>
    </trkpt>
    <trkpt lat="42.624499" lon="-2.890961">
      <ele>677.8</ele>
    </trkpt>
    <trkpt lat="42.624353" lon="-2.890958">
      <ele>679</ele>
    </trkpt>
    <trkpt lat="42.624204" lon="-2.891051">
      <ele>680.4</ele>
    </trkpt>
    <trkpt lat="42.624058" lon="-2.8912">
      <ele>682.1</ele>
    </trkpt>
    <trkpt lat="42.623927" lon="-2.891395">
      <ele>683.9</ele>
    </trkpt>
    <trkpt lat="42.623218" lon="-2.892695">
      <ele>696.6</ele>
    </trkpt>
    <trkpt lat="42.622838" lon="-2.893188">
      <ele>701.8</ele>
    </trkpt>
    <trkpt lat="42.622612" lon="-2.893684">
      <ele>705.3</ele>
    </trkpt>
    <trkpt lat="42.622518" lon="-2.893807">
      <ele>706.2</ele>
    </trkpt>
    <trkpt lat="42.622127" lon="-2.89402">
      <ele>707.2</ele>
    </trkpt>
    <trkpt lat="42.621867" lon="-2.894125">
      <ele>706.9</ele>
    </trkpt>
    <trkpt lat="42.621704" lon="-2.894126">
      <ele>706.5</ele>
    </trkpt>
    <trkpt lat="42.621535" lon="-2.894037">
      <ele>705.9</ele>
    </trkpt>
    <trkpt lat="42.621421" lon="-2.893999">
      <ele>705.3</ele>
    </trkpt>
    <trkpt lat="42.621372" lon="-2.893984">
      <ele>705.1</ele>
    </trkpt>
    <trkpt lat="42.621214" lon="-2.893971">
      <ele>704.2</ele>
    </trkpt>
    <trkpt lat="42.621132" lon="-2.893918">
      <ele>703.6</ele>
    </trkpt>
    <trkpt lat="42.62108" lon="-2.893847">
      <ele>703.1</ele>
    </trkpt>
    <trkpt lat="42.621035" lon="-2.893733">
      <ele>702.5</ele>
    </trkpt>
    <trkpt lat="42.620733" lon="-2.892517">
      <ele>694</ele>
    </trkpt>
    <trkpt lat="42.620673" lon="-2.892367">
      <ele>693</ele>
    </trkpt>
    <trkpt lat="42.620542" lon="-2.892171">
      <ele>691.5</ele>
    </trkpt>
    <trkpt lat="42.620343" lon="-2.891984">
      <ele>689.7</ele>
    </trkpt>
    <trkpt lat="42.620176" lon="-2.8919">
      <ele>688.4</ele>
    </trkpt>
    <trkpt lat="42.619779" lon="-2.891834">
      <ele>685.5</ele>
    </trkpt>
    <trkpt lat="42.619682" lon="-2.891757">
      <ele>684.8</ele>
    </trkpt>
    <trkpt lat="42.619571" lon="-2.891606">
      <ele>683.9</ele>
    </trkpt>
    <trkpt lat="42.619457" lon="-2.891174">
      <ele>682.4</ele>
    </trkpt>
    <trkpt lat="42.61942" lon="-2.891382">
      <ele>681.7</ele>
    </trkpt>
    <trkpt lat="42.619428" lon="-2.891519">
      <ele>681.2</ele>
    </trkpt>
    <trkpt lat="42.619558" lon="-2.89184">
      <ele>680</ele>
    </trkpt>
    <trkpt lat="42.619616" lon="-2.891945">
      <ele>679.6</ele>
    </trkpt>
    <trkpt lat="42.619733" lon="-2.892041">
      <ele>679</ele>
    </trkpt>
    <trkpt lat="42.619992" lon="-2.892248">
      <ele>678</ele>
    </trkpt>
    <trkpt lat="42.620224" lon="-2.892579">
      <ele>676.4</ele>
    </trkpt>
    <trkpt lat="42.620311" lon="-2.892773">
      <ele>675.6</ele>
    </trkpt>
    <trkpt lat="42.620351" lon="-2.893027">
      <ele>674.7</ele>
    </trkpt>
    <trkpt lat="42.620381" lon="-2.893446">
      <ele>672.7</ele>
    </trkpt>
    <trkpt lat="42.620213" lon="-2.893404">
      <ele>671.6</ele>
    </trkpt>
    <trkpt lat="42.620121" lon="-2.893188">
      <ele>670.5</ele>
    </trkpt>
    <trkpt lat="42.62005" lon="-2.89293">
      <ele>669.5</ele>
    </trkpt>
    <trkpt lat="42.619878" lon="-2.892737">
      <ele>668.5</ele>
    </trkpt>
    <trkpt lat="42.619709" lon="-2.892599">
      <ele>667.7</ele>
    </trkpt>
    <trkpt lat="42.619494" lon="-2.892539">
      <ele>666.5</ele>
    </trkpt>
    <trkpt lat="42.619328" lon="-2.892453">
      <ele>665.7</ele>
    </trkpt>
    <trkpt lat="42.61924" lon="-2.892488">
      <ele>665.2</ele>
    </trkpt>
    <trkpt lat="42.619125" lon="-2.892928">
      <ele>663.4</ele>
    </trkpt>
    <trkpt lat="42.619091" lon="-2.892992">
      <ele>663.1</ele>
    </trkpt>
    <trkpt lat="42.619013" lon="-2.892986">
      <ele>662.6</ele>
    </trkpt>
    <trkpt lat="42.618858" lon="-2.892914">
      <ele>661.6</ele>
    </trkpt>
    <trkpt lat="42.617835" lon="-2.892111">
      <ele>651.3</ele>
    </trkpt>
    <trkpt lat="42.617381" lon="-2.891786">
      <ele>645.3</ele>
    </trkpt>
    <trkpt lat="42.617084" lon="-2.89151">
      <ele>641.1</ele>
    </trkpt>
    <trkpt lat="42.616713" lon="-2.891392">
      <ele>636.7</ele>
    </trkpt>
    <trkpt lat="42.61641" lon="-2.89119">
      <ele>633.1</ele>
    </trkpt>
    <trkpt lat="42.616244" lon="-2.890968">
      <ele>631.3</ele>
    </trkpt>
    <trkpt lat="42.615845" lon="-2.890633">
      <ele>629.6</ele>
    </trkpt>
    <trkpt lat="42.615711" lon="-2.8904">
      <ele>629.7</ele>
    </trkpt>
    <trkpt lat="42.615637" lon="-2.890677">
      <ele>630.4</ele>
    </trkpt>
    <trkpt lat="42.615661" lon="-2.890789">
      <ele>630.7</ele>
    </trkpt>
    <trkpt lat="42.615635" lon="-2.890892">
      <ele>631.2</ele>
    </trkpt>
    <trkpt lat="42.615504" lon="-2.8911">
      <ele>632.6</ele>
    </trkpt>
    <trkpt lat="42.615479" lon="-2.891245">
      <ele>633.6</ele>
    </trkpt>
    <trkpt lat="42.615485" lon="-2.891686">
      <ele>637.1</ele>
    </trkpt>
    <trkpt lat="42.615372" lon="-2.892249">
      <ele>643</ele>
    </trkpt>
    <trkpt lat="42.615257" lon="-2.89353">
      <ele>654.3</ele>
    </trkpt>
    <trkpt lat="42.615253" lon="-2.893988">
      <ele>656.8</ele>
    </trkpt>
    <trkpt lat="42.615294" lon="-2.894066">
      <ele>657.2</ele>
    </trkpt>
    <trkpt lat="42.615287" lon="-2.894125">
      <ele>657.4</ele>
    </trkpt>
    <trkpt lat="42.615227" lon="-2.894198">
      <ele>657.7</ele>
    </trkpt>
    <trkpt lat="42.615042" lon="-2.894313">
      <ele>658.1</ele>
    </trkpt>
    <trkpt lat="42.614881" lon="-2.894333">
      <ele>658.1</ele>
    </trkpt>
    <trkpt lat="42.614364" lon="-2.894197">
      <ele>656.4</ele>
    </trkpt>
    <trkpt lat="42.614118" lon="-2.894001">
      <ele>655.3</ele>
    </trkpt>
    <trkpt lat="42.613545" lon="-2.893961">
      <ele>653.6</ele>
    </trkpt>
    <trkpt lat="42.613297" lon="-2.894264">
      <ele>653.2</ele>
    </trkpt>
    <trkpt lat="42.613225" lon="-2.894302">
      <ele>653.2</ele>
    </trkpt>
    <trkpt lat="42.613174" lon="-2.894374">
      <ele>653.2</ele>
    </trkpt>
    <trkpt lat="42.613155" lon="-2.894498">
      <ele>653.3</ele>
    </trkpt>
    <trkpt lat="42.613255" lon="-2.894707">
      <ele>653.5</ele>
    </trkpt>
    <trkpt lat="42.613246" lon="-2.894753">
      <ele>653.6</ele>
    </trkpt>
    <trkpt lat="42.612734" lon="-2.895745">
      <ele>655.3</ele>
    </trkpt>
    <trkpt lat="42.612531" lon="-2.896408">
      <ele>653.9</ele>
    </trkpt>
    <trkpt lat="42.612143" lon="-2.89704">
      <ele>651</ele>
    </trkpt>
    <trkpt lat="42.611941" lon="-2.897236">
      <ele>649.4</ele>
    </trkpt>
    <trkpt lat="42.611829" lon="-2.89751">
      <ele>647.8</ele>
    </trkpt>
    <trkpt lat="42.61182" lon="-2.897909">
      <ele>645.7</ele>
    </trkpt>
    <trkpt lat="42.611865" lon="-2.898513">
      <ele>643</ele>
    </trkpt>
    <trkpt lat="42.611941" lon="-2.898964">
      <ele>641.3</ele>
    </trkpt>
    <trkpt lat="42.612014" lon="-2.899232">
      <ele>640.5</ele>
    </trkpt>
    <trkpt lat="42.612458" lon="-2.900385">
      <ele>640.8</ele>
    </trkpt>
    <trkpt lat="42.61259" lon="-2.900549">
      <ele>641.4</ele>
    </trkpt>
    <trkpt lat="42.61325" lon="-2.900895">
      <ele>643.3</ele>
    </trkpt>
    <trkpt lat="42.613281" lon="-2.900932">
      <ele>643.3</ele>
    </trkpt>
    <trkpt lat="42.613332" lon="-2.901123">
      <ele>643.3</ele>
    </trkpt>
    <trkpt lat="42.613459" lon="-2.901324">
      <ele>643.2</ele>
    </trkpt>
    <trkpt lat="42.613507" lon="-2.901447">
      <ele>643</ele>
    </trkpt>
    <trkpt lat="42.613508" lon="-2.901493">
      <ele>642.8</ele>
    </trkpt>
    <trkpt lat="42.613475" lon="-2.901549">
      <ele>642.6</ele>
    </trkpt>
    <trkpt lat="42.613136" lon="-2.901909">
      <ele>639.8</ele>
    </trkpt>
    <trkpt lat="42.613054" lon="-2.90196">
      <ele>639</ele>
    </trkpt>
    <trkpt lat="42.612805" lon="-2.901997">
      <ele>636.8</ele>
    </trkpt>
    <trkpt lat="42.612659" lon="-2.902099">
      <ele>635.4</ele>
    </trkpt>
    <trkpt lat="42.612609" lon="-2.902222">
      <ele>634.6</ele>
    </trkpt>
    <trkpt lat="42.612566" lon="-2.902729">
      <ele>631</ele>
    </trkpt>
    <trkpt lat="42.612589" lon="-2.903088">
      <ele>628.3</ele>
    </trkpt>
    <trkpt lat="42.612722" lon="-2.903532">
      <ele>624.9</ele>
    </trkpt>
    <trkpt lat="42.612668" lon="-2.903714">
      <ele>623.5</ele>
    </trkpt>
    <trkpt lat="42.61244" lon="-2.903867">
      <ele>621.2</ele>
    </trkpt>
    <trkpt lat="42.612312" lon="-2.904096">
      <ele>619.9</ele>
    </trkpt>
    <trkpt lat="42.612227" lon="-2.904526">
      <ele>618.3</ele>
    </trkpt>
    <trkpt lat="42.611959" lon="-2.905007">
      <ele>616.7</ele>
    </trkpt>
    <trkpt lat="42.611858" lon="-2.905101">
      <ele>616.5</ele>
    </trkpt>
    <trkpt lat="42.612028" lon="-2.905892">
      <ele>617.5</ele>
    </trkpt>
    <trkpt lat="42.612047" lon="-2.906144">
      <ele>618.4</ele>
    </trkpt>
    <trkpt lat="42.612041" lon="-2.906544">
      <ele>620.3</ele>
    </trkpt>
    <trkpt lat="42.612006" lon="-2.906833">
      <ele>621.7</ele>
    </trkpt>
    <trkpt lat="42.611939" lon="-2.90711">
      <ele>622.8</ele>
    </trkpt>
    <trkpt lat="42.611658" lon="-2.907748">
      <ele>623.8</ele>
    </trkpt>
    <trkpt lat="42.611581" lon="-2.908069">
      <ele>623.5</ele>
    </trkpt>
    <trkpt lat="42.611554" lon="-2.908263">
      <ele>623.3</ele>
    </trkpt>
    <trkpt lat="42.611208" lon="-2.909269">
      <ele>620.3</ele>
    </trkpt>
    <trkpt lat="42.610013" lon="-2.912604">
      <ele>612.7</ele>
    </trkpt>
    <trkpt lat="42.609808" lon="-2.913175">
      <ele>610.8</ele>
    </trkpt>
    <trkpt lat="42.609434" lon="-2.914295">
      <ele>607</ele>
    </trkpt>
    <trkpt lat="42.608221" lon="-2.919848">
      <ele>600.7</ele>
    </trkpt>
    <trkpt lat="42.607233" lon="-2.924388">
      <ele>593</ele>
    </trkpt>
    <trkpt lat="42.607062" lon="-2.925059">
      <ele>591.6</ele>
    </trkpt>
    <trkpt lat="42.606517" lon="-2.926243">
      <ele>587.4</ele>
    </trkpt>
    <trkpt lat="42.60639" lon="-2.926762">
      <ele>585.1</ele>
    </trkpt>
    <trkpt lat="42.605951" lon="-2.928999">
      <ele>572.6</ele>
    </trkpt>
    <trkpt lat="42.605837" lon="-2.92975">
      <ele>568.8</ele>
    </trkpt>
    <trkpt lat="42.605817" lon="-2.930419">
      <ele>565.9</ele>
    </trkpt>
    <trkpt lat="42.605558" lon="-2.931546">
      <ele>562.9</ele>
    </trkpt>
    <trkpt lat="42.605557" lon="-2.931771">
      <ele>562.7</ele>
    </trkpt>
    <trkpt lat="42.605685" lon="-2.932937">
      <ele>564.7</ele>
    </trkpt>
    <trkpt lat="42.605676" lon="-2.933161">
      <ele>565.4</ele>
    </trkpt>
    <trkpt lat="42.60563" lon="-2.933463">
      <ele>566.5</ele>
    </trkpt>
    <trkpt lat="42.605423" lon="-2.933886">
      <ele>568.3</ele>
    </trkpt>
    <trkpt lat="42.605344" lon="-2.93409">
      <ele>569.1</ele>
    </trkpt>
    <trkpt lat="42.605198" lon="-2.934763">
      <ele>571.5</ele>
    </trkpt>
    <trkpt lat="42.604634" lon="-2.935811">
      <ele>574</ele>
    </trkpt>
    <trkpt lat="42.604487" lon="-2.935912">
      <ele>574.2</ele>
    </trkpt>
    <trkpt lat="42.603825" lon="-2.936179">
      <ele>574.6</ele>
    </trkpt>
    <trkpt lat="42.603318" lon="-2.936482">
      <ele>574.3</ele>
    </trkpt>
    <trkpt lat="42.603138" lon="-2.936536">
      <ele>574.1</ele>
    </trkpt>
    <trkpt lat="42.60288" lon="-2.936603">
      <ele>573.5</ele>
    </trkpt>
    <trkpt lat="42.602804" lon="-2.936765">
      <ele>573.1</ele>
    </trkpt>
    <trkpt lat="42.602704" lon="-2.937007">
      <ele>572.5</ele>
    </trkpt>
    <trkpt lat="42.602481" lon="-2.937504">
      <ele>570.8</ele>
    </trkpt>
    <trkpt lat="42.602521" lon="-2.937887">
      <ele>569.6</ele>
    </trkpt>
    <trkpt lat="42.602518" lon="-2.938201">
      <ele>568.8</ele>
    </trkpt>
    <trkpt lat="42.602459" lon="-2.939139">
      <ele>566.4</ele>
    </trkpt>
    <trkpt lat="42.602406" lon="-2.939613">
      <ele>565.4</ele>
    </trkpt>
    <trkpt lat="42.602367" lon="-2.939774">
      <ele>565.1</ele>
    </trkpt>
    <trkpt lat="42.602321" lon="-2.939888">
      <ele>564.8</ele>
    </trkpt>
    <trkpt lat="42.602264" lon="-2.939956">
      <ele>564.6</ele>
    </trkpt>
    <trkpt lat="42.601713" lon="-2.940182">
      <ele>563</ele>
    </trkpt>
    <trkpt lat="42.601374" lon="-2.940094">
      <ele>562.2</ele>
    </trkpt>
    <trkpt lat="42.601245" lon="-2.940122">
      <ele>561.8</ele>
    </trkpt>
    <trkpt lat="42.601049" lon="-2.940244">
      <ele>561.1</ele>
    </trkpt>
    <trkpt lat="42.60015" lon="-2.941152">
      <ele>557.3</ele>
    </trkpt>
    <trkpt lat="42.599691" lon="-2.941538">
      <ele>556</ele>
    </trkpt>
    <trkpt lat="42.599101" lon="-2.941941">
      <ele>554.9</ele>
    </trkpt>
    <trkpt lat="42.598775" lon="-2.94223">
      <ele>554.4</ele>
    </trkpt>
    <trkpt lat="42.598495" lon="-2.942531">
      <ele>554</ele>
    </trkpt>
    <trkpt lat="42.598368" lon="-2.942729">
      <ele>553.8</ele>
    </trkpt>
    <trkpt lat="42.598273" lon="-2.94294">
      <ele>553.6</ele>
    </trkpt>
    <trkpt lat="42.597511" lon="-2.945152">
      <ele>549.6</ele>
    </trkpt>
    <trkpt lat="42.597369" lon="-2.945569">
      <ele>548.6</ele>
    </trkpt>
    <trkpt lat="42.596358" lon="-2.94845">
      <ele>540</ele>
    </trkpt>
    <trkpt lat="42.5962" lon="-2.948815">
      <ele>538.9</ele>
    </trkpt>
    <trkpt lat="42.595065" lon="-2.951095">
      <ele>531.7</ele>
    </trkpt>
    <trkpt lat="42.595006" lon="-2.951243">
      <ele>531.2</ele>
    </trkpt>
    <trkpt lat="42.594852" lon="-2.951825">
      <ele>529.4</ele>
    </trkpt>
    <trkpt lat="42.594696" lon="-2.952198">
      <ele>528</ele>
    </trkpt>
    <trkpt lat="42.594445" lon="-2.952798">
      <ele>525.7</ele>
    </trkpt>
    <trkpt lat="42.594263" lon="-2.953112">
      <ele>524.3</ele>
    </trkpt>
    <trkpt lat="42.592986" lon="-2.954799">
      <ele>517.4</ele>
    </trkpt>
    <trkpt lat="42.59283" lon="-2.95511">
      <ele>516.8</ele>
    </trkpt>
    <trkpt lat="42.592503" lon="-2.95607">
      <ele>515.6</ele>
    </trkpt>
    <trkpt lat="42.588983" lon="-2.95455">
      <ele>508.1</ele>
    </trkpt>
    <trkpt lat="42.58868" lon="-2.954902">
      <ele>507.5</ele>
    </trkpt>
    <trkpt lat="42.588401" lon="-2.955464">
      <ele>507.2</ele>
    </trkpt>
    <trkpt lat="42.587916" lon="-2.957168">
      <ele>506.8</ele>
    </trkpt>
    <trkpt lat="42.587851" lon="-2.95759">
      <ele>506.7</ele>
    </trkpt>
    <trkpt lat="42.587822" lon="-2.958023">
      <ele>506.6</ele>
    </trkpt>
    <trkpt lat="42.587834" lon="-2.958203">
      <ele>506.5</ele>
    </trkpt>
    <trkpt lat="42.587843" lon="-2.958636">
      <ele>506.4</ele>
    </trkpt>
    <trkpt lat="42.587814" lon="-2.958698">
      <ele>506.3</ele>
    </trkpt>
    <trkpt lat="42.587758" lon="-2.958709">
      <ele>506.3</ele>
    </trkpt>
    <trkpt lat="42.586717" lon="-2.95786">
      <ele>506.7</ele>
    </trkpt>
    <trkpt lat="42.586427" lon="-2.957651">
      <ele>506.8</ele>
    </trkpt>
    <trkpt lat="42.585926" lon="-2.958017">
      <ele>507</ele>
    </trkpt>
    <trkpt lat="42.585442" lon="-2.958181">
      <ele>507.2</ele>
    </trkpt>
    <trkpt lat="42.585258" lon="-2.958307">
      <ele>507.3</ele>
    </trkpt>
    <trkpt lat="42.585072" lon="-2.958368">
      <ele>507.3</ele>
    </trkpt>
    <trkpt lat="42.584864" lon="-2.958318">
      <ele>507.4</ele>
    </trkpt>
    <trkpt lat="42.584438" lon="-2.957951">
      <ele>507.8</ele>
    </trkpt>
    <trkpt lat="42.583819" lon="-2.957693">
      <ele>507.9</ele>
    </trkpt>
    <trkpt lat="42.583691" lon="-2.957524">
      <ele>507.8</ele>
    </trkpt>
    <trkpt lat="42.581704" lon="-2.954331">
      <ele>501.8</ele>
    </trkpt>
    <trkpt lat="42.581666" lon="-2.954271">
      <ele>501.7</ele>
    </trkpt>
    <trkpt lat="42.580235" lon="-2.952409">
      <ele>500.3</ele>
    </trkpt>
    <trkpt lat="42.579842" lon="-2.951877">
      <ele>499.9</ele>
    </trkpt>
    <trkpt lat="42.578847" lon="-2.950583">
      <ele>498</ele>
    </trkpt>
    <trkpt lat="42.578511" lon="-2.950974">
      <ele>497</ele>
    </trkpt>
    <trkpt lat="42.57769" lon="-2.951967">
      <ele>496.1</ele>
    </trkpt>
    <trkpt lat="42.577649" lon="-2.952015">
      <ele>496.2</ele>
    </trkpt>
    <trkpt lat="42.576698" lon="-2.953124">
      <ele>498</ele>
    </trkpt>
    <trkpt lat="42.576313" lon="-2.95277">
      <ele>498.2</ele>
    </trkpt>
    <trkpt lat="42.575961" lon="-2.952504">
      <ele>497.7</ele>
    </trkpt>
    <trkpt lat="42.575485" lon="-2.951733">
      <ele>496</ele>
    </trkpt>
    <trkpt lat="42.575191" lon="-2.951458">
      <ele>495.1</ele>
    </trkpt>
    <trkpt lat="42.574936" lon="-2.951325">
      <ele>494.4</ele>
    </trkpt>
    <trkpt lat="42.574238" lon="-2.951077">
      <ele>493.7</ele>
    </trkpt>
    <trkpt lat="42.573985" lon="-2.950938">
      <ele>493.9</ele>
    </trkpt>
    <trkpt lat="42.57388" lon="-2.950919">
      <ele>494</ele>
    </trkpt>
    <trkpt lat="42.573736" lon="-2.950838">
      <ele>494.2</ele>
    </trkpt>
    <trkpt lat="42.57356" lon="-2.95067">
      <ele>494.5</ele>
    </trkpt>
    <trkpt lat="42.573247" lon="-2.950245">
      <ele>495.4</ele>
    </trkpt>
    <trkpt lat="42.573036" lon="-2.950019">
      <ele>496.1</ele>
    </trkpt>
    <trkpt lat="42.571263" lon="-2.94857">
      <ele>498.5</ele>
    </trkpt>
    <trkpt lat="42.568705" lon="-2.947005">
      <ele>499.5</ele>
    </trkpt>
    <trkpt lat="42.566421" lon="-2.945175">
      <ele>500.2</ele>
    </trkpt>
    <trkpt lat="42.565338" lon="-2.944512">
      <ele>500.7</ele>
    </trkpt>
    <trkpt lat="42.564063" lon="-2.943624">
      <ele>501.2</ele>
    </trkpt>
    <trkpt lat="42.563172" lon="-2.943059">
      <ele>501.4</ele>
    </trkpt>
    <trkpt lat="42.561753" lon="-2.942076">
      <ele>501.1</ele>
    </trkpt>
    <trkpt lat="42.560908" lon="-2.941338">
      <ele>500.1</ele>
    </trkpt>
    <trkpt lat="42.560135" lon="-2.940292">
      <ele>498.2</ele>
    </trkpt>
    <trkpt lat="42.558989" lon="-2.938657">
      <ele>494.5</ele>
    </trkpt>
    <trkpt lat="42.558932" lon="-2.938623">
      <ele>494.3</ele>
    </trkpt>
    <trkpt lat="42.558545" lon="-2.938542">
      <ele>493.7</ele>
    </trkpt>
    <trkpt lat="42.557559" lon="-2.939838">
      <ele>493.3</ele>
    </trkpt>
    <trkpt lat="42.556573" lon="-2.941133">
      <ele>494.2</ele>
    </trkpt>
    <trkpt lat="42.55525" lon="-2.942941">
      <ele>495.6</ele>
    </trkpt>
    <trkpt lat="42.553578" lon="-2.943939">
      <ele>497</ele>
    </trkpt>
    <trkpt lat="42.553396" lon="-2.944148">
      <ele>497.2</ele>
    </trkpt>
    <trkpt lat="42.553606" lon="-2.944652">
      <ele>497.7</ele>
    </trkpt>
    <trkpt lat="42.554293" lon="-2.946026">
      <ele>499.2</ele>
    </trkpt>
    <trkpt lat="42.554523" lon="-2.94631">
      <ele>499.4</ele>
    </trkpt>
    <trkpt lat="42.554319" lon="-2.94648">
      <ele>499.7</ele>
    </trkpt>
    <trkpt lat="42.554217" lon="-2.946558">
      <ele>499.8</ele>
    </trkpt>
    <trkpt lat="42.554044" lon="-2.946747">
      <ele>500.2</ele>
    </trkpt>
    <trkpt lat="42.553739" lon="-2.94726">
      <ele>501</ele>
    </trkpt>
    <trkpt lat="42.553133" lon="-2.948141">
      <ele>503.1</ele>
    </trkpt>
    <trkpt lat="42.55288" lon="-2.948428">
      <ele>503.9</ele>
    </trkpt>
    <trkpt lat="42.552713" lon="-2.948743">
      <ele>504.5</ele>
    </trkpt>
    <trkpt lat="42.552367" lon="-2.949549">
      <ele>505.4</ele>
    </trkpt>
    <trkpt lat="42.552038" lon="-2.95085">
      <ele>506.4</ele>
    </trkpt>
    <trkpt lat="42.551711" lon="-2.951722">
      <ele>506.7</ele>
    </trkpt>
    <trkpt lat="42.551038" lon="-2.95135">
      <ele>506.7</ele>
    </trkpt>
    <trkpt lat="42.550112" lon="-2.95103">
      <ele>506.9</ele>
    </trkpt>
    <trkpt lat="42.549382" lon="-2.950692">
      <ele>507.6</ele>
    </trkpt>
    <trkpt lat="42.549095" lon="-2.950622">
      <ele>507.9</ele>
    </trkpt>
    <trkpt lat="42.548735" lon="-2.950631">
      <ele>508.3</ele>
    </trkpt>
    <trkpt lat="42.548291" lon="-2.950709">
      <ele>508.5</ele>
    </trkpt>
    <trkpt lat="42.547143" lon="-2.951014">
      <ele>510.5</ele>
    </trkpt>
    <trkpt lat="42.547035" lon="-2.950823">
      <ele>511.1</ele>
    </trkpt>
    <trkpt lat="42.546757" lon="-2.950419">
      <ele>512.8</ele>
    </trkpt>
    <trkpt lat="42.546728" lon="-2.950352">
      <ele>513.1</ele>
    </trkpt>
    <trkpt lat="42.546631" lon="-2.950434">
      <ele>513.7</ele>
    </trkpt>
    <trkpt lat="42.546377" lon="-2.950556">
      <ele>515.1</ele>
    </trkpt>
    <trkpt lat="42.546188" lon="-2.95049">
      <ele>516.1</ele>
    </trkpt>
    <trkpt lat="42.5461" lon="-2.950515">
      <ele>516.6</ele>
    </trkpt>
    <trkpt lat="42.545934" lon="-2.950632">
      <ele>517.5</ele>
    </trkpt>
    <trkpt lat="42.545726" lon="-2.950632">
      <ele>518.3</ele>
    </trkpt>
    <trkpt lat="42.545513" lon="-2.950522">
      <ele>519.1</ele>
    </trkpt>
    <trkpt lat="42.545406" lon="-2.950781">
      <ele>519.8</ele>
    </trkpt>
    <trkpt lat="42.545062" lon="-2.951528">
      <ele>521.4</ele>
    </trkpt>
    <trkpt lat="42.545095" lon="-2.951738">
      <ele>521.7</ele>
    </trkpt>
    <trkpt lat="42.544997" lon="-2.952404">
      <ele>522.5</ele>
    </trkpt>
    <trkpt lat="42.54495" lon="-2.952701">
      <ele>522.9</ele>
    </trkpt>
    <trkpt lat="42.54489" lon="-2.95292">
      <ele>523.3</ele>
    </trkpt>
    <trkpt lat="42.544743" lon="-2.953254">
      <ele>523.9</ele>
    </trkpt>
    <trkpt lat="42.543877" lon="-2.954371">
      <ele>525.7</ele>
    </trkpt>
    <trkpt lat="42.543778" lon="-2.954527">
      <ele>525.8</ele>
    </trkpt>
    <trkpt lat="42.543685" lon="-2.954733">
      <ele>525.9</ele>
    </trkpt>
    <trkpt lat="42.543581" lon="-2.955024">
      <ele>525.8</ele>
    </trkpt>
    <trkpt lat="42.542927" lon="-2.957195">
      <ele>523.7</ele>
    </trkpt>
    <trkpt lat="42.5426" lon="-2.958575">
      <ele>523</ele>
    </trkpt>
    <trkpt lat="42.542499" lon="-2.958954">
      <ele>523.2</ele>
    </trkpt>
    <trkpt lat="42.542366" lon="-2.959258">
      <ele>523.5</ele>
    </trkpt>
    <trkpt lat="42.541962" lon="-2.959983">
      <ele>524.6</ele>
    </trkpt>
    <trkpt lat="42.541475" lon="-2.960777">
      <ele>526.2</ele>
    </trkpt>
    <trkpt lat="42.541065" lon="-2.961658">
      <ele>528.8</ele>
    </trkpt>
    <trkpt lat="42.540924" lon="-2.961828">
      <ele>529.2</ele>
    </trkpt>
    <trkpt lat="42.540842" lon="-2.961713">
      <ele>529.6</ele>
    </trkpt>
    <trkpt lat="42.540773" lon="-2.961796">
      <ele>529.8</ele>
    </trkpt>
    </trkseg>
  </trk>
</gpx>
