<?xml version="1.0" encoding="UTF-8"?>
<gpx version="1.1" creator="fitAI Komoot downloader" xmlns="http://www.topografix.com/GPX/1/1">
  <metadata>
    <name>Cima de Montejurra y Senda &quot;Detrás del Monte&quot; - Recorrido circular desde Villa romana de las Musas</name>
    <desc>73 visitas · Dificultad: moderate · Distancia: 30.7 km · Desnivel +: 776 m</desc>
    <link href="https://www.komoot.com/smarttour/e44715761"><text>Komoot</text></link>
  </metadata>
  <trk>
    <name>Cima de Montejurra y Senda &quot;Detrás del Monte&quot; - Recorrido circular desde Villa romana de las Musas</name>
    <type>mtb</type>
    <trkseg>
    <trkpt lat="42.552803" lon="-2.073763">
      <ele>417.6</ele>
    </trkpt>
    <trkpt lat="42.552806" lon="-2.073856">
      <ele>417.5</ele>
    </trkpt>
    <trkpt lat="42.552843" lon="-2.07404">
      <ele>417.2</ele>
    </trkpt>
    <trkpt lat="42.552955" lon="-2.074262">
      <ele>416.8</ele>
    </trkpt>
    <trkpt lat="42.553142" lon="-2.07449">
      <ele>416.4</ele>
    </trkpt>
    <trkpt lat="42.553436" lon="-2.074775">
      <ele>416.1</ele>
    </trkpt>
    <trkpt lat="42.553539" lon="-2.074794">
      <ele>416.1</ele>
    </trkpt>
    <trkpt lat="42.554011" lon="-2.074737">
      <ele>416.8</ele>
    </trkpt>
    <trkpt lat="42.555038" lon="-2.07468">
      <ele>421.6</ele>
    </trkpt>
    <trkpt lat="42.555192" lon="-2.074547">
      <ele>422.7</ele>
    </trkpt>
    <trkpt lat="42.555626" lon="-2.073472">
      <ele>426.2</ele>
    </trkpt>
    <trkpt lat="42.556791" lon="-2.074023">
      <ele>427.6</ele>
    </trkpt>
    <trkpt lat="42.560465" lon="-2.07468">
      <ele>432.3</ele>
    </trkpt>
    <trkpt lat="42.560853" lon="-2.074898">
      <ele>433.2</ele>
    </trkpt>
    <trkpt lat="42.561133" lon="-2.074962">
      <ele>433.9</ele>
    </trkpt>
    <trkpt lat="42.562635" lon="-2.074935">
      <ele>437.5</ele>
    </trkpt>
    <trkpt lat="42.563547" lon="-2.074699">
      <ele>439.1</ele>
    </trkpt>
    <trkpt lat="42.564286" lon="-2.074878">
      <ele>440</ele>
    </trkpt>
    <trkpt lat="42.56495" lon="-2.074819">
      <ele>441</ele>
    </trkpt>
    <trkpt lat="42.565946" lon="-2.075069">
      <ele>443.3</ele>
    </trkpt>
    <trkpt lat="42.566459" lon="-2.075429">
      <ele>445.1</ele>
    </trkpt>
    <trkpt lat="42.567332" lon="-2.075708">
      <ele>448.1</ele>
    </trkpt>
    <trkpt lat="42.567933" lon="-2.076131">
      <ele>450.5</ele>
    </trkpt>
    <trkpt lat="42.568261" lon="-2.076582">
      <ele>452.2</ele>
    </trkpt>
    <trkpt lat="42.568877" lon="-2.077022">
      <ele>454.6</ele>
    </trkpt>
    <trkpt lat="42.56945" lon="-2.077381">
      <ele>456.5</ele>
    </trkpt>
    <trkpt lat="42.569568" lon="-2.078297">
      <ele>458.8</ele>
    </trkpt>
    <trkpt lat="42.569904" lon="-2.079602">
      <ele>462.7</ele>
    </trkpt>
    <trkpt lat="42.570019" lon="-2.080304">
      <ele>464.9</ele>
    </trkpt>
    <trkpt lat="42.57004" lon="-2.08157">
      <ele>468.6</ele>
    </trkpt>
    <trkpt lat="42.570631" lon="-2.08178">
      <ele>471</ele>
    </trkpt>
    <trkpt lat="42.570829" lon="-2.081963">
      <ele>472</ele>
    </trkpt>
    <trkpt lat="42.571734" lon="-2.08236">
      <ele>476.6</ele>
    </trkpt>
    <trkpt lat="42.572065" lon="-2.082419">
      <ele>478.5</ele>
    </trkpt>
    <trkpt lat="42.572784" lon="-2.082761">
      <ele>483</ele>
    </trkpt>
    <trkpt lat="42.572966" lon="-2.082971">
      <ele>484.3</ele>
    </trkpt>
    <trkpt lat="42.573282" lon="-2.083576">
      <ele>486.7</ele>
    </trkpt>
    <trkpt lat="42.573448" lon="-2.083748">
      <ele>487.4</ele>
    </trkpt>
    <trkpt lat="42.573665" lon="-2.083899">
      <ele>488.2</ele>
    </trkpt>
    <trkpt lat="42.573831" lon="-2.084064">
      <ele>488.6</ele>
    </trkpt>
    <trkpt lat="42.574127" lon="-2.084606">
      <ele>489.6</ele>
    </trkpt>
    <trkpt lat="42.574392" lon="-2.084897">
      <ele>490.1</ele>
    </trkpt>
    <trkpt lat="42.575044" lon="-2.085476">
      <ele>491.3</ele>
    </trkpt>
    <trkpt lat="42.575388" lon="-2.085723">
      <ele>492.1</ele>
    </trkpt>
    <trkpt lat="42.575727" lon="-2.08584">
      <ele>493</ele>
    </trkpt>
    <trkpt lat="42.575921" lon="-2.086108">
      <ele>493.9</ele>
    </trkpt>
    <trkpt lat="42.576095" lon="-2.086265">
      <ele>494.7</ele>
    </trkpt>
    <trkpt lat="42.576418" lon="-2.086306">
      <ele>496.1</ele>
    </trkpt>
    <trkpt lat="42.576545" lon="-2.08651">
      <ele>497</ele>
    </trkpt>
    <trkpt lat="42.576766" lon="-2.086699">
      <ele>498.2</ele>
    </trkpt>
    <trkpt lat="42.577094" lon="-2.086805">
      <ele>500</ele>
    </trkpt>
    <trkpt lat="42.577892" lon="-2.087434">
      <ele>503.9</ele>
    </trkpt>
    <trkpt lat="42.578275" lon="-2.087476">
      <ele>505.1</ele>
    </trkpt>
    <trkpt lat="42.578824" lon="-2.087782">
      <ele>506.8</ele>
    </trkpt>
    <trkpt lat="42.579124" lon="-2.08826">
      <ele>507.8</ele>
    </trkpt>
    <trkpt lat="42.579338" lon="-2.088715">
      <ele>508.6</ele>
    </trkpt>
    <trkpt lat="42.579456" lon="-2.089087">
      <ele>509.2</ele>
    </trkpt>
    <trkpt lat="42.579539" lon="-2.089172">
      <ele>509.4</ele>
    </trkpt>
    <trkpt lat="42.579669" lon="-2.089235">
      <ele>509.6</ele>
    </trkpt>
    <trkpt lat="42.57978" lon="-2.089339">
      <ele>509.8</ele>
    </trkpt>
    <trkpt lat="42.580162" lon="-2.089882">
      <ele>510.6</ele>
    </trkpt>
    <trkpt lat="42.580268" lon="-2.089956">
      <ele>510.9</ele>
    </trkpt>
    <trkpt lat="42.580679" lon="-2.090129">
      <ele>512.1</ele>
    </trkpt>
    <trkpt lat="42.580743" lon="-2.090211">
      <ele>512.4</ele>
    </trkpt>
    <trkpt lat="42.580826" lon="-2.090304">
      <ele>512.7</ele>
    </trkpt>
    <trkpt lat="42.580865" lon="-2.090347">
      <ele>512.9</ele>
    </trkpt>
    <trkpt lat="42.580988" lon="-2.090683">
      <ele>514.1</ele>
    </trkpt>
    <trkpt lat="42.58145" lon="-2.091199">
      <ele>517.1</ele>
    </trkpt>
    <trkpt lat="42.581514" lon="-2.091363">
      <ele>517.7</ele>
    </trkpt>
    <trkpt lat="42.581553" lon="-2.091982">
      <ele>519</ele>
    </trkpt>
    <trkpt lat="42.581681" lon="-2.09227">
      <ele>519.2</ele>
    </trkpt>
    <trkpt lat="42.581704" lon="-2.09232">
      <ele>519.3</ele>
    </trkpt>
    <trkpt lat="42.581937" lon="-2.09284">
      <ele>518.9</ele>
    </trkpt>
    <trkpt lat="42.582292" lon="-2.093464">
      <ele>517.3</ele>
    </trkpt>
    <trkpt lat="42.582561" lon="-2.093832">
      <ele>516.2</ele>
    </trkpt>
    <trkpt lat="42.582523" lon="-2.093906">
      <ele>516.1</ele>
    </trkpt>
    <trkpt lat="42.582667" lon="-2.094193">
      <ele>515.8</ele>
    </trkpt>
    <trkpt lat="42.582705" lon="-2.094272">
      <ele>515.8</ele>
    </trkpt>
    <trkpt lat="42.583102" lon="-2.094647">
      <ele>516.3</ele>
    </trkpt>
    <trkpt lat="42.583222" lon="-2.094706">
      <ele>516.6</ele>
    </trkpt>
    <trkpt lat="42.583324" lon="-2.094719">
      <ele>516.8</ele>
    </trkpt>
    <trkpt lat="42.583665" lon="-2.094675">
      <ele>518.1</ele>
    </trkpt>
    <trkpt lat="42.583896" lon="-2.094607">
      <ele>519.2</ele>
    </trkpt>
    <trkpt lat="42.584659" lon="-2.09427">
      <ele>523.2</ele>
    </trkpt>
    <trkpt lat="42.584909" lon="-2.094146">
      <ele>524.1</ele>
    </trkpt>
    <trkpt lat="42.585357" lon="-2.093831">
      <ele>525.3</ele>
    </trkpt>
    <trkpt lat="42.585464" lon="-2.094363">
      <ele>526</ele>
    </trkpt>
    <trkpt lat="42.585633" lon="-2.094721">
      <ele>526.4</ele>
    </trkpt>
    <trkpt lat="42.585707" lon="-2.094909">
      <ele>526.6</ele>
    </trkpt>
    <trkpt lat="42.586159" lon="-2.095547">
      <ele>527.4</ele>
    </trkpt>
    <trkpt lat="42.58651" lon="-2.095986">
      <ele>529</ele>
    </trkpt>
    <trkpt lat="42.586669" lon="-2.096146">
      <ele>529.7</ele>
    </trkpt>
    <trkpt lat="42.586916" lon="-2.096205">
      <ele>530.5</ele>
    </trkpt>
    <trkpt lat="42.586981" lon="-2.096237">
      <ele>530.7</ele>
    </trkpt>
    <trkpt lat="42.587105" lon="-2.096364">
      <ele>531.2</ele>
    </trkpt>
    <trkpt lat="42.587283" lon="-2.096445">
      <ele>531.7</ele>
    </trkpt>
    <trkpt lat="42.58717" lon="-2.096913">
      <ele>532.7</ele>
    </trkpt>
    <trkpt lat="42.587094" lon="-2.097068">
      <ele>533.1</ele>
    </trkpt>
    <trkpt lat="42.587089" lon="-2.097225">
      <ele>533.4</ele>
    </trkpt>
    <trkpt lat="42.587048" lon="-2.097355">
      <ele>533.7</ele>
    </trkpt>
    <trkpt lat="42.587062" lon="-2.09759">
      <ele>534.1</ele>
    </trkpt>
    <trkpt lat="42.58713" lon="-2.097652">
      <ele>534.2</ele>
    </trkpt>
    <trkpt lat="42.587262" lon="-2.097689">
      <ele>534.5</ele>
    </trkpt>
    <trkpt lat="42.587545" lon="-2.09816">
      <ele>535.7</ele>
    </trkpt>
    <trkpt lat="42.587732" lon="-2.098278">
      <ele>536.5</ele>
    </trkpt>
    <trkpt lat="42.58791" lon="-2.098333">
      <ele>537.3</ele>
    </trkpt>
    <trkpt lat="42.588045" lon="-2.098283">
      <ele>537.9</ele>
    </trkpt>
    <trkpt lat="42.588012" lon="-2.098216">
      <ele>538.2</ele>
    </trkpt>
    <trkpt lat="42.587865" lon="-2.097616">
      <ele>540</ele>
    </trkpt>
    <trkpt lat="42.58791" lon="-2.097379">
      <ele>540.4</ele>
    </trkpt>
    <trkpt lat="42.587909" lon="-2.097233">
      <ele>540.6</ele>
    </trkpt>
    <trkpt lat="42.587972" lon="-2.096871">
      <ele>540.7</ele>
    </trkpt>
    <trkpt lat="42.588093" lon="-2.096537">
      <ele>540.5</ele>
    </trkpt>
    <trkpt lat="42.588111" lon="-2.096453">
      <ele>540.4</ele>
    </trkpt>
    <trkpt lat="42.588189" lon="-2.09609">
      <ele>539.7</ele>
    </trkpt>
    <trkpt lat="42.588204" lon="-2.095897">
      <ele>539.1</ele>
    </trkpt>
    <trkpt lat="42.588345" lon="-2.095359">
      <ele>537.4</ele>
    </trkpt>
    <trkpt lat="42.588357" lon="-2.09516">
      <ele>536.8</ele>
    </trkpt>
    <trkpt lat="42.58858" lon="-2.094912">
      <ele>536</ele>
    </trkpt>
    <trkpt lat="42.588618" lon="-2.094781">
      <ele>535.8</ele>
    </trkpt>
    <trkpt lat="42.588669" lon="-2.094709">
      <ele>535.8</ele>
    </trkpt>
    <trkpt lat="42.588715" lon="-2.094625">
      <ele>535.7</ele>
    </trkpt>
    <trkpt lat="42.588907" lon="-2.094131">
      <ele>536.8</ele>
    </trkpt>
    <trkpt lat="42.588969" lon="-2.09377">
      <ele>538.4</ele>
    </trkpt>
    <trkpt lat="42.588927" lon="-2.093282">
      <ele>540.9</ele>
    </trkpt>
    <trkpt lat="42.588919" lon="-2.093252">
      <ele>541.1</ele>
    </trkpt>
    <trkpt lat="42.588764" lon="-2.092554">
      <ele>546.1</ele>
    </trkpt>
    <trkpt lat="42.588716" lon="-2.092464">
      <ele>546.9</ele>
    </trkpt>
    <trkpt lat="42.588535" lon="-2.09196">
      <ele>551.7</ele>
    </trkpt>
    <trkpt lat="42.588738" lon="-2.09193">
      <ele>554</ele>
    </trkpt>
    <trkpt lat="42.588944" lon="-2.091798">
      <ele>556.3</ele>
    </trkpt>
    <trkpt lat="42.589236" lon="-2.09186">
      <ele>559</ele>
    </trkpt>
    <trkpt lat="42.589309" lon="-2.091839">
      <ele>559.6</ele>
    </trkpt>
    <trkpt lat="42.589478" lon="-2.091701">
      <ele>561.3</ele>
    </trkpt>
    <trkpt lat="42.589377" lon="-2.09151">
      <ele>562.7</ele>
    </trkpt>
    <trkpt lat="42.589336" lon="-2.091324">
      <ele>563.9</ele>
    </trkpt>
    <trkpt lat="42.589377" lon="-2.091242">
      <ele>564.4</ele>
    </trkpt>
    <trkpt lat="42.589527" lon="-2.091408">
      <ele>566</ele>
    </trkpt>
    <trkpt lat="42.589649" lon="-2.091461">
      <ele>567</ele>
    </trkpt>
    <trkpt lat="42.589869" lon="-2.091768">
      <ele>569.7</ele>
    </trkpt>
    <trkpt lat="42.589777" lon="-2.091158">
      <ele>573.1</ele>
    </trkpt>
    <trkpt lat="42.589782" lon="-2.091003">
      <ele>573.9</ele>
    </trkpt>
    <trkpt lat="42.589819" lon="-2.090964">
      <ele>574.3</ele>
    </trkpt>
    <trkpt lat="42.589935" lon="-2.090947">
      <ele>575.1</ele>
    </trkpt>
    <trkpt lat="42.590107" lon="-2.09083">
      <ele>576.6</ele>
    </trkpt>
    <trkpt lat="42.590392" lon="-2.090693">
      <ele>579.5</ele>
    </trkpt>
    <trkpt lat="42.590416" lon="-2.090646">
      <ele>579.9</ele>
    </trkpt>
    <trkpt lat="42.59053" lon="-2.090511">
      <ele>581.4</ele>
    </trkpt>
    <trkpt lat="42.590784" lon="-2.090366">
      <ele>583.4</ele>
    </trkpt>
    <trkpt lat="42.591091" lon="-2.090328">
      <ele>584.9</ele>
    </trkpt>
    <trkpt lat="42.591192" lon="-2.090343">
      <ele>585.3</ele>
    </trkpt>
    <trkpt lat="42.591329" lon="-2.090386">
      <ele>585.5</ele>
    </trkpt>
    <trkpt lat="42.591453" lon="-2.090402">
      <ele>585.6</ele>
    </trkpt>
    <trkpt lat="42.591448" lon="-2.090308">
      <ele>585.5</ele>
    </trkpt>
    <trkpt lat="42.591394" lon="-2.090171">
      <ele>585.6</ele>
    </trkpt>
    <trkpt lat="42.591308" lon="-2.089895">
      <ele>585.6</ele>
    </trkpt>
    <trkpt lat="42.591226" lon="-2.089021">
      <ele>585.3</ele>
    </trkpt>
    <trkpt lat="42.591349" lon="-2.088361">
      <ele>584.7</ele>
    </trkpt>
    <trkpt lat="42.591451" lon="-2.088226">
      <ele>584.9</ele>
    </trkpt>
    <trkpt lat="42.591742" lon="-2.087567">
      <ele>585.8</ele>
    </trkpt>
    <trkpt lat="42.591742" lon="-2.087069">
      <ele>586.5</ele>
    </trkpt>
    <trkpt lat="42.591715" lon="-2.086832">
      <ele>586.8</ele>
    </trkpt>
    <trkpt lat="42.591359" lon="-2.086118">
      <ele>588</ele>
    </trkpt>
    <trkpt lat="42.591147" lon="-2.085889">
      <ele>588.5</ele>
    </trkpt>
    <trkpt lat="42.590924" lon="-2.085702">
      <ele>588.9</ele>
    </trkpt>
    <trkpt lat="42.590743" lon="-2.08537">
      <ele>589.7</ele>
    </trkpt>
    <trkpt lat="42.590439" lon="-2.084948">
      <ele>590.9</ele>
    </trkpt>
    <trkpt lat="42.590272" lon="-2.084643">
      <ele>591.6</ele>
    </trkpt>
    <trkpt lat="42.590252" lon="-2.08433">
      <ele>591.9</ele>
    </trkpt>
    <trkpt lat="42.590397" lon="-2.084103">
      <ele>592.1</ele>
    </trkpt>
    <trkpt lat="42.590481" lon="-2.084013">
      <ele>592.1</ele>
    </trkpt>
    <trkpt lat="42.590753" lon="-2.083802">
      <ele>592</ele>
    </trkpt>
    <trkpt lat="42.590905" lon="-2.08372">
      <ele>591.8</ele>
    </trkpt>
    <trkpt lat="42.591136" lon="-2.083681">
      <ele>591.5</ele>
    </trkpt>
    <trkpt lat="42.592765" lon="-2.083605">
      <ele>587.8</ele>
    </trkpt>
    <trkpt lat="42.592892" lon="-2.083581">
      <ele>587.9</ele>
    </trkpt>
    <trkpt lat="42.593112" lon="-2.083452">
      <ele>588.1</ele>
    </trkpt>
    <trkpt lat="42.593323" lon="-2.083225">
      <ele>588.7</ele>
    </trkpt>
    <trkpt lat="42.593395" lon="-2.083098">
      <ele>589.1</ele>
    </trkpt>
    <trkpt lat="42.593467" lon="-2.082825">
      <ele>589.9</ele>
    </trkpt>
    <trkpt lat="42.593635" lon="-2.081808">
      <ele>592.1</ele>
    </trkpt>
    <trkpt lat="42.593663" lon="-2.081724">
      <ele>592.3</ele>
    </trkpt>
    <trkpt lat="42.59377" lon="-2.081585">
      <ele>592.6</ele>
    </trkpt>
    <trkpt lat="42.594292" lon="-2.081107">
      <ele>593.3</ele>
    </trkpt>
    <trkpt lat="42.594348" lon="-2.081003">
      <ele>593.3</ele>
    </trkpt>
    <trkpt lat="42.594382" lon="-2.08087">
      <ele>593.4</ele>
    </trkpt>
    <trkpt lat="42.5944" lon="-2.080325">
      <ele>593.3</ele>
    </trkpt>
    <trkpt lat="42.594447" lon="-2.079781">
      <ele>593.6</ele>
    </trkpt>
    <trkpt lat="42.594437" lon="-2.07949">
      <ele>594</ele>
    </trkpt>
    <trkpt lat="42.594485" lon="-2.079242">
      <ele>594.6</ele>
    </trkpt>
    <trkpt lat="42.594542" lon="-2.07907">
      <ele>595.1</ele>
    </trkpt>
    <trkpt lat="42.594878" lon="-2.078511">
      <ele>597.7</ele>
    </trkpt>
    <trkpt lat="42.594915" lon="-2.078386">
      <ele>598.3</ele>
    </trkpt>
    <trkpt lat="42.594921" lon="-2.078228">
      <ele>599</ele>
    </trkpt>
    <trkpt lat="42.594869" lon="-2.077901">
      <ele>600.6</ele>
    </trkpt>
    <trkpt lat="42.594845" lon="-2.077285">
      <ele>604.1</ele>
    </trkpt>
    <trkpt lat="42.594702" lon="-2.076961">
      <ele>606.4</ele>
    </trkpt>
    <trkpt lat="42.594661" lon="-2.076719">
      <ele>608.1</ele>
    </trkpt>
    <trkpt lat="42.594687" lon="-2.076191">
      <ele>611.8</ele>
    </trkpt>
    <trkpt lat="42.594747" lon="-2.075933">
      <ele>613.8</ele>
    </trkpt>
    <trkpt lat="42.59489" lon="-2.075544">
      <ele>616.8</ele>
    </trkpt>
    <trkpt lat="42.594948" lon="-2.075276">
      <ele>618.6</ele>
    </trkpt>
    <trkpt lat="42.594978" lon="-2.074995">
      <ele>620.2</ele>
    </trkpt>
    <trkpt lat="42.595029" lon="-2.074856">
      <ele>621</ele>
    </trkpt>
    <trkpt lat="42.595057" lon="-2.074809">
      <ele>621.4</ele>
    </trkpt>
    <trkpt lat="42.595118" lon="-2.074707">
      <ele>622</ele>
    </trkpt>
    <trkpt lat="42.595248" lon="-2.074594">
      <ele>623</ele>
    </trkpt>
    <trkpt lat="42.59532" lon="-2.07458">
      <ele>623.5</ele>
    </trkpt>
    <trkpt lat="42.59536" lon="-2.074601">
      <ele>623.7</ele>
    </trkpt>
    <trkpt lat="42.595485" lon="-2.074817">
      <ele>624.9</ele>
    </trkpt>
    <trkpt lat="42.595573" lon="-2.075199">
      <ele>626.4</ele>
    </trkpt>
    <trkpt lat="42.595855" lon="-2.075907">
      <ele>629.4</ele>
    </trkpt>
    <trkpt lat="42.596057" lon="-2.07627">
      <ele>631.4</ele>
    </trkpt>
    <trkpt lat="42.596363" lon="-2.077033">
      <ele>636.3</ele>
    </trkpt>
    <trkpt lat="42.596544" lon="-2.07739">
      <ele>639.3</ele>
    </trkpt>
    <trkpt lat="42.596747" lon="-2.077999">
      <ele>644.2</ele>
    </trkpt>
    <trkpt lat="42.596788" lon="-2.07823">
      <ele>646.1</ele>
    </trkpt>
    <trkpt lat="42.596832" lon="-2.07832">
      <ele>647</ele>
    </trkpt>
    <trkpt lat="42.597036" lon="-2.078587">
      <ele>650.1</ele>
    </trkpt>
    <trkpt lat="42.597186" lon="-2.078952">
      <ele>653.6</ele>
    </trkpt>
    <trkpt lat="42.597297" lon="-2.079402">
      <ele>657.5</ele>
    </trkpt>
    <trkpt lat="42.597458" lon="-2.079809">
      <ele>661.1</ele>
    </trkpt>
    <trkpt lat="42.597492" lon="-2.079962">
      <ele>662.2</ele>
    </trkpt>
    <trkpt lat="42.597499" lon="-2.080048">
      <ele>662.9</ele>
    </trkpt>
    <trkpt lat="42.597459" lon="-2.080439">
      <ele>665.6</ele>
    </trkpt>
    <trkpt lat="42.597484" lon="-2.080859">
      <ele>668.1</ele>
    </trkpt>
    <trkpt lat="42.597536" lon="-2.081098">
      <ele>669.5</ele>
    </trkpt>
    <trkpt lat="42.597645" lon="-2.081271">
      <ele>670.8</ele>
    </trkpt>
    <trkpt lat="42.5982" lon="-2.081962">
      <ele>676.5</ele>
    </trkpt>
    <trkpt lat="42.598233" lon="-2.082045">
      <ele>677</ele>
    </trkpt>
    <trkpt lat="42.598423" lon="-2.0822">
      <ele>679</ele>
    </trkpt>
    <trkpt lat="42.598574" lon="-2.082303">
      <ele>680.6</ele>
    </trkpt>
    <trkpt lat="42.598885" lon="-2.08259">
      <ele>684.6</ele>
    </trkpt>
    <trkpt lat="42.599117" lon="-2.082848">
      <ele>688.2</ele>
    </trkpt>
    <trkpt lat="42.599195" lon="-2.082946">
      <ele>689.4</ele>
    </trkpt>
    <trkpt lat="42.599557" lon="-2.08356">
      <ele>695.6</ele>
    </trkpt>
    <trkpt lat="42.599744" lon="-2.083773">
      <ele>697.7</ele>
    </trkpt>
    <trkpt lat="42.599888" lon="-2.083892">
      <ele>698.9</ele>
    </trkpt>
    <trkpt lat="42.600313" lon="-2.084371">
      <ele>701.4</ele>
    </trkpt>
    <trkpt lat="42.601099" lon="-2.085063">
      <ele>700.5</ele>
    </trkpt>
    <trkpt lat="42.60151" lon="-2.085381">
      <ele>698.8</ele>
    </trkpt>
    <trkpt lat="42.601761" lon="-2.085497">
      <ele>697.9</ele>
    </trkpt>
    <trkpt lat="42.601923" lon="-2.085508">
      <ele>697.4</ele>
    </trkpt>
    <trkpt lat="42.602326" lon="-2.085646">
      <ele>696.2</ele>
    </trkpt>
    <trkpt lat="42.602433" lon="-2.085706">
      <ele>695.9</ele>
    </trkpt>
    <trkpt lat="42.602675" lon="-2.08592">
      <ele>695.5</ele>
    </trkpt>
    <trkpt lat="42.602988" lon="-2.086088">
      <ele>695.3</ele>
    </trkpt>
    <trkpt lat="42.603072" lon="-2.086155">
      <ele>695.4</ele>
    </trkpt>
    <trkpt lat="42.603363" lon="-2.086619">
      <ele>696.1</ele>
    </trkpt>
    <trkpt lat="42.603435" lon="-2.086696">
      <ele>696.3</ele>
    </trkpt>
    <trkpt lat="42.603551" lon="-2.086738">
      <ele>696.6</ele>
    </trkpt>
    <trkpt lat="42.603966" lon="-2.086565">
      <ele>698.3</ele>
    </trkpt>
    <trkpt lat="42.604039" lon="-2.086565">
      <ele>698.7</ele>
    </trkpt>
    <trkpt lat="42.604112" lon="-2.08661">
      <ele>699</ele>
    </trkpt>
    <trkpt lat="42.604901" lon="-2.086874">
      <ele>704.3</ele>
    </trkpt>
    <trkpt lat="42.605564" lon="-2.08696">
      <ele>708.9</ele>
    </trkpt>
    <trkpt lat="42.606131" lon="-2.087113">
      <ele>711</ele>
    </trkpt>
    <trkpt lat="42.606274" lon="-2.086979">
      <ele>711.3</ele>
    </trkpt>
    <trkpt lat="42.606358" lon="-2.086817">
      <ele>711.4</ele>
    </trkpt>
    <trkpt lat="42.606433" lon="-2.086623">
      <ele>711.4</ele>
    </trkpt>
    <trkpt lat="42.606477" lon="-2.086416">
      <ele>711.3</ele>
    </trkpt>
    <trkpt lat="42.606489" lon="-2.085962">
      <ele>710.8</ele>
    </trkpt>
    <trkpt lat="42.606451" lon="-2.085502">
      <ele>711.1</ele>
    </trkpt>
    <trkpt lat="42.606214" lon="-2.084701">
      <ele>714.7</ele>
    </trkpt>
    <trkpt lat="42.606241" lon="-2.084683">
      <ele>715.1</ele>
    </trkpt>
    <trkpt lat="42.60628" lon="-2.084727">
      <ele>715.6</ele>
    </trkpt>
    <trkpt lat="42.606332" lon="-2.0847">
      <ele>716.1</ele>
    </trkpt>
    <trkpt lat="42.606353" lon="-2.084645">
      <ele>716.7</ele>
    </trkpt>
    <trkpt lat="42.6065" lon="-2.084598">
      <ele>718.5</ele>
    </trkpt>
    <trkpt lat="42.606537" lon="-2.084539">
      <ele>719.2</ele>
    </trkpt>
    <trkpt lat="42.606567" lon="-2.084413">
      <ele>720.6</ele>
    </trkpt>
    <trkpt lat="42.606645" lon="-2.084333">
      <ele>722</ele>
    </trkpt>
    <trkpt lat="42.607404" lon="-2.083872">
      <ele>736.2</ele>
    </trkpt>
    <trkpt lat="42.607616" lon="-2.083643">
      <ele>740.4</ele>
    </trkpt>
    <trkpt lat="42.607841" lon="-2.083334">
      <ele>745</ele>
    </trkpt>
    <trkpt lat="42.608027" lon="-2.083187">
      <ele>747.9</ele>
    </trkpt>
    <trkpt lat="42.608085" lon="-2.083178">
      <ele>748.6</ele>
    </trkpt>
    <trkpt lat="42.608215" lon="-2.08327">
      <ele>750.3</ele>
    </trkpt>
    <trkpt lat="42.608377" lon="-2.083481">
      <ele>752.7</ele>
    </trkpt>
    <trkpt lat="42.60862" lon="-2.083986">
      <ele>756.5</ele>
    </trkpt>
    <trkpt lat="42.608758" lon="-2.084125">
      <ele>757.6</ele>
    </trkpt>
    <trkpt lat="42.60881" lon="-2.084227">
      <ele>758.2</ele>
    </trkpt>
    <trkpt lat="42.608896" lon="-2.084307">
      <ele>758.7</ele>
    </trkpt>
    <trkpt lat="42.609113" lon="-2.084308">
      <ele>759.7</ele>
    </trkpt>
    <trkpt lat="42.609164" lon="-2.084263">
      <ele>759.9</ele>
    </trkpt>
    <trkpt lat="42.609258" lon="-2.084242">
      <ele>760.3</ele>
    </trkpt>
    <trkpt lat="42.609702" lon="-2.084315">
      <ele>761.1</ele>
    </trkpt>
    <trkpt lat="42.610212" lon="-2.084566">
      <ele>760.6</ele>
    </trkpt>
    <trkpt lat="42.610511" lon="-2.084539">
      <ele>759.9</ele>
    </trkpt>
    <trkpt lat="42.610636" lon="-2.084462">
      <ele>759.6</ele>
    </trkpt>
    <trkpt lat="42.610792" lon="-2.084433">
      <ele>759.1</ele>
    </trkpt>
    <trkpt lat="42.610984" lon="-2.084443">
      <ele>758.5</ele>
    </trkpt>
    <trkpt lat="42.611538" lon="-2.084282">
      <ele>756.4</ele>
    </trkpt>
    <trkpt lat="42.611657" lon="-2.084213">
      <ele>756.1</ele>
    </trkpt>
    <trkpt lat="42.612023" lon="-2.083726">
      <ele>755.4</ele>
    </trkpt>
    <trkpt lat="42.612075" lon="-2.083511">
      <ele>755.2</ele>
    </trkpt>
    <trkpt lat="42.612195" lon="-2.083492">
      <ele>755.1</ele>
    </trkpt>
    <trkpt lat="42.612384" lon="-2.083414">
      <ele>755</ele>
    </trkpt>
    <trkpt lat="42.612447" lon="-2.083268">
      <ele>755</ele>
    </trkpt>
    <trkpt lat="42.61252" lon="-2.082668">
      <ele>755.3</ele>
    </trkpt>
    <trkpt lat="42.612546" lon="-2.082016">
      <ele>756.5</ele>
    </trkpt>
    <trkpt lat="42.612785" lon="-2.08058">
      <ele>757.4</ele>
    </trkpt>
    <trkpt lat="42.612909" lon="-2.080316">
      <ele>757.4</ele>
    </trkpt>
    <trkpt lat="42.613435" lon="-2.07999">
      <ele>757</ele>
    </trkpt>
    <trkpt lat="42.613714" lon="-2.079661">
      <ele>756.5</ele>
    </trkpt>
    <trkpt lat="42.613959" lon="-2.079555">
      <ele>756.1</ele>
    </trkpt>
    <trkpt lat="42.6143" lon="-2.079321">
      <ele>755.4</ele>
    </trkpt>
    <trkpt lat="42.614539" lon="-2.079365">
      <ele>754.7</ele>
    </trkpt>
    <trkpt lat="42.615018" lon="-2.079356">
      <ele>753</ele>
    </trkpt>
    <trkpt lat="42.61544" lon="-2.079243">
      <ele>751.4</ele>
    </trkpt>
    <trkpt lat="42.615557" lon="-2.079142">
      <ele>750.8</ele>
    </trkpt>
    <trkpt lat="42.615766" lon="-2.079146">
      <ele>749.9</ele>
    </trkpt>
    <trkpt lat="42.616242" lon="-2.078503">
      <ele>746.9</ele>
    </trkpt>
    <trkpt lat="42.616426" lon="-2.078153">
      <ele>745.8</ele>
    </trkpt>
    <trkpt lat="42.616388" lon="-2.077776">
      <ele>745.3</ele>
    </trkpt>
    <trkpt lat="42.615962" lon="-2.076759">
      <ele>747.4</ele>
    </trkpt>
    <trkpt lat="42.61569" lon="-2.075839">
      <ele>754.1</ele>
    </trkpt>
    <trkpt lat="42.615519" lon="-2.075514">
      <ele>757.7</ele>
    </trkpt>
    <trkpt lat="42.61564" lon="-2.075274">
      <ele>760.7</ele>
    </trkpt>
    <trkpt lat="42.615887" lon="-2.074954">
      <ele>765.3</ele>
    </trkpt>
    <trkpt lat="42.616024" lon="-2.074686">
      <ele>768.4</ele>
    </trkpt>
    <trkpt lat="42.616041" lon="-2.074447">
      <ele>770.7</ele>
    </trkpt>
    <trkpt lat="42.615981" lon="-2.074068">
      <ele>773.8</ele>
    </trkpt>
    <trkpt lat="42.616226" lon="-2.073234">
      <ele>778.3</ele>
    </trkpt>
    <trkpt lat="42.616187" lon="-2.072838">
      <ele>779.7</ele>
    </trkpt>
    <trkpt lat="42.616397" lon="-2.072319">
      <ele>781.1</ele>
    </trkpt>
    <trkpt lat="42.616469" lon="-2.072377">
      <ele>781.4</ele>
    </trkpt>
    <trkpt lat="42.616503" lon="-2.0725">
      <ele>781.6</ele>
    </trkpt>
    <trkpt lat="42.616324" lon="-2.072874">
      <ele>782.4</ele>
    </trkpt>
    <trkpt lat="42.616461" lon="-2.073948">
      <ele>785.6</ele>
    </trkpt>
    <trkpt lat="42.616958" lon="-2.074232">
      <ele>788.5</ele>
    </trkpt>
    <trkpt lat="42.617153" lon="-2.074436">
      <ele>789.9</ele>
    </trkpt>
    <trkpt lat="42.617269" lon="-2.074557">
      <ele>790.9</ele>
    </trkpt>
    <trkpt lat="42.617503" lon="-2.075728">
      <ele>798.6</ele>
    </trkpt>
    <trkpt lat="42.61773" lon="-2.07572">
      <ele>800.5</ele>
    </trkpt>
    <trkpt lat="42.617951" lon="-2.075476">
      <ele>803.1</ele>
    </trkpt>
    <trkpt lat="42.618101" lon="-2.07498">
      <ele>807.1</ele>
    </trkpt>
    <trkpt lat="42.618103" lon="-2.074789">
      <ele>808.6</ele>
    </trkpt>
    <trkpt lat="42.618043" lon="-2.074417">
      <ele>811.6</ele>
    </trkpt>
    <trkpt lat="42.618105" lon="-2.074206">
      <ele>813.2</ele>
    </trkpt>
    <trkpt lat="42.618271" lon="-2.074043">
      <ele>815.1</ele>
    </trkpt>
    <trkpt lat="42.618653" lon="-2.073765">
      <ele>818.3</ele>
    </trkpt>
    <trkpt lat="42.618874" lon="-2.073373">
      <ele>820.5</ele>
    </trkpt>
    <trkpt lat="42.619067" lon="-2.073177">
      <ele>821.5</ele>
    </trkpt>
    <trkpt lat="42.619025" lon="-2.073076">
      <ele>821.8</ele>
    </trkpt>
    <trkpt lat="42.618939" lon="-2.072983">
      <ele>822</ele>
    </trkpt>
    <trkpt lat="42.618865" lon="-2.072499">
      <ele>822.3</ele>
    </trkpt>
    <trkpt lat="42.618571" lon="-2.071705">
      <ele>821.1</ele>
    </trkpt>
    <trkpt lat="42.61842" lon="-2.071418">
      <ele>820.5</ele>
    </trkpt>
    <trkpt lat="42.618238" lon="-2.070814">
      <ele>819.3</ele>
    </trkpt>
    <trkpt lat="42.618229" lon="-2.070539">
      <ele>819</ele>
    </trkpt>
    <trkpt lat="42.6182" lon="-2.070269">
      <ele>818.9</ele>
    </trkpt>
    <trkpt lat="42.618142" lon="-2.070013">
      <ele>818.8</ele>
    </trkpt>
    <trkpt lat="42.618112" lon="-2.069617">
      <ele>819.2</ele>
    </trkpt>
    <trkpt lat="42.618125" lon="-2.069502">
      <ele>819.4</ele>
    </trkpt>
    <trkpt lat="42.618354" lon="-2.069064">
      <ele>820.6</ele>
    </trkpt>
    <trkpt lat="42.618603" lon="-2.068859">
      <ele>821.8</ele>
    </trkpt>
    <trkpt lat="42.61869" lon="-2.068664">
      <ele>822.6</ele>
    </trkpt>
    <trkpt lat="42.618982" lon="-2.068304">
      <ele>824.5</ele>
    </trkpt>
    <trkpt lat="42.619308" lon="-2.067799">
      <ele>827.2</ele>
    </trkpt>
    <trkpt lat="42.619334" lon="-2.067693">
      <ele>827.7</ele>
    </trkpt>
    <trkpt lat="42.619471" lon="-2.067515">
      <ele>828.8</ele>
    </trkpt>
    <trkpt lat="42.619517" lon="-2.067378">
      <ele>829.4</ele>
    </trkpt>
    <trkpt lat="42.619542" lon="-2.066737">
      <ele>831.2</ele>
    </trkpt>
    <trkpt lat="42.619589" lon="-2.066617">
      <ele>831.5</ele>
    </trkpt>
    <trkpt lat="42.619631" lon="-2.06637">
      <ele>831.8</ele>
    </trkpt>
    <trkpt lat="42.619638" lon="-2.066177">
      <ele>832</ele>
    </trkpt>
    <trkpt lat="42.619713" lon="-2.065992">
      <ele>832</ele>
    </trkpt>
    <trkpt lat="42.619711" lon="-2.065924">
      <ele>832</ele>
    </trkpt>
    <trkpt lat="42.619763" lon="-2.065824">
      <ele>832</ele>
    </trkpt>
    <trkpt lat="42.619746" lon="-2.065688">
      <ele>832</ele>
    </trkpt>
    <trkpt lat="42.619614" lon="-2.06555">
      <ele>831.9</ele>
    </trkpt>
    <trkpt lat="42.619471" lon="-2.065257">
      <ele>831.6</ele>
    </trkpt>
    <trkpt lat="42.619416" lon="-2.065189">
      <ele>831.5</ele>
    </trkpt>
    <trkpt lat="42.619357" lon="-2.064885">
      <ele>831</ele>
    </trkpt>
    <trkpt lat="42.619207" lon="-2.064645">
      <ele>830.2</ele>
    </trkpt>
    <trkpt lat="42.619114" lon="-2.064421">
      <ele>829.6</ele>
    </trkpt>
    <trkpt lat="42.61899" lon="-2.064232">
      <ele>828.9</ele>
    </trkpt>
    <trkpt lat="42.618787" lon="-2.064036">
      <ele>828</ele>
    </trkpt>
    <trkpt lat="42.618643" lon="-2.063792">
      <ele>827.3</ele>
    </trkpt>
    <trkpt lat="42.618463" lon="-2.063642">
      <ele>826.7</ele>
    </trkpt>
    <trkpt lat="42.61831" lon="-2.063579">
      <ele>826.3</ele>
    </trkpt>
    <trkpt lat="42.617908" lon="-2.063513">
      <ele>825.3</ele>
    </trkpt>
    <trkpt lat="42.617743" lon="-2.063355">
      <ele>824.8</ele>
    </trkpt>
    <trkpt lat="42.617526" lon="-2.063261">
      <ele>824.2</ele>
    </trkpt>
    <trkpt lat="42.617358" lon="-2.063096">
      <ele>823.7</ele>
    </trkpt>
    <trkpt lat="42.617175" lon="-2.062994">
      <ele>823.3</ele>
    </trkpt>
    <trkpt lat="42.616796" lon="-2.062927">
      <ele>822.6</ele>
    </trkpt>
    <trkpt lat="42.616608" lon="-2.062856">
      <ele>822.4</ele>
    </trkpt>
    <trkpt lat="42.616461" lon="-2.062706">
      <ele>822.2</ele>
    </trkpt>
    <trkpt lat="42.616261" lon="-2.062604">
      <ele>822.1</ele>
    </trkpt>
    <trkpt lat="42.616079" lon="-2.062467">
      <ele>822.1</ele>
    </trkpt>
    <trkpt lat="42.615806" lon="-2.061967">
      <ele>823.3</ele>
    </trkpt>
    <trkpt lat="42.615503" lon="-2.061802">
      <ele>825.4</ele>
    </trkpt>
    <trkpt lat="42.615655" lon="-2.06177">
      <ele>826.8</ele>
    </trkpt>
    <trkpt lat="42.615807" lon="-2.061779">
      <ele>828.4</ele>
    </trkpt>
    <trkpt lat="42.616454" lon="-2.061917">
      <ele>836.1</ele>
    </trkpt>
    <trkpt lat="42.616554" lon="-2.061914">
      <ele>837.5</ele>
    </trkpt>
    <trkpt lat="42.616631" lon="-2.061912">
      <ele>838.6</ele>
    </trkpt>
    <trkpt lat="42.616831" lon="-2.061839">
      <ele>841.6</ele>
    </trkpt>
    <trkpt lat="42.616956" lon="-2.061865">
      <ele>843.5</ele>
    </trkpt>
    <trkpt lat="42.617285" lon="-2.061934">
      <ele>848.4</ele>
    </trkpt>
    <trkpt lat="42.617995" lon="-2.061951">
      <ele>858.2</ele>
    </trkpt>
    <trkpt lat="42.618208" lon="-2.061882">
      <ele>860.9</ele>
    </trkpt>
    <trkpt lat="42.61856" lon="-2.061895">
      <ele>865.3</ele>
    </trkpt>
    <trkpt lat="42.618665" lon="-2.061861">
      <ele>866.7</ele>
    </trkpt>
    <trkpt lat="42.618712" lon="-2.061766">
      <ele>867.8</ele>
    </trkpt>
    <trkpt lat="42.618934" lon="-2.061714">
      <ele>870.6</ele>
    </trkpt>
    <trkpt lat="42.619055" lon="-2.061835">
      <ele>872.5</ele>
    </trkpt>
    <trkpt lat="42.619223" lon="-2.061852">
      <ele>874.4</ele>
    </trkpt>
    <trkpt lat="42.619291" lon="-2.061819">
      <ele>875.2</ele>
    </trkpt>
    <trkpt lat="42.619504" lon="-2.061968">
      <ele>877.8</ele>
    </trkpt>
    <trkpt lat="42.619661" lon="-2.062112">
      <ele>879.7</ele>
    </trkpt>
    <trkpt lat="42.6197" lon="-2.062187">
      <ele>880.4</ele>
    </trkpt>
    <trkpt lat="42.619894" lon="-2.062281">
      <ele>882.4</ele>
    </trkpt>
    <trkpt lat="42.620126" lon="-2.062415">
      <ele>884.7</ele>
    </trkpt>
    <trkpt lat="42.620136" lon="-2.062243">
      <ele>886</ele>
    </trkpt>
    <trkpt lat="42.620476" lon="-2.062176">
      <ele>889.3</ele>
    </trkpt>
    <trkpt lat="42.621065" lon="-2.062176">
      <ele>894.9</ele>
    </trkpt>
    <trkpt lat="42.621328" lon="-2.06228">
      <ele>897.6</ele>
    </trkpt>
    <trkpt lat="42.621836" lon="-2.062588">
      <ele>902.7</ele>
    </trkpt>
    <trkpt lat="42.62214" lon="-2.062564">
      <ele>905.2</ele>
    </trkpt>
    <trkpt lat="42.622657" lon="-2.062379">
      <ele>909.1</ele>
    </trkpt>
    <trkpt lat="42.623401" lon="-2.061991">
      <ele>912.4</ele>
    </trkpt>
    <trkpt lat="42.623736" lon="-2.061436">
      <ele>913.5</ele>
    </trkpt>
    <trkpt lat="42.624176" lon="-2.060906">
      <ele>914.1</ele>
    </trkpt>
    <trkpt lat="42.624733" lon="-2.059828">
      <ele>915.6</ele>
    </trkpt>
    <trkpt lat="42.62496" lon="-2.059495">
      <ele>916.6</ele>
    </trkpt>
    <trkpt lat="42.625241" lon="-2.059261">
      <ele>917.8</ele>
    </trkpt>
    <trkpt lat="42.625509" lon="-2.058515">
      <ele>920.5</ele>
    </trkpt>
    <trkpt lat="42.626076" lon="-2.057702">
      <ele>924.1</ele>
    </trkpt>
    <trkpt lat="42.626089" lon="-2.057551">
      <ele>924.5</ele>
    </trkpt>
    <trkpt lat="42.625999" lon="-2.057369">
      <ele>925.1</ele>
    </trkpt>
    <trkpt lat="42.626162" lon="-2.057003">
      <ele>926.2</ele>
    </trkpt>
    <trkpt lat="42.626413" lon="-2.056869">
      <ele>927.2</ele>
    </trkpt>
    <trkpt lat="42.626821" lon="-2.056782">
      <ele>928.7</ele>
    </trkpt>
    <trkpt lat="42.627021" lon="-2.056634">
      <ele>929.5</ele>
    </trkpt>
    <trkpt lat="42.627186" lon="-2.056598">
      <ele>930.1</ele>
    </trkpt>
    <trkpt lat="42.627215" lon="-2.056573">
      <ele>930.3</ele>
    </trkpt>
    <trkpt lat="42.627308" lon="-2.056495">
      <ele>930.7</ele>
    </trkpt>
    <trkpt lat="42.627684" lon="-2.056026">
      <ele>933</ele>
    </trkpt>
    <trkpt lat="42.628205" lon="-2.054667">
      <ele>938.6</ele>
    </trkpt>
    <trkpt lat="42.628708" lon="-2.053499">
      <ele>943.1</ele>
    </trkpt>
    <trkpt lat="42.628852" lon="-2.053097">
      <ele>944.3</ele>
    </trkpt>
    <trkpt lat="42.628859" lon="-2.053012">
      <ele>944.5</ele>
    </trkpt>
    <trkpt lat="42.628764" lon="-2.052706">
      <ele>945.3</ele>
    </trkpt>
    <trkpt lat="42.628653" lon="-2.051281">
      <ele>947.7</ele>
    </trkpt>
    <trkpt lat="42.628579" lon="-2.050916">
      <ele>948.3</ele>
    </trkpt>
    <trkpt lat="42.628558" lon="-2.050648">
      <ele>948.6</ele>
    </trkpt>
    <trkpt lat="42.628557" lon="-2.050626">
      <ele>948.7</ele>
    </trkpt>
    <trkpt lat="42.628324" lon="-2.050068">
      <ele>949.4</ele>
    </trkpt>
    <trkpt lat="42.628285" lon="-2.049859">
      <ele>949.6</ele>
    </trkpt>
    <trkpt lat="42.628132" lon="-2.049482">
      <ele>949.8</ele>
    </trkpt>
    <trkpt lat="42.628107" lon="-2.049034">
      <ele>950</ele>
    </trkpt>
    <trkpt lat="42.62812" lon="-2.048929">
      <ele>950.1</ele>
    </trkpt>
    <trkpt lat="42.628233" lon="-2.048951">
      <ele>950.4</ele>
    </trkpt>
    <trkpt lat="42.628205" lon="-2.048752">
      <ele>950.9</ele>
    </trkpt>
    <trkpt lat="42.628207" lon="-2.04851">
      <ele>951.7</ele>
    </trkpt>
    <trkpt lat="42.628253" lon="-2.048141">
      <ele>953.5</ele>
    </trkpt>
    <trkpt lat="42.628369" lon="-2.047698">
      <ele>956.4</ele>
    </trkpt>
    <trkpt lat="42.62851" lon="-2.047361">
      <ele>960</ele>
    </trkpt>
    <trkpt lat="42.628559" lon="-2.047315">
      <ele>960.9</ele>
    </trkpt>
    <trkpt lat="42.628724" lon="-2.047254">
      <ele>963.6</ele>
    </trkpt>
    <trkpt lat="42.628898" lon="-2.047072">
      <ele>967.9</ele>
    </trkpt>
    <trkpt lat="42.629066" lon="-2.047027">
      <ele>971.8</ele>
    </trkpt>
    <trkpt lat="42.62915" lon="-2.046966">
      <ele>974</ele>
    </trkpt>
    <trkpt lat="42.629199" lon="-2.046808">
      <ele>977</ele>
    </trkpt>
    <trkpt lat="42.629225" lon="-2.046739">
      <ele>978.5</ele>
    </trkpt>
    <trkpt lat="42.629685" lon="-2.046645">
      <ele>989.4</ele>
    </trkpt>
    <trkpt lat="42.629758" lon="-2.046535">
      <ele>991.6</ele>
    </trkpt>
    <trkpt lat="42.629796" lon="-2.046419">
      <ele>993.5</ele>
    </trkpt>
    <trkpt lat="42.629797" lon="-2.046197">
      <ele>996.6</ele>
    </trkpt>
    <trkpt lat="42.629774" lon="-2.046059">
      <ele>998.4</ele>
    </trkpt>
    <trkpt lat="42.629727" lon="-2.045898">
      <ele>1000.5</ele>
    </trkpt>
    <trkpt lat="42.629502" lon="-2.045474">
      <ele>1004.8</ele>
    </trkpt>
    <trkpt lat="42.629478" lon="-2.045429">
      <ele>1005.1</ele>
    </trkpt>
    <trkpt lat="42.629326" lon="-2.045383">
      <ele>1005.9</ele>
    </trkpt>
    <trkpt lat="42.629162" lon="-2.0452">
      <ele>1006.1</ele>
    </trkpt>
    <trkpt lat="42.628975" lon="-2.045212">
      <ele>1005.1</ele>
    </trkpt>
    <trkpt lat="42.628958" lon="-2.045263">
      <ele>1004.8</ele>
    </trkpt>
    <trkpt lat="42.628973" lon="-2.045339">
      <ele>1004.2</ele>
    </trkpt>
    <trkpt lat="42.629252" lon="-2.045629">
      <ele>998.8</ele>
    </trkpt>
    <trkpt lat="42.62937" lon="-2.04593">
      <ele>993.8</ele>
    </trkpt>
    <trkpt lat="42.629332" lon="-2.046276">
      <ele>988.4</ele>
    </trkpt>
    <trkpt lat="42.629277" lon="-2.046503">
      <ele>984.5</ele>
    </trkpt>
    <trkpt lat="42.629197" lon="-2.046692">
      <ele>980.8</ele>
    </trkpt>
    <trkpt lat="42.629199" lon="-2.046808">
      <ele>978.7</ele>
    </trkpt>
    <trkpt lat="42.62915" lon="-2.046966">
      <ele>975.6</ele>
    </trkpt>
    <trkpt lat="42.629066" lon="-2.047027">
      <ele>973.5</ele>
    </trkpt>
    <trkpt lat="42.628898" lon="-2.047072">
      <ele>969.4</ele>
    </trkpt>
    <trkpt lat="42.628724" lon="-2.047254">
      <ele>964.7</ele>
    </trkpt>
    <trkpt lat="42.628648" lon="-2.047282">
      <ele>963.2</ele>
    </trkpt>
    <trkpt lat="42.628559" lon="-2.047315">
      <ele>961.4</ele>
    </trkpt>
    <trkpt lat="42.62851" lon="-2.047361">
      <ele>960.4</ele>
    </trkpt>
    <trkpt lat="42.628369" lon="-2.047698">
      <ele>956.4</ele>
    </trkpt>
    <trkpt lat="42.628253" lon="-2.048141">
      <ele>953.2</ele>
    </trkpt>
    <trkpt lat="42.628207" lon="-2.04851">
      <ele>951</ele>
    </trkpt>
    <trkpt lat="42.628205" lon="-2.048752">
      <ele>949.7</ele>
    </trkpt>
    <trkpt lat="42.628233" lon="-2.048951">
      <ele>948.8</ele>
    </trkpt>
    <trkpt lat="42.6286" lon="-2.049884">
      <ele>945</ele>
    </trkpt>
    <trkpt lat="42.628706" lon="-2.050032">
      <ele>944</ele>
    </trkpt>
    <trkpt lat="42.628806" lon="-2.05047">
      <ele>941.7</ele>
    </trkpt>
    <trkpt lat="42.628881" lon="-2.050669">
      <ele>940.6</ele>
    </trkpt>
    <trkpt lat="42.628949" lon="-2.051434">
      <ele>937.1</ele>
    </trkpt>
    <trkpt lat="42.62906" lon="-2.051757">
      <ele>935.6</ele>
    </trkpt>
    <trkpt lat="42.629108" lon="-2.052182">
      <ele>933.8</ele>
    </trkpt>
    <trkpt lat="42.629598" lon="-2.053332">
      <ele>928.3</ele>
    </trkpt>
    <trkpt lat="42.629622" lon="-2.053555">
      <ele>927.3</ele>
    </trkpt>
    <trkpt lat="42.629607" lon="-2.053774">
      <ele>926.2</ele>
    </trkpt>
    <trkpt lat="42.62935" lon="-2.054645">
      <ele>922</ele>
    </trkpt>
    <trkpt lat="42.629086" lon="-2.055309">
      <ele>919.2</ele>
    </trkpt>
    <trkpt lat="42.628867" lon="-2.056035">
      <ele>917.8</ele>
    </trkpt>
    <trkpt lat="42.628629" lon="-2.056522">
      <ele>917.7</ele>
    </trkpt>
    <trkpt lat="42.628385" lon="-2.056578">
      <ele>918.4</ele>
    </trkpt>
    <trkpt lat="42.628196" lon="-2.056711">
      <ele>919.3</ele>
    </trkpt>
    <trkpt lat="42.628038" lon="-2.056908">
      <ele>920.5</ele>
    </trkpt>
    <trkpt lat="42.627361" lon="-2.057778">
      <ele>926.3</ele>
    </trkpt>
    <trkpt lat="42.627329" lon="-2.057818">
      <ele>926.6</ele>
    </trkpt>
    <trkpt lat="42.627174" lon="-2.058338">
      <ele>929</ele>
    </trkpt>
    <trkpt lat="42.627124" lon="-2.058387">
      <ele>929.2</ele>
    </trkpt>
    <trkpt lat="42.627088" lon="-2.058341">
      <ele>929.4</ele>
    </trkpt>
    <trkpt lat="42.627294" lon="-2.057441">
      <ele>930.1</ele>
    </trkpt>
    <trkpt lat="42.627318" lon="-2.057339">
      <ele>930</ele>
    </trkpt>
    <trkpt lat="42.627021" lon="-2.056634">
      <ele>928.8</ele>
    </trkpt>
    <trkpt lat="42.626821" lon="-2.056782">
      <ele>928.3</ele>
    </trkpt>
    <trkpt lat="42.626413" lon="-2.056869">
      <ele>927.1</ele>
    </trkpt>
    <trkpt lat="42.626162" lon="-2.057003">
      <ele>926.2</ele>
    </trkpt>
    <trkpt lat="42.625999" lon="-2.057369">
      <ele>925.1</ele>
    </trkpt>
    <trkpt lat="42.626089" lon="-2.057551">
      <ele>924.5</ele>
    </trkpt>
    <trkpt lat="42.626076" lon="-2.057702">
      <ele>924.1</ele>
    </trkpt>
    <trkpt lat="42.625509" lon="-2.058515">
      <ele>920.5</ele>
    </trkpt>
    <trkpt lat="42.625241" lon="-2.059261">
      <ele>917.8</ele>
    </trkpt>
    <trkpt lat="42.62496" lon="-2.059495">
      <ele>916.6</ele>
    </trkpt>
    <trkpt lat="42.624733" lon="-2.059828">
      <ele>915.6</ele>
    </trkpt>
    <trkpt lat="42.624176" lon="-2.060906">
      <ele>914.1</ele>
    </trkpt>
    <trkpt lat="42.623736" lon="-2.061436">
      <ele>913.5</ele>
    </trkpt>
    <trkpt lat="42.623401" lon="-2.061991">
      <ele>912.4</ele>
    </trkpt>
    <trkpt lat="42.622657" lon="-2.062379">
      <ele>909.1</ele>
    </trkpt>
    <trkpt lat="42.62214" lon="-2.062564">
      <ele>905.2</ele>
    </trkpt>
    <trkpt lat="42.621836" lon="-2.062588">
      <ele>902.7</ele>
    </trkpt>
    <trkpt lat="42.621328" lon="-2.06228">
      <ele>897.6</ele>
    </trkpt>
    <trkpt lat="42.621065" lon="-2.062176">
      <ele>894.9</ele>
    </trkpt>
    <trkpt lat="42.620476" lon="-2.062176">
      <ele>890.5</ele>
    </trkpt>
    <trkpt lat="42.620136" lon="-2.062243">
      <ele>888.8</ele>
    </trkpt>
    <trkpt lat="42.620126" lon="-2.062415">
      <ele>888.3</ele>
    </trkpt>
    <trkpt lat="42.620289" lon="-2.062511">
      <ele>887.9</ele>
    </trkpt>
    <trkpt lat="42.620245" lon="-2.062554">
      <ele>887.7</ele>
    </trkpt>
    <trkpt lat="42.620247" lon="-2.062646">
      <ele>887.6</ele>
    </trkpt>
    <trkpt lat="42.620323" lon="-2.06301">
      <ele>887.4</ele>
    </trkpt>
    <trkpt lat="42.620479" lon="-2.06324">
      <ele>887.4</ele>
    </trkpt>
    <trkpt lat="42.620531" lon="-2.063375">
      <ele>887.4</ele>
    </trkpt>
    <trkpt lat="42.620693" lon="-2.064033">
      <ele>887.5</ele>
    </trkpt>
    <trkpt lat="42.620843" lon="-2.064278">
      <ele>887.3</ele>
    </trkpt>
    <trkpt lat="42.620845" lon="-2.064437">
      <ele>887.2</ele>
    </trkpt>
    <trkpt lat="42.621003" lon="-2.065516">
      <ele>884.7</ele>
    </trkpt>
    <trkpt lat="42.620969" lon="-2.065867">
      <ele>883.4</ele>
    </trkpt>
    <trkpt lat="42.621002" lon="-2.066677">
      <ele>879.6</ele>
    </trkpt>
    <trkpt lat="42.620947" lon="-2.067288">
      <ele>876.1</ele>
    </trkpt>
    <trkpt lat="42.620773" lon="-2.067743">
      <ele>872.8</ele>
    </trkpt>
    <trkpt lat="42.62057" lon="-2.06814">
      <ele>869.6</ele>
    </trkpt>
    <trkpt lat="42.620319" lon="-2.068445">
      <ele>866.6</ele>
    </trkpt>
    <trkpt lat="42.620015" lon="-2.068907">
      <ele>862.4</ele>
    </trkpt>
    <trkpt lat="42.620009" lon="-2.068917">
      <ele>862.3</ele>
    </trkpt>
    <trkpt lat="42.61993" lon="-2.069104">
      <ele>860.7</ele>
    </trkpt>
    <trkpt lat="42.619822" lon="-2.069466">
      <ele>857.5</ele>
    </trkpt>
    <trkpt lat="42.61964" lon="-2.069779">
      <ele>854</ele>
    </trkpt>
    <trkpt lat="42.619601" lon="-2.069947">
      <ele>852.4</ele>
    </trkpt>
    <trkpt lat="42.619199" lon="-2.070741">
      <ele>843.3</ele>
    </trkpt>
    <trkpt lat="42.618972" lon="-2.071313">
      <ele>837.9</ele>
    </trkpt>
    <trkpt lat="42.618953" lon="-2.071418">
      <ele>837.1</ele>
    </trkpt>
    <trkpt lat="42.618963" lon="-2.07161">
      <ele>835.9</ele>
    </trkpt>
    <trkpt lat="42.619145" lon="-2.072166">
      <ele>833.8</ele>
    </trkpt>
    <trkpt lat="42.619255" lon="-2.072382">
      <ele>833.2</ele>
    </trkpt>
    <trkpt lat="42.619384" lon="-2.072558">
      <ele>833</ele>
    </trkpt>
    <trkpt lat="42.619487" lon="-2.072812">
      <ele>832.9</ele>
    </trkpt>
    <trkpt lat="42.619559" lon="-2.072868">
      <ele>832.9</ele>
    </trkpt>
    <trkpt lat="42.619826" lon="-2.072855">
      <ele>833.1</ele>
    </trkpt>
    <trkpt lat="42.619906" lon="-2.072875">
      <ele>833.2</ele>
    </trkpt>
    <trkpt lat="42.61997" lon="-2.072929">
      <ele>833.3</ele>
    </trkpt>
    <trkpt lat="42.619916" lon="-2.07317">
      <ele>833.5</ele>
    </trkpt>
    <trkpt lat="42.619902" lon="-2.073598">
      <ele>833.7</ele>
    </trkpt>
    <trkpt lat="42.619629" lon="-2.074884">
      <ele>833.6</ele>
    </trkpt>
    <trkpt lat="42.619589" lon="-2.075568">
      <ele>833.4</ele>
    </trkpt>
    <trkpt lat="42.619591" lon="-2.0756">
      <ele>833.4</ele>
    </trkpt>
    <trkpt lat="42.619598" lon="-2.075664">
      <ele>833.3</ele>
    </trkpt>
    <trkpt lat="42.619672" lon="-2.075825">
      <ele>833.1</ele>
    </trkpt>
    <trkpt lat="42.61978" lon="-2.075983">
      <ele>832.8</ele>
    </trkpt>
    <trkpt lat="42.619995" lon="-2.076468">
      <ele>831.2</ele>
    </trkpt>
    <trkpt lat="42.620011" lon="-2.076644">
      <ele>830.4</ele>
    </trkpt>
    <trkpt lat="42.619982" lon="-2.076899">
      <ele>829.1</ele>
    </trkpt>
    <trkpt lat="42.619772" lon="-2.077299">
      <ele>825.9</ele>
    </trkpt>
    <trkpt lat="42.619784" lon="-2.077373">
      <ele>825.3</ele>
    </trkpt>
    <trkpt lat="42.619828" lon="-2.077403">
      <ele>824.8</ele>
    </trkpt>
    <trkpt lat="42.620661" lon="-2.07705">
      <ele>814.8</ele>
    </trkpt>
    <trkpt lat="42.620791" lon="-2.077041">
      <ele>813.3</ele>
    </trkpt>
    <trkpt lat="42.620829" lon="-2.077083">
      <ele>812.7</ele>
    </trkpt>
    <trkpt lat="42.620834" lon="-2.077171">
      <ele>811.9</ele>
    </trkpt>
    <trkpt lat="42.620782" lon="-2.07737">
      <ele>810.1</ele>
    </trkpt>
    <trkpt lat="42.620633" lon="-2.077666">
      <ele>807.1</ele>
    </trkpt>
    <trkpt lat="42.620537" lon="-2.078007">
      <ele>804.1</ele>
    </trkpt>
    <trkpt lat="42.620472" lon="-2.078467">
      <ele>800.6</ele>
    </trkpt>
    <trkpt lat="42.620464" lon="-2.078715">
      <ele>798.9</ele>
    </trkpt>
    <trkpt lat="42.620497" lon="-2.079234">
      <ele>795.6</ele>
    </trkpt>
    <trkpt lat="42.620431" lon="-2.079961">
      <ele>791.4</ele>
    </trkpt>
    <trkpt lat="42.62028" lon="-2.080701">
      <ele>786.6</ele>
    </trkpt>
    <trkpt lat="42.620274" lon="-2.080846">
      <ele>785.7</ele>
    </trkpt>
    <trkpt lat="42.620154" lon="-2.081226">
      <ele>782.6</ele>
    </trkpt>
    <trkpt lat="42.619924" lon="-2.082118">
      <ele>773.3</ele>
    </trkpt>
    <trkpt lat="42.619805" lon="-2.082967">
      <ele>762.2</ele>
    </trkpt>
    <trkpt lat="42.619809" lon="-2.083133">
      <ele>759.8</ele>
    </trkpt>
    <trkpt lat="42.619759" lon="-2.083481">
      <ele>754.6</ele>
    </trkpt>
    <trkpt lat="42.61971" lon="-2.084154">
      <ele>744.1</ele>
    </trkpt>
    <trkpt lat="42.619621" lon="-2.084714">
      <ele>734.5</ele>
    </trkpt>
    <trkpt lat="42.619655" lon="-2.085102">
      <ele>728.5</ele>
    </trkpt>
    <trkpt lat="42.619695" lon="-2.085241">
      <ele>726.4</ele>
    </trkpt>
    <trkpt lat="42.619677" lon="-2.085456">
      <ele>723.4</ele>
    </trkpt>
    <trkpt lat="42.619687" lon="-2.08554">
      <ele>722.3</ele>
    </trkpt>
    <trkpt lat="42.61976" lon="-2.085715">
      <ele>719.8</ele>
    </trkpt>
    <trkpt lat="42.61982" lon="-2.085866">
      <ele>717.7</ele>
    </trkpt>
    <trkpt lat="42.62008" lon="-2.086184">
      <ele>712.8</ele>
    </trkpt>
    <trkpt lat="42.620429" lon="-2.086381">
      <ele>708.8</ele>
    </trkpt>
    <trkpt lat="42.620229" lon="-2.086387">
      <ele>707.1</ele>
    </trkpt>
    <trkpt lat="42.620058" lon="-2.086393">
      <ele>706.2</ele>
    </trkpt>
    <trkpt lat="42.619782" lon="-2.08636">
      <ele>705.3</ele>
    </trkpt>
    <trkpt lat="42.619261" lon="-2.086164">
      <ele>704.4</ele>
    </trkpt>
    <trkpt lat="42.61872" lon="-2.086146">
      <ele>703.7</ele>
    </trkpt>
    <trkpt lat="42.618482" lon="-2.086261">
      <ele>703.4</ele>
    </trkpt>
    <trkpt lat="42.618029" lon="-2.086302">
      <ele>702.7</ele>
    </trkpt>
    <trkpt lat="42.617073" lon="-2.086554">
      <ele>700.3</ele>
    </trkpt>
    <trkpt lat="42.616746" lon="-2.086802">
      <ele>699.5</ele>
    </trkpt>
    <trkpt lat="42.616506" lon="-2.087073">
      <ele>699</ele>
    </trkpt>
    <trkpt lat="42.615817" lon="-2.087554">
      <ele>697.5</ele>
    </trkpt>
    <trkpt lat="42.61568" lon="-2.087785">
      <ele>696.8</ele>
    </trkpt>
    <trkpt lat="42.615502" lon="-2.088249">
      <ele>695.5</ele>
    </trkpt>
    <trkpt lat="42.61541" lon="-2.088578">
      <ele>694.8</ele>
    </trkpt>
    <trkpt lat="42.615348" lon="-2.088801">
      <ele>694.3</ele>
    </trkpt>
    <trkpt lat="42.615278" lon="-2.089008">
      <ele>693.9</ele>
    </trkpt>
    <trkpt lat="42.614964" lon="-2.089152">
      <ele>693.2</ele>
    </trkpt>
    <trkpt lat="42.614827" lon="-2.089164">
      <ele>692.9</ele>
    </trkpt>
    <trkpt lat="42.614485" lon="-2.089076">
      <ele>692.1</ele>
    </trkpt>
    <trkpt lat="42.614424" lon="-2.089095">
      <ele>692</ele>
    </trkpt>
    <trkpt lat="42.614308" lon="-2.089157">
      <ele>691.6</ele>
    </trkpt>
    <trkpt lat="42.613963" lon="-2.08944">
      <ele>690.8</ele>
    </trkpt>
    <trkpt lat="42.613481" lon="-2.089779">
      <ele>689.7</ele>
    </trkpt>
    <trkpt lat="42.613234" lon="-2.089846">
      <ele>688.9</ele>
    </trkpt>
    <trkpt lat="42.6131" lon="-2.089828">
      <ele>688.5</ele>
    </trkpt>
    <trkpt lat="42.612949" lon="-2.089808">
      <ele>688.1</ele>
    </trkpt>
    <trkpt lat="42.612766" lon="-2.089669">
      <ele>687.6</ele>
    </trkpt>
    <trkpt lat="42.612379" lon="-2.089253">
      <ele>687.4</ele>
    </trkpt>
    <trkpt lat="42.611653" lon="-2.088904">
      <ele>691.3</ele>
    </trkpt>
    <trkpt lat="42.611354" lon="-2.088813">
      <ele>693.9</ele>
    </trkpt>
    <trkpt lat="42.61116" lon="-2.088851">
      <ele>695.6</ele>
    </trkpt>
    <trkpt lat="42.610812" lon="-2.089105">
      <ele>698.3</ele>
    </trkpt>
    <trkpt lat="42.610592" lon="-2.089346">
      <ele>699.7</ele>
    </trkpt>
    <trkpt lat="42.61041" lon="-2.089627">
      <ele>700.7</ele>
    </trkpt>
    <trkpt lat="42.610344" lon="-2.0897">
      <ele>700.9</ele>
    </trkpt>
    <trkpt lat="42.610241" lon="-2.089749">
      <ele>701.2</ele>
    </trkpt>
    <trkpt lat="42.609964" lon="-2.089806">
      <ele>701.7</ele>
    </trkpt>
    <trkpt lat="42.609662" lon="-2.089898">
      <ele>701.8</ele>
    </trkpt>
    <trkpt lat="42.608969" lon="-2.08991">
      <ele>701.4</ele>
    </trkpt>
    <trkpt lat="42.608812" lon="-2.089945">
      <ele>701.6</ele>
    </trkpt>
    <trkpt lat="42.608609" lon="-2.090007">
      <ele>702.2</ele>
    </trkpt>
    <trkpt lat="42.608018" lon="-2.09034">
      <ele>703.7</ele>
    </trkpt>
    <trkpt lat="42.607883" lon="-2.090386">
      <ele>703.7</ele>
    </trkpt>
    <trkpt lat="42.607698" lon="-2.09039">
      <ele>703.6</ele>
    </trkpt>
    <trkpt lat="42.607385" lon="-2.090301">
      <ele>702.5</ele>
    </trkpt>
    <trkpt lat="42.607113" lon="-2.09032">
      <ele>701</ele>
    </trkpt>
    <trkpt lat="42.60711" lon="-2.090226">
      <ele>700.6</ele>
    </trkpt>
    <trkpt lat="42.60687" lon="-2.090067">
      <ele>698.7</ele>
    </trkpt>
    <trkpt lat="42.60656" lon="-2.089886">
      <ele>695.8</ele>
    </trkpt>
    <trkpt lat="42.606494" lon="-2.089799">
      <ele>694.9</ele>
    </trkpt>
    <trkpt lat="42.606278" lon="-2.089618">
      <ele>692.4</ele>
    </trkpt>
    <trkpt lat="42.605955" lon="-2.089452">
      <ele>688.9</ele>
    </trkpt>
    <trkpt lat="42.605742" lon="-2.089381">
      <ele>686.8</ele>
    </trkpt>
    <trkpt lat="42.60527" lon="-2.089325">
      <ele>683</ele>
    </trkpt>
    <trkpt lat="42.605073" lon="-2.089254">
      <ele>681.6</ele>
    </trkpt>
    <trkpt lat="42.604827" lon="-2.089119">
      <ele>679.8</ele>
    </trkpt>
    <trkpt lat="42.603846" lon="-2.088745">
      <ele>673.1</ele>
    </trkpt>
    <trkpt lat="42.603608" lon="-2.088623">
      <ele>671.5</ele>
    </trkpt>
    <trkpt lat="42.602854" lon="-2.088201">
      <ele>667.2</ele>
    </trkpt>
    <trkpt lat="42.602709" lon="-2.088165">
      <ele>666.7</ele>
    </trkpt>
    <trkpt lat="42.602576" lon="-2.088044">
      <ele>666</ele>
    </trkpt>
    <trkpt lat="42.601995" lon="-2.087889">
      <ele>664.4</ele>
    </trkpt>
    <trkpt lat="42.601657" lon="-2.087899">
      <ele>664.3</ele>
    </trkpt>
    <trkpt lat="42.601062" lon="-2.088062">
      <ele>664.5</ele>
    </trkpt>
    <trkpt lat="42.600696" lon="-2.088213">
      <ele>664.3</ele>
    </trkpt>
    <trkpt lat="42.600597" lon="-2.088291">
      <ele>664.2</ele>
    </trkpt>
    <trkpt lat="42.600366" lon="-2.088497">
      <ele>663.7</ele>
    </trkpt>
    <trkpt lat="42.599976" lon="-2.088953">
      <ele>662.1</ele>
    </trkpt>
    <trkpt lat="42.599073" lon="-2.089629">
      <ele>656</ele>
    </trkpt>
    <trkpt lat="42.598777" lon="-2.089798">
      <ele>653.3</ele>
    </trkpt>
    <trkpt lat="42.598656" lon="-2.089816">
      <ele>652.3</ele>
    </trkpt>
    <trkpt lat="42.597776" lon="-2.090068">
      <ele>643.9</ele>
    </trkpt>
    <trkpt lat="42.597659" lon="-2.090141">
      <ele>642.7</ele>
    </trkpt>
    <trkpt lat="42.597553" lon="-2.090133">
      <ele>641.7</ele>
    </trkpt>
    <trkpt lat="42.597399" lon="-2.090017">
      <ele>640.2</ele>
    </trkpt>
    <trkpt lat="42.597173" lon="-2.09011">
      <ele>638.5</ele>
    </trkpt>
    <trkpt lat="42.597057" lon="-2.09011">
      <ele>637.7</ele>
    </trkpt>
    <trkpt lat="42.596947" lon="-2.090031">
      <ele>637</ele>
    </trkpt>
    <trkpt lat="42.596817" lon="-2.089868">
      <ele>636.1</ele>
    </trkpt>
    <trkpt lat="42.596663" lon="-2.089766">
      <ele>635.2</ele>
    </trkpt>
    <trkpt lat="42.596585" lon="-2.089552">
      <ele>634.3</ele>
    </trkpt>
    <trkpt lat="42.596366" lon="-2.089204">
      <ele>632.7</ele>
    </trkpt>
    <trkpt lat="42.596225" lon="-2.089064">
      <ele>632</ele>
    </trkpt>
    <trkpt lat="42.596092" lon="-2.089046">
      <ele>631.5</ele>
    </trkpt>
    <trkpt lat="42.595459" lon="-2.089441">
      <ele>629.8</ele>
    </trkpt>
    <trkpt lat="42.59538" lon="-2.089459">
      <ele>629.7</ele>
    </trkpt>
    <trkpt lat="42.595213" lon="-2.089431">
      <ele>629.6</ele>
    </trkpt>
    <trkpt lat="42.594967" lon="-2.089213">
      <ele>629.4</ele>
    </trkpt>
    <trkpt lat="42.594751" lon="-2.088967">
      <ele>629.5</ele>
    </trkpt>
    <trkpt lat="42.594447" lon="-2.088455">
      <ele>629.9</ele>
    </trkpt>
    <trkpt lat="42.594108" lon="-2.088014">
      <ele>630.4</ele>
    </trkpt>
    <trkpt lat="42.593938" lon="-2.088034">
      <ele>630.4</ele>
    </trkpt>
    <trkpt lat="42.593853" lon="-2.088001">
      <ele>630.3</ele>
    </trkpt>
    <trkpt lat="42.593648" lon="-2.088038">
      <ele>629.8</ele>
    </trkpt>
    <trkpt lat="42.593575" lon="-2.08796">
      <ele>629.4</ele>
    </trkpt>
    <trkpt lat="42.593491" lon="-2.087919">
      <ele>629</ele>
    </trkpt>
    <trkpt lat="42.593297" lon="-2.087874">
      <ele>628</ele>
    </trkpt>
    <trkpt lat="42.593204" lon="-2.087776">
      <ele>627.3</ele>
    </trkpt>
    <trkpt lat="42.593103" lon="-2.087594">
      <ele>626.1</ele>
    </trkpt>
    <trkpt lat="42.593054" lon="-2.087836">
      <ele>624.6</ele>
    </trkpt>
    <trkpt lat="42.59297" lon="-2.088008">
      <ele>623.2</ele>
    </trkpt>
    <trkpt lat="42.592834" lon="-2.088212">
      <ele>621.3</ele>
    </trkpt>
    <trkpt lat="42.592723" lon="-2.088315">
      <ele>619.9</ele>
    </trkpt>
    <trkpt lat="42.592435" lon="-2.089026">
      <ele>612.8</ele>
    </trkpt>
    <trkpt lat="42.592442" lon="-2.089175">
      <ele>611.3</ele>
    </trkpt>
    <trkpt lat="42.592404" lon="-2.089364">
      <ele>609.5</ele>
    </trkpt>
    <trkpt lat="42.59239" lon="-2.08965">
      <ele>606.8</ele>
    </trkpt>
    <trkpt lat="42.592364" lon="-2.089702">
      <ele>606.2</ele>
    </trkpt>
    <trkpt lat="42.591923" lon="-2.090066">
      <ele>598.8</ele>
    </trkpt>
    <trkpt lat="42.591453" lon="-2.090402">
      <ele>590.7</ele>
    </trkpt>
    <trkpt lat="42.591329" lon="-2.090386">
      <ele>588.8</ele>
    </trkpt>
    <trkpt lat="42.591192" lon="-2.090343">
      <ele>586.7</ele>
    </trkpt>
    <trkpt lat="42.591097" lon="-2.090259">
      <ele>585</ele>
    </trkpt>
    <trkpt lat="42.590784" lon="-2.090213">
      <ele>580.8</ele>
    </trkpt>
    <trkpt lat="42.590585" lon="-2.090237">
      <ele>578.3</ele>
    </trkpt>
    <trkpt lat="42.590569" lon="-2.090202">
      <ele>577.9</ele>
    </trkpt>
    <trkpt lat="42.590517" lon="-2.090199">
      <ele>577.2</ele>
    </trkpt>
    <trkpt lat="42.590477" lon="-2.090192">
      <ele>576.8</ele>
    </trkpt>
    <trkpt lat="42.590316" lon="-2.090061">
      <ele>574.6</ele>
    </trkpt>
    <trkpt lat="42.590135" lon="-2.090046">
      <ele>572.5</ele>
    </trkpt>
    <trkpt lat="42.59" lon="-2.09021">
      <ele>570.4</ele>
    </trkpt>
    <trkpt lat="42.589815" lon="-2.090311">
      <ele>568.1</ele>
    </trkpt>
    <trkpt lat="42.589675" lon="-2.090428">
      <ele>566.2</ele>
    </trkpt>
    <trkpt lat="42.589534" lon="-2.090653">
      <ele>563.8</ele>
    </trkpt>
    <trkpt lat="42.589324" lon="-2.090804">
      <ele>561.4</ele>
    </trkpt>
    <trkpt lat="42.58923" lon="-2.090809">
      <ele>560.5</ele>
    </trkpt>
    <trkpt lat="42.589082" lon="-2.090682">
      <ele>558.8</ele>
    </trkpt>
    <trkpt lat="42.588856" lon="-2.090628">
      <ele>556.5</ele>
    </trkpt>
    <trkpt lat="42.588629" lon="-2.090626">
      <ele>554.2</ele>
    </trkpt>
    <trkpt lat="42.588508" lon="-2.090661">
      <ele>553</ele>
    </trkpt>
    <trkpt lat="42.588429" lon="-2.090718">
      <ele>552.1</ele>
    </trkpt>
    <trkpt lat="42.588259" lon="-2.091">
      <ele>549.2</ele>
    </trkpt>
    <trkpt lat="42.588141" lon="-2.091136">
      <ele>547.6</ele>
    </trkpt>
    <trkpt lat="42.588066" lon="-2.091243">
      <ele>546.6</ele>
    </trkpt>
    <trkpt lat="42.587931" lon="-2.091493">
      <ele>544.6</ele>
    </trkpt>
    <trkpt lat="42.587874" lon="-2.091661">
      <ele>543.2</ele>
    </trkpt>
    <trkpt lat="42.587816" lon="-2.091848">
      <ele>541.7</ele>
    </trkpt>
    <trkpt lat="42.587758" lon="-2.092173">
      <ele>538.9</ele>
    </trkpt>
    <trkpt lat="42.587693" lon="-2.092571">
      <ele>535.7</ele>
    </trkpt>
    <trkpt lat="42.587636" lon="-2.092552">
      <ele>535.1</ele>
    </trkpt>
    <trkpt lat="42.587428" lon="-2.092583">
      <ele>533</ele>
    </trkpt>
    <trkpt lat="42.587161" lon="-2.092489">
      <ele>530.6</ele>
    </trkpt>
    <trkpt lat="42.586952" lon="-2.092462">
      <ele>528.9</ele>
    </trkpt>
    <trkpt lat="42.586537" lon="-2.093058">
      <ele>525.9</ele>
    </trkpt>
    <trkpt lat="42.585558" lon="-2.093625">
      <ele>525.6</ele>
    </trkpt>
    <trkpt lat="42.585357" lon="-2.093831">
      <ele>525.5</ele>
    </trkpt>
    <trkpt lat="42.584909" lon="-2.094146">
      <ele>524.3</ele>
    </trkpt>
    <trkpt lat="42.584659" lon="-2.09427">
      <ele>523.3</ele>
    </trkpt>
    <trkpt lat="42.583896" lon="-2.094607">
      <ele>519.2</ele>
    </trkpt>
    <trkpt lat="42.583665" lon="-2.094675">
      <ele>518.1</ele>
    </trkpt>
    <trkpt lat="42.583324" lon="-2.094719">
      <ele>516.8</ele>
    </trkpt>
    <trkpt lat="42.583222" lon="-2.094706">
      <ele>516.6</ele>
    </trkpt>
    <trkpt lat="42.583102" lon="-2.094647">
      <ele>516.3</ele>
    </trkpt>
    <trkpt lat="42.582705" lon="-2.094272">
      <ele>515.8</ele>
    </trkpt>
    <trkpt lat="42.582667" lon="-2.094193">
      <ele>515.8</ele>
    </trkpt>
    <trkpt lat="42.582523" lon="-2.093906">
      <ele>516.1</ele>
    </trkpt>
    <trkpt lat="42.582561" lon="-2.093832">
      <ele>516.2</ele>
    </trkpt>
    <trkpt lat="42.582292" lon="-2.093464">
      <ele>517.3</ele>
    </trkpt>
    <trkpt lat="42.581937" lon="-2.09284">
      <ele>518.9</ele>
    </trkpt>
    <trkpt lat="42.581704" lon="-2.09232">
      <ele>519.3</ele>
    </trkpt>
    <trkpt lat="42.581681" lon="-2.09227">
      <ele>519.2</ele>
    </trkpt>
    <trkpt lat="42.581553" lon="-2.091982">
      <ele>519</ele>
    </trkpt>
    <trkpt lat="42.581514" lon="-2.091363">
      <ele>517.7</ele>
    </trkpt>
    <trkpt lat="42.58145" lon="-2.091199">
      <ele>517.1</ele>
    </trkpt>
    <trkpt lat="42.580988" lon="-2.090683">
      <ele>514.1</ele>
    </trkpt>
    <trkpt lat="42.580865" lon="-2.090347">
      <ele>512.9</ele>
    </trkpt>
    <trkpt lat="42.580826" lon="-2.090304">
      <ele>512.7</ele>
    </trkpt>
    <trkpt lat="42.580743" lon="-2.090211">
      <ele>512.4</ele>
    </trkpt>
    <trkpt lat="42.580679" lon="-2.090129">
      <ele>512.1</ele>
    </trkpt>
    <trkpt lat="42.580268" lon="-2.089956">
      <ele>510.9</ele>
    </trkpt>
    <trkpt lat="42.580162" lon="-2.089882">
      <ele>510.6</ele>
    </trkpt>
    <trkpt lat="42.57978" lon="-2.089339">
      <ele>509.8</ele>
    </trkpt>
    <trkpt lat="42.579669" lon="-2.089235">
      <ele>509.6</ele>
    </trkpt>
    <trkpt lat="42.579539" lon="-2.089172">
      <ele>509.4</ele>
    </trkpt>
    <trkpt lat="42.579456" lon="-2.089087">
      <ele>509.2</ele>
    </trkpt>
    <trkpt lat="42.579338" lon="-2.088715">
      <ele>508.6</ele>
    </trkpt>
    <trkpt lat="42.579124" lon="-2.08826">
      <ele>507.8</ele>
    </trkpt>
    <trkpt lat="42.578824" lon="-2.087782">
      <ele>506.8</ele>
    </trkpt>
    <trkpt lat="42.578275" lon="-2.087476">
      <ele>505.1</ele>
    </trkpt>
    <trkpt lat="42.577892" lon="-2.087434">
      <ele>503.9</ele>
    </trkpt>
    <trkpt lat="42.577094" lon="-2.086805">
      <ele>500</ele>
    </trkpt>
    <trkpt lat="42.576766" lon="-2.086699">
      <ele>498.2</ele>
    </trkpt>
    <trkpt lat="42.576545" lon="-2.08651">
      <ele>497</ele>
    </trkpt>
    <trkpt lat="42.576418" lon="-2.086306">
      <ele>496.1</ele>
    </trkpt>
    <trkpt lat="42.576095" lon="-2.086265">
      <ele>494.7</ele>
    </trkpt>
    <trkpt lat="42.575921" lon="-2.086108">
      <ele>493.9</ele>
    </trkpt>
    <trkpt lat="42.575727" lon="-2.08584">
      <ele>493</ele>
    </trkpt>
    <trkpt lat="42.575388" lon="-2.085723">
      <ele>492.1</ele>
    </trkpt>
    <trkpt lat="42.575044" lon="-2.085476">
      <ele>491.3</ele>
    </trkpt>
    <trkpt lat="42.574392" lon="-2.084897">
      <ele>490.1</ele>
    </trkpt>
    <trkpt lat="42.574127" lon="-2.084606">
      <ele>489.6</ele>
    </trkpt>
    <trkpt lat="42.573831" lon="-2.084064">
      <ele>488.6</ele>
    </trkpt>
    <trkpt lat="42.573665" lon="-2.083899">
      <ele>488.2</ele>
    </trkpt>
    <trkpt lat="42.573448" lon="-2.083748">
      <ele>487.4</ele>
    </trkpt>
    <trkpt lat="42.573282" lon="-2.083576">
      <ele>486.7</ele>
    </trkpt>
    <trkpt lat="42.572966" lon="-2.082971">
      <ele>484.3</ele>
    </trkpt>
    <trkpt lat="42.572784" lon="-2.082761">
      <ele>483</ele>
    </trkpt>
    <trkpt lat="42.572065" lon="-2.082419">
      <ele>478.5</ele>
    </trkpt>
    <trkpt lat="42.571734" lon="-2.08236">
      <ele>476.6</ele>
    </trkpt>
    <trkpt lat="42.570829" lon="-2.081963">
      <ele>472</ele>
    </trkpt>
    <trkpt lat="42.570631" lon="-2.08178">
      <ele>471</ele>
    </trkpt>
    <trkpt lat="42.57004" lon="-2.08157">
      <ele>468.6</ele>
    </trkpt>
    <trkpt lat="42.570019" lon="-2.080304">
      <ele>464.9</ele>
    </trkpt>
    <trkpt lat="42.569904" lon="-2.079602">
      <ele>462.7</ele>
    </trkpt>
    <trkpt lat="42.569568" lon="-2.078297">
      <ele>458.8</ele>
    </trkpt>
    <trkpt lat="42.56945" lon="-2.077381">
      <ele>456.5</ele>
    </trkpt>
    <trkpt lat="42.568877" lon="-2.077022">
      <ele>454.6</ele>
    </trkpt>
    <trkpt lat="42.568261" lon="-2.076582">
      <ele>452.2</ele>
    </trkpt>
    <trkpt lat="42.567933" lon="-2.076131">
      <ele>450.5</ele>
    </trkpt>
    <trkpt lat="42.567332" lon="-2.075708">
      <ele>448.1</ele>
    </trkpt>
    <trkpt lat="42.566459" lon="-2.075429">
      <ele>445.1</ele>
    </trkpt>
    <trkpt lat="42.565946" lon="-2.075069">
      <ele>443.3</ele>
    </trkpt>
    <trkpt lat="42.56495" lon="-2.074819">
      <ele>441</ele>
    </trkpt>
    <trkpt lat="42.564286" lon="-2.074878">
      <ele>440</ele>
    </trkpt>
    <trkpt lat="42.563547" lon="-2.074699">
      <ele>439.1</ele>
    </trkpt>
    <trkpt lat="42.562635" lon="-2.074935">
      <ele>437.5</ele>
    </trkpt>
    <trkpt lat="42.561133" lon="-2.074962">
      <ele>433.9</ele>
    </trkpt>
    <trkpt lat="42.560853" lon="-2.074898">
      <ele>433.2</ele>
    </trkpt>
    <trkpt lat="42.560465" lon="-2.07468">
      <ele>432.3</ele>
    </trkpt>
    <trkpt lat="42.556791" lon="-2.074023">
      <ele>427.6</ele>
    </trkpt>
    <trkpt lat="42.555626" lon="-2.073472">
      <ele>426.2</ele>
    </trkpt>
    <trkpt lat="42.555192" lon="-2.074547">
      <ele>422.7</ele>
    </trkpt>
    <trkpt lat="42.555038" lon="-2.07468">
      <ele>421.6</ele>
    </trkpt>
    <trkpt lat="42.554011" lon="-2.074737">
      <ele>416.8</ele>
    </trkpt>
    <trkpt lat="42.553539" lon="-2.074794">
      <ele>416.1</ele>
    </trkpt>
    <trkpt lat="42.553436" lon="-2.074775">
      <ele>416.1</ele>
    </trkpt>
    <trkpt lat="42.553142" lon="-2.07449">
      <ele>416.4</ele>
    </trkpt>
    <trkpt lat="42.552955" lon="-2.074262">
      <ele>416.8</ele>
    </trkpt>
    <trkpt lat="42.552843" lon="-2.07404">
      <ele>417.2</ele>
    </trkpt>
    <trkpt lat="42.552806" lon="-2.073856">
      <ele>417.5</ele>
    </trkpt>
    <trkpt lat="42.552803" lon="-2.073763">
      <ele>417.6</ele>
    </trkpt>
    </trkseg>
  </trk>
</gpx>
