<?xml version="1.0" encoding="UTF-8"?>
<gpx version="1.1" creator="fitAI Komoot downloader" xmlns="http://www.topografix.com/GPX/1/1">
  <metadata>
    <name>Cima del Joar (1.414 m) - Recorrido circular desde Torralba del Río</name>
    <desc>27 visitas · Dificultad: difficult · Distancia: 16.7 km · Desnivel +: 1227 m</desc>
    <link href="https://www.komoot.com/smarttour/e24569931"><text>Komoot</text></link>
  </metadata>
  <trk>
    <name>Cima del Joar (1.414 m) - Recorrido circular desde Torralba del Río</name>
    <type>jogging</type>
    <trkseg>
    <trkpt lat="42.623128" lon="-2.337396">
      <ele>788.5</ele>
    </trkpt>
    <trkpt lat="42.622955" lon="-2.337569">
      <ele>788.7</ele>
    </trkpt>
    <trkpt lat="42.623018" lon="-2.337636">
      <ele>788.8</ele>
    </trkpt>
    <trkpt lat="42.622891" lon="-2.337784">
      <ele>789.1</ele>
    </trkpt>
    <trkpt lat="42.622783" lon="-2.338021">
      <ele>789.5</ele>
    </trkpt>
    <trkpt lat="42.622763" lon="-2.338248">
      <ele>790</ele>
    </trkpt>
    <trkpt lat="42.622787" lon="-2.338499">
      <ele>790.9</ele>
    </trkpt>
    <trkpt lat="42.62287" lon="-2.338726">
      <ele>792.1</ele>
    </trkpt>
    <trkpt lat="42.622909" lon="-2.338778">
      <ele>792.5</ele>
    </trkpt>
    <trkpt lat="42.622988" lon="-2.338802">
      <ele>793.1</ele>
    </trkpt>
    <trkpt lat="42.623024" lon="-2.338723">
      <ele>793.7</ele>
    </trkpt>
    <trkpt lat="42.623196" lon="-2.33823">
      <ele>797.7</ele>
    </trkpt>
    <trkpt lat="42.623657" lon="-2.338674">
      <ele>806</ele>
    </trkpt>
    <trkpt lat="42.62379" lon="-2.338741">
      <ele>807.8</ele>
    </trkpt>
    <trkpt lat="42.624182" lon="-2.33879">
      <ele>812.7</ele>
    </trkpt>
    <trkpt lat="42.624455" lon="-2.339015">
      <ele>816.3</ele>
    </trkpt>
    <trkpt lat="42.624453" lon="-2.339131">
      <ele>817.2</ele>
    </trkpt>
    <trkpt lat="42.624392" lon="-2.3392">
      <ele>817.9</ele>
    </trkpt>
    <trkpt lat="42.624248" lon="-2.339284">
      <ele>819.3</ele>
    </trkpt>
    <trkpt lat="42.624175" lon="-2.339388">
      <ele>820.1</ele>
    </trkpt>
    <trkpt lat="42.62393" lon="-2.340088">
      <ele>823.4</ele>
    </trkpt>
    <trkpt lat="42.623664" lon="-2.340373">
      <ele>823.9</ele>
    </trkpt>
    <trkpt lat="42.623443" lon="-2.340727">
      <ele>824.7</ele>
    </trkpt>
    <trkpt lat="42.623119" lon="-2.340957">
      <ele>825.5</ele>
    </trkpt>
    <trkpt lat="42.622991" lon="-2.341293">
      <ele>825.8</ele>
    </trkpt>
    <trkpt lat="42.622569" lon="-2.341958">
      <ele>826</ele>
    </trkpt>
    <trkpt lat="42.622418" lon="-2.342237">
      <ele>826</ele>
    </trkpt>
    <trkpt lat="42.622395" lon="-2.342379">
      <ele>826</ele>
    </trkpt>
    <trkpt lat="42.622389" lon="-2.343015">
      <ele>826.1</ele>
    </trkpt>
    <trkpt lat="42.62245" lon="-2.343597">
      <ele>826.4</ele>
    </trkpt>
    <trkpt lat="42.622525" lon="-2.343929">
      <ele>827</ele>
    </trkpt>
    <trkpt lat="42.622446" lon="-2.344251">
      <ele>827.8</ele>
    </trkpt>
    <trkpt lat="42.622422" lon="-2.34461">
      <ele>829</ele>
    </trkpt>
    <trkpt lat="42.622377" lon="-2.344895">
      <ele>830.1</ele>
    </trkpt>
    <trkpt lat="42.622521" lon="-2.345587">
      <ele>833.3</ele>
    </trkpt>
    <trkpt lat="42.622752" lon="-2.346196">
      <ele>837.4</ele>
    </trkpt>
    <trkpt lat="42.622969" lon="-2.346534">
      <ele>840.4</ele>
    </trkpt>
    <trkpt lat="42.623198" lon="-2.346858">
      <ele>843.3</ele>
    </trkpt>
    <trkpt lat="42.623758" lon="-2.347487">
      <ele>848.6</ele>
    </trkpt>
    <trkpt lat="42.624037" lon="-2.347871">
      <ele>849.5</ele>
    </trkpt>
    <trkpt lat="42.624148" lon="-2.347973">
      <ele>849.3</ele>
    </trkpt>
    <trkpt lat="42.624197" lon="-2.348075">
      <ele>849.1</ele>
    </trkpt>
    <trkpt lat="42.624245" lon="-2.348341">
      <ele>848.4</ele>
    </trkpt>
    <trkpt lat="42.624187" lon="-2.348547">
      <ele>847.8</ele>
    </trkpt>
    <trkpt lat="42.624226" lon="-2.348789">
      <ele>846.9</ele>
    </trkpt>
    <trkpt lat="42.624132" lon="-2.349136">
      <ele>845.6</ele>
    </trkpt>
    <trkpt lat="42.624059" lon="-2.349312">
      <ele>844.8</ele>
    </trkpt>
    <trkpt lat="42.623998" lon="-2.349614">
      <ele>843.5</ele>
    </trkpt>
    <trkpt lat="42.624016" lon="-2.34974">
      <ele>843</ele>
    </trkpt>
    <trkpt lat="42.624095" lon="-2.349913">
      <ele>842.3</ele>
    </trkpt>
    <trkpt lat="42.624133" lon="-2.350096">
      <ele>841.7</ele>
    </trkpt>
    <trkpt lat="42.624141" lon="-2.350302">
      <ele>841.1</ele>
    </trkpt>
    <trkpt lat="42.624019" lon="-2.351017">
      <ele>840.6</ele>
    </trkpt>
    <trkpt lat="42.624037" lon="-2.351406">
      <ele>840.7</ele>
    </trkpt>
    <trkpt lat="42.624069" lon="-2.351513">
      <ele>840.5</ele>
    </trkpt>
    <trkpt lat="42.624084" lon="-2.351771">
      <ele>840</ele>
    </trkpt>
    <trkpt lat="42.623999" lon="-2.352258">
      <ele>838.1</ele>
    </trkpt>
    <trkpt lat="42.623843" lon="-2.352627">
      <ele>835.4</ele>
    </trkpt>
    <trkpt lat="42.623685" lon="-2.352754">
      <ele>833.5</ele>
    </trkpt>
    <trkpt lat="42.623446" lon="-2.353153">
      <ele>829.1</ele>
    </trkpt>
    <trkpt lat="42.623367" lon="-2.353284">
      <ele>827.4</ele>
    </trkpt>
    <trkpt lat="42.623247" lon="-2.35374">
      <ele>821.9</ele>
    </trkpt>
    <trkpt lat="42.623256" lon="-2.353969">
      <ele>818.9</ele>
    </trkpt>
    <trkpt lat="42.623225" lon="-2.354353">
      <ele>813.4</ele>
    </trkpt>
    <trkpt lat="42.622781" lon="-2.354903">
      <ele>800.6</ele>
    </trkpt>
    <trkpt lat="42.622308" lon="-2.355186">
      <ele>790</ele>
    </trkpt>
    <trkpt lat="42.62219" lon="-2.355291">
      <ele>787.1</ele>
    </trkpt>
    <trkpt lat="42.622009" lon="-2.356486">
      <ele>773</ele>
    </trkpt>
    <trkpt lat="42.622077" lon="-2.356939">
      <ele>771.5</ele>
    </trkpt>
    <trkpt lat="42.622251" lon="-2.357379">
      <ele>771.5</ele>
    </trkpt>
    <trkpt lat="42.622306" lon="-2.357492">
      <ele>771.7</ele>
    </trkpt>
    <trkpt lat="42.622374" lon="-2.35754">
      <ele>771.9</ele>
    </trkpt>
    <trkpt lat="42.622642" lon="-2.357549">
      <ele>772.9</ele>
    </trkpt>
    <trkpt lat="42.622692" lon="-2.357571">
      <ele>773.1</ele>
    </trkpt>
    <trkpt lat="42.622767" lon="-2.35767">
      <ele>773.5</ele>
    </trkpt>
    <trkpt lat="42.622853" lon="-2.357909">
      <ele>774.5</ele>
    </trkpt>
    <trkpt lat="42.622876" lon="-2.358038">
      <ele>775</ele>
    </trkpt>
    <trkpt lat="42.622836" lon="-2.358295">
      <ele>776.2</ele>
    </trkpt>
    <trkpt lat="42.623058" lon="-2.358134">
      <ele>778.1</ele>
    </trkpt>
    <trkpt lat="42.623167" lon="-2.358419">
      <ele>779.8</ele>
    </trkpt>
    <trkpt lat="42.623155" lon="-2.358595">
      <ele>780.7</ele>
    </trkpt>
    <trkpt lat="42.623187" lon="-2.358924">
      <ele>782.6</ele>
    </trkpt>
    <trkpt lat="42.623241" lon="-2.35904">
      <ele>783.4</ele>
    </trkpt>
    <trkpt lat="42.623378" lon="-2.359084">
      <ele>784.6</ele>
    </trkpt>
    <trkpt lat="42.623445" lon="-2.359047">
      <ele>785.4</ele>
    </trkpt>
    <trkpt lat="42.62351" lon="-2.359072">
      <ele>786.1</ele>
    </trkpt>
    <trkpt lat="42.624058" lon="-2.358504">
      <ele>795.2</ele>
    </trkpt>
    <trkpt lat="42.624429" lon="-2.358161">
      <ele>802.7</ele>
    </trkpt>
    <trkpt lat="42.624686" lon="-2.357946">
      <ele>807.6</ele>
    </trkpt>
    <trkpt lat="42.6248" lon="-2.357882">
      <ele>809.5</ele>
    </trkpt>
    <trkpt lat="42.624937" lon="-2.35774">
      <ele>811.9</ele>
    </trkpt>
    <trkpt lat="42.625041" lon="-2.357471">
      <ele>814.7</ele>
    </trkpt>
    <trkpt lat="42.625217" lon="-2.357273">
      <ele>817.2</ele>
    </trkpt>
    <trkpt lat="42.625274" lon="-2.357254">
      <ele>817.8</ele>
    </trkpt>
    <trkpt lat="42.625404" lon="-2.357307">
      <ele>819</ele>
    </trkpt>
    <trkpt lat="42.625536" lon="-2.357448">
      <ele>820.2</ele>
    </trkpt>
    <trkpt lat="42.62556" lon="-2.357525">
      <ele>820.6</ele>
    </trkpt>
    <trkpt lat="42.625538" lon="-2.35771">
      <ele>821.1</ele>
    </trkpt>
    <trkpt lat="42.625552" lon="-2.35797">
      <ele>821.4</ele>
    </trkpt>
    <trkpt lat="42.625698" lon="-2.358319">
      <ele>820.8</ele>
    </trkpt>
    <trkpt lat="42.625797" lon="-2.358646">
      <ele>819.2</ele>
    </trkpt>
    <trkpt lat="42.625826" lon="-2.358764">
      <ele>818.4</ele>
    </trkpt>
    <trkpt lat="42.625812" lon="-2.358968">
      <ele>817</ele>
    </trkpt>
    <trkpt lat="42.625765" lon="-2.359249">
      <ele>814.9</ele>
    </trkpt>
    <trkpt lat="42.625615" lon="-2.359383">
      <ele>813.1</ele>
    </trkpt>
    <trkpt lat="42.625532" lon="-2.359684">
      <ele>810.4</ele>
    </trkpt>
    <trkpt lat="42.625536" lon="-2.359818">
      <ele>809.2</ele>
    </trkpt>
    <trkpt lat="42.625414" lon="-2.360022">
      <ele>806.9</ele>
    </trkpt>
    <trkpt lat="42.625376" lon="-2.360169">
      <ele>805.6</ele>
    </trkpt>
    <trkpt lat="42.625392" lon="-2.360687">
      <ele>801.2</ele>
    </trkpt>
    <trkpt lat="42.625315" lon="-2.361105">
      <ele>797.8</ele>
    </trkpt>
    <trkpt lat="42.625287" lon="-2.361444">
      <ele>796</ele>
    </trkpt>
    <trkpt lat="42.625236" lon="-2.36168">
      <ele>795.5</ele>
    </trkpt>
    <trkpt lat="42.625228" lon="-2.361878">
      <ele>795.6</ele>
    </trkpt>
    <trkpt lat="42.625114" lon="-2.362334">
      <ele>797.5</ele>
    </trkpt>
    <trkpt lat="42.625055" lon="-2.362414">
      <ele>798.1</ele>
    </trkpt>
    <trkpt lat="42.624991" lon="-2.362471">
      <ele>798.8</ele>
    </trkpt>
    <trkpt lat="42.625084" lon="-2.362555">
      <ele>799.9</ele>
    </trkpt>
    <trkpt lat="42.6254" lon="-2.362563">
      <ele>803.7</ele>
    </trkpt>
    <trkpt lat="42.62547" lon="-2.362581">
      <ele>804.8</ele>
    </trkpt>
    <trkpt lat="42.625556" lon="-2.362677">
      <ele>806.4</ele>
    </trkpt>
    <trkpt lat="42.625591" lon="-2.362887">
      <ele>808.9</ele>
    </trkpt>
    <trkpt lat="42.625635" lon="-2.363544">
      <ele>818.4</ele>
    </trkpt>
    <trkpt lat="42.625609" lon="-2.363711">
      <ele>821</ele>
    </trkpt>
    <trkpt lat="42.625475" lon="-2.364163">
      <ele>827.9</ele>
    </trkpt>
    <trkpt lat="42.625436" lon="-2.364426">
      <ele>831.2</ele>
    </trkpt>
    <trkpt lat="42.625446" lon="-2.364558">
      <ele>832.9</ele>
    </trkpt>
    <trkpt lat="42.625544" lon="-2.364957">
      <ele>838.1</ele>
    </trkpt>
    <trkpt lat="42.625799" lon="-2.365288">
      <ele>844.1</ele>
    </trkpt>
    <trkpt lat="42.625943" lon="-2.365445">
      <ele>847.3</ele>
    </trkpt>
    <trkpt lat="42.626039" lon="-2.365508">
      <ele>849.1</ele>
    </trkpt>
    <trkpt lat="42.626258" lon="-2.365424">
      <ele>853.1</ele>
    </trkpt>
    <trkpt lat="42.626356" lon="-2.365347">
      <ele>855</ele>
    </trkpt>
    <trkpt lat="42.626579" lon="-2.364942">
      <ele>861.3</ele>
    </trkpt>
    <trkpt lat="42.626649" lon="-2.364871">
      <ele>862.8</ele>
    </trkpt>
    <trkpt lat="42.626856" lon="-2.364802">
      <ele>866.6</ele>
    </trkpt>
    <trkpt lat="42.626859" lon="-2.364706">
      <ele>867.9</ele>
    </trkpt>
    <trkpt lat="42.626721" lon="-2.364581">
      <ele>870.8</ele>
    </trkpt>
    <trkpt lat="42.626753" lon="-2.364528">
      <ele>871.7</ele>
    </trkpt>
    <trkpt lat="42.627011" lon="-2.364531">
      <ele>876.4</ele>
    </trkpt>
    <trkpt lat="42.627125" lon="-2.364575">
      <ele>878.7</ele>
    </trkpt>
    <trkpt lat="42.627267" lon="-2.364693">
      <ele>881.9</ele>
    </trkpt>
    <trkpt lat="42.627491" lon="-2.364968">
      <ele>888</ele>
    </trkpt>
    <trkpt lat="42.627548" lon="-2.364979">
      <ele>889.2</ele>
    </trkpt>
    <trkpt lat="42.627627" lon="-2.364964">
      <ele>890.9</ele>
    </trkpt>
    <trkpt lat="42.627902" lon="-2.3648">
      <ele>897.6</ele>
    </trkpt>
    <trkpt lat="42.628291" lon="-2.364702">
      <ele>906.4</ele>
    </trkpt>
    <trkpt lat="42.628811" lon="-2.364681">
      <ele>918.2</ele>
    </trkpt>
    <trkpt lat="42.628901" lon="-2.364733">
      <ele>920.4</ele>
    </trkpt>
    <trkpt lat="42.629014" lon="-2.364888">
      <ele>924</ele>
    </trkpt>
    <trkpt lat="42.629097" lon="-2.364912">
      <ele>925.9</ele>
    </trkpt>
    <trkpt lat="42.629401" lon="-2.364911">
      <ele>932.4</ele>
    </trkpt>
    <trkpt lat="42.629547" lon="-2.364946">
      <ele>935.5</ele>
    </trkpt>
    <trkpt lat="42.629638" lon="-2.364922">
      <ele>937.4</ele>
    </trkpt>
    <trkpt lat="42.629814" lon="-2.3648">
      <ele>941.3</ele>
    </trkpt>
    <trkpt lat="42.630131" lon="-2.364846">
      <ele>947.5</ele>
    </trkpt>
    <trkpt lat="42.630185" lon="-2.364879">
      <ele>948.5</ele>
    </trkpt>
    <trkpt lat="42.630306" lon="-2.364878">
      <ele>950.5</ele>
    </trkpt>
    <trkpt lat="42.630351" lon="-2.364869">
      <ele>951.2</ele>
    </trkpt>
    <trkpt lat="42.630531" lon="-2.364719">
      <ele>953.8</ele>
    </trkpt>
    <trkpt lat="42.630701" lon="-2.364659">
      <ele>955.6</ele>
    </trkpt>
    <trkpt lat="42.630782" lon="-2.364567">
      <ele>956.6</ele>
    </trkpt>
    <trkpt lat="42.630869" lon="-2.364519">
      <ele>957.6</ele>
    </trkpt>
    <trkpt lat="42.630905" lon="-2.364532">
      <ele>957.9</ele>
    </trkpt>
    <trkpt lat="42.630929" lon="-2.364594">
      <ele>958.5</ele>
    </trkpt>
    <trkpt lat="42.630834" lon="-2.36478">
      <ele>960</ele>
    </trkpt>
    <trkpt lat="42.630792" lon="-2.364983">
      <ele>961.4</ele>
    </trkpt>
    <trkpt lat="42.630789" lon="-2.365107">
      <ele>962.2</ele>
    </trkpt>
    <trkpt lat="42.630755" lon="-2.365515">
      <ele>965.2</ele>
    </trkpt>
    <trkpt lat="42.630817" lon="-2.365757">
      <ele>967.3</ele>
    </trkpt>
    <trkpt lat="42.631024" lon="-2.366183">
      <ele>972</ele>
    </trkpt>
    <trkpt lat="42.631284" lon="-2.366613">
      <ele>980.1</ele>
    </trkpt>
    <trkpt lat="42.631343" lon="-2.366661">
      <ele>981.9</ele>
    </trkpt>
    <trkpt lat="42.63149" lon="-2.366698">
      <ele>986.2</ele>
    </trkpt>
    <trkpt lat="42.631935" lon="-2.366668">
      <ele>1000.4</ele>
    </trkpt>
    <trkpt lat="42.632011" lon="-2.366635">
      <ele>1003.2</ele>
    </trkpt>
    <trkpt lat="42.632052" lon="-2.366583">
      <ele>1005.2</ele>
    </trkpt>
    <trkpt lat="42.632252" lon="-2.366087">
      <ele>1020.1</ele>
    </trkpt>
    <trkpt lat="42.632325" lon="-2.365974">
      <ele>1024.2</ele>
    </trkpt>
    <trkpt lat="42.632611" lon="-2.365709">
      <ele>1037</ele>
    </trkpt>
    <trkpt lat="42.632984" lon="-2.365278">
      <ele>1054.2</ele>
    </trkpt>
    <trkpt lat="42.633302" lon="-2.365065">
      <ele>1065.9</ele>
    </trkpt>
    <trkpt lat="42.633403" lon="-2.364845">
      <ele>1072</ele>
    </trkpt>
    <trkpt lat="42.633517" lon="-2.364732">
      <ele>1076.3</ele>
    </trkpt>
    <trkpt lat="42.633682" lon="-2.364777">
      <ele>1081.5</ele>
    </trkpt>
    <trkpt lat="42.634101" lon="-2.364667">
      <ele>1095.2</ele>
    </trkpt>
    <trkpt lat="42.63459" lon="-2.364827">
      <ele>1111.1</ele>
    </trkpt>
    <trkpt lat="42.634873" lon="-2.364712">
      <ele>1119.8</ele>
    </trkpt>
    <trkpt lat="42.634905" lon="-2.364673">
      <ele>1121.1</ele>
    </trkpt>
    <trkpt lat="42.635077" lon="-2.364234">
      <ele>1131.2</ele>
    </trkpt>
    <trkpt lat="42.635122" lon="-2.364006">
      <ele>1135.6</ele>
    </trkpt>
    <trkpt lat="42.635065" lon="-2.36372">
      <ele>1141</ele>
    </trkpt>
    <trkpt lat="42.63508" lon="-2.363508">
      <ele>1144.6</ele>
    </trkpt>
    <trkpt lat="42.635056" lon="-2.363378">
      <ele>1146.8</ele>
    </trkpt>
    <trkpt lat="42.634833" lon="-2.362812">
      <ele>1156.4</ele>
    </trkpt>
    <trkpt lat="42.634743" lon="-2.362482">
      <ele>1161.4</ele>
    </trkpt>
    <trkpt lat="42.634734" lon="-2.362346">
      <ele>1163.4</ele>
    </trkpt>
    <trkpt lat="42.634754" lon="-2.362117">
      <ele>1166.9</ele>
    </trkpt>
    <trkpt lat="42.63487" lon="-2.361494">
      <ele>1177.6</ele>
    </trkpt>
    <trkpt lat="42.634879" lon="-2.36109">
      <ele>1185.2</ele>
    </trkpt>
    <trkpt lat="42.634986" lon="-2.360706">
      <ele>1193.8</ele>
    </trkpt>
    <trkpt lat="42.63511" lon="-2.360535">
      <ele>1199.5</ele>
    </trkpt>
    <trkpt lat="42.635159" lon="-2.36028">
      <ele>1206.2</ele>
    </trkpt>
    <trkpt lat="42.635214" lon="-2.360149">
      <ele>1210.2</ele>
    </trkpt>
    <trkpt lat="42.635234" lon="-2.360073">
      <ele>1212.4</ele>
    </trkpt>
    <trkpt lat="42.635221" lon="-2.359939">
      <ele>1216.1</ele>
    </trkpt>
    <trkpt lat="42.635279" lon="-2.359777">
      <ele>1221.1</ele>
    </trkpt>
    <trkpt lat="42.635256" lon="-2.359655">
      <ele>1224.7</ele>
    </trkpt>
    <trkpt lat="42.635278" lon="-2.359577">
      <ele>1227.1</ele>
    </trkpt>
    <trkpt lat="42.635105" lon="-2.359426">
      <ele>1235.2</ele>
    </trkpt>
    <trkpt lat="42.63492" lon="-2.35914">
      <ele>1246</ele>
    </trkpt>
    <trkpt lat="42.63483" lon="-2.35907">
      <ele>1250</ele>
    </trkpt>
    <trkpt lat="42.63471" lon="-2.359036">
      <ele>1255</ele>
    </trkpt>
    <trkpt lat="42.634602" lon="-2.358965">
      <ele>1259.9</ele>
    </trkpt>
    <trkpt lat="42.634511" lon="-2.358841">
      <ele>1265.3</ele>
    </trkpt>
    <trkpt lat="42.634452" lon="-2.35869">
      <ele>1270.7</ele>
    </trkpt>
    <trkpt lat="42.63426" lon="-2.358657">
      <ele>1278.9</ele>
    </trkpt>
    <trkpt lat="42.634175" lon="-2.358603">
      <ele>1282.5</ele>
    </trkpt>
    <trkpt lat="42.634034" lon="-2.358577">
      <ele>1287.8</ele>
    </trkpt>
    <trkpt lat="42.634027" lon="-2.358472">
      <ele>1290.4</ele>
    </trkpt>
    <trkpt lat="42.634121" lon="-2.358275">
      <ele>1295.9</ele>
    </trkpt>
    <trkpt lat="42.63414" lon="-2.358183">
      <ele>1297.9</ele>
    </trkpt>
    <trkpt lat="42.634104" lon="-2.358124">
      <ele>1299.5</ele>
    </trkpt>
    <trkpt lat="42.634149" lon="-2.357933">
      <ele>1303.3</ele>
    </trkpt>
    <trkpt lat="42.634115" lon="-2.357812">
      <ele>1305.5</ele>
    </trkpt>
    <trkpt lat="42.634118" lon="-2.357744">
      <ele>1306.7</ele>
    </trkpt>
    <trkpt lat="42.634151" lon="-2.357682">
      <ele>1307.9</ele>
    </trkpt>
    <trkpt lat="42.634198" lon="-2.357452">
      <ele>1311.2</ele>
    </trkpt>
    <trkpt lat="42.634099" lon="-2.35747">
      <ele>1312.8</ele>
    </trkpt>
    <trkpt lat="42.633967" lon="-2.357571">
      <ele>1315.1</ele>
    </trkpt>
    <trkpt lat="42.633927" lon="-2.357447">
      <ele>1316.5</ele>
    </trkpt>
    <trkpt lat="42.633931" lon="-2.357184">
      <ele>1318.3</ele>
    </trkpt>
    <trkpt lat="42.633846" lon="-2.35708">
      <ele>1318.9</ele>
    </trkpt>
    <trkpt lat="42.633823" lon="-2.357052">
      <ele>1319.1</ele>
    </trkpt>
    <trkpt lat="42.633819" lon="-2.356996">
      <ele>1319.2</ele>
    </trkpt>
    <trkpt lat="42.633871" lon="-2.356952">
      <ele>1319.2</ele>
    </trkpt>
    <trkpt lat="42.633972" lon="-2.356737">
      <ele>1319</ele>
    </trkpt>
    <trkpt lat="42.634181" lon="-2.356447">
      <ele>1317.7</ele>
    </trkpt>
    <trkpt lat="42.634234" lon="-2.356428">
      <ele>1317.4</ele>
    </trkpt>
    <trkpt lat="42.634248" lon="-2.356395">
      <ele>1317.3</ele>
    </trkpt>
    <trkpt lat="42.634233" lon="-2.356142">
      <ele>1316.3</ele>
    </trkpt>
    <trkpt lat="42.634145" lon="-2.355918">
      <ele>1315.5</ele>
    </trkpt>
    <trkpt lat="42.634162" lon="-2.355881">
      <ele>1315.4</ele>
    </trkpt>
    <trkpt lat="42.634129" lon="-2.355275">
      <ele>1313.9</ele>
    </trkpt>
    <trkpt lat="42.634149" lon="-2.35516">
      <ele>1313.6</ele>
    </trkpt>
    <trkpt lat="42.634307" lon="-2.354938">
      <ele>1313</ele>
    </trkpt>
    <trkpt lat="42.634339" lon="-2.354833">
      <ele>1312.8</ele>
    </trkpt>
    <trkpt lat="42.634636" lon="-2.354293">
      <ele>1312.9</ele>
    </trkpt>
    <trkpt lat="42.634704" lon="-2.354048">
      <ele>1313.6</ele>
    </trkpt>
    <trkpt lat="42.634653" lon="-2.353997">
      <ele>1313.9</ele>
    </trkpt>
    <trkpt lat="42.634684" lon="-2.353895">
      <ele>1314.4</ele>
    </trkpt>
    <trkpt lat="42.634651" lon="-2.35374">
      <ele>1315.1</ele>
    </trkpt>
    <trkpt lat="42.634708" lon="-2.353337">
      <ele>1317.5</ele>
    </trkpt>
    <trkpt lat="42.634692" lon="-2.35323">
      <ele>1318.3</ele>
    </trkpt>
    <trkpt lat="42.634763" lon="-2.352804">
      <ele>1321.9</ele>
    </trkpt>
    <trkpt lat="42.634684" lon="-2.352356">
      <ele>1326.8</ele>
    </trkpt>
    <trkpt lat="42.634657" lon="-2.352291">
      <ele>1327.8</ele>
    </trkpt>
    <trkpt lat="42.634655" lon="-2.352187">
      <ele>1329.1</ele>
    </trkpt>
    <trkpt lat="42.634755" lon="-2.351685">
      <ele>1336</ele>
    </trkpt>
    <trkpt lat="42.634736" lon="-2.351436">
      <ele>1339.4</ele>
    </trkpt>
    <trkpt lat="42.634779" lon="-2.351288">
      <ele>1341.6</ele>
    </trkpt>
    <trkpt lat="42.634836" lon="-2.350755">
      <ele>1349.5</ele>
    </trkpt>
    <trkpt lat="42.634833" lon="-2.350595">
      <ele>1352</ele>
    </trkpt>
    <trkpt lat="42.634756" lon="-2.35036">
      <ele>1356.2</ele>
    </trkpt>
    <trkpt lat="42.634796" lon="-2.350101">
      <ele>1360.3</ele>
    </trkpt>
    <trkpt lat="42.634742" lon="-2.350012">
      <ele>1362</ele>
    </trkpt>
    <trkpt lat="42.634713" lon="-2.349784">
      <ele>1365.2</ele>
    </trkpt>
    <trkpt lat="42.634731" lon="-2.349514">
      <ele>1368.6</ele>
    </trkpt>
    <trkpt lat="42.634727" lon="-2.349412">
      <ele>1369.8</ele>
    </trkpt>
    <trkpt lat="42.634822" lon="-2.349296">
      <ele>1371.6</ele>
    </trkpt>
    <trkpt lat="42.634765" lon="-2.348939">
      <ele>1375.1</ele>
    </trkpt>
    <trkpt lat="42.634684" lon="-2.34883">
      <ele>1376.3</ele>
    </trkpt>
    <trkpt lat="42.634564" lon="-2.348454">
      <ele>1378.9</ele>
    </trkpt>
    <trkpt lat="42.634474" lon="-2.348416">
      <ele>1379.5</ele>
    </trkpt>
    <trkpt lat="42.634279" lon="-2.348156">
      <ele>1380.5</ele>
    </trkpt>
    <trkpt lat="42.634168" lon="-2.34807">
      <ele>1380.6</ele>
    </trkpt>
    <trkpt lat="42.634094" lon="-2.347952">
      <ele>1380.3</ele>
    </trkpt>
    <trkpt lat="42.634035" lon="-2.347911">
      <ele>1380</ele>
    </trkpt>
    <trkpt lat="42.633959" lon="-2.347859">
      <ele>1379.6</ele>
    </trkpt>
    <trkpt lat="42.633913" lon="-2.347727">
      <ele>1378.7</ele>
    </trkpt>
    <trkpt lat="42.633845" lon="-2.347477">
      <ele>1376.8</ele>
    </trkpt>
    <trkpt lat="42.633813" lon="-2.347373">
      <ele>1375.7</ele>
    </trkpt>
    <trkpt lat="42.633789" lon="-2.347244">
      <ele>1374.5</ele>
    </trkpt>
    <trkpt lat="42.633818" lon="-2.347073">
      <ele>1372.6</ele>
    </trkpt>
    <trkpt lat="42.633898" lon="-2.346871">
      <ele>1369.9</ele>
    </trkpt>
    <trkpt lat="42.634002" lon="-2.346539">
      <ele>1365.1</ele>
    </trkpt>
    <trkpt lat="42.633969" lon="-2.346244">
      <ele>1360.9</ele>
    </trkpt>
    <trkpt lat="42.634089" lon="-2.345225">
      <ele>1345.4</ele>
    </trkpt>
    <trkpt lat="42.634085" lon="-2.34501">
      <ele>1341.9</ele>
    </trkpt>
    <trkpt lat="42.634146" lon="-2.344954">
      <ele>1340.2</ele>
    </trkpt>
    <trkpt lat="42.634292" lon="-2.345029">
      <ele>1336.7</ele>
    </trkpt>
    <trkpt lat="42.634525" lon="-2.344761">
      <ele>1329.6</ele>
    </trkpt>
    <trkpt lat="42.634631" lon="-2.344313">
      <ele>1321</ele>
    </trkpt>
    <trkpt lat="42.634679" lon="-2.343788">
      <ele>1310.6</ele>
    </trkpt>
    <trkpt lat="42.634729" lon="-2.343564">
      <ele>1305.6</ele>
    </trkpt>
    <trkpt lat="42.634754" lon="-2.343476">
      <ele>1303.5</ele>
    </trkpt>
    <trkpt lat="42.634792" lon="-2.343446">
      <ele>1302.2</ele>
    </trkpt>
    <trkpt lat="42.634896" lon="-2.34325">
      <ele>1296.5</ele>
    </trkpt>
    <trkpt lat="42.634958" lon="-2.343197">
      <ele>1294.2</ele>
    </trkpt>
    <trkpt lat="42.635143" lon="-2.342789">
      <ele>1282.1</ele>
    </trkpt>
    <trkpt lat="42.635155" lon="-2.342491">
      <ele>1274.4</ele>
    </trkpt>
    <trkpt lat="42.63511" lon="-2.34234">
      <ele>1270.1</ele>
    </trkpt>
    <trkpt lat="42.635147" lon="-2.342249">
      <ele>1267.4</ele>
    </trkpt>
    <trkpt lat="42.635124" lon="-2.342182">
      <ele>1265.5</ele>
    </trkpt>
    <trkpt lat="42.635147" lon="-2.342079">
      <ele>1262.7</ele>
    </trkpt>
    <trkpt lat="42.635132" lon="-2.341865">
      <ele>1257.2</ele>
    </trkpt>
    <trkpt lat="42.63523" lon="-2.341718">
      <ele>1252.2</ele>
    </trkpt>
    <trkpt lat="42.635225" lon="-2.341622">
      <ele>1249.8</ele>
    </trkpt>
    <trkpt lat="42.635281" lon="-2.341558">
      <ele>1247.4</ele>
    </trkpt>
    <trkpt lat="42.635349" lon="-2.341574">
      <ele>1245.1</ele>
    </trkpt>
    <trkpt lat="42.635418" lon="-2.341444">
      <ele>1241.2</ele>
    </trkpt>
    <trkpt lat="42.635417" lon="-2.341317">
      <ele>1238.2</ele>
    </trkpt>
    <trkpt lat="42.635469" lon="-2.341218">
      <ele>1235.4</ele>
    </trkpt>
    <trkpt lat="42.635473" lon="-2.341109">
      <ele>1232.8</ele>
    </trkpt>
    <trkpt lat="42.635571" lon="-2.340985">
      <ele>1228.7</ele>
    </trkpt>
    <trkpt lat="42.635559" lon="-2.340894">
      <ele>1226.6</ele>
    </trkpt>
    <trkpt lat="42.635619" lon="-2.340863">
      <ele>1224.7</ele>
    </trkpt>
    <trkpt lat="42.635608" lon="-2.340791">
      <ele>1223.1</ele>
    </trkpt>
    <trkpt lat="42.635695" lon="-2.340719">
      <ele>1220</ele>
    </trkpt>
    <trkpt lat="42.635779" lon="-2.340507">
      <ele>1215.1</ele>
    </trkpt>
    <trkpt lat="42.635789" lon="-2.340415">
      <ele>1213.2</ele>
    </trkpt>
    <trkpt lat="42.635772" lon="-2.340353">
      <ele>1211.9</ele>
    </trkpt>
    <trkpt lat="42.635802" lon="-2.340249">
      <ele>1209.7</ele>
    </trkpt>
    <trkpt lat="42.635588" lon="-2.339918">
      <ele>1201</ele>
    </trkpt>
    <trkpt lat="42.635229" lon="-2.33976">
      <ele>1190.3</ele>
    </trkpt>
    <trkpt lat="42.635139" lon="-2.339786">
      <ele>1187.7</ele>
    </trkpt>
    <trkpt lat="42.635061" lon="-2.339825">
      <ele>1185.3</ele>
    </trkpt>
    <trkpt lat="42.63493" lon="-2.339826">
      <ele>1181.6</ele>
    </trkpt>
    <trkpt lat="42.634831" lon="-2.339778">
      <ele>1178.7</ele>
    </trkpt>
    <trkpt lat="42.634658" lon="-2.339755">
      <ele>1173.8</ele>
    </trkpt>
    <trkpt lat="42.634251" lon="-2.339812">
      <ele>1162.2</ele>
    </trkpt>
    <trkpt lat="42.634205" lon="-2.339704">
      <ele>1159.6</ele>
    </trkpt>
    <trkpt lat="42.634069" lon="-2.339623">
      <ele>1155.2</ele>
    </trkpt>
    <trkpt lat="42.633989" lon="-2.339632">
      <ele>1152.7</ele>
    </trkpt>
    <trkpt lat="42.633921" lon="-2.339529">
      <ele>1149.4</ele>
    </trkpt>
    <trkpt lat="42.63388" lon="-2.339597">
      <ele>1147.3</ele>
    </trkpt>
    <trkpt lat="42.633919" lon="-2.339703">
      <ele>1144.2</ele>
    </trkpt>
    <trkpt lat="42.633923" lon="-2.339712">
      <ele>1144</ele>
    </trkpt>
    <trkpt lat="42.63393" lon="-2.339793">
      <ele>1141.8</ele>
    </trkpt>
    <trkpt lat="42.63391" lon="-2.339851">
      <ele>1140.1</ele>
    </trkpt>
    <trkpt lat="42.633849" lon="-2.339873">
      <ele>1137.8</ele>
    </trkpt>
    <trkpt lat="42.633809" lon="-2.339826">
      <ele>1136</ele>
    </trkpt>
    <trkpt lat="42.633754" lon="-2.339932">
      <ele>1132.8</ele>
    </trkpt>
    <trkpt lat="42.63366" lon="-2.339983">
      <ele>1129.5</ele>
    </trkpt>
    <trkpt lat="42.633632" lon="-2.33994">
      <ele>1128.1</ele>
    </trkpt>
    <trkpt lat="42.63366" lon="-2.339879">
      <ele>1126.3</ele>
    </trkpt>
    <trkpt lat="42.633657" lon="-2.339809">
      <ele>1124.7</ele>
    </trkpt>
    <trkpt lat="42.633605" lon="-2.339821">
      <ele>1122.9</ele>
    </trkpt>
    <trkpt lat="42.633475" lon="-2.339923">
      <ele>1118</ele>
    </trkpt>
    <trkpt lat="42.633454" lon="-2.339837">
      <ele>1115.7</ele>
    </trkpt>
    <trkpt lat="42.633471" lon="-2.339752">
      <ele>1113.5</ele>
    </trkpt>
    <trkpt lat="42.63346" lon="-2.339615">
      <ele>1109.9</ele>
    </trkpt>
    <trkpt lat="42.633223" lon="-2.339714">
      <ele>1100.9</ele>
    </trkpt>
    <trkpt lat="42.633255" lon="-2.339581">
      <ele>1097.2</ele>
    </trkpt>
    <trkpt lat="42.633204" lon="-2.339046">
      <ele>1081.6</ele>
    </trkpt>
    <trkpt lat="42.6331" lon="-2.338951">
      <ele>1076.5</ele>
    </trkpt>
    <trkpt lat="42.632935" lon="-2.338562">
      <ele>1063.7</ele>
    </trkpt>
    <trkpt lat="42.632867" lon="-2.338478">
      <ele>1060.5</ele>
    </trkpt>
    <trkpt lat="42.632796" lon="-2.338302">
      <ele>1055.6</ele>
    </trkpt>
    <trkpt lat="42.632752" lon="-2.338234">
      <ele>1053.3</ele>
    </trkpt>
    <trkpt lat="42.632542" lon="-2.338164">
      <ele>1046.1</ele>
    </trkpt>
    <trkpt lat="42.63245" lon="-2.338076">
      <ele>1042.5</ele>
    </trkpt>
    <trkpt lat="42.632389" lon="-2.33814">
      <ele>1040.2</ele>
    </trkpt>
    <trkpt lat="42.632228" lon="-2.338586">
      <ele>1028.5</ele>
    </trkpt>
    <trkpt lat="42.63198" lon="-2.338817">
      <ele>1019.3</ele>
    </trkpt>
    <trkpt lat="42.631842" lon="-2.339008">
      <ele>1013.5</ele>
    </trkpt>
    <trkpt lat="42.631719" lon="-2.339077">
      <ele>1009.8</ele>
    </trkpt>
    <trkpt lat="42.631659" lon="-2.339042">
      <ele>1008.1</ele>
    </trkpt>
    <trkpt lat="42.63154" lon="-2.339073">
      <ele>1005</ele>
    </trkpt>
    <trkpt lat="42.63147" lon="-2.339021">
      <ele>1003</ele>
    </trkpt>
    <trkpt lat="42.63142" lon="-2.338844">
      <ele>999.5</ele>
    </trkpt>
    <trkpt lat="42.630773" lon="-2.338897">
      <ele>983</ele>
    </trkpt>
    <trkpt lat="42.630394" lon="-2.338862">
      <ele>972.9</ele>
    </trkpt>
    <trkpt lat="42.630207" lon="-2.338897">
      <ele>968.2</ele>
    </trkpt>
    <trkpt lat="42.629688" lon="-2.338799">
      <ele>955.4</ele>
    </trkpt>
    <trkpt lat="42.629233" lon="-2.338865">
      <ele>944.4</ele>
    </trkpt>
    <trkpt lat="42.628603" lon="-2.339117">
      <ele>928.8</ele>
    </trkpt>
    <trkpt lat="42.628034" lon="-2.339197">
      <ele>916.9</ele>
    </trkpt>
    <trkpt lat="42.627849" lon="-2.339168">
      <ele>913.5</ele>
    </trkpt>
    <trkpt lat="42.627707" lon="-2.339406">
      <ele>909.6</ele>
    </trkpt>
    <trkpt lat="42.627605" lon="-2.339771">
      <ele>905</ele>
    </trkpt>
    <trkpt lat="42.627517" lon="-2.339988">
      <ele>902.3</ele>
    </trkpt>
    <trkpt lat="42.627262" lon="-2.340229">
      <ele>897.6</ele>
    </trkpt>
    <trkpt lat="42.626899" lon="-2.340667">
      <ele>890.4</ele>
    </trkpt>
    <trkpt lat="42.626616" lon="-2.340732">
      <ele>885.8</ele>
    </trkpt>
    <trkpt lat="42.626231" lon="-2.340528">
      <ele>878.5</ele>
    </trkpt>
    <trkpt lat="42.626068" lon="-2.34039">
      <ele>874.9</ele>
    </trkpt>
    <trkpt lat="42.625873" lon="-2.340304">
      <ele>870.9</ele>
    </trkpt>
    <trkpt lat="42.625793" lon="-2.340168">
      <ele>868.3</ele>
    </trkpt>
    <trkpt lat="42.625786" lon="-2.340072">
      <ele>866.8</ele>
    </trkpt>
    <trkpt lat="42.625814" lon="-2.339942">
      <ele>864.6</ele>
    </trkpt>
    <trkpt lat="42.625938" lon="-2.339708">
      <ele>859.8</ele>
    </trkpt>
    <trkpt lat="42.625939" lon="-2.339641">
      <ele>858.7</ele>
    </trkpt>
    <trkpt lat="42.625904" lon="-2.339562">
      <ele>857.2</ele>
    </trkpt>
    <trkpt lat="42.62574" lon="-2.339384">
      <ele>852.7</ele>
    </trkpt>
    <trkpt lat="42.62566" lon="-2.33915">
      <ele>848.9</ele>
    </trkpt>
    <trkpt lat="42.625304" lon="-2.33894">
      <ele>841</ele>
    </trkpt>
    <trkpt lat="42.625171" lon="-2.338814">
      <ele>837.7</ele>
    </trkpt>
    <trkpt lat="42.625012" lon="-2.338597">
      <ele>833</ele>
    </trkpt>
    <trkpt lat="42.624909" lon="-2.338404">
      <ele>829.3</ele>
    </trkpt>
    <trkpt lat="42.624623" lon="-2.33816">
      <ele>822.1</ele>
    </trkpt>
    <trkpt lat="42.624443" lon="-2.337899">
      <ele>816.7</ele>
    </trkpt>
    <trkpt lat="42.624285" lon="-2.33771">
      <ele>812.8</ele>
    </trkpt>
    <trkpt lat="42.624057" lon="-2.337452">
      <ele>807.8</ele>
    </trkpt>
    <trkpt lat="42.623914" lon="-2.337342">
      <ele>805.3</ele>
    </trkpt>
    <trkpt lat="42.623743" lon="-2.337065">
      <ele>801.4</ele>
    </trkpt>
    <trkpt lat="42.623694" lon="-2.337032">
      <ele>800.7</ele>
    </trkpt>
    <trkpt lat="42.623671" lon="-2.336916">
      <ele>799.6</ele>
    </trkpt>
    <trkpt lat="42.623584" lon="-2.33684">
      <ele>798.3</ele>
    </trkpt>
    <trkpt lat="42.623685" lon="-2.336657">
      <ele>796.5</ele>
    </trkpt>
    <trkpt lat="42.624017" lon="-2.336355">
      <ele>793.2</ele>
    </trkpt>
    <trkpt lat="42.624601" lon="-2.335359">
      <ele>796.9</ele>
    </trkpt>
    <trkpt lat="42.624622" lon="-2.335287">
      <ele>797.4</ele>
    </trkpt>
    <trkpt lat="42.624703" lon="-2.335262">
      <ele>798.4</ele>
    </trkpt>
    <trkpt lat="42.624808" lon="-2.335151">
      <ele>800</ele>
    </trkpt>
    <trkpt lat="42.625099" lon="-2.335173">
      <ele>803.9</ele>
    </trkpt>
    <trkpt lat="42.62556" lon="-2.335208">
      <ele>809.6</ele>
    </trkpt>
    <trkpt lat="42.625872" lon="-2.335191">
      <ele>813.4</ele>
    </trkpt>
    <trkpt lat="42.626006" lon="-2.335022">
      <ele>815.2</ele>
    </trkpt>
    <trkpt lat="42.626012" lon="-2.33489">
      <ele>816</ele>
    </trkpt>
    <trkpt lat="42.625775" lon="-2.334584">
      <ele>818.6</ele>
    </trkpt>
    <trkpt lat="42.625558" lon="-2.334198">
      <ele>821</ele>
    </trkpt>
    <trkpt lat="42.625499" lon="-2.333994">
      <ele>821.9</ele>
    </trkpt>
    <trkpt lat="42.625515" lon="-2.333726">
      <ele>822.7</ele>
    </trkpt>
    <trkpt lat="42.625578" lon="-2.333538">
      <ele>823.4</ele>
    </trkpt>
    <trkpt lat="42.625779" lon="-2.333152">
      <ele>825.9</ele>
    </trkpt>
    <trkpt lat="42.62585" lon="-2.332932">
      <ele>827.7</ele>
    </trkpt>
    <trkpt lat="42.625846" lon="-2.332765">
      <ele>829.2</ele>
    </trkpt>
    <trkpt lat="42.625874" lon="-2.332637">
      <ele>830.4</ele>
    </trkpt>
    <trkpt lat="42.625862" lon="-2.332529">
      <ele>831.5</ele>
    </trkpt>
    <trkpt lat="42.625974" lon="-2.33221">
      <ele>835.4</ele>
    </trkpt>
    <trkpt lat="42.626053" lon="-2.332226">
      <ele>836.6</ele>
    </trkpt>
    <trkpt lat="42.626216" lon="-2.332332">
      <ele>839.5</ele>
    </trkpt>
    <trkpt lat="42.626435" lon="-2.332283">
      <ele>843.4</ele>
    </trkpt>
    <trkpt lat="42.627043" lon="-2.331766">
      <ele>858.2</ele>
    </trkpt>
    <trkpt lat="42.627141" lon="-2.331634">
      <ele>861.1</ele>
    </trkpt>
    <trkpt lat="42.627418" lon="-2.331384">
      <ele>868.1</ele>
    </trkpt>
    <trkpt lat="42.627546" lon="-2.331016">
      <ele>873.6</ele>
    </trkpt>
    <trkpt lat="42.627554" lon="-2.33085">
      <ele>875.3</ele>
    </trkpt>
    <trkpt lat="42.627558" lon="-2.330329">
      <ele>879.8</ele>
    </trkpt>
    <trkpt lat="42.627544" lon="-2.330278">
      <ele>880.2</ele>
    </trkpt>
    <trkpt lat="42.62743" lon="-2.329879">
      <ele>882.6</ele>
    </trkpt>
    <trkpt lat="42.627385" lon="-2.329798">
      <ele>883</ele>
    </trkpt>
    <trkpt lat="42.627132" lon="-2.329551">
      <ele>884</ele>
    </trkpt>
    <trkpt lat="42.627006" lon="-2.329353">
      <ele>884.6</ele>
    </trkpt>
    <trkpt lat="42.626966" lon="-2.329219">
      <ele>884.9</ele>
    </trkpt>
    <trkpt lat="42.627025" lon="-2.328908">
      <ele>885.5</ele>
    </trkpt>
    <trkpt lat="42.627021" lon="-2.328521">
      <ele>886.3</ele>
    </trkpt>
    <trkpt lat="42.627112" lon="-2.32791">
      <ele>888.8</ele>
    </trkpt>
    <trkpt lat="42.627018" lon="-2.327025">
      <ele>892.7</ele>
    </trkpt>
    <trkpt lat="42.626974" lon="-2.326907">
      <ele>893.1</ele>
    </trkpt>
    <trkpt lat="42.626832" lon="-2.326687">
      <ele>893.9</ele>
    </trkpt>
    <trkpt lat="42.626429" lon="-2.326193">
      <ele>895.1</ele>
    </trkpt>
    <trkpt lat="42.626327" lon="-2.325845">
      <ele>895.4</ele>
    </trkpt>
    <trkpt lat="42.62622" lon="-2.325721">
      <ele>895.6</ele>
    </trkpt>
    <trkpt lat="42.625833" lon="-2.325206">
      <ele>897</ele>
    </trkpt>
    <trkpt lat="42.625711" lon="-2.325002">
      <ele>898</ele>
    </trkpt>
    <trkpt lat="42.625685" lon="-2.324868">
      <ele>898.7</ele>
    </trkpt>
    <trkpt lat="42.62566" lon="-2.324734">
      <ele>899.4</ele>
    </trkpt>
    <trkpt lat="42.625683" lon="-2.323994">
      <ele>904.9</ele>
    </trkpt>
    <trkpt lat="42.625822" lon="-2.323388">
      <ele>910.7</ele>
    </trkpt>
    <trkpt lat="42.625865" lon="-2.32291">
      <ele>915.3</ele>
    </trkpt>
    <trkpt lat="42.625912" lon="-2.322722">
      <ele>917.1</ele>
    </trkpt>
    <trkpt lat="42.626062" lon="-2.322417">
      <ele>920.2</ele>
    </trkpt>
    <trkpt lat="42.626208" lon="-2.32188">
      <ele>924</ele>
    </trkpt>
    <trkpt lat="42.626212" lon="-2.321489">
      <ele>925.8</ele>
    </trkpt>
    <trkpt lat="42.626185" lon="-2.321355">
      <ele>926.4</ele>
    </trkpt>
    <trkpt lat="42.626015" lon="-2.320952">
      <ele>927.6</ele>
    </trkpt>
    <trkpt lat="42.62596" lon="-2.320743">
      <ele>927.8</ele>
    </trkpt>
    <trkpt lat="42.626007" lon="-2.320276">
      <ele>927.7</ele>
    </trkpt>
    <trkpt lat="42.625964" lon="-2.319901">
      <ele>927.6</ele>
    </trkpt>
    <trkpt lat="42.625968" lon="-2.319477">
      <ele>929.3</ele>
    </trkpt>
    <trkpt lat="42.625988" lon="-2.319333">
      <ele>930.4</ele>
    </trkpt>
    <trkpt lat="42.626" lon="-2.319086">
      <ele>932.4</ele>
    </trkpt>
    <trkpt lat="42.626067" lon="-2.31868">
      <ele>937</ele>
    </trkpt>
    <trkpt lat="42.626391" lon="-2.318763">
      <ele>943</ele>
    </trkpt>
    <trkpt lat="42.626551" lon="-2.318951">
      <ele>947.5</ele>
    </trkpt>
    <trkpt lat="42.626657" lon="-2.318937">
      <ele>950</ele>
    </trkpt>
    <trkpt lat="42.626865" lon="-2.319302">
      <ele>959.4</ele>
    </trkpt>
    <trkpt lat="42.626829" lon="-2.319433">
      <ele>962.7</ele>
    </trkpt>
    <trkpt lat="42.62683" lon="-2.31947">
      <ele>963.7</ele>
    </trkpt>
    <trkpt lat="42.626831" lon="-2.319567">
      <ele>966.3</ele>
    </trkpt>
    <trkpt lat="42.627064" lon="-2.320125">
      <ele>983.6</ele>
    </trkpt>
    <trkpt lat="42.627131" lon="-2.320184">
      <ele>986.6</ele>
    </trkpt>
    <trkpt lat="42.62719" lon="-2.320367">
      <ele>992</ele>
    </trkpt>
    <trkpt lat="42.627338" lon="-2.320463">
      <ele>998</ele>
    </trkpt>
    <trkpt lat="42.627401" lon="-2.320458">
      <ele>1000.3</ele>
    </trkpt>
    <trkpt lat="42.627658" lon="-2.320823">
      <ele>1013.2</ele>
    </trkpt>
    <trkpt lat="42.627944" lon="-2.321064">
      <ele>1024.8</ele>
    </trkpt>
    <trkpt lat="42.628033" lon="-2.321048">
      <ele>1027.7</ele>
    </trkpt>
    <trkpt lat="42.628072" lon="-2.321072">
      <ele>1029.2</ele>
    </trkpt>
    <trkpt lat="42.628133" lon="-2.321094">
      <ele>1031.2</ele>
    </trkpt>
    <trkpt lat="42.628167" lon="-2.321061">
      <ele>1032.5</ele>
    </trkpt>
    <trkpt lat="42.628319" lon="-2.321035">
      <ele>1037.2</ele>
    </trkpt>
    <trkpt lat="42.628323" lon="-2.320973">
      <ele>1038.6</ele>
    </trkpt>
    <trkpt lat="42.628408" lon="-2.320827">
      <ele>1042.5</ele>
    </trkpt>
    <trkpt lat="42.628439" lon="-2.320839">
      <ele>1043.4</ele>
    </trkpt>
    <trkpt lat="42.628518" lon="-2.320984">
      <ele>1046.8</ele>
    </trkpt>
    <trkpt lat="42.628615" lon="-2.321217">
      <ele>1051.3</ele>
    </trkpt>
    <trkpt lat="42.628692" lon="-2.321303">
      <ele>1053.3</ele>
    </trkpt>
    <trkpt lat="42.628791" lon="-2.321343">
      <ele>1055.2</ele>
    </trkpt>
    <trkpt lat="42.628812" lon="-2.321491">
      <ele>1057.1</ele>
    </trkpt>
    <trkpt lat="42.628901" lon="-2.321611">
      <ele>1059.2</ele>
    </trkpt>
    <trkpt lat="42.629049" lon="-2.321713">
      <ele>1061.7</ele>
    </trkpt>
    <trkpt lat="42.629085" lon="-2.321917">
      <ele>1064.1</ele>
    </trkpt>
    <trkpt lat="42.629144" lon="-2.321965">
      <ele>1065.2</ele>
    </trkpt>
    <trkpt lat="42.629345" lon="-2.322405">
      <ele>1070.8</ele>
    </trkpt>
    <trkpt lat="42.629349" lon="-2.322459">
      <ele>1071.3</ele>
    </trkpt>
    <trkpt lat="42.629513" lon="-2.32266">
      <ele>1074.4</ele>
    </trkpt>
    <trkpt lat="42.629633" lon="-2.322883">
      <ele>1077.2</ele>
    </trkpt>
    <trkpt lat="42.62976" lon="-2.323285">
      <ele>1081.7</ele>
    </trkpt>
    <trkpt lat="42.629876" lon="-2.323459">
      <ele>1084.3</ele>
    </trkpt>
    <trkpt lat="42.630294" lon="-2.32373">
      <ele>1091.7</ele>
    </trkpt>
    <trkpt lat="42.63046" lon="-2.323894">
      <ele>1095.4</ele>
    </trkpt>
    <trkpt lat="42.630804" lon="-2.324028">
      <ele>1102.1</ele>
    </trkpt>
    <trkpt lat="42.631027" lon="-2.324235">
      <ele>1107.6</ele>
    </trkpt>
    <trkpt lat="42.631123" lon="-2.324441">
      <ele>1111.3</ele>
    </trkpt>
    <trkpt lat="42.631283" lon="-2.324921">
      <ele>1119.7</ele>
    </trkpt>
    <trkpt lat="42.631435" lon="-2.325152">
      <ele>1124.6</ele>
    </trkpt>
    <trkpt lat="42.631473" lon="-2.325286">
      <ele>1126.9</ele>
    </trkpt>
    <trkpt lat="42.631632" lon="-2.325519">
      <ele>1131.9</ele>
    </trkpt>
    <trkpt lat="42.631893" lon="-2.326069">
      <ele>1142</ele>
    </trkpt>
    <trkpt lat="42.632185" lon="-2.326909">
      <ele>1157</ele>
    </trkpt>
    <trkpt lat="42.632331" lon="-2.327172">
      <ele>1162.6</ele>
    </trkpt>
    <trkpt lat="42.632613" lon="-2.327536">
      <ele>1172.2</ele>
    </trkpt>
    <trkpt lat="42.632686" lon="-2.3277">
      <ele>1175.8</ele>
    </trkpt>
    <trkpt lat="42.633006" lon="-2.328118">
      <ele>1188.2</ele>
    </trkpt>
    <trkpt lat="42.633187" lon="-2.328427">
      <ele>1197.4</ele>
    </trkpt>
    <trkpt lat="42.633213" lon="-2.328545">
      <ele>1200.3</ele>
    </trkpt>
    <trkpt lat="42.633211" lon="-2.328719">
      <ele>1204.6</ele>
    </trkpt>
    <trkpt lat="42.633369" lon="-2.32881">
      <ele>1210.4</ele>
    </trkpt>
    <trkpt lat="42.63345" lon="-2.328891">
      <ele>1213.8</ele>
    </trkpt>
    <trkpt lat="42.633556" lon="-2.329047">
      <ele>1219.4</ele>
    </trkpt>
    <trkpt lat="42.633584" lon="-2.329041">
      <ele>1220.4</ele>
    </trkpt>
    <trkpt lat="42.633789" lon="-2.329315">
      <ele>1231</ele>
    </trkpt>
    <trkpt lat="42.633908" lon="-2.329422">
      <ele>1236.3</ele>
    </trkpt>
    <trkpt lat="42.634342" lon="-2.330111">
      <ele>1261</ele>
    </trkpt>
    <trkpt lat="42.634425" lon="-2.330189">
      <ele>1264.6</ele>
    </trkpt>
    <trkpt lat="42.634533" lon="-2.33024">
      <ele>1268.5</ele>
    </trkpt>
    <trkpt lat="42.634691" lon="-2.330237">
      <ele>1273.7</ele>
    </trkpt>
    <trkpt lat="42.634979" lon="-2.330476">
      <ele>1283.8</ele>
    </trkpt>
    <trkpt lat="42.635149" lon="-2.330457">
      <ele>1288.2</ele>
    </trkpt>
    <trkpt lat="42.635261" lon="-2.330495">
      <ele>1290.9</ele>
    </trkpt>
    <trkpt lat="42.635358" lon="-2.330599">
      <ele>1293.6</ele>
    </trkpt>
    <trkpt lat="42.635455" lon="-2.330632">
      <ele>1295.5</ele>
    </trkpt>
    <trkpt lat="42.635463" lon="-2.330854">
      <ele>1298.3</ele>
    </trkpt>
    <trkpt lat="42.635435" lon="-2.331023">
      <ele>1300.2</ele>
    </trkpt>
    <trkpt lat="42.635431" lon="-2.331277">
      <ele>1302.6</ele>
    </trkpt>
    <trkpt lat="42.635419" lon="-2.331503">
      <ele>1304.3</ele>
    </trkpt>
    <trkpt lat="42.635344" lon="-2.332045">
      <ele>1306.3</ele>
    </trkpt>
    <trkpt lat="42.635342" lon="-2.332114">
      <ele>1306.4</ele>
    </trkpt>
    <trkpt lat="42.635344" lon="-2.332045">
      <ele>1306.3</ele>
    </trkpt>
    <trkpt lat="42.635419" lon="-2.331503">
      <ele>1304.3</ele>
    </trkpt>
    <trkpt lat="42.635431" lon="-2.331277">
      <ele>1302.6</ele>
    </trkpt>
    <trkpt lat="42.635435" lon="-2.331023">
      <ele>1300.2</ele>
    </trkpt>
    <trkpt lat="42.635463" lon="-2.330854">
      <ele>1298.3</ele>
    </trkpt>
    <trkpt lat="42.635455" lon="-2.330632">
      <ele>1295.5</ele>
    </trkpt>
    <trkpt lat="42.635358" lon="-2.330599">
      <ele>1293.6</ele>
    </trkpt>
    <trkpt lat="42.635261" lon="-2.330495">
      <ele>1290.9</ele>
    </trkpt>
    <trkpt lat="42.635149" lon="-2.330457">
      <ele>1288.2</ele>
    </trkpt>
    <trkpt lat="42.634979" lon="-2.330476">
      <ele>1283.8</ele>
    </trkpt>
    <trkpt lat="42.634691" lon="-2.330237">
      <ele>1273.7</ele>
    </trkpt>
    <trkpt lat="42.634533" lon="-2.33024">
      <ele>1268.5</ele>
    </trkpt>
    <trkpt lat="42.634425" lon="-2.330189">
      <ele>1264.6</ele>
    </trkpt>
    <trkpt lat="42.634342" lon="-2.330111">
      <ele>1261</ele>
    </trkpt>
    <trkpt lat="42.633908" lon="-2.329422">
      <ele>1236.3</ele>
    </trkpt>
    <trkpt lat="42.633789" lon="-2.329315">
      <ele>1231</ele>
    </trkpt>
    <trkpt lat="42.633584" lon="-2.329041">
      <ele>1220.4</ele>
    </trkpt>
    <trkpt lat="42.633556" lon="-2.329047">
      <ele>1219.4</ele>
    </trkpt>
    <trkpt lat="42.63345" lon="-2.328891">
      <ele>1213.8</ele>
    </trkpt>
    <trkpt lat="42.633369" lon="-2.32881">
      <ele>1210.4</ele>
    </trkpt>
    <trkpt lat="42.633211" lon="-2.328719">
      <ele>1204.6</ele>
    </trkpt>
    <trkpt lat="42.633213" lon="-2.328545">
      <ele>1200.3</ele>
    </trkpt>
    <trkpt lat="42.633187" lon="-2.328427">
      <ele>1197.4</ele>
    </trkpt>
    <trkpt lat="42.633006" lon="-2.328118">
      <ele>1188.2</ele>
    </trkpt>
    <trkpt lat="42.632686" lon="-2.3277">
      <ele>1175.8</ele>
    </trkpt>
    <trkpt lat="42.632613" lon="-2.327536">
      <ele>1172.2</ele>
    </trkpt>
    <trkpt lat="42.632331" lon="-2.327172">
      <ele>1162.6</ele>
    </trkpt>
    <trkpt lat="42.632185" lon="-2.326909">
      <ele>1157</ele>
    </trkpt>
    <trkpt lat="42.631893" lon="-2.326069">
      <ele>1142</ele>
    </trkpt>
    <trkpt lat="42.631632" lon="-2.325519">
      <ele>1131.9</ele>
    </trkpt>
    <trkpt lat="42.631473" lon="-2.325286">
      <ele>1126.9</ele>
    </trkpt>
    <trkpt lat="42.631435" lon="-2.325152">
      <ele>1124.6</ele>
    </trkpt>
    <trkpt lat="42.631283" lon="-2.324921">
      <ele>1119.7</ele>
    </trkpt>
    <trkpt lat="42.631123" lon="-2.324441">
      <ele>1111.3</ele>
    </trkpt>
    <trkpt lat="42.631027" lon="-2.324235">
      <ele>1107.6</ele>
    </trkpt>
    <trkpt lat="42.630804" lon="-2.324028">
      <ele>1102.1</ele>
    </trkpt>
    <trkpt lat="42.63046" lon="-2.323894">
      <ele>1095.4</ele>
    </trkpt>
    <trkpt lat="42.630294" lon="-2.32373">
      <ele>1091.7</ele>
    </trkpt>
    <trkpt lat="42.629876" lon="-2.323459">
      <ele>1084.3</ele>
    </trkpt>
    <trkpt lat="42.62976" lon="-2.323285">
      <ele>1081.7</ele>
    </trkpt>
    <trkpt lat="42.629633" lon="-2.322883">
      <ele>1077.2</ele>
    </trkpt>
    <trkpt lat="42.629513" lon="-2.32266">
      <ele>1074.4</ele>
    </trkpt>
    <trkpt lat="42.629349" lon="-2.322459">
      <ele>1071.3</ele>
    </trkpt>
    <trkpt lat="42.629345" lon="-2.322405">
      <ele>1070.8</ele>
    </trkpt>
    <trkpt lat="42.629144" lon="-2.321965">
      <ele>1065.2</ele>
    </trkpt>
    <trkpt lat="42.629085" lon="-2.321917">
      <ele>1064.1</ele>
    </trkpt>
    <trkpt lat="42.629049" lon="-2.321713">
      <ele>1061.7</ele>
    </trkpt>
    <trkpt lat="42.628901" lon="-2.321611">
      <ele>1059.2</ele>
    </trkpt>
    <trkpt lat="42.628812" lon="-2.321491">
      <ele>1057.1</ele>
    </trkpt>
    <trkpt lat="42.628791" lon="-2.321343">
      <ele>1055.2</ele>
    </trkpt>
    <trkpt lat="42.628692" lon="-2.321303">
      <ele>1053.3</ele>
    </trkpt>
    <trkpt lat="42.628615" lon="-2.321217">
      <ele>1051.3</ele>
    </trkpt>
    <trkpt lat="42.628518" lon="-2.320984">
      <ele>1046.8</ele>
    </trkpt>
    <trkpt lat="42.628439" lon="-2.320839">
      <ele>1043.4</ele>
    </trkpt>
    <trkpt lat="42.628408" lon="-2.320827">
      <ele>1042.5</ele>
    </trkpt>
    <trkpt lat="42.628323" lon="-2.320973">
      <ele>1038.6</ele>
    </trkpt>
    <trkpt lat="42.628319" lon="-2.321035">
      <ele>1037.2</ele>
    </trkpt>
    <trkpt lat="42.628167" lon="-2.321061">
      <ele>1032.5</ele>
    </trkpt>
    <trkpt lat="42.628133" lon="-2.321094">
      <ele>1031.2</ele>
    </trkpt>
    <trkpt lat="42.628072" lon="-2.321072">
      <ele>1029.2</ele>
    </trkpt>
    <trkpt lat="42.628033" lon="-2.321048">
      <ele>1027.7</ele>
    </trkpt>
    <trkpt lat="42.627944" lon="-2.321064">
      <ele>1024.8</ele>
    </trkpt>
    <trkpt lat="42.627658" lon="-2.320823">
      <ele>1013.2</ele>
    </trkpt>
    <trkpt lat="42.627401" lon="-2.320458">
      <ele>1000.3</ele>
    </trkpt>
    <trkpt lat="42.627338" lon="-2.320463">
      <ele>998</ele>
    </trkpt>
    <trkpt lat="42.62719" lon="-2.320367">
      <ele>992</ele>
    </trkpt>
    <trkpt lat="42.627131" lon="-2.320184">
      <ele>986.6</ele>
    </trkpt>
    <trkpt lat="42.627064" lon="-2.320125">
      <ele>983.6</ele>
    </trkpt>
    <trkpt lat="42.626831" lon="-2.319567">
      <ele>966.3</ele>
    </trkpt>
    <trkpt lat="42.62683" lon="-2.31947">
      <ele>963.7</ele>
    </trkpt>
    <trkpt lat="42.626829" lon="-2.319433">
      <ele>962.7</ele>
    </trkpt>
    <trkpt lat="42.626865" lon="-2.319302">
      <ele>959.4</ele>
    </trkpt>
    <trkpt lat="42.626657" lon="-2.318937">
      <ele>950</ele>
    </trkpt>
    <trkpt lat="42.626551" lon="-2.318951">
      <ele>947.5</ele>
    </trkpt>
    <trkpt lat="42.626391" lon="-2.318763">
      <ele>943</ele>
    </trkpt>
    <trkpt lat="42.626067" lon="-2.31868">
      <ele>937</ele>
    </trkpt>
    <trkpt lat="42.626" lon="-2.319086">
      <ele>932.4</ele>
    </trkpt>
    <trkpt lat="42.625988" lon="-2.319333">
      <ele>930.4</ele>
    </trkpt>
    <trkpt lat="42.625968" lon="-2.319477">
      <ele>929.3</ele>
    </trkpt>
    <trkpt lat="42.625964" lon="-2.319901">
      <ele>927.6</ele>
    </trkpt>
    <trkpt lat="42.626007" lon="-2.320276">
      <ele>927.7</ele>
    </trkpt>
    <trkpt lat="42.62596" lon="-2.320743">
      <ele>927.8</ele>
    </trkpt>
    <trkpt lat="42.626015" lon="-2.320952">
      <ele>927.6</ele>
    </trkpt>
    <trkpt lat="42.626185" lon="-2.321355">
      <ele>926.4</ele>
    </trkpt>
    <trkpt lat="42.626212" lon="-2.321489">
      <ele>925.8</ele>
    </trkpt>
    <trkpt lat="42.626208" lon="-2.32188">
      <ele>924</ele>
    </trkpt>
    <trkpt lat="42.626062" lon="-2.322417">
      <ele>920.2</ele>
    </trkpt>
    <trkpt lat="42.625912" lon="-2.322722">
      <ele>917.1</ele>
    </trkpt>
    <trkpt lat="42.625865" lon="-2.32291">
      <ele>915.3</ele>
    </trkpt>
    <trkpt lat="42.625822" lon="-2.323388">
      <ele>910.7</ele>
    </trkpt>
    <trkpt lat="42.625683" lon="-2.323994">
      <ele>904.9</ele>
    </trkpt>
    <trkpt lat="42.62566" lon="-2.324734">
      <ele>899.2</ele>
    </trkpt>
    <trkpt lat="42.625685" lon="-2.324868">
      <ele>898.1</ele>
    </trkpt>
    <trkpt lat="42.625711" lon="-2.325002">
      <ele>897.1</ele>
    </trkpt>
    <trkpt lat="42.625833" lon="-2.325206">
      <ele>895</ele>
    </trkpt>
    <trkpt lat="42.62622" lon="-2.325721">
      <ele>889</ele>
    </trkpt>
    <trkpt lat="42.626121" lon="-2.32655">
      <ele>881.5</ele>
    </trkpt>
    <trkpt lat="42.626137" lon="-2.326738">
      <ele>879.5</ele>
    </trkpt>
    <trkpt lat="42.626189" lon="-2.326975">
      <ele>876.7</ele>
    </trkpt>
    <trkpt lat="42.626197" lon="-2.327148">
      <ele>874.8</ele>
    </trkpt>
    <trkpt lat="42.626171" lon="-2.327244">
      <ele>873.6</ele>
    </trkpt>
    <trkpt lat="42.626095" lon="-2.32734">
      <ele>872</ele>
    </trkpt>
    <trkpt lat="42.626056" lon="-2.32746">
      <ele>870.5</ele>
    </trkpt>
    <trkpt lat="42.626022" lon="-2.327885">
      <ele>865.9</ele>
    </trkpt>
    <trkpt lat="42.625978" lon="-2.328037">
      <ele>864.3</ele>
    </trkpt>
    <trkpt lat="42.625923" lon="-2.328104">
      <ele>863.3</ele>
    </trkpt>
    <trkpt lat="42.62617" lon="-2.328372">
      <ele>859.3</ele>
    </trkpt>
    <trkpt lat="42.626213" lon="-2.328651">
      <ele>856.8</ele>
    </trkpt>
    <trkpt lat="42.625866" lon="-2.330389">
      <ele>843.6</ele>
    </trkpt>
    <trkpt lat="42.625921" lon="-2.330641">
      <ele>842</ele>
    </trkpt>
    <trkpt lat="42.626134" lon="-2.331317">
      <ele>837</ele>
    </trkpt>
    <trkpt lat="42.62617" lon="-2.331526">
      <ele>835.1</ele>
    </trkpt>
    <trkpt lat="42.62613" lon="-2.331789">
      <ele>832.4</ele>
    </trkpt>
    <trkpt lat="42.626013" lon="-2.332104">
      <ele>828.7</ele>
    </trkpt>
    <trkpt lat="42.625884" lon="-2.332185">
      <ele>826.7</ele>
    </trkpt>
    <trkpt lat="42.625397" lon="-2.332372">
      <ele>819.1</ele>
    </trkpt>
    <trkpt lat="42.625205" lon="-2.332316">
      <ele>816</ele>
    </trkpt>
    <trkpt lat="42.624974" lon="-2.332145">
      <ele>811.7</ele>
    </trkpt>
    <trkpt lat="42.624969" lon="-2.332105">
      <ele>811.2</ele>
    </trkpt>
    <trkpt lat="42.624916" lon="-2.332049">
      <ele>810</ele>
    </trkpt>
    <trkpt lat="42.624848" lon="-2.332122">
      <ele>808.5</ele>
    </trkpt>
    <trkpt lat="42.624755" lon="-2.332342">
      <ele>805.4</ele>
    </trkpt>
    <trkpt lat="42.624747" lon="-2.33243">
      <ele>804.4</ele>
    </trkpt>
    <trkpt lat="42.624814" lon="-2.332905">
      <ele>799.2</ele>
    </trkpt>
    <trkpt lat="42.624779" lon="-2.333136">
      <ele>797.2</ele>
    </trkpt>
    <trkpt lat="42.62441" lon="-2.333986">
      <ele>790.6</ele>
    </trkpt>
    <trkpt lat="42.624392" lon="-2.334074">
      <ele>790</ele>
    </trkpt>
    <trkpt lat="42.624411" lon="-2.334225">
      <ele>789</ele>
    </trkpt>
    <trkpt lat="42.624561" lon="-2.334586">
      <ele>786.4</ele>
    </trkpt>
    <trkpt lat="42.62458" lon="-2.334817">
      <ele>785.1</ele>
    </trkpt>
    <trkpt lat="42.624534" lon="-2.334954">
      <ele>784.2</ele>
    </trkpt>
    <trkpt lat="42.624204" lon="-2.335297">
      <ele>781.4</ele>
    </trkpt>
    <trkpt lat="42.624078" lon="-2.335367">
      <ele>781</ele>
    </trkpt>
    <trkpt lat="42.623559" lon="-2.335475">
      <ele>780.4</ele>
    </trkpt>
    <trkpt lat="42.623424" lon="-2.335534">
      <ele>780.5</ele>
    </trkpt>
    <trkpt lat="42.623419" lon="-2.335538">
      <ele>780.5</ele>
    </trkpt>
    <trkpt lat="42.62328" lon="-2.335641">
      <ele>780.8</ele>
    </trkpt>
    <trkpt lat="42.623504" lon="-2.336344">
      <ele>783.2</ele>
    </trkpt>
    <trkpt lat="42.623535" lon="-2.336515">
      <ele>784</ele>
    </trkpt>
    <trkpt lat="42.623524" lon="-2.336677">
      <ele>784.9</ele>
    </trkpt>
    <trkpt lat="42.623436" lon="-2.337013">
      <ele>786.9</ele>
    </trkpt>
    <trkpt lat="42.623365" lon="-2.337269">
      <ele>788.6</ele>
    </trkpt>
    <trkpt lat="42.623196" lon="-2.33823">
      <ele>790.9</ele>
    </trkpt>
    <trkpt lat="42.623024" lon="-2.338723">
      <ele>790.7</ele>
    </trkpt>
    <trkpt lat="42.622988" lon="-2.338802">
      <ele>790.7</ele>
    </trkpt>
    <trkpt lat="42.622909" lon="-2.338778">
      <ele>790.5</ele>
    </trkpt>
    <trkpt lat="42.62287" lon="-2.338726">
      <ele>790.5</ele>
    </trkpt>
    <trkpt lat="42.622787" lon="-2.338499">
      <ele>790.2</ele>
    </trkpt>
    <trkpt lat="42.622763" lon="-2.338248">
      <ele>789.9</ele>
    </trkpt>
    <trkpt lat="42.622783" lon="-2.338021">
      <ele>789.5</ele>
    </trkpt>
    <trkpt lat="42.622891" lon="-2.337784">
      <ele>789.1</ele>
    </trkpt>
    <trkpt lat="42.623018" lon="-2.337636">
      <ele>788.8</ele>
    </trkpt>
    <trkpt lat="42.622955" lon="-2.337569">
      <ele>788.7</ele>
    </trkpt>
    <trkpt lat="42.623128" lon="-2.337396">
      <ele>788.5</ele>
    </trkpt>
    </trkseg>
  </trk>
</gpx>
