<?xml version="1.0" encoding="UTF-8"?>
<gpx version="1.1" creator="fitAI Komoot downloader" xmlns="http://www.topografix.com/GPX/1/1">
  <metadata>
    <name>Circuito de las Roscas – circular desde Fitero por Camino del Soto</name>
    <desc>48 visitas · Dificultad: moderate · Distancia: 8.7 km · Desnivel +: 144 m</desc>
    <link href="https://www.komoot.com/smarttour/e968786714"><text>Komoot</text></link>
  </metadata>
  <trk>
    <name>Circuito de las Roscas – circular desde Fitero por Camino del Soto</name>
    <type>hike</type>
    <trkseg>
    <trkpt lat="42.055686" lon="-1.862004">
      <ele>420.2</ele>
    </trkpt>
    <trkpt lat="42.055518" lon="-1.861954">
      <ele>420.1</ele>
    </trkpt>
    <trkpt lat="42.055494" lon="-1.862183">
      <ele>420</ele>
    </trkpt>
    <trkpt lat="42.055149" lon="-1.862305">
      <ele>419.8</ele>
    </trkpt>
    <trkpt lat="42.055242" lon="-1.862584">
      <ele>419.8</ele>
    </trkpt>
    <trkpt lat="42.054844" lon="-1.862718">
      <ele>419.7</ele>
    </trkpt>
    <trkpt lat="42.054725" lon="-1.86274">
      <ele>419.6</ele>
    </trkpt>
    <trkpt lat="42.054676" lon="-1.862724">
      <ele>419.6</ele>
    </trkpt>
    <trkpt lat="42.05463" lon="-1.862789">
      <ele>419.6</ele>
    </trkpt>
    <trkpt lat="42.053907" lon="-1.863072">
      <ele>419.8</ele>
    </trkpt>
    <trkpt lat="42.052898" lon="-1.864129">
      <ele>420.7</ele>
    </trkpt>
    <trkpt lat="42.052846" lon="-1.865057">
      <ele>421.2</ele>
    </trkpt>
    <trkpt lat="42.052403" lon="-1.866146">
      <ele>421.6</ele>
    </trkpt>
    <trkpt lat="42.052343" lon="-1.866413">
      <ele>421.7</ele>
    </trkpt>
    <trkpt lat="42.052354" lon="-1.866991">
      <ele>421.9</ele>
    </trkpt>
    <trkpt lat="42.05243" lon="-1.867417">
      <ele>422</ele>
    </trkpt>
    <trkpt lat="42.052451" lon="-1.867922">
      <ele>422.3</ele>
    </trkpt>
    <trkpt lat="42.052551" lon="-1.868697">
      <ele>423.1</ele>
    </trkpt>
    <trkpt lat="42.052712" lon="-1.869338">
      <ele>423.7</ele>
    </trkpt>
    <trkpt lat="42.052717" lon="-1.869876">
      <ele>424.3</ele>
    </trkpt>
    <trkpt lat="42.052596" lon="-1.870178">
      <ele>424.7</ele>
    </trkpt>
    <trkpt lat="42.052272" lon="-1.871322">
      <ele>426</ele>
    </trkpt>
    <trkpt lat="42.052387" lon="-1.871945">
      <ele>426.8</ele>
    </trkpt>
    <trkpt lat="42.052367" lon="-1.872028">
      <ele>426.9</ele>
    </trkpt>
    <trkpt lat="42.052111" lon="-1.872273">
      <ele>427.3</ele>
    </trkpt>
    <trkpt lat="42.05193" lon="-1.87259">
      <ele>427.8</ele>
    </trkpt>
    <trkpt lat="42.051834" lon="-1.872971">
      <ele>428.2</ele>
    </trkpt>
    <trkpt lat="42.051184" lon="-1.873838">
      <ele>430.2</ele>
    </trkpt>
    <trkpt lat="42.051147" lon="-1.874369">
      <ele>431.3</ele>
    </trkpt>
    <trkpt lat="42.051288" lon="-1.875232">
      <ele>433.6</ele>
    </trkpt>
    <trkpt lat="42.051293" lon="-1.875596">
      <ele>434.6</ele>
    </trkpt>
    <trkpt lat="42.051178" lon="-1.876009">
      <ele>435.7</ele>
    </trkpt>
    <trkpt lat="42.050902" lon="-1.876474">
      <ele>437.5</ele>
    </trkpt>
    <trkpt lat="42.050781" lon="-1.877061">
      <ele>439.8</ele>
    </trkpt>
    <trkpt lat="42.050814" lon="-1.877628">
      <ele>441.9</ele>
    </trkpt>
    <trkpt lat="42.050767" lon="-1.87791">
      <ele>442.8</ele>
    </trkpt>
    <trkpt lat="42.05078" lon="-1.87819">
      <ele>443.8</ele>
    </trkpt>
    <trkpt lat="42.050831" lon="-1.878676">
      <ele>445.4</ele>
    </trkpt>
    <trkpt lat="42.050783" lon="-1.879301">
      <ele>447.3</ele>
    </trkpt>
    <trkpt lat="42.050991" lon="-1.881088">
      <ele>454.7</ele>
    </trkpt>
    <trkpt lat="42.050922" lon="-1.881692">
      <ele>456.4</ele>
    </trkpt>
    <trkpt lat="42.050826" lon="-1.882232">
      <ele>457.6</ele>
    </trkpt>
    <trkpt lat="42.050737" lon="-1.88327">
      <ele>459.1</ele>
    </trkpt>
    <trkpt lat="42.050832" lon="-1.883951">
      <ele>459</ele>
    </trkpt>
    <trkpt lat="42.050806" lon="-1.885448">
      <ele>456.4</ele>
    </trkpt>
    <trkpt lat="42.050863" lon="-1.887245">
      <ele>454.6</ele>
    </trkpt>
    <trkpt lat="42.051122" lon="-1.888629">
      <ele>456.5</ele>
    </trkpt>
    <trkpt lat="42.051436" lon="-1.889402">
      <ele>459.2</ele>
    </trkpt>
    <trkpt lat="42.051539" lon="-1.889925">
      <ele>461.4</ele>
    </trkpt>
    <trkpt lat="42.051449" lon="-1.890228">
      <ele>462.9</ele>
    </trkpt>
    <trkpt lat="42.051187" lon="-1.890721">
      <ele>465.7</ele>
    </trkpt>
    <trkpt lat="42.050912" lon="-1.891848">
      <ele>469.3</ele>
    </trkpt>
    <trkpt lat="42.05084" lon="-1.89261">
      <ele>470.1</ele>
    </trkpt>
    <trkpt lat="42.050858" lon="-1.892934">
      <ele>470.2</ele>
    </trkpt>
    <trkpt lat="42.05126" lon="-1.89505">
      <ele>464.3</ele>
    </trkpt>
    <trkpt lat="42.05177" lon="-1.896228">
      <ele>459</ele>
    </trkpt>
    <trkpt lat="42.052493" lon="-1.897237">
      <ele>455.5</ele>
    </trkpt>
    <trkpt lat="42.052681" lon="-1.897714">
      <ele>455.6</ele>
    </trkpt>
    <trkpt lat="42.052702" lon="-1.897838">
      <ele>455.5</ele>
    </trkpt>
    <trkpt lat="42.052637" lon="-1.898127">
      <ele>456.3</ele>
    </trkpt>
    <trkpt lat="42.05236" lon="-1.898747">
      <ele>458</ele>
    </trkpt>
    <trkpt lat="42.052167" lon="-1.898711">
      <ele>459.5</ele>
    </trkpt>
    <trkpt lat="42.051888" lon="-1.898466">
      <ele>461.5</ele>
    </trkpt>
    <trkpt lat="42.051851" lon="-1.898434">
      <ele>462</ele>
    </trkpt>
    <trkpt lat="42.051231" lon="-1.898266">
      <ele>466.7</ele>
    </trkpt>
    <trkpt lat="42.05072" lon="-1.897762">
      <ele>472.5</ele>
    </trkpt>
    <trkpt lat="42.050287" lon="-1.897683">
      <ele>476.1</ele>
    </trkpt>
    <trkpt lat="42.049945" lon="-1.897218">
      <ele>480</ele>
    </trkpt>
    <trkpt lat="42.049711" lon="-1.897069">
      <ele>482.1</ele>
    </trkpt>
    <trkpt lat="42.049013" lon="-1.896278">
      <ele>489.2</ele>
    </trkpt>
    <trkpt lat="42.048884" lon="-1.895823">
      <ele>491.9</ele>
    </trkpt>
    <trkpt lat="42.048414" lon="-1.895369">
      <ele>496.1</ele>
    </trkpt>
    <trkpt lat="42.048255" lon="-1.894128">
      <ele>503.9</ele>
    </trkpt>
    <trkpt lat="42.048109" lon="-1.893625">
      <ele>507.1</ele>
    </trkpt>
    <trkpt lat="42.048109" lon="-1.893269">
      <ele>508.9</ele>
    </trkpt>
    <trkpt lat="42.048035" lon="-1.893082">
      <ele>510.3</ele>
    </trkpt>
    <trkpt lat="42.047568" lon="-1.892395">
      <ele>515.8</ele>
    </trkpt>
    <trkpt lat="42.0474" lon="-1.891992">
      <ele>518.7</ele>
    </trkpt>
    <trkpt lat="42.047125" lon="-1.891727">
      <ele>521.7</ele>
    </trkpt>
    <trkpt lat="42.046853" lon="-1.890974">
      <ele>526</ele>
    </trkpt>
    <trkpt lat="42.046803" lon="-1.890915">
      <ele>526.4</ele>
    </trkpt>
    <trkpt lat="42.046577" lon="-1.890726">
      <ele>528</ele>
    </trkpt>
    <trkpt lat="42.046468" lon="-1.890397">
      <ele>529.5</ele>
    </trkpt>
    <trkpt lat="42.04608" lon="-1.889819">
      <ele>532.7</ele>
    </trkpt>
    <trkpt lat="42.045229" lon="-1.8892">
      <ele>535.6</ele>
    </trkpt>
    <trkpt lat="42.044589" lon="-1.888494">
      <ele>537.2</ele>
    </trkpt>
    <trkpt lat="42.044276" lon="-1.88782">
      <ele>538.2</ele>
    </trkpt>
    <trkpt lat="42.044245" lon="-1.887755">
      <ele>538.3</ele>
    </trkpt>
    <trkpt lat="42.044083" lon="-1.887505">
      <ele>538.7</ele>
    </trkpt>
    <trkpt lat="42.043935" lon="-1.887335">
      <ele>539.2</ele>
    </trkpt>
    <trkpt lat="42.043391" lon="-1.886432">
      <ele>542</ele>
    </trkpt>
    <trkpt lat="42.043051" lon="-1.886036">
      <ele>543.4</ele>
    </trkpt>
    <trkpt lat="42.042804" lon="-1.885485">
      <ele>544.1</ele>
    </trkpt>
    <trkpt lat="42.042668" lon="-1.885176">
      <ele>543.9</ele>
    </trkpt>
    <trkpt lat="42.042397" lon="-1.884904">
      <ele>543.5</ele>
    </trkpt>
    <trkpt lat="42.041899" lon="-1.884027">
      <ele>541.4</ele>
    </trkpt>
    <trkpt lat="42.041719" lon="-1.883701">
      <ele>539.7</ele>
    </trkpt>
    <trkpt lat="42.040925" lon="-1.882779">
      <ele>533.1</ele>
    </trkpt>
    <trkpt lat="42.040646" lon="-1.882348">
      <ele>530.8</ele>
    </trkpt>
    <trkpt lat="42.040253" lon="-1.881939">
      <ele>529.2</ele>
    </trkpt>
    <trkpt lat="42.040101" lon="-1.881656">
      <ele>528.4</ele>
    </trkpt>
    <trkpt lat="42.039716" lon="-1.881689">
      <ele>527.2</ele>
    </trkpt>
    <trkpt lat="42.039335" lon="-1.881821">
      <ele>526.2</ele>
    </trkpt>
    <trkpt lat="42.038993" lon="-1.881734">
      <ele>525.5</ele>
    </trkpt>
    <trkpt lat="42.03896" lon="-1.881693">
      <ele>525.4</ele>
    </trkpt>
    <trkpt lat="42.038756" lon="-1.881439">
      <ele>524.8</ele>
    </trkpt>
    <trkpt lat="42.038538" lon="-1.881296">
      <ele>524.1</ele>
    </trkpt>
    <trkpt lat="42.039135" lon="-1.880607">
      <ele>521.1</ele>
    </trkpt>
    <trkpt lat="42.039217" lon="-1.880445">
      <ele>520.2</ele>
    </trkpt>
    <trkpt lat="42.039347" lon="-1.879862">
      <ele>518.1</ele>
    </trkpt>
    <trkpt lat="42.03946" lon="-1.879557">
      <ele>516.8</ele>
    </trkpt>
    <trkpt lat="42.039606" lon="-1.879036">
      <ele>514.6</ele>
    </trkpt>
    <trkpt lat="42.040134" lon="-1.877898">
      <ele>509</ele>
    </trkpt>
    <trkpt lat="42.041174" lon="-1.876432">
      <ele>501</ele>
    </trkpt>
    <trkpt lat="42.041491" lon="-1.875883">
      <ele>498.5</ele>
    </trkpt>
    <trkpt lat="42.041514" lon="-1.875689">
      <ele>497.7</ele>
    </trkpt>
    <trkpt lat="42.041418" lon="-1.87538">
      <ele>496.5</ele>
    </trkpt>
    <trkpt lat="42.041496" lon="-1.875063">
      <ele>495.3</ele>
    </trkpt>
    <trkpt lat="42.041764" lon="-1.874666">
      <ele>493.3</ele>
    </trkpt>
    <trkpt lat="42.042409" lon="-1.874082">
      <ele>489.6</ele>
    </trkpt>
    <trkpt lat="42.043171" lon="-1.872885">
      <ele>483.7</ele>
    </trkpt>
    <trkpt lat="42.043444" lon="-1.872674">
      <ele>482.1</ele>
    </trkpt>
    <trkpt lat="42.044436" lon="-1.872127">
      <ele>476.9</ele>
    </trkpt>
    <trkpt lat="42.045762" lon="-1.870943">
      <ele>470.1</ele>
    </trkpt>
    <trkpt lat="42.046096" lon="-1.870776">
      <ele>469</ele>
    </trkpt>
    <trkpt lat="42.046362" lon="-1.870496">
      <ele>467.9</ele>
    </trkpt>
    <trkpt lat="42.046267" lon="-1.870178">
      <ele>466.9</ele>
    </trkpt>
    <trkpt lat="42.046333" lon="-1.870023">
      <ele>466.3</ele>
    </trkpt>
    <trkpt lat="42.046469" lon="-1.86998">
      <ele>465.7</ele>
    </trkpt>
    <trkpt lat="42.046707" lon="-1.870038">
      <ele>464.7</ele>
    </trkpt>
    <trkpt lat="42.047174" lon="-1.869777">
      <ele>462.7</ele>
    </trkpt>
    <trkpt lat="42.047267" lon="-1.869675">
      <ele>462.3</ele>
    </trkpt>
    <trkpt lat="42.047345" lon="-1.86939">
      <ele>461.3</ele>
    </trkpt>
    <trkpt lat="42.047479" lon="-1.869367">
      <ele>461</ele>
    </trkpt>
    <trkpt lat="42.047586" lon="-1.869497">
      <ele>460.2</ele>
    </trkpt>
    <trkpt lat="42.048272" lon="-1.869812">
      <ele>456.1</ele>
    </trkpt>
    <trkpt lat="42.048638" lon="-1.869713">
      <ele>453.3</ele>
    </trkpt>
    <trkpt lat="42.049155" lon="-1.869808">
      <ele>449.4</ele>
    </trkpt>
    <trkpt lat="42.049543" lon="-1.869977">
      <ele>446.4</ele>
    </trkpt>
    <trkpt lat="42.049847" lon="-1.870189">
      <ele>443.7</ele>
    </trkpt>
    <trkpt lat="42.050801" lon="-1.870601">
      <ele>436.3</ele>
    </trkpt>
    <trkpt lat="42.051039" lon="-1.870591">
      <ele>434.8</ele>
    </trkpt>
    <trkpt lat="42.051422" lon="-1.870354">
      <ele>432.1</ele>
    </trkpt>
    <trkpt lat="42.051805" lon="-1.870354">
      <ele>429.9</ele>
    </trkpt>
    <trkpt lat="42.052444" lon="-1.870168">
      <ele>427.2</ele>
    </trkpt>
    <trkpt lat="42.052596" lon="-1.870178">
      <ele>426.5</ele>
    </trkpt>
    <trkpt lat="42.052717" lon="-1.869876">
      <ele>425.9</ele>
    </trkpt>
    <trkpt lat="42.052712" lon="-1.869338">
      <ele>424.7</ele>
    </trkpt>
    <trkpt lat="42.052551" lon="-1.868697">
      <ele>423.5</ele>
    </trkpt>
    <trkpt lat="42.052451" lon="-1.867922">
      <ele>422.3</ele>
    </trkpt>
    <trkpt lat="42.05243" lon="-1.867417">
      <ele>422</ele>
    </trkpt>
    <trkpt lat="42.052354" lon="-1.866991">
      <ele>421.9</ele>
    </trkpt>
    <trkpt lat="42.052343" lon="-1.866413">
      <ele>421.7</ele>
    </trkpt>
    <trkpt lat="42.052403" lon="-1.866146">
      <ele>421.6</ele>
    </trkpt>
    <trkpt lat="42.052846" lon="-1.865057">
      <ele>421.2</ele>
    </trkpt>
    <trkpt lat="42.052898" lon="-1.864129">
      <ele>420.7</ele>
    </trkpt>
    <trkpt lat="42.053907" lon="-1.863072">
      <ele>419.8</ele>
    </trkpt>
    <trkpt lat="42.05463" lon="-1.862789">
      <ele>419.6</ele>
    </trkpt>
    <trkpt lat="42.054676" lon="-1.862724">
      <ele>419.6</ele>
    </trkpt>
    <trkpt lat="42.054725" lon="-1.86274">
      <ele>419.6</ele>
    </trkpt>
    <trkpt lat="42.054844" lon="-1.862718">
      <ele>419.7</ele>
    </trkpt>
    <trkpt lat="42.055242" lon="-1.862584">
      <ele>419.8</ele>
    </trkpt>
    <trkpt lat="42.055149" lon="-1.862305">
      <ele>419.8</ele>
    </trkpt>
    <trkpt lat="42.055494" lon="-1.862183">
      <ele>420</ele>
    </trkpt>
    <trkpt lat="42.055518" lon="-1.861954">
      <ele>420.1</ele>
    </trkpt>
    <trkpt lat="42.055686" lon="-1.862004">
      <ele>420.2</ele>
    </trkpt>
    </trkseg>
  </trk>
</gpx>
