<?xml version="1.0" encoding="UTF-8"?>
<gpx version="1.1" creator="fitAI Komoot downloader" xmlns="http://www.topografix.com/GPX/1/1">
  <metadata>
    <name>Collado de Sagastia y Fuente La Teja - Recorrido circular desde Zorraquín</name>
    <desc>95 visitas · Dificultad: difficult · Distancia: 31.9 km · Desnivel +: 1469 m</desc>
    <link href="https://www.komoot.com/smarttour/e44695364"><text>Komoot</text></link>
  </metadata>
  <trk>
    <name>Collado de Sagastia y Fuente La Teja - Recorrido circular desde Zorraquín</name>
    <type>mtb</type>
    <trkseg>
    <trkpt lat="42.328675" lon="-3.014101">
      <ele>808</ele>
    </trkpt>
    <trkpt lat="42.328688" lon="-3.014441">
      <ele>808.1</ele>
    </trkpt>
    <trkpt lat="42.328326" lon="-3.014539">
      <ele>808.1</ele>
    </trkpt>
    <trkpt lat="42.328248" lon="-3.013957">
      <ele>808.4</ele>
    </trkpt>
    <trkpt lat="42.327652" lon="-3.014066">
      <ele>809</ele>
    </trkpt>
    <trkpt lat="42.327434" lon="-3.014085">
      <ele>809.1</ele>
    </trkpt>
    <trkpt lat="42.327221" lon="-3.014041">
      <ele>809.3</ele>
    </trkpt>
    <trkpt lat="42.327118" lon="-3.013987">
      <ele>809.5</ele>
    </trkpt>
    <trkpt lat="42.326888" lon="-3.013958">
      <ele>809.7</ele>
    </trkpt>
    <trkpt lat="42.326814" lon="-3.013922">
      <ele>809.9</ele>
    </trkpt>
    <trkpt lat="42.326807" lon="-3.013333">
      <ele>810.5</ele>
    </trkpt>
    <trkpt lat="42.326575" lon="-3.013227">
      <ele>810.9</ele>
    </trkpt>
    <trkpt lat="42.326513" lon="-3.013159">
      <ele>811</ele>
    </trkpt>
    <trkpt lat="42.326368" lon="-3.012899">
      <ele>811.3</ele>
    </trkpt>
    <trkpt lat="42.32616" lon="-3.012842">
      <ele>811.4</ele>
    </trkpt>
    <trkpt lat="42.326104" lon="-3.012781">
      <ele>811.5</ele>
    </trkpt>
    <trkpt lat="42.325264" lon="-3.012738">
      <ele>812.9</ele>
    </trkpt>
    <trkpt lat="42.324741" lon="-3.012684">
      <ele>813.5</ele>
    </trkpt>
    <trkpt lat="42.324656" lon="-3.012675">
      <ele>813.6</ele>
    </trkpt>
    <trkpt lat="42.324563" lon="-3.012575">
      <ele>813.8</ele>
    </trkpt>
    <trkpt lat="42.324517" lon="-3.012457">
      <ele>813.9</ele>
    </trkpt>
    <trkpt lat="42.32448" lon="-3.012484">
      <ele>814</ele>
    </trkpt>
    <trkpt lat="42.324438" lon="-3.012474">
      <ele>814</ele>
    </trkpt>
    <trkpt lat="42.32352" lon="-3.012519">
      <ele>815.2</ele>
    </trkpt>
    <trkpt lat="42.323063" lon="-3.012597">
      <ele>815.6</ele>
    </trkpt>
    <trkpt lat="42.322219" lon="-3.012966">
      <ele>816.1</ele>
    </trkpt>
    <trkpt lat="42.32139" lon="-3.013343">
      <ele>816.2</ele>
    </trkpt>
    <trkpt lat="42.320661" lon="-3.013755">
      <ele>818</ele>
    </trkpt>
    <trkpt lat="42.320644" lon="-3.013661">
      <ele>818.1</ele>
    </trkpt>
    <trkpt lat="42.320416" lon="-3.012944">
      <ele>819.3</ele>
    </trkpt>
    <trkpt lat="42.320396" lon="-3.012868">
      <ele>819.5</ele>
    </trkpt>
    <trkpt lat="42.320166" lon="-3.012806">
      <ele>820.1</ele>
    </trkpt>
    <trkpt lat="42.319664" lon="-3.012547">
      <ele>821.9</ele>
    </trkpt>
    <trkpt lat="42.319117" lon="-3.012247">
      <ele>822.8</ele>
    </trkpt>
    <trkpt lat="42.318838" lon="-3.012214">
      <ele>823</ele>
    </trkpt>
    <trkpt lat="42.318435" lon="-3.012242">
      <ele>823.6</ele>
    </trkpt>
    <trkpt lat="42.317947" lon="-3.012328">
      <ele>824.3</ele>
    </trkpt>
    <trkpt lat="42.317681" lon="-3.01243">
      <ele>824.6</ele>
    </trkpt>
    <trkpt lat="42.316812" lon="-3.01288">
      <ele>825.4</ele>
    </trkpt>
    <trkpt lat="42.316087" lon="-3.013283">
      <ele>826.2</ele>
    </trkpt>
    <trkpt lat="42.315885" lon="-3.013434">
      <ele>826.4</ele>
    </trkpt>
    <trkpt lat="42.314673" lon="-3.014537">
      <ele>829.3</ele>
    </trkpt>
    <trkpt lat="42.314534" lon="-3.014541">
      <ele>829.8</ele>
    </trkpt>
    <trkpt lat="42.31425" lon="-3.014656">
      <ele>831</ele>
    </trkpt>
    <trkpt lat="42.314072" lon="-3.014596">
      <ele>831.8</ele>
    </trkpt>
    <trkpt lat="42.313707" lon="-3.014123">
      <ele>834</ele>
    </trkpt>
    <trkpt lat="42.313933" lon="-3.013947">
      <ele>835.1</ele>
    </trkpt>
    <trkpt lat="42.314205" lon="-3.013653">
      <ele>836.8</ele>
    </trkpt>
    <trkpt lat="42.314209" lon="-3.013621">
      <ele>836.9</ele>
    </trkpt>
    <trkpt lat="42.314191" lon="-3.013598">
      <ele>837</ele>
    </trkpt>
    <trkpt lat="42.31416" lon="-3.013616">
      <ele>837.2</ele>
    </trkpt>
    <trkpt lat="42.313896" lon="-3.013813">
      <ele>839</ele>
    </trkpt>
    <trkpt lat="42.313826" lon="-3.013829">
      <ele>839.4</ele>
    </trkpt>
    <trkpt lat="42.313753" lon="-3.013774">
      <ele>839.9</ele>
    </trkpt>
    <trkpt lat="42.31362" lon="-3.013169">
      <ele>843.3</ele>
    </trkpt>
    <trkpt lat="42.313523" lon="-3.013077">
      <ele>844.2</ele>
    </trkpt>
    <trkpt lat="42.313427" lon="-3.012786">
      <ele>846.3</ele>
    </trkpt>
    <trkpt lat="42.313347" lon="-3.012594">
      <ele>847.9</ele>
    </trkpt>
    <trkpt lat="42.313263" lon="-3.012472">
      <ele>849.2</ele>
    </trkpt>
    <trkpt lat="42.313174" lon="-3.012237">
      <ele>851.3</ele>
    </trkpt>
    <trkpt lat="42.313068" lon="-3.011847">
      <ele>854.4</ele>
    </trkpt>
    <trkpt lat="42.312981" lon="-3.011096">
      <ele>859.1</ele>
    </trkpt>
    <trkpt lat="42.312779" lon="-3.01038">
      <ele>861.9</ele>
    </trkpt>
    <trkpt lat="42.312311" lon="-3.009403">
      <ele>864.1</ele>
    </trkpt>
    <trkpt lat="42.312188" lon="-3.009036">
      <ele>864.7</ele>
    </trkpt>
    <trkpt lat="42.3117" lon="-3.008727">
      <ele>866.3</ele>
    </trkpt>
    <trkpt lat="42.311462" lon="-3.00818">
      <ele>868.6</ele>
    </trkpt>
    <trkpt lat="42.311295" lon="-3.007998">
      <ele>870</ele>
    </trkpt>
    <trkpt lat="42.310978" lon="-3.007547">
      <ele>873</ele>
    </trkpt>
    <trkpt lat="42.310883" lon="-3.007279">
      <ele>874.5</ele>
    </trkpt>
    <trkpt lat="42.310611" lon="-3.006898">
      <ele>877.2</ele>
    </trkpt>
    <trkpt lat="42.310467" lon="-3.00674">
      <ele>878.6</ele>
    </trkpt>
    <trkpt lat="42.308693" lon="-3.003953">
      <ele>895</ele>
    </trkpt>
    <trkpt lat="42.30809" lon="-3.003438">
      <ele>900</ele>
    </trkpt>
    <trkpt lat="42.307777" lon="-3.002927">
      <ele>903.9</ele>
    </trkpt>
    <trkpt lat="42.307669" lon="-3.002752">
      <ele>905.3</ele>
    </trkpt>
    <trkpt lat="42.306797" lon="-3.001765">
      <ele>916.6</ele>
    </trkpt>
    <trkpt lat="42.306342" lon="-3.00113">
      <ele>922.3</ele>
    </trkpt>
    <trkpt lat="42.306048" lon="-3.000925">
      <ele>924.8</ele>
    </trkpt>
    <trkpt lat="42.305856" lon="-3.000845">
      <ele>926.5</ele>
    </trkpt>
    <trkpt lat="42.305583" lon="-3.000672">
      <ele>928.8</ele>
    </trkpt>
    <trkpt lat="42.305512" lon="-3.000598">
      <ele>929.5</ele>
    </trkpt>
    <trkpt lat="42.3054" lon="-3.000376">
      <ele>930.8</ele>
    </trkpt>
    <trkpt lat="42.305267" lon="-3.000223">
      <ele>931.9</ele>
    </trkpt>
    <trkpt lat="42.305137" lon="-3.000123">
      <ele>932.9</ele>
    </trkpt>
    <trkpt lat="42.304912" lon="-2.999776">
      <ele>935.3</ele>
    </trkpt>
    <trkpt lat="42.304524" lon="-2.999515">
      <ele>939.8</ele>
    </trkpt>
    <trkpt lat="42.304351" lon="-2.999239">
      <ele>943</ele>
    </trkpt>
    <trkpt lat="42.304252" lon="-2.998807">
      <ele>946.9</ele>
    </trkpt>
    <trkpt lat="42.304257" lon="-2.998517">
      <ele>949.5</ele>
    </trkpt>
    <trkpt lat="42.304152" lon="-2.998191">
      <ele>952.9</ele>
    </trkpt>
    <trkpt lat="42.3041" lon="-2.997724">
      <ele>957.5</ele>
    </trkpt>
    <trkpt lat="42.304016" lon="-2.997412">
      <ele>961</ele>
    </trkpt>
    <trkpt lat="42.30377" lon="-2.996825">
      <ele>968</ele>
    </trkpt>
    <trkpt lat="42.303592" lon="-2.996558">
      <ele>971.7</ele>
    </trkpt>
    <trkpt lat="42.303179" lon="-2.995336">
      <ele>987.6</ele>
    </trkpt>
    <trkpt lat="42.302634" lon="-2.994496">
      <ele>1000.9</ele>
    </trkpt>
    <trkpt lat="42.302528" lon="-2.994205">
      <ele>1003.9</ele>
    </trkpt>
    <trkpt lat="42.302409" lon="-2.994213">
      <ele>1005.1</ele>
    </trkpt>
    <trkpt lat="42.302352" lon="-2.994291">
      <ele>1005.9</ele>
    </trkpt>
    <trkpt lat="42.302362" lon="-2.994503">
      <ele>1007.1</ele>
    </trkpt>
    <trkpt lat="42.302467" lon="-2.995077">
      <ele>1008.8</ele>
    </trkpt>
    <trkpt lat="42.302498" lon="-2.995565">
      <ele>1008.1</ele>
    </trkpt>
    <trkpt lat="42.302619" lon="-2.995933">
      <ele>1006.3</ele>
    </trkpt>
    <trkpt lat="42.302849" lon="-2.997193">
      <ele>999.3</ele>
    </trkpt>
    <trkpt lat="42.302979" lon="-2.997566">
      <ele>998.9</ele>
    </trkpt>
    <trkpt lat="42.303011" lon="-2.997844">
      <ele>999.3</ele>
    </trkpt>
    <trkpt lat="42.302956" lon="-2.998045">
      <ele>1000.1</ele>
    </trkpt>
    <trkpt lat="42.302864" lon="-2.998064">
      <ele>1000.7</ele>
    </trkpt>
    <trkpt lat="42.302802" lon="-2.997922">
      <ele>1001.6</ele>
    </trkpt>
    <trkpt lat="42.302776" lon="-2.997596">
      <ele>1004</ele>
    </trkpt>
    <trkpt lat="42.302613" lon="-2.997058">
      <ele>1009.4</ele>
    </trkpt>
    <trkpt lat="42.302503" lon="-2.996605">
      <ele>1014.1</ele>
    </trkpt>
    <trkpt lat="42.302372" lon="-2.996202">
      <ele>1018.4</ele>
    </trkpt>
    <trkpt lat="42.302283" lon="-2.996004">
      <ele>1020.4</ele>
    </trkpt>
    <trkpt lat="42.302236" lon="-2.995798">
      <ele>1022.1</ele>
    </trkpt>
    <trkpt lat="42.30221" lon="-2.995515">
      <ele>1024.1</ele>
    </trkpt>
    <trkpt lat="42.301933" lon="-2.99439">
      <ele>1031.6</ele>
    </trkpt>
    <trkpt lat="42.301886" lon="-2.994149">
      <ele>1033.4</ele>
    </trkpt>
    <trkpt lat="42.301886" lon="-2.993236">
      <ele>1041.8</ele>
    </trkpt>
    <trkpt lat="42.301629" lon="-2.992047">
      <ele>1055.2</ele>
    </trkpt>
    <trkpt lat="42.301577" lon="-2.991877">
      <ele>1057.1</ele>
    </trkpt>
    <trkpt lat="42.301435" lon="-2.991601">
      <ele>1060.4</ele>
    </trkpt>
    <trkpt lat="42.301409" lon="-2.991346">
      <ele>1062.7</ele>
    </trkpt>
    <trkpt lat="42.301336" lon="-2.991162">
      <ele>1064.5</ele>
    </trkpt>
    <trkpt lat="42.301341" lon="-2.990985">
      <ele>1066.1</ele>
    </trkpt>
    <trkpt lat="42.301011" lon="-2.990263">
      <ele>1073</ele>
    </trkpt>
    <trkpt lat="42.300692" lon="-2.989421">
      <ele>1081.9</ele>
    </trkpt>
    <trkpt lat="42.300702" lon="-2.989307">
      <ele>1083.2</ele>
    </trkpt>
    <trkpt lat="42.300678" lon="-2.989219">
      <ele>1084.2</ele>
    </trkpt>
    <trkpt lat="42.300531" lon="-2.988959">
      <ele>1087.9</ele>
    </trkpt>
    <trkpt lat="42.300462" lon="-2.988642">
      <ele>1091.7</ele>
    </trkpt>
    <trkpt lat="42.300447" lon="-2.988434">
      <ele>1094</ele>
    </trkpt>
    <trkpt lat="42.300358" lon="-2.988112">
      <ele>1097.7</ele>
    </trkpt>
    <trkpt lat="42.300209" lon="-2.988013">
      <ele>1100.1</ele>
    </trkpt>
    <trkpt lat="42.300147" lon="-2.987687">
      <ele>1103.7</ele>
    </trkpt>
    <trkpt lat="42.300006" lon="-2.987354">
      <ele>1107.8</ele>
    </trkpt>
    <trkpt lat="42.299913" lon="-2.987033">
      <ele>1111.4</ele>
    </trkpt>
    <trkpt lat="42.299861" lon="-2.986757">
      <ele>1114.2</ele>
    </trkpt>
    <trkpt lat="42.299536" lon="-2.9859">
      <ele>1122.9</ele>
    </trkpt>
    <trkpt lat="42.299472" lon="-2.985781">
      <ele>1124</ele>
    </trkpt>
    <trkpt lat="42.299322" lon="-2.985253">
      <ele>1128.5</ele>
    </trkpt>
    <trkpt lat="42.299163" lon="-2.984513">
      <ele>1133.6</ele>
    </trkpt>
    <trkpt lat="42.298282" lon="-2.982893">
      <ele>1143.1</ele>
    </trkpt>
    <trkpt lat="42.298084" lon="-2.982324">
      <ele>1146.5</ele>
    </trkpt>
    <trkpt lat="42.297655" lon="-2.979706">
      <ele>1162.7</ele>
    </trkpt>
    <trkpt lat="42.297414" lon="-2.979334">
      <ele>1164.5</ele>
    </trkpt>
    <trkpt lat="42.297335" lon="-2.979212">
      <ele>1164.9</ele>
    </trkpt>
    <trkpt lat="42.296981" lon="-2.978665">
      <ele>1164.8</ele>
    </trkpt>
    <trkpt lat="42.297335" lon="-2.978881">
      <ele>1163.7</ele>
    </trkpt>
    <trkpt lat="42.297772" lon="-2.979284">
      <ele>1160.6</ele>
    </trkpt>
    <trkpt lat="42.298735" lon="-2.98059">
      <ele>1161</ele>
    </trkpt>
    <trkpt lat="42.298823" lon="-2.98049">
      <ele>1162</ele>
    </trkpt>
    <trkpt lat="42.299038" lon="-2.980635">
      <ele>1164.1</ele>
    </trkpt>
    <trkpt lat="42.29929" lon="-2.980749">
      <ele>1166.6</ele>
    </trkpt>
    <trkpt lat="42.299582" lon="-2.980731">
      <ele>1169.4</ele>
    </trkpt>
    <trkpt lat="42.300046" lon="-2.980622">
      <ele>1173.5</ele>
    </trkpt>
    <trkpt lat="42.300177" lon="-2.980617">
      <ele>1174.6</ele>
    </trkpt>
    <trkpt lat="42.300244" lon="-2.980908">
      <ele>1176.5</ele>
    </trkpt>
    <trkpt lat="42.300146" lon="-2.981117">
      <ele>1178.2</ele>
    </trkpt>
    <trkpt lat="42.300126" lon="-2.981312">
      <ele>1179.8</ele>
    </trkpt>
    <trkpt lat="42.30017" lon="-2.981658">
      <ele>1183.2</ele>
    </trkpt>
    <trkpt lat="42.300247" lon="-2.982007">
      <ele>1187.1</ele>
    </trkpt>
    <trkpt lat="42.300307" lon="-2.982088">
      <ele>1188.3</ele>
    </trkpt>
    <trkpt lat="42.300452" lon="-2.982284">
      <ele>1191.2</ele>
    </trkpt>
    <trkpt lat="42.30093" lon="-2.982673">
      <ele>1200.1</ele>
    </trkpt>
    <trkpt lat="42.301426" lon="-2.983215">
      <ele>1211.8</ele>
    </trkpt>
    <trkpt lat="42.301874" lon="-2.98351">
      <ele>1219.5</ele>
    </trkpt>
    <trkpt lat="42.303088" lon="-2.9841">
      <ele>1240.6</ele>
    </trkpt>
    <trkpt lat="42.303337" lon="-2.984242">
      <ele>1245.6</ele>
    </trkpt>
    <trkpt lat="42.303425" lon="-2.984293">
      <ele>1247.3</ele>
    </trkpt>
    <trkpt lat="42.30362" lon="-2.984255">
      <ele>1250.9</ele>
    </trkpt>
    <trkpt lat="42.304369" lon="-2.984416">
      <ele>1262.3</ele>
    </trkpt>
    <trkpt lat="42.304738" lon="-2.984443">
      <ele>1265.3</ele>
    </trkpt>
    <trkpt lat="42.304955" lon="-2.984297">
      <ele>1265.9</ele>
    </trkpt>
    <trkpt lat="42.304877" lon="-2.984096">
      <ele>1265.7</ele>
    </trkpt>
    <trkpt lat="42.304972" lon="-2.983981">
      <ele>1265.2</ele>
    </trkpt>
    <trkpt lat="42.305125" lon="-2.984035">
      <ele>1264.2</ele>
    </trkpt>
    <trkpt lat="42.305324" lon="-2.984013">
      <ele>1262.4</ele>
    </trkpt>
    <trkpt lat="42.305763" lon="-2.98383">
      <ele>1256.6</ele>
    </trkpt>
    <trkpt lat="42.306192" lon="-2.983786">
      <ele>1250.6</ele>
    </trkpt>
    <trkpt lat="42.306288" lon="-2.983815">
      <ele>1249.4</ele>
    </trkpt>
    <trkpt lat="42.306391" lon="-2.983933">
      <ele>1247.9</ele>
    </trkpt>
    <trkpt lat="42.306499" lon="-2.98385">
      <ele>1246.6</ele>
    </trkpt>
    <trkpt lat="42.306668" lon="-2.982927">
      <ele>1244</ele>
    </trkpt>
    <trkpt lat="42.306668" lon="-2.982405">
      <ele>1244.3</ele>
    </trkpt>
    <trkpt lat="42.306585" lon="-2.982224">
      <ele>1244.4</ele>
    </trkpt>
    <trkpt lat="42.306546" lon="-2.981711">
      <ele>1243.4</ele>
    </trkpt>
    <trkpt lat="42.306553" lon="-2.981243">
      <ele>1240.7</ele>
    </trkpt>
    <trkpt lat="42.306608" lon="-2.981111">
      <ele>1239.6</ele>
    </trkpt>
    <trkpt lat="42.306711" lon="-2.980977">
      <ele>1237.9</ele>
    </trkpt>
    <trkpt lat="42.307003" lon="-2.980989">
      <ele>1234</ele>
    </trkpt>
    <trkpt lat="42.307283" lon="-2.980724">
      <ele>1228.7</ele>
    </trkpt>
    <trkpt lat="42.307419" lon="-2.980682">
      <ele>1226.4</ele>
    </trkpt>
    <trkpt lat="42.307724" lon="-2.980779">
      <ele>1221.4</ele>
    </trkpt>
    <trkpt lat="42.307799" lon="-2.980733">
      <ele>1220.1</ele>
    </trkpt>
    <trkpt lat="42.307805" lon="-2.98064">
      <ele>1219.1</ele>
    </trkpt>
    <trkpt lat="42.307702" lon="-2.980132">
      <ele>1213.2</ele>
    </trkpt>
    <trkpt lat="42.30778" lon="-2.979922">
      <ele>1210.6</ele>
    </trkpt>
    <trkpt lat="42.308209" lon="-2.979485">
      <ele>1201.2</ele>
    </trkpt>
    <trkpt lat="42.308423" lon="-2.979426">
      <ele>1196.4</ele>
    </trkpt>
    <trkpt lat="42.3086" lon="-2.979472">
      <ele>1191.9</ele>
    </trkpt>
    <trkpt lat="42.308672" lon="-2.979577">
      <ele>1189</ele>
    </trkpt>
    <trkpt lat="42.308697" lon="-2.979745">
      <ele>1185.4</ele>
    </trkpt>
    <trkpt lat="42.308694" lon="-2.979964">
      <ele>1180.3</ele>
    </trkpt>
    <trkpt lat="42.308768" lon="-2.980199">
      <ele>1173.9</ele>
    </trkpt>
    <trkpt lat="42.308939" lon="-2.980334">
      <ele>1166.7</ele>
    </trkpt>
    <trkpt lat="42.309194" lon="-2.980367">
      <ele>1157.1</ele>
    </trkpt>
    <trkpt lat="42.309511" lon="-2.980506">
      <ele>1144.6</ele>
    </trkpt>
    <trkpt lat="42.309735" lon="-2.980556">
      <ele>1136.3</ele>
    </trkpt>
    <trkpt lat="42.309984" lon="-2.980758">
      <ele>1126.2</ele>
    </trkpt>
    <trkpt lat="42.310127" lon="-2.980922">
      <ele>1119.9</ele>
    </trkpt>
    <trkpt lat="42.31027" lon="-2.981225">
      <ele>1111.2</ele>
    </trkpt>
    <trkpt lat="42.310229" lon="-2.98133">
      <ele>1108.5</ele>
    </trkpt>
    <trkpt lat="42.310117" lon="-2.981397">
      <ele>1104.7</ele>
    </trkpt>
    <trkpt lat="42.310096" lon="-2.981443">
      <ele>1103.5</ele>
    </trkpt>
    <trkpt lat="42.310326" lon="-2.981977">
      <ele>1090.7</ele>
    </trkpt>
    <trkpt lat="42.31049" lon="-2.982267">
      <ele>1083.9</ele>
    </trkpt>
    <trkpt lat="42.310643" lon="-2.982305">
      <ele>1080.1</ele>
    </trkpt>
    <trkpt lat="42.310846" lon="-2.982249">
      <ele>1075.1</ele>
    </trkpt>
    <trkpt lat="42.31091" lon="-2.982289">
      <ele>1073.5</ele>
    </trkpt>
    <trkpt lat="42.310966" lon="-2.982285">
      <ele>1072.2</ele>
    </trkpt>
    <trkpt lat="42.311167" lon="-2.982119">
      <ele>1067</ele>
    </trkpt>
    <trkpt lat="42.311287" lon="-2.982053">
      <ele>1064.3</ele>
    </trkpt>
    <trkpt lat="42.311448" lon="-2.98209">
      <ele>1061</ele>
    </trkpt>
    <trkpt lat="42.311571" lon="-2.982213">
      <ele>1058</ele>
    </trkpt>
    <trkpt lat="42.311723" lon="-2.982272">
      <ele>1055</ele>
    </trkpt>
    <trkpt lat="42.311808" lon="-2.982414">
      <ele>1052.6</ele>
    </trkpt>
    <trkpt lat="42.311907" lon="-2.982486">
      <ele>1050.6</ele>
    </trkpt>
    <trkpt lat="42.312133" lon="-2.982471">
      <ele>1046.9</ele>
    </trkpt>
    <trkpt lat="42.312311" lon="-2.98252">
      <ele>1044</ele>
    </trkpt>
    <trkpt lat="42.312531" lon="-2.982487">
      <ele>1040.4</ele>
    </trkpt>
    <trkpt lat="42.312757" lon="-2.982587">
      <ele>1036.9</ele>
    </trkpt>
    <trkpt lat="42.313229" lon="-2.982702">
      <ele>1030.1</ele>
    </trkpt>
    <trkpt lat="42.313643" lon="-2.982565">
      <ele>1023.8</ele>
    </trkpt>
    <trkpt lat="42.313783" lon="-2.982605">
      <ele>1021.6</ele>
    </trkpt>
    <trkpt lat="42.3141" lon="-2.982541">
      <ele>1016.7</ele>
    </trkpt>
    <trkpt lat="42.314734" lon="-2.98289">
      <ele>1005.6</ele>
    </trkpt>
    <trkpt lat="42.314989" lon="-2.983153">
      <ele>1000.3</ele>
    </trkpt>
    <trkpt lat="42.31589" lon="-2.983703">
      <ele>984.2</ele>
    </trkpt>
    <trkpt lat="42.316029" lon="-2.983851">
      <ele>981.5</ele>
    </trkpt>
    <trkpt lat="42.316128" lon="-2.984017">
      <ele>979.2</ele>
    </trkpt>
    <trkpt lat="42.316533" lon="-2.984427">
      <ele>972</ele>
    </trkpt>
    <trkpt lat="42.316697" lon="-2.984551">
      <ele>969.4</ele>
    </trkpt>
    <trkpt lat="42.316963" lon="-2.98465">
      <ele>965.5</ele>
    </trkpt>
    <trkpt lat="42.317098" lon="-2.984803">
      <ele>963.1</ele>
    </trkpt>
    <trkpt lat="42.317262" lon="-2.985055">
      <ele>959.5</ele>
    </trkpt>
    <trkpt lat="42.317445" lon="-2.985602">
      <ele>952.8</ele>
    </trkpt>
    <trkpt lat="42.317699" lon="-2.985849">
      <ele>947.9</ele>
    </trkpt>
    <trkpt lat="42.317768" lon="-2.985956">
      <ele>946.4</ele>
    </trkpt>
    <trkpt lat="42.317831" lon="-2.986299">
      <ele>942.8</ele>
    </trkpt>
    <trkpt lat="42.317913" lon="-2.986383">
      <ele>941.4</ele>
    </trkpt>
    <trkpt lat="42.318327" lon="-2.986463">
      <ele>935.9</ele>
    </trkpt>
    <trkpt lat="42.318466" lon="-2.986455">
      <ele>934.3</ele>
    </trkpt>
    <trkpt lat="42.318504" lon="-2.986592">
      <ele>933.2</ele>
    </trkpt>
    <trkpt lat="42.318534" lon="-2.986603">
      <ele>932.9</ele>
    </trkpt>
    <trkpt lat="42.318702" lon="-2.986567">
      <ele>931.2</ele>
    </trkpt>
    <trkpt lat="42.318723" lon="-2.986764">
      <ele>930</ele>
    </trkpt>
    <trkpt lat="42.318905" lon="-2.98735">
      <ele>927.4</ele>
    </trkpt>
    <trkpt lat="42.319174" lon="-2.987856">
      <ele>926.2</ele>
    </trkpt>
    <trkpt lat="42.319669" lon="-2.988985">
      <ele>922.2</ele>
    </trkpt>
    <trkpt lat="42.319993" lon="-2.989427">
      <ele>918.8</ele>
    </trkpt>
    <trkpt lat="42.320153" lon="-2.989578">
      <ele>916.7</ele>
    </trkpt>
    <trkpt lat="42.320348" lon="-2.989838">
      <ele>913.9</ele>
    </trkpt>
    <trkpt lat="42.320477" lon="-2.989956">
      <ele>912.3</ele>
    </trkpt>
    <trkpt lat="42.3206" lon="-2.990015">
      <ele>911.1</ele>
    </trkpt>
    <trkpt lat="42.320788" lon="-2.990047">
      <ele>909.6</ele>
    </trkpt>
    <trkpt lat="42.320962" lon="-2.990204">
      <ele>908.4</ele>
    </trkpt>
    <trkpt lat="42.320624" lon="-2.989342">
      <ele>906.6</ele>
    </trkpt>
    <trkpt lat="42.32043" lon="-2.989005">
      <ele>907.2</ele>
    </trkpt>
    <trkpt lat="42.320417" lon="-2.988883">
      <ele>907.7</ele>
    </trkpt>
    <trkpt lat="42.320432" lon="-2.988387">
      <ele>910.1</ele>
    </trkpt>
    <trkpt lat="42.320342" lon="-2.987998">
      <ele>912.1</ele>
    </trkpt>
    <trkpt lat="42.320237" lon="-2.987695">
      <ele>913.7</ele>
    </trkpt>
    <trkpt lat="42.320003" lon="-2.987357">
      <ele>916.3</ele>
    </trkpt>
    <trkpt lat="42.31985" lon="-2.986689">
      <ele>920.7</ele>
    </trkpt>
    <trkpt lat="42.319807" lon="-2.986404">
      <ele>922.7</ele>
    </trkpt>
    <trkpt lat="42.319773" lon="-2.986313">
      <ele>923.4</ele>
    </trkpt>
    <trkpt lat="42.319598" lon="-2.986056">
      <ele>925.8</ele>
    </trkpt>
    <trkpt lat="42.319378" lon="-2.985541">
      <ele>930</ele>
    </trkpt>
    <trkpt lat="42.319312" lon="-2.985052">
      <ele>933.7</ele>
    </trkpt>
    <trkpt lat="42.319307" lon="-2.985013">
      <ele>934</ele>
    </trkpt>
    <trkpt lat="42.319253" lon="-2.984883">
      <ele>935.1</ele>
    </trkpt>
    <trkpt lat="42.319035" lon="-2.984564">
      <ele>938.3</ele>
    </trkpt>
    <trkpt lat="42.318607" lon="-2.9831">
      <ele>950.4</ele>
    </trkpt>
    <trkpt lat="42.318371" lon="-2.982521">
      <ele>954.9</ele>
    </trkpt>
    <trkpt lat="42.318151" lon="-2.981421">
      <ele>961.8</ele>
    </trkpt>
    <trkpt lat="42.31816" lon="-2.980945">
      <ele>964.6</ele>
    </trkpt>
    <trkpt lat="42.318243" lon="-2.980281">
      <ele>969</ele>
    </trkpt>
    <trkpt lat="42.318092" lon="-2.9799">
      <ele>971.9</ele>
    </trkpt>
    <trkpt lat="42.318015" lon="-2.978846">
      <ele>979.5</ele>
    </trkpt>
    <trkpt lat="42.317863" lon="-2.978221">
      <ele>984.2</ele>
    </trkpt>
    <trkpt lat="42.317639" lon="-2.977642">
      <ele>989.7</ele>
    </trkpt>
    <trkpt lat="42.317635" lon="-2.977492">
      <ele>991</ele>
    </trkpt>
    <trkpt lat="42.317748" lon="-2.976999">
      <ele>995.6</ele>
    </trkpt>
    <trkpt lat="42.317772" lon="-2.976718">
      <ele>998.3</ele>
    </trkpt>
    <trkpt lat="42.317742" lon="-2.976513">
      <ele>1000.3</ele>
    </trkpt>
    <trkpt lat="42.317696" lon="-2.975469">
      <ele>1010.9</ele>
    </trkpt>
    <trkpt lat="42.31754" lon="-2.975086">
      <ele>1014.6</ele>
    </trkpt>
    <trkpt lat="42.317502" lon="-2.974815">
      <ele>1016.6</ele>
    </trkpt>
    <trkpt lat="42.317496" lon="-2.974518">
      <ele>1018.5</ele>
    </trkpt>
    <trkpt lat="42.31744" lon="-2.974286">
      <ele>1020</ele>
    </trkpt>
    <trkpt lat="42.317407" lon="-2.973938">
      <ele>1022.1</ele>
    </trkpt>
    <trkpt lat="42.317422" lon="-2.973864">
      <ele>1022.5</ele>
    </trkpt>
    <trkpt lat="42.317393" lon="-2.973321">
      <ele>1025.5</ele>
    </trkpt>
    <trkpt lat="42.317313" lon="-2.97269">
      <ele>1029.1</ele>
    </trkpt>
    <trkpt lat="42.317305" lon="-2.972419">
      <ele>1031</ele>
    </trkpt>
    <trkpt lat="42.317174" lon="-2.971861">
      <ele>1036.1</ele>
    </trkpt>
    <trkpt lat="42.316998" lon="-2.970606">
      <ele>1049.1</ele>
    </trkpt>
    <trkpt lat="42.316931" lon="-2.969102">
      <ele>1062.8</ele>
    </trkpt>
    <trkpt lat="42.316895" lon="-2.968882">
      <ele>1064.4</ele>
    </trkpt>
    <trkpt lat="42.316902" lon="-2.968744">
      <ele>1065.5</ele>
    </trkpt>
    <trkpt lat="42.316942" lon="-2.968608">
      <ele>1066.7</ele>
    </trkpt>
    <trkpt lat="42.317054" lon="-2.968417">
      <ele>1068.9</ele>
    </trkpt>
    <trkpt lat="42.317549" lon="-2.967797">
      <ele>1077.2</ele>
    </trkpt>
    <trkpt lat="42.317698" lon="-2.967557">
      <ele>1080.1</ele>
    </trkpt>
    <trkpt lat="42.317897" lon="-2.967386">
      <ele>1083</ele>
    </trkpt>
    <trkpt lat="42.318237" lon="-2.966843">
      <ele>1089.1</ele>
    </trkpt>
    <trkpt lat="42.318372" lon="-2.966704">
      <ele>1090.6</ele>
    </trkpt>
    <trkpt lat="42.31863" lon="-2.966637">
      <ele>1092.3</ele>
    </trkpt>
    <trkpt lat="42.318739" lon="-2.96653">
      <ele>1092.9</ele>
    </trkpt>
    <trkpt lat="42.318816" lon="-2.966255">
      <ele>1093.4</ele>
    </trkpt>
    <trkpt lat="42.318532" lon="-2.966444">
      <ele>1093.6</ele>
    </trkpt>
    <trkpt lat="42.318475" lon="-2.966449">
      <ele>1093.5</ele>
    </trkpt>
    <trkpt lat="42.31838" lon="-2.966419">
      <ele>1093.5</ele>
    </trkpt>
    <trkpt lat="42.318173" lon="-2.966275">
      <ele>1093.3</ele>
    </trkpt>
    <trkpt lat="42.31811" lon="-2.966268">
      <ele>1093.3</ele>
    </trkpt>
    <trkpt lat="42.317774" lon="-2.966396">
      <ele>1092.9</ele>
    </trkpt>
    <trkpt lat="42.317411" lon="-2.966494">
      <ele>1093.7</ele>
    </trkpt>
    <trkpt lat="42.316903" lon="-2.966419">
      <ele>1097.3</ele>
    </trkpt>
    <trkpt lat="42.316845" lon="-2.966457">
      <ele>1097.8</ele>
    </trkpt>
    <trkpt lat="42.31668" lon="-2.966379">
      <ele>1099.5</ele>
    </trkpt>
    <trkpt lat="42.316469" lon="-2.966363">
      <ele>1101.9</ele>
    </trkpt>
    <trkpt lat="42.316394" lon="-2.966293">
      <ele>1103</ele>
    </trkpt>
    <trkpt lat="42.31643" lon="-2.96618">
      <ele>1104.2</ele>
    </trkpt>
    <trkpt lat="42.31635" lon="-2.966111">
      <ele>1105.5</ele>
    </trkpt>
    <trkpt lat="42.316188" lon="-2.966041">
      <ele>1108</ele>
    </trkpt>
    <trkpt lat="42.31616" lon="-2.965976">
      <ele>1108.9</ele>
    </trkpt>
    <trkpt lat="42.316049" lon="-2.966025">
      <ele>1110.8</ele>
    </trkpt>
    <trkpt lat="42.316093" lon="-2.966094">
      <ele>1111.8</ele>
    </trkpt>
    <trkpt lat="42.316065" lon="-2.966255">
      <ele>1114</ele>
    </trkpt>
    <trkpt lat="42.316037" lon="-2.966293">
      <ele>1114.7</ele>
    </trkpt>
    <trkpt lat="42.316044" lon="-2.966396">
      <ele>1116</ele>
    </trkpt>
    <trkpt lat="42.315983" lon="-2.966512">
      <ele>1117.8</ele>
    </trkpt>
    <trkpt lat="42.31597" lon="-2.966703">
      <ele>1120.1</ele>
    </trkpt>
    <trkpt lat="42.315855" lon="-2.96682">
      <ele>1122.5</ele>
    </trkpt>
    <trkpt lat="42.315722" lon="-2.966902">
      <ele>1124.9</ele>
    </trkpt>
    <trkpt lat="42.315675" lon="-2.966891">
      <ele>1125.7</ele>
    </trkpt>
    <trkpt lat="42.315261" lon="-2.967192">
      <ele>1133.8</ele>
    </trkpt>
    <trkpt lat="42.31524" lon="-2.967514">
      <ele>1138.6</ele>
    </trkpt>
    <trkpt lat="42.315109" lon="-2.967758">
      <ele>1143.4</ele>
    </trkpt>
    <trkpt lat="42.315026" lon="-2.968013">
      <ele>1147.9</ele>
    </trkpt>
    <trkpt lat="42.315041" lon="-2.968091">
      <ele>1149.3</ele>
    </trkpt>
    <trkpt lat="42.315041" lon="-2.968094">
      <ele>1149.4</ele>
    </trkpt>
    <trkpt lat="42.315013" lon="-2.968264">
      <ele>1152.2</ele>
    </trkpt>
    <trkpt lat="42.314965" lon="-2.968332">
      <ele>1153.6</ele>
    </trkpt>
    <trkpt lat="42.314748" lon="-2.968119">
      <ele>1159.1</ele>
    </trkpt>
    <trkpt lat="42.314642" lon="-2.967849">
      <ele>1163.2</ele>
    </trkpt>
    <trkpt lat="42.314572" lon="-2.967767">
      <ele>1164.9</ele>
    </trkpt>
    <trkpt lat="42.314269" lon="-2.967667">
      <ele>1169.9</ele>
    </trkpt>
    <trkpt lat="42.314197" lon="-2.967603">
      <ele>1171.2</ele>
    </trkpt>
    <trkpt lat="42.31415" lon="-2.967445">
      <ele>1172.9</ele>
    </trkpt>
    <trkpt lat="42.314174" lon="-2.967253">
      <ele>1174.9</ele>
    </trkpt>
    <trkpt lat="42.314328" lon="-2.96704">
      <ele>1177.4</ele>
    </trkpt>
    <trkpt lat="42.314541" lon="-2.966538">
      <ele>1181.4</ele>
    </trkpt>
    <trkpt lat="42.314593" lon="-2.96615">
      <ele>1183.8</ele>
    </trkpt>
    <trkpt lat="42.314591" lon="-2.965911">
      <ele>1185.2</ele>
    </trkpt>
    <trkpt lat="42.31449" lon="-2.965466">
      <ele>1188.4</ele>
    </trkpt>
    <trkpt lat="42.314363" lon="-2.965074">
      <ele>1191.4</ele>
    </trkpt>
    <trkpt lat="42.314243" lon="-2.964177">
      <ele>1196.7</ele>
    </trkpt>
    <trkpt lat="42.314213" lon="-2.964104">
      <ele>1197</ele>
    </trkpt>
    <trkpt lat="42.314181" lon="-2.964106">
      <ele>1197.1</ele>
    </trkpt>
    <trkpt lat="42.314159" lon="-2.964179">
      <ele>1197.4</ele>
    </trkpt>
    <trkpt lat="42.314208" lon="-2.964872">
      <ele>1198.4</ele>
    </trkpt>
    <trkpt lat="42.314195" lon="-2.96511">
      <ele>1198.4</ele>
    </trkpt>
    <trkpt lat="42.314133" lon="-2.965685">
      <ele>1198.6</ele>
    </trkpt>
    <trkpt lat="42.313961" lon="-2.966331">
      <ele>1200.2</ele>
    </trkpt>
    <trkpt lat="42.313863" lon="-2.966576">
      <ele>1201.6</ele>
    </trkpt>
    <trkpt lat="42.313178" lon="-2.967344">
      <ele>1210.2</ele>
    </trkpt>
    <trkpt lat="42.313087" lon="-2.967564">
      <ele>1212.1</ele>
    </trkpt>
    <trkpt lat="42.313101" lon="-2.967669">
      <ele>1212.9</ele>
    </trkpt>
    <trkpt lat="42.313296" lon="-2.967931">
      <ele>1215</ele>
    </trkpt>
    <trkpt lat="42.313456" lon="-2.968234">
      <ele>1216.6</ele>
    </trkpt>
    <trkpt lat="42.313522" lon="-2.968474">
      <ele>1217.3</ele>
    </trkpt>
    <trkpt lat="42.313539" lon="-2.96876">
      <ele>1217.9</ele>
    </trkpt>
    <trkpt lat="42.313492" lon="-2.969031">
      <ele>1218.3</ele>
    </trkpt>
    <trkpt lat="42.313202" lon="-2.969812">
      <ele>1220.4</ele>
    </trkpt>
    <trkpt lat="42.312893" lon="-2.970307">
      <ele>1222.2</ele>
    </trkpt>
    <trkpt lat="42.312844" lon="-2.970349">
      <ele>1222.5</ele>
    </trkpt>
    <trkpt lat="42.312795" lon="-2.970338">
      <ele>1222.9</ele>
    </trkpt>
    <trkpt lat="42.312788" lon="-2.970243">
      <ele>1223.3</ele>
    </trkpt>
    <trkpt lat="42.312812" lon="-2.970167">
      <ele>1223.8</ele>
    </trkpt>
    <trkpt lat="42.313034" lon="-2.969721">
      <ele>1227.6</ele>
    </trkpt>
    <trkpt lat="42.313093" lon="-2.969512">
      <ele>1229.8</ele>
    </trkpt>
    <trkpt lat="42.31312" lon="-2.969294">
      <ele>1232.1</ele>
    </trkpt>
    <trkpt lat="42.313106" lon="-2.968937">
      <ele>1236.1</ele>
    </trkpt>
    <trkpt lat="42.312998" lon="-2.968621">
      <ele>1240</ele>
    </trkpt>
    <trkpt lat="42.312757" lon="-2.968227">
      <ele>1245.9</ele>
    </trkpt>
    <trkpt lat="42.312612" lon="-2.968069">
      <ele>1248.5</ele>
    </trkpt>
    <trkpt lat="42.312245" lon="-2.967788">
      <ele>1252.5</ele>
    </trkpt>
    <trkpt lat="42.312199" lon="-2.967707">
      <ele>1252.9</ele>
    </trkpt>
    <trkpt lat="42.312206" lon="-2.96757">
      <ele>1253.3</ele>
    </trkpt>
    <trkpt lat="42.312247" lon="-2.967424">
      <ele>1253.5</ele>
    </trkpt>
    <trkpt lat="42.312206" lon="-2.96757">
      <ele>1253.3</ele>
    </trkpt>
    <trkpt lat="42.312199" lon="-2.967707">
      <ele>1252.9</ele>
    </trkpt>
    <trkpt lat="42.312245" lon="-2.967788">
      <ele>1252.5</ele>
    </trkpt>
    <trkpt lat="42.312612" lon="-2.968069">
      <ele>1248.5</ele>
    </trkpt>
    <trkpt lat="42.312757" lon="-2.968227">
      <ele>1245.9</ele>
    </trkpt>
    <trkpt lat="42.312998" lon="-2.968621">
      <ele>1240</ele>
    </trkpt>
    <trkpt lat="42.313106" lon="-2.968937">
      <ele>1236.1</ele>
    </trkpt>
    <trkpt lat="42.31312" lon="-2.969294">
      <ele>1232.8</ele>
    </trkpt>
    <trkpt lat="42.313093" lon="-2.969512">
      <ele>1231.1</ele>
    </trkpt>
    <trkpt lat="42.313034" lon="-2.969721">
      <ele>1229.7</ele>
    </trkpt>
    <trkpt lat="42.312812" lon="-2.970167">
      <ele>1227.8</ele>
    </trkpt>
    <trkpt lat="42.312788" lon="-2.970243">
      <ele>1227.7</ele>
    </trkpt>
    <trkpt lat="42.312795" lon="-2.970338">
      <ele>1227.7</ele>
    </trkpt>
    <trkpt lat="42.312244" lon="-2.971168">
      <ele>1231.7</ele>
    </trkpt>
    <trkpt lat="42.311491" lon="-2.971575">
      <ele>1237.6</ele>
    </trkpt>
    <trkpt lat="42.311419" lon="-2.971784">
      <ele>1238.5</ele>
    </trkpt>
    <trkpt lat="42.311435" lon="-2.972069">
      <ele>1239.4</ele>
    </trkpt>
    <trkpt lat="42.311396" lon="-2.973088">
      <ele>1237.9</ele>
    </trkpt>
    <trkpt lat="42.311586" lon="-2.974129">
      <ele>1228.8</ele>
    </trkpt>
    <trkpt lat="42.311411" lon="-2.974762">
      <ele>1222.7</ele>
    </trkpt>
    <trkpt lat="42.311284" lon="-2.974937">
      <ele>1221.1</ele>
    </trkpt>
    <trkpt lat="42.311102" lon="-2.975041">
      <ele>1219.8</ele>
    </trkpt>
    <trkpt lat="42.310796" lon="-2.975058">
      <ele>1218.7</ele>
    </trkpt>
    <trkpt lat="42.310443" lon="-2.974966">
      <ele>1219.1</ele>
    </trkpt>
    <trkpt lat="42.309515" lon="-2.974333">
      <ele>1230.9</ele>
    </trkpt>
    <trkpt lat="42.309198" lon="-2.973978">
      <ele>1236.9</ele>
    </trkpt>
    <trkpt lat="42.308984" lon="-2.974054">
      <ele>1239.9</ele>
    </trkpt>
    <trkpt lat="42.308785" lon="-2.974665">
      <ele>1245.6</ele>
    </trkpt>
    <trkpt lat="42.308777" lon="-2.976124">
      <ele>1254</ele>
    </trkpt>
    <trkpt lat="42.308436" lon="-2.97695">
      <ele>1255.9</ele>
    </trkpt>
    <trkpt lat="42.30827" lon="-2.977787">
      <ele>1257.1</ele>
    </trkpt>
    <trkpt lat="42.307936" lon="-2.978292">
      <ele>1258.1</ele>
    </trkpt>
    <trkpt lat="42.307183" lon="-2.978882">
      <ele>1263.4</ele>
    </trkpt>
    <trkpt lat="42.306683" lon="-2.979815">
      <ele>1273.9</ele>
    </trkpt>
    <trkpt lat="42.306135" lon="-2.980448">
      <ele>1280</ele>
    </trkpt>
    <trkpt lat="42.306008" lon="-2.980952">
      <ele>1280.8</ele>
    </trkpt>
    <trkpt lat="42.305995" lon="-2.982044">
      <ele>1277.6</ele>
    </trkpt>
    <trkpt lat="42.305967" lon="-2.982414">
      <ele>1275.7</ele>
    </trkpt>
    <trkpt lat="42.305929" lon="-2.982645">
      <ele>1274.5</ele>
    </trkpt>
    <trkpt lat="42.305854" lon="-2.982893">
      <ele>1273.3</ele>
    </trkpt>
    <trkpt lat="42.30577" lon="-2.983078">
      <ele>1272.6</ele>
    </trkpt>
    <trkpt lat="42.305461" lon="-2.983538">
      <ele>1271.5</ele>
    </trkpt>
    <trkpt lat="42.305245" lon="-2.98376">
      <ele>1270.8</ele>
    </trkpt>
    <trkpt lat="42.304972" lon="-2.983981">
      <ele>1270</ele>
    </trkpt>
    <trkpt lat="42.304836" lon="-2.983794">
      <ele>1269.5</ele>
    </trkpt>
    <trkpt lat="42.304972" lon="-2.983981">
      <ele>1268.8</ele>
    </trkpt>
    <trkpt lat="42.305554" lon="-2.984527">
      <ele>1264.9</ele>
    </trkpt>
    <trkpt lat="42.30634" lon="-2.985452">
      <ele>1254.6</ele>
    </trkpt>
    <trkpt lat="42.306467" lon="-2.985767">
      <ele>1251.8</ele>
    </trkpt>
    <trkpt lat="42.306562" lon="-2.985907">
      <ele>1250.2</ele>
    </trkpt>
    <trkpt lat="42.30709" lon="-2.986266">
      <ele>1243.7</ele>
    </trkpt>
    <trkpt lat="42.30724" lon="-2.986588">
      <ele>1240.3</ele>
    </trkpt>
    <trkpt lat="42.307514" lon="-2.986974">
      <ele>1235.7</ele>
    </trkpt>
    <trkpt lat="42.307678" lon="-2.987142">
      <ele>1233.4</ele>
    </trkpt>
    <trkpt lat="42.307873" lon="-2.987263">
      <ele>1231.1</ele>
    </trkpt>
    <trkpt lat="42.308292" lon="-2.98739">
      <ele>1226.6</ele>
    </trkpt>
    <trkpt lat="42.309193" lon="-2.98786">
      <ele>1218.7</ele>
    </trkpt>
    <trkpt lat="42.309477" lon="-2.987958">
      <ele>1217</ele>
    </trkpt>
    <trkpt lat="42.309851" lon="-2.988369">
      <ele>1214.2</ele>
    </trkpt>
    <trkpt lat="42.310177" lon="-2.988894">
      <ele>1210.8</ele>
    </trkpt>
    <trkpt lat="42.310538" lon="-2.989157">
      <ele>1208.5</ele>
    </trkpt>
    <trkpt lat="42.310733" lon="-2.989071">
      <ele>1207.3</ele>
    </trkpt>
    <trkpt lat="42.311259" lon="-2.989211">
      <ele>1204.9</ele>
    </trkpt>
    <trkpt lat="42.311501" lon="-2.98934">
      <ele>1203.7</ele>
    </trkpt>
    <trkpt lat="42.311683" lon="-2.989458">
      <ele>1202.8</ele>
    </trkpt>
    <trkpt lat="42.311901" lon="-2.989667">
      <ele>1202</ele>
    </trkpt>
    <trkpt lat="42.31229" lon="-2.989978">
      <ele>1200.6</ele>
    </trkpt>
    <trkpt lat="42.313004" lon="-2.990821">
      <ele>1197.2</ele>
    </trkpt>
    <trkpt lat="42.313317" lon="-2.991523">
      <ele>1194.6</ele>
    </trkpt>
    <trkpt lat="42.313349" lon="-2.991856">
      <ele>1193.5</ele>
    </trkpt>
    <trkpt lat="42.313409" lon="-2.991958">
      <ele>1193</ele>
    </trkpt>
    <trkpt lat="42.31371" lon="-2.992044">
      <ele>1191.4</ele>
    </trkpt>
    <trkpt lat="42.313853" lon="-2.99214">
      <ele>1190.3</ele>
    </trkpt>
    <trkpt lat="42.314" lon="-2.992296">
      <ele>1188.6</ele>
    </trkpt>
    <trkpt lat="42.314317" lon="-2.992736">
      <ele>1183.9</ele>
    </trkpt>
    <trkpt lat="42.314543" lon="-2.992961">
      <ele>1180.9</ele>
    </trkpt>
    <trkpt lat="42.314686" lon="-2.992999">
      <ele>1179.2</ele>
    </trkpt>
    <trkpt lat="42.314781" lon="-2.993041">
      <ele>1178.1</ele>
    </trkpt>
    <trkpt lat="42.314944" lon="-2.993326">
      <ele>1175</ele>
    </trkpt>
    <trkpt lat="42.315063" lon="-2.993481">
      <ele>1173</ele>
    </trkpt>
    <trkpt lat="42.315543" lon="-2.993986">
      <ele>1165.4</ele>
    </trkpt>
    <trkpt lat="42.315765" lon="-2.994286">
      <ele>1161.9</ele>
    </trkpt>
    <trkpt lat="42.31584" lon="-2.994436">
      <ele>1160.4</ele>
    </trkpt>
    <trkpt lat="42.316051" lon="-2.994683">
      <ele>1156.7</ele>
    </trkpt>
    <trkpt lat="42.316134" lon="-2.994989">
      <ele>1152.8</ele>
    </trkpt>
    <trkpt lat="42.316181" lon="-2.99537">
      <ele>1147.6</ele>
    </trkpt>
    <trkpt lat="42.316225" lon="-2.995488">
      <ele>1145.7</ele>
    </trkpt>
    <trkpt lat="42.316423" lon="-2.995783">
      <ele>1140.3</ele>
    </trkpt>
    <trkpt lat="42.316542" lon="-2.996126">
      <ele>1135.3</ele>
    </trkpt>
    <trkpt lat="42.316626" lon="-2.996206">
      <ele>1133.4</ele>
    </trkpt>
    <trkpt lat="42.316753" lon="-2.996212">
      <ele>1131.2</ele>
    </trkpt>
    <trkpt lat="42.317071" lon="-2.99616">
      <ele>1125.3</ele>
    </trkpt>
    <trkpt lat="42.317358" lon="-2.996122">
      <ele>1120.4</ele>
    </trkpt>
    <trkpt lat="42.317893" lon="-2.996017">
      <ele>1112.8</ele>
    </trkpt>
    <trkpt lat="42.318022" lon="-2.995992">
      <ele>1111.2</ele>
    </trkpt>
    <trkpt lat="42.318097" lon="-2.99589">
      <ele>1110.1</ele>
    </trkpt>
    <trkpt lat="42.318174" lon="-2.997009">
      <ele>1100.2</ele>
    </trkpt>
    <trkpt lat="42.318288" lon="-2.997289">
      <ele>1098.1</ele>
    </trkpt>
    <trkpt lat="42.318388" lon="-2.997655">
      <ele>1095.7</ele>
    </trkpt>
    <trkpt lat="42.318529" lon="-2.997928">
      <ele>1093.9</ele>
    </trkpt>
    <trkpt lat="42.318931" lon="-2.998433">
      <ele>1090.8</ele>
    </trkpt>
    <trkpt lat="42.319311" lon="-2.999056">
      <ele>1087.9</ele>
    </trkpt>
    <trkpt lat="42.319446" lon="-2.999166">
      <ele>1087.2</ele>
    </trkpt>
    <trkpt lat="42.319541" lon="-2.999313">
      <ele>1086.4</ele>
    </trkpt>
    <trkpt lat="42.319717" lon="-2.999469">
      <ele>1085</ele>
    </trkpt>
    <trkpt lat="42.319975" lon="-2.999863">
      <ele>1081.6</ele>
    </trkpt>
    <trkpt lat="42.320172" lon="-3.000065">
      <ele>1079</ele>
    </trkpt>
    <trkpt lat="42.32028" lon="-3.000285">
      <ele>1076.7</ele>
    </trkpt>
    <trkpt lat="42.320388" lon="-3.000642">
      <ele>1073.3</ele>
    </trkpt>
    <trkpt lat="42.320395" lon="-3.000835">
      <ele>1071.6</ele>
    </trkpt>
    <trkpt lat="42.320727" lon="-3.001486">
      <ele>1064.7</ele>
    </trkpt>
    <trkpt lat="42.321066" lon="-3.00199">
      <ele>1059.4</ele>
    </trkpt>
    <trkpt lat="42.321344" lon="-3.002192">
      <ele>1056.7</ele>
    </trkpt>
    <trkpt lat="42.321527" lon="-3.002476">
      <ele>1054.4</ele>
    </trkpt>
    <trkpt lat="42.321609" lon="-3.002531">
      <ele>1053.7</ele>
    </trkpt>
    <trkpt lat="42.321735" lon="-3.002737">
      <ele>1052.1</ele>
    </trkpt>
    <trkpt lat="42.321667" lon="-3.003001">
      <ele>1050.5</ele>
    </trkpt>
    <trkpt lat="42.32167" lon="-3.003546">
      <ele>1047</ele>
    </trkpt>
    <trkpt lat="42.321778" lon="-3.004209">
      <ele>1041.5</ele>
    </trkpt>
    <trkpt lat="42.32176" lon="-3.004363">
      <ele>1040</ele>
    </trkpt>
    <trkpt lat="42.321811" lon="-3.004823">
      <ele>1034.6</ele>
    </trkpt>
    <trkpt lat="42.321992" lon="-3.005449">
      <ele>1025.7</ele>
    </trkpt>
    <trkpt lat="42.322184" lon="-3.005994">
      <ele>1015.7</ele>
    </trkpt>
    <trkpt lat="42.322386" lon="-3.006908">
      <ele>995</ele>
    </trkpt>
    <trkpt lat="42.322524" lon="-3.007457">
      <ele>979.6</ele>
    </trkpt>
    <trkpt lat="42.322845" lon="-3.007908">
      <ele>960.6</ele>
    </trkpt>
    <trkpt lat="42.323158" lon="-3.008201">
      <ele>943.2</ele>
    </trkpt>
    <trkpt lat="42.323278" lon="-3.008437">
      <ele>933.1</ele>
    </trkpt>
    <trkpt lat="42.323483" lon="-3.008746">
      <ele>917.7</ele>
    </trkpt>
    <trkpt lat="42.323621" lon="-3.009197">
      <ele>900.7</ele>
    </trkpt>
    <trkpt lat="42.32369" lon="-3.009754">
      <ele>885.7</ele>
    </trkpt>
    <trkpt lat="42.323649" lon="-3.010175">
      <ele>877.8</ele>
    </trkpt>
    <trkpt lat="42.323876" lon="-3.010143">
      <ele>873.8</ele>
    </trkpt>
    <trkpt lat="42.324034" lon="-3.010034">
      <ele>871.8</ele>
    </trkpt>
    <trkpt lat="42.324098" lon="-3.009935">
      <ele>871.1</ele>
    </trkpt>
    <trkpt lat="42.324616" lon="-3.008615">
      <ele>879.2</ele>
    </trkpt>
    <trkpt lat="42.32492" lon="-3.008237">
      <ele>884.7</ele>
    </trkpt>
    <trkpt lat="42.324982" lon="-3.008084">
      <ele>886.2</ele>
    </trkpt>
    <trkpt lat="42.324995" lon="-3.007985">
      <ele>887.1</ele>
    </trkpt>
    <trkpt lat="42.324975" lon="-3.007816">
      <ele>888.4</ele>
    </trkpt>
    <trkpt lat="42.324748" lon="-3.007416">
      <ele>891.7</ele>
    </trkpt>
    <trkpt lat="42.324704" lon="-3.007225">
      <ele>892.9</ele>
    </trkpt>
    <trkpt lat="42.325207" lon="-3.005899">
      <ele>903.4</ele>
    </trkpt>
    <trkpt lat="42.325238" lon="-3.005741">
      <ele>904.9</ele>
    </trkpt>
    <trkpt lat="42.325246" lon="-3.00544">
      <ele>908</ele>
    </trkpt>
    <trkpt lat="42.325144" lon="-3.005151">
      <ele>911.6</ele>
    </trkpt>
    <trkpt lat="42.325049" lon="-3.005072">
      <ele>913.2</ele>
    </trkpt>
    <trkpt lat="42.324835" lon="-3.004958">
      <ele>916.4</ele>
    </trkpt>
    <trkpt lat="42.324511" lon="-3.004868">
      <ele>920.5</ele>
    </trkpt>
    <trkpt lat="42.324369" lon="-3.004719">
      <ele>922.4</ele>
    </trkpt>
    <trkpt lat="42.324334" lon="-3.004587">
      <ele>923.4</ele>
    </trkpt>
    <trkpt lat="42.324365" lon="-3.004341">
      <ele>924.9</ele>
    </trkpt>
    <trkpt lat="42.324813" lon="-3.003217">
      <ele>934.7</ele>
    </trkpt>
    <trkpt lat="42.324812" lon="-3.002939">
      <ele>936.7</ele>
    </trkpt>
    <trkpt lat="42.324751" lon="-3.002787">
      <ele>937.9</ele>
    </trkpt>
    <trkpt lat="42.324429" lon="-3.002248">
      <ele>943.7</ele>
    </trkpt>
    <trkpt lat="42.324371" lon="-3.001952">
      <ele>946.7</ele>
    </trkpt>
    <trkpt lat="42.324367" lon="-3.001775">
      <ele>948.6</ele>
    </trkpt>
    <trkpt lat="42.324315" lon="-3.001445">
      <ele>952</ele>
    </trkpt>
    <trkpt lat="42.324239" lon="-3.001251">
      <ele>953.7</ele>
    </trkpt>
    <trkpt lat="42.323816" lon="-3.000579">
      <ele>956.7</ele>
    </trkpt>
    <trkpt lat="42.323778" lon="-3.000445">
      <ele>956.9</ele>
    </trkpt>
    <trkpt lat="42.323762" lon="-3.000308">
      <ele>957.1</ele>
    </trkpt>
    <trkpt lat="42.323796" lon="-2.999977">
      <ele>957.6</ele>
    </trkpt>
    <trkpt lat="42.323764" lon="-2.999783">
      <ele>958</ele>
    </trkpt>
    <trkpt lat="42.323692" lon="-2.999614">
      <ele>958.3</ele>
    </trkpt>
    <trkpt lat="42.323495" lon="-2.999327">
      <ele>959.1</ele>
    </trkpt>
    <trkpt lat="42.323422" lon="-2.999144">
      <ele>959.7</ele>
    </trkpt>
    <trkpt lat="42.323148" lon="-2.998223">
      <ele>964.5</ele>
    </trkpt>
    <trkpt lat="42.322823" lon="-2.997857">
      <ele>967.9</ele>
    </trkpt>
    <trkpt lat="42.322711" lon="-2.997685">
      <ele>969.2</ele>
    </trkpt>
    <trkpt lat="42.322532" lon="-2.997187">
      <ele>971.8</ele>
    </trkpt>
    <trkpt lat="42.322464" lon="-2.996836">
      <ele>973</ele>
    </trkpt>
    <trkpt lat="42.322426" lon="-2.995645">
      <ele>974.1</ele>
    </trkpt>
    <trkpt lat="42.3224" lon="-2.995375">
      <ele>974.1</ele>
    </trkpt>
    <trkpt lat="42.322345" lon="-2.995177">
      <ele>974.2</ele>
    </trkpt>
    <trkpt lat="42.322212" lon="-2.994927">
      <ele>974.8</ele>
    </trkpt>
    <trkpt lat="42.322089" lon="-2.99482">
      <ele>975.3</ele>
    </trkpt>
    <trkpt lat="42.321655" lon="-2.994558">
      <ele>977.3</ele>
    </trkpt>
    <trkpt lat="42.321277" lon="-2.994181">
      <ele>979.4</ele>
    </trkpt>
    <trkpt lat="42.321132" lon="-2.99399">
      <ele>980.2</ele>
    </trkpt>
    <trkpt lat="42.320419" lon="-2.992593">
      <ele>983.8</ele>
    </trkpt>
    <trkpt lat="42.320318" lon="-2.992433">
      <ele>984.7</ele>
    </trkpt>
    <trkpt lat="42.320219" lon="-2.992329">
      <ele>985.6</ele>
    </trkpt>
    <trkpt lat="42.320129" lon="-2.992279">
      <ele>986.3</ele>
    </trkpt>
    <trkpt lat="42.319964" lon="-2.992258">
      <ele>987.7</ele>
    </trkpt>
    <trkpt lat="42.319861" lon="-2.992277">
      <ele>988.6</ele>
    </trkpt>
    <trkpt lat="42.319578" lon="-2.99249">
      <ele>991.7</ele>
    </trkpt>
    <trkpt lat="42.319497" lon="-2.992514">
      <ele>992.4</ele>
    </trkpt>
    <trkpt lat="42.319429" lon="-2.992518">
      <ele>993.1</ele>
    </trkpt>
    <trkpt lat="42.319307" lon="-2.992437">
      <ele>994.3</ele>
    </trkpt>
    <trkpt lat="42.319275" lon="-2.992362">
      <ele>994.8</ele>
    </trkpt>
    <trkpt lat="42.319179" lon="-2.991846">
      <ele>998</ele>
    </trkpt>
    <trkpt lat="42.319079" lon="-2.991645">
      <ele>998.9</ele>
    </trkpt>
    <trkpt lat="42.319018" lon="-2.991585">
      <ele>999.2</ele>
    </trkpt>
    <trkpt lat="42.318749" lon="-2.991493">
      <ele>999.8</ele>
    </trkpt>
    <trkpt lat="42.318692" lon="-2.991427">
      <ele>999.8</ele>
    </trkpt>
    <trkpt lat="42.318616" lon="-2.991198">
      <ele>1000</ele>
    </trkpt>
    <trkpt lat="42.318624" lon="-2.990624">
      <ele>1000.8</ele>
    </trkpt>
    <trkpt lat="42.318595" lon="-2.990508">
      <ele>1001.1</ele>
    </trkpt>
    <trkpt lat="42.318353" lon="-2.99017">
      <ele>1002.9</ele>
    </trkpt>
    <trkpt lat="42.318259" lon="-2.990077">
      <ele>1003.6</ele>
    </trkpt>
    <trkpt lat="42.318137" lon="-2.990017">
      <ele>1004.6</ele>
    </trkpt>
    <trkpt lat="42.318062" lon="-2.990028">
      <ele>1005.2</ele>
    </trkpt>
    <trkpt lat="42.317967" lon="-2.990103">
      <ele>1006</ele>
    </trkpt>
    <trkpt lat="42.317678" lon="-2.990451">
      <ele>1008.7</ele>
    </trkpt>
    <trkpt lat="42.317633" lon="-2.990466">
      <ele>1009</ele>
    </trkpt>
    <trkpt lat="42.317565" lon="-2.990435">
      <ele>1009.4</ele>
    </trkpt>
    <trkpt lat="42.317548" lon="-2.990399">
      <ele>1009.6</ele>
    </trkpt>
    <trkpt lat="42.31753" lon="-2.990361">
      <ele>1009.7</ele>
    </trkpt>
    <trkpt lat="42.317405" lon="-2.989846">
      <ele>1011.2</ele>
    </trkpt>
    <trkpt lat="42.317229" lon="-2.98955">
      <ele>1011.1</ele>
    </trkpt>
    <trkpt lat="42.317221" lon="-2.989235">
      <ele>1010.5</ele>
    </trkpt>
    <trkpt lat="42.317349" lon="-2.989039">
      <ele>1009.7</ele>
    </trkpt>
    <trkpt lat="42.317363" lon="-2.98886">
      <ele>1009</ele>
    </trkpt>
    <trkpt lat="42.317147" lon="-2.988292">
      <ele>1007.1</ele>
    </trkpt>
    <trkpt lat="42.31696" lon="-2.987981">
      <ele>1006.5</ele>
    </trkpt>
    <trkpt lat="42.316798" lon="-2.987765">
      <ele>1006.6</ele>
    </trkpt>
    <trkpt lat="42.31665" lon="-2.987621">
      <ele>1007</ele>
    </trkpt>
    <trkpt lat="42.316503" lon="-2.987495">
      <ele>1007.6</ele>
    </trkpt>
    <trkpt lat="42.316226" lon="-2.98737">
      <ele>1009</ele>
    </trkpt>
    <trkpt lat="42.315505" lon="-2.98681">
      <ele>1012.8</ele>
    </trkpt>
    <trkpt lat="42.315433" lon="-2.986661">
      <ele>1013.3</ele>
    </trkpt>
    <trkpt lat="42.315435" lon="-2.986602">
      <ele>1013.4</ele>
    </trkpt>
    <trkpt lat="42.315697" lon="-2.986223">
      <ele>1014.7</ele>
    </trkpt>
    <trkpt lat="42.315723" lon="-2.986063">
      <ele>1015.1</ele>
    </trkpt>
    <trkpt lat="42.315705" lon="-2.985982">
      <ele>1015.3</ele>
    </trkpt>
    <trkpt lat="42.315258" lon="-2.985207">
      <ele>1017.6</ele>
    </trkpt>
    <trkpt lat="42.314473" lon="-2.983694">
      <ele>1024.3</ele>
    </trkpt>
    <trkpt lat="42.314269" lon="-2.983351">
      <ele>1026.3</ele>
    </trkpt>
    <trkpt lat="42.3142" lon="-2.983297">
      <ele>1026.8</ele>
    </trkpt>
    <trkpt lat="42.31407" lon="-2.983274">
      <ele>1027.8</ele>
    </trkpt>
    <trkpt lat="42.313992" lon="-2.983295">
      <ele>1028.4</ele>
    </trkpt>
    <trkpt lat="42.313854" lon="-2.983401">
      <ele>1029.6</ele>
    </trkpt>
    <trkpt lat="42.313745" lon="-2.983421">
      <ele>1030.5</ele>
    </trkpt>
    <trkpt lat="42.313688" lon="-2.983401">
      <ele>1031</ele>
    </trkpt>
    <trkpt lat="42.313584" lon="-2.983299">
      <ele>1032.2</ele>
    </trkpt>
    <trkpt lat="42.31353" lon="-2.983181">
      <ele>1033.2</ele>
    </trkpt>
    <trkpt lat="42.313423" lon="-2.98305">
      <ele>1034.6</ele>
    </trkpt>
    <trkpt lat="42.312675" lon="-2.982828">
      <ele>1042</ele>
    </trkpt>
    <trkpt lat="42.31232" lon="-2.982694">
      <ele>1045</ele>
    </trkpt>
    <trkpt lat="42.311907" lon="-2.982486">
      <ele>1047.2</ele>
    </trkpt>
    <trkpt lat="42.311808" lon="-2.982414">
      <ele>1047.6</ele>
    </trkpt>
    <trkpt lat="42.311723" lon="-2.982272">
      <ele>1048</ele>
    </trkpt>
    <trkpt lat="42.311749" lon="-2.982186">
      <ele>1048.2</ele>
    </trkpt>
    <trkpt lat="42.311791" lon="-2.982156">
      <ele>1048.3</ele>
    </trkpt>
    <trkpt lat="42.312456" lon="-2.982058">
      <ele>1048.4</ele>
    </trkpt>
    <trkpt lat="42.313153" lon="-2.981735">
      <ele>1047.8</ele>
    </trkpt>
    <trkpt lat="42.313711" lon="-2.981596">
      <ele>1048.6</ele>
    </trkpt>
    <trkpt lat="42.314351" lon="-2.981367">
      <ele>1049.9</ele>
    </trkpt>
    <trkpt lat="42.314653" lon="-2.981339">
      <ele>1050.8</ele>
    </trkpt>
    <trkpt lat="42.314802" lon="-2.981352">
      <ele>1051.5</ele>
    </trkpt>
    <trkpt lat="42.315057" lon="-2.981438">
      <ele>1053</ele>
    </trkpt>
    <trkpt lat="42.315288" lon="-2.981477">
      <ele>1054.7</ele>
    </trkpt>
    <trkpt lat="42.3155" lon="-2.981448">
      <ele>1056.6</ele>
    </trkpt>
    <trkpt lat="42.315596" lon="-2.981402">
      <ele>1057.6</ele>
    </trkpt>
    <trkpt lat="42.31566" lon="-2.981326">
      <ele>1058.4</ele>
    </trkpt>
    <trkpt lat="42.315683" lon="-2.981185">
      <ele>1059.5</ele>
    </trkpt>
    <trkpt lat="42.315639" lon="-2.980941">
      <ele>1061.5</ele>
    </trkpt>
    <trkpt lat="42.315641" lon="-2.980793">
      <ele>1062.7</ele>
    </trkpt>
    <trkpt lat="42.31597" lon="-2.980084">
      <ele>1070.8</ele>
    </trkpt>
    <trkpt lat="42.316089" lon="-2.979761">
      <ele>1074.7</ele>
    </trkpt>
    <trkpt lat="42.316111" lon="-2.979661">
      <ele>1075.8</ele>
    </trkpt>
    <trkpt lat="42.316117" lon="-2.979319">
      <ele>1079.6</ele>
    </trkpt>
    <trkpt lat="42.316086" lon="-2.978996">
      <ele>1083</ele>
    </trkpt>
    <trkpt lat="42.315958" lon="-2.978749">
      <ele>1086</ele>
    </trkpt>
    <trkpt lat="42.315848" lon="-2.978633">
      <ele>1087.7</ele>
    </trkpt>
    <trkpt lat="42.315269" lon="-2.978202">
      <ele>1095.5</ele>
    </trkpt>
    <trkpt lat="42.315229" lon="-2.978146">
      <ele>1096.1</ele>
    </trkpt>
    <trkpt lat="42.315187" lon="-2.977968">
      <ele>1097.5</ele>
    </trkpt>
    <trkpt lat="42.315253" lon="-2.977085">
      <ele>1101.9</ele>
    </trkpt>
    <trkpt lat="42.315295" lon="-2.976895">
      <ele>1102.4</ele>
    </trkpt>
    <trkpt lat="42.315422" lon="-2.976538">
      <ele>1103</ele>
    </trkpt>
    <trkpt lat="42.315812" lon="-2.975865">
      <ele>1104</ele>
    </trkpt>
    <trkpt lat="42.315896" lon="-2.975423">
      <ele>1104.7</ele>
    </trkpt>
    <trkpt lat="42.315892" lon="-2.975148">
      <ele>1105.1</ele>
    </trkpt>
    <trkpt lat="42.315678" lon="-2.97446">
      <ele>1106</ele>
    </trkpt>
    <trkpt lat="42.315601" lon="-2.974115">
      <ele>1107.2</ele>
    </trkpt>
    <trkpt lat="42.315567" lon="-2.973963">
      <ele>1108.1</ele>
    </trkpt>
    <trkpt lat="42.315469" lon="-2.973666">
      <ele>1110.1</ele>
    </trkpt>
    <trkpt lat="42.315414" lon="-2.973578">
      <ele>1110.9</ele>
    </trkpt>
    <trkpt lat="42.315314" lon="-2.973525">
      <ele>1112</ele>
    </trkpt>
    <trkpt lat="42.314963" lon="-2.973468">
      <ele>1116.1</ele>
    </trkpt>
    <trkpt lat="42.314613" lon="-2.973336">
      <ele>1120.7</ele>
    </trkpt>
    <trkpt lat="42.313911" lon="-2.973285">
      <ele>1130.5</ele>
    </trkpt>
    <trkpt lat="42.313698" lon="-2.973227">
      <ele>1133.3</ele>
    </trkpt>
    <trkpt lat="42.313581" lon="-2.973129">
      <ele>1135</ele>
    </trkpt>
    <trkpt lat="42.313592" lon="-2.972964">
      <ele>1136.3</ele>
    </trkpt>
    <trkpt lat="42.313971" lon="-2.972399">
      <ele>1141.1</ele>
    </trkpt>
    <trkpt lat="42.314496" lon="-2.971348">
      <ele>1147.1</ele>
    </trkpt>
    <trkpt lat="42.314526" lon="-2.971123">
      <ele>1148.4</ele>
    </trkpt>
    <trkpt lat="42.314534" lon="-2.970782">
      <ele>1150.2</ele>
    </trkpt>
    <trkpt lat="42.314625" lon="-2.97025">
      <ele>1152.5</ele>
    </trkpt>
    <trkpt lat="42.31468" lon="-2.969701">
      <ele>1154.4</ele>
    </trkpt>
    <trkpt lat="42.31483" lon="-2.968979">
      <ele>1157.4</ele>
    </trkpt>
    <trkpt lat="42.314839" lon="-2.968582">
      <ele>1159.3</ele>
    </trkpt>
    <trkpt lat="42.314787" lon="-2.968315">
      <ele>1160.9</ele>
    </trkpt>
    <trkpt lat="42.314762" lon="-2.968554">
      <ele>1162.3</ele>
    </trkpt>
    <trkpt lat="42.314624" lon="-2.969107">
      <ele>1166.4</ele>
    </trkpt>
    <trkpt lat="42.314425" lon="-2.969522">
      <ele>1170.3</ele>
    </trkpt>
    <trkpt lat="42.314299" lon="-2.969676">
      <ele>1172.1</ele>
    </trkpt>
    <trkpt lat="42.314227" lon="-2.969872">
      <ele>1173.8</ele>
    </trkpt>
    <trkpt lat="42.314161" lon="-2.969945">
      <ele>1174.6</ele>
    </trkpt>
    <trkpt lat="42.313969" lon="-2.970376">
      <ele>1177.8</ele>
    </trkpt>
    <trkpt lat="42.313944" lon="-2.970506">
      <ele>1178.6</ele>
    </trkpt>
    <trkpt lat="42.313878" lon="-2.970628">
      <ele>1179.4</ele>
    </trkpt>
    <trkpt lat="42.313644" lon="-2.970815">
      <ele>1181.5</ele>
    </trkpt>
    <trkpt lat="42.313463" lon="-2.971181">
      <ele>1184.2</ele>
    </trkpt>
    <trkpt lat="42.313235" lon="-2.971506">
      <ele>1187.4</ele>
    </trkpt>
    <trkpt lat="42.313127" lon="-2.97162">
      <ele>1188.9</ele>
    </trkpt>
    <trkpt lat="42.312922" lon="-2.97175">
      <ele>1191.6</ele>
    </trkpt>
    <trkpt lat="42.312862" lon="-2.971839">
      <ele>1192.7</ele>
    </trkpt>
    <trkpt lat="42.312622" lon="-2.972002">
      <ele>1196.2</ele>
    </trkpt>
    <trkpt lat="42.312159" lon="-2.972026">
      <ele>1202.6</ele>
    </trkpt>
    <trkpt lat="42.312081" lon="-2.972075">
      <ele>1203.7</ele>
    </trkpt>
    <trkpt lat="42.311954" lon="-2.972384">
      <ele>1207.2</ele>
    </trkpt>
    <trkpt lat="42.311918" lon="-2.972563">
      <ele>1208.9</ele>
    </trkpt>
    <trkpt lat="42.311852" lon="-2.973092">
      <ele>1213.3</ele>
    </trkpt>
    <trkpt lat="42.31187" lon="-2.973474">
      <ele>1215.6</ele>
    </trkpt>
    <trkpt lat="42.311894" lon="-2.973596">
      <ele>1216.1</ele>
    </trkpt>
    <trkpt lat="42.311882" lon="-2.973734">
      <ele>1216.7</ele>
    </trkpt>
    <trkpt lat="42.311786" lon="-2.974303">
      <ele>1217.5</ele>
    </trkpt>
    <trkpt lat="42.31172" lon="-2.974409">
      <ele>1217.5</ele>
    </trkpt>
    <trkpt lat="42.311672" lon="-2.974734">
      <ele>1217.2</ele>
    </trkpt>
    <trkpt lat="42.311449" lon="-2.97501">
      <ele>1216.9</ele>
    </trkpt>
    <trkpt lat="42.311347" lon="-2.975051">
      <ele>1216.9</ele>
    </trkpt>
    <trkpt lat="42.311102" lon="-2.975041">
      <ele>1216.9</ele>
    </trkpt>
    <trkpt lat="42.310796" lon="-2.975058">
      <ele>1217.3</ele>
    </trkpt>
    <trkpt lat="42.310443" lon="-2.974966">
      <ele>1218.6</ele>
    </trkpt>
    <trkpt lat="42.309515" lon="-2.974333">
      <ele>1230.9</ele>
    </trkpt>
    <trkpt lat="42.309198" lon="-2.973978">
      <ele>1236.9</ele>
    </trkpt>
    <trkpt lat="42.308984" lon="-2.974054">
      <ele>1239.9</ele>
    </trkpt>
    <trkpt lat="42.308785" lon="-2.974665">
      <ele>1245.6</ele>
    </trkpt>
    <trkpt lat="42.308777" lon="-2.976124">
      <ele>1254</ele>
    </trkpt>
    <trkpt lat="42.308436" lon="-2.97695">
      <ele>1255.9</ele>
    </trkpt>
    <trkpt lat="42.30827" lon="-2.977787">
      <ele>1257.1</ele>
    </trkpt>
    <trkpt lat="42.307936" lon="-2.978292">
      <ele>1258.1</ele>
    </trkpt>
    <trkpt lat="42.307183" lon="-2.978882">
      <ele>1263.4</ele>
    </trkpt>
    <trkpt lat="42.306683" lon="-2.979815">
      <ele>1273.9</ele>
    </trkpt>
    <trkpt lat="42.306135" lon="-2.980448">
      <ele>1280</ele>
    </trkpt>
    <trkpt lat="42.306008" lon="-2.980952">
      <ele>1280.8</ele>
    </trkpt>
    <trkpt lat="42.305995" lon="-2.982044">
      <ele>1277.6</ele>
    </trkpt>
    <trkpt lat="42.305967" lon="-2.982414">
      <ele>1275.7</ele>
    </trkpt>
    <trkpt lat="42.305929" lon="-2.982645">
      <ele>1274.5</ele>
    </trkpt>
    <trkpt lat="42.305854" lon="-2.982893">
      <ele>1273.3</ele>
    </trkpt>
    <trkpt lat="42.30577" lon="-2.983078">
      <ele>1272.6</ele>
    </trkpt>
    <trkpt lat="42.305461" lon="-2.983538">
      <ele>1270.6</ele>
    </trkpt>
    <trkpt lat="42.305245" lon="-2.98376">
      <ele>1269.5</ele>
    </trkpt>
    <trkpt lat="42.304972" lon="-2.983981">
      <ele>1268.3</ele>
    </trkpt>
    <trkpt lat="42.305554" lon="-2.984527">
      <ele>1264.6</ele>
    </trkpt>
    <trkpt lat="42.30634" lon="-2.985452">
      <ele>1254.6</ele>
    </trkpt>
    <trkpt lat="42.306467" lon="-2.985767">
      <ele>1251.8</ele>
    </trkpt>
    <trkpt lat="42.306562" lon="-2.985907">
      <ele>1250.2</ele>
    </trkpt>
    <trkpt lat="42.30709" lon="-2.986266">
      <ele>1243.7</ele>
    </trkpt>
    <trkpt lat="42.30724" lon="-2.986588">
      <ele>1240.3</ele>
    </trkpt>
    <trkpt lat="42.307514" lon="-2.986974">
      <ele>1235.7</ele>
    </trkpt>
    <trkpt lat="42.307678" lon="-2.987142">
      <ele>1233.4</ele>
    </trkpt>
    <trkpt lat="42.307873" lon="-2.987263">
      <ele>1231.1</ele>
    </trkpt>
    <trkpt lat="42.308292" lon="-2.98739">
      <ele>1226.6</ele>
    </trkpt>
    <trkpt lat="42.309193" lon="-2.98786">
      <ele>1218.7</ele>
    </trkpt>
    <trkpt lat="42.309477" lon="-2.987958">
      <ele>1217</ele>
    </trkpt>
    <trkpt lat="42.309851" lon="-2.988369">
      <ele>1214.2</ele>
    </trkpt>
    <trkpt lat="42.310177" lon="-2.988894">
      <ele>1209.8</ele>
    </trkpt>
    <trkpt lat="42.310538" lon="-2.989157">
      <ele>1205.3</ele>
    </trkpt>
    <trkpt lat="42.310733" lon="-2.989071">
      <ele>1202.6</ele>
    </trkpt>
    <trkpt lat="42.311556" lon="-2.988728">
      <ele>1190.9</ele>
    </trkpt>
    <trkpt lat="42.311664" lon="-2.988656">
      <ele>1189.1</ele>
    </trkpt>
    <trkpt lat="42.311667" lon="-2.98854">
      <ele>1187.9</ele>
    </trkpt>
    <trkpt lat="42.311557" lon="-2.988305">
      <ele>1185.1</ele>
    </trkpt>
    <trkpt lat="42.311381" lon="-2.988251">
      <ele>1182.6</ele>
    </trkpt>
    <trkpt lat="42.311027" lon="-2.988295">
      <ele>1177.4</ele>
    </trkpt>
    <trkpt lat="42.310917" lon="-2.988283">
      <ele>1175.7</ele>
    </trkpt>
    <trkpt lat="42.310895" lon="-2.988184">
      <ele>1174.6</ele>
    </trkpt>
    <trkpt lat="42.311908" lon="-2.987614">
      <ele>1158.3</ele>
    </trkpt>
    <trkpt lat="42.312239" lon="-2.987575">
      <ele>1154.4</ele>
    </trkpt>
    <trkpt lat="42.312624" lon="-2.987757">
      <ele>1150.8</ele>
    </trkpt>
    <trkpt lat="42.312909" lon="-2.988149">
      <ele>1148.3</ele>
    </trkpt>
    <trkpt lat="42.313007" lon="-2.988457">
      <ele>1146.7</ele>
    </trkpt>
    <trkpt lat="42.313133" lon="-2.989094">
      <ele>1142.8</ele>
    </trkpt>
    <trkpt lat="42.313394" lon="-2.98927">
      <ele>1139.8</ele>
    </trkpt>
    <trkpt lat="42.314115" lon="-2.989254">
      <ele>1130.3</ele>
    </trkpt>
    <trkpt lat="42.314541" lon="-2.989411">
      <ele>1124.7</ele>
    </trkpt>
    <trkpt lat="42.314782" lon="-2.989651">
      <ele>1121.5</ele>
    </trkpt>
    <trkpt lat="42.31502" lon="-2.99">
      <ele>1118.7</ele>
    </trkpt>
    <trkpt lat="42.315103" lon="-2.990257">
      <ele>1117.5</ele>
    </trkpt>
    <trkpt lat="42.315095" lon="-2.990777">
      <ele>1115.9</ele>
    </trkpt>
    <trkpt lat="42.315138" lon="-2.990944">
      <ele>1115.5</ele>
    </trkpt>
    <trkpt lat="42.315229" lon="-2.991002">
      <ele>1115.3</ele>
    </trkpt>
    <trkpt lat="42.315749" lon="-2.990938">
      <ele>1114.5</ele>
    </trkpt>
    <trkpt lat="42.315807" lon="-2.991056">
      <ele>1114.2</ele>
    </trkpt>
    <trkpt lat="42.315778" lon="-2.991244">
      <ele>1113.8</ele>
    </trkpt>
    <trkpt lat="42.31567" lon="-2.991417">
      <ele>1113.2</ele>
    </trkpt>
    <trkpt lat="42.316042" lon="-2.992182">
      <ele>1108.5</ele>
    </trkpt>
    <trkpt lat="42.316313" lon="-2.992528">
      <ele>1104.3</ele>
    </trkpt>
    <trkpt lat="42.317245" lon="-2.992582">
      <ele>1091.4</ele>
    </trkpt>
    <trkpt lat="42.317542" lon="-2.992782">
      <ele>1087.1</ele>
    </trkpt>
    <trkpt lat="42.317895" lon="-2.993075">
      <ele>1082.5</ele>
    </trkpt>
    <trkpt lat="42.318069" lon="-2.993219">
      <ele>1080.5</ele>
    </trkpt>
    <trkpt lat="42.318244" lon="-2.993692">
      <ele>1076.9</ele>
    </trkpt>
    <trkpt lat="42.31869" lon="-2.994202">
      <ele>1071</ele>
    </trkpt>
    <trkpt lat="42.318933" lon="-2.994293">
      <ele>1068.1</ele>
    </trkpt>
    <trkpt lat="42.319339" lon="-2.994256">
      <ele>1062.9</ele>
    </trkpt>
    <trkpt lat="42.319474" lon="-2.994311">
      <ele>1060.9</ele>
    </trkpt>
    <trkpt lat="42.319784" lon="-2.994875">
      <ele>1052.7</ele>
    </trkpt>
    <trkpt lat="42.320095" lon="-2.99513">
      <ele>1046.5</ele>
    </trkpt>
    <trkpt lat="42.320298" lon="-2.995239">
      <ele>1042.7</ele>
    </trkpt>
    <trkpt lat="42.320678" lon="-2.995359">
      <ele>1036.2</ele>
    </trkpt>
    <trkpt lat="42.32103" lon="-2.99557">
      <ele>1030.3</ele>
    </trkpt>
    <trkpt lat="42.321081" lon="-2.995676">
      <ele>1028.9</ele>
    </trkpt>
    <trkpt lat="42.321216" lon="-2.99584">
      <ele>1026.4</ele>
    </trkpt>
    <trkpt lat="42.321284" lon="-2.996095">
      <ele>1023.9</ele>
    </trkpt>
    <trkpt lat="42.321446" lon="-2.995658">
      <ele>1020.2</ele>
    </trkpt>
    <trkpt lat="42.321527" lon="-2.995822">
      <ele>1019</ele>
    </trkpt>
    <trkpt lat="42.321595" lon="-2.996186">
      <ele>1016.8</ele>
    </trkpt>
    <trkpt lat="42.321784" lon="-2.996714">
      <ele>1013.9</ele>
    </trkpt>
    <trkpt lat="42.322135" lon="-2.998006">
      <ele>1004.7</ele>
    </trkpt>
    <trkpt lat="42.322743" lon="-2.999572">
      <ele>988.2</ele>
    </trkpt>
    <trkpt lat="42.323175" lon="-3.000173">
      <ele>980.2</ele>
    </trkpt>
    <trkpt lat="42.323297" lon="-3.000263">
      <ele>978.5</ele>
    </trkpt>
    <trkpt lat="42.323419" lon="-3.000555">
      <ele>975.4</ele>
    </trkpt>
    <trkpt lat="42.324216" lon="-3.001793">
      <ele>958.6</ele>
    </trkpt>
    <trkpt lat="42.324107" lon="-3.001829">
      <ele>956.3</ele>
    </trkpt>
    <trkpt lat="42.324094" lon="-3.001902">
      <ele>955.1</ele>
    </trkpt>
    <trkpt lat="42.324429" lon="-3.002248">
      <ele>945.7</ele>
    </trkpt>
    <trkpt lat="42.324751" lon="-3.002787">
      <ele>935.5</ele>
    </trkpt>
    <trkpt lat="42.32483" lon="-3.002838">
      <ele>933.6</ele>
    </trkpt>
    <trkpt lat="42.324877" lon="-3.003031">
      <ele>930.7</ele>
    </trkpt>
    <trkpt lat="42.324877" lon="-3.003213">
      <ele>928.1</ele>
    </trkpt>
    <trkpt lat="42.324661" lon="-3.004177">
      <ele>914.9</ele>
    </trkpt>
    <trkpt lat="42.324675" lon="-3.004523">
      <ele>911.7</ele>
    </trkpt>
    <trkpt lat="42.325229" lon="-3.00496">
      <ele>903.8</ele>
    </trkpt>
    <trkpt lat="42.325431" lon="-3.005434">
      <ele>897.7</ele>
    </trkpt>
    <trkpt lat="42.325499" lon="-3.005816">
      <ele>893.1</ele>
    </trkpt>
    <trkpt lat="42.325485" lon="-3.006126">
      <ele>889.4</ele>
    </trkpt>
    <trkpt lat="42.325229" lon="-3.007145">
      <ele>876.4</ele>
    </trkpt>
    <trkpt lat="42.325255" lon="-3.007454">
      <ele>872.2</ele>
    </trkpt>
    <trkpt lat="42.325431" lon="-3.007946">
      <ele>864.3</ele>
    </trkpt>
    <trkpt lat="42.325458" lon="-3.008164">
      <ele>861</ele>
    </trkpt>
    <trkpt lat="42.325431" lon="-3.008437">
      <ele>856.8</ele>
    </trkpt>
    <trkpt lat="42.325296" lon="-3.008911">
      <ele>849.2</ele>
    </trkpt>
    <trkpt lat="42.325134" lon="-3.009275">
      <ele>843.2</ele>
    </trkpt>
    <trkpt lat="42.32512" lon="-3.009584">
      <ele>839.4</ele>
    </trkpt>
    <trkpt lat="42.324892" lon="-3.010345">
      <ele>830.3</ele>
    </trkpt>
    <trkpt lat="42.324562" lon="-3.010706">
      <ele>825.5</ele>
    </trkpt>
    <trkpt lat="42.32444" lon="-3.010865">
      <ele>823.9</ele>
    </trkpt>
    <trkpt lat="42.324527" lon="-3.010848">
      <ele>823.1</ele>
    </trkpt>
    <trkpt lat="42.324666" lon="-3.010821">
      <ele>822</ele>
    </trkpt>
    <trkpt lat="42.324922" lon="-3.010708">
      <ele>820</ele>
    </trkpt>
    <trkpt lat="42.32521" lon="-3.01058">
      <ele>817.9</ele>
    </trkpt>
    <trkpt lat="42.3268" lon="-3.009826">
      <ele>809.5</ele>
    </trkpt>
    <trkpt lat="42.326805" lon="-3.010274">
      <ele>809</ele>
    </trkpt>
    <trkpt lat="42.326809" lon="-3.010944">
      <ele>808.8</ele>
    </trkpt>
    <trkpt lat="42.326813" lon="-3.011662">
      <ele>809.1</ele>
    </trkpt>
    <trkpt lat="42.326813" lon="-3.011773">
      <ele>809.2</ele>
    </trkpt>
    <trkpt lat="42.326812" lon="-3.011973">
      <ele>809.3</ele>
    </trkpt>
    <trkpt lat="42.326813" lon="-3.012366">
      <ele>809.5</ele>
    </trkpt>
    <trkpt lat="42.327318" lon="-3.012349">
      <ele>809.7</ele>
    </trkpt>
    <trkpt lat="42.328122" lon="-3.012318">
      <ele>809.1</ele>
    </trkpt>
    <trkpt lat="42.328187" lon="-3.013183">
      <ele>808.8</ele>
    </trkpt>
    <trkpt lat="42.328248" lon="-3.013957">
      <ele>808.5</ele>
    </trkpt>
    <trkpt lat="42.328667" lon="-3.013871">
      <ele>808.3</ele>
    </trkpt>
    <trkpt lat="42.328675" lon="-3.014101">
      <ele>808.3</ele>
    </trkpt>
    </trkseg>
  </trk>
</gpx>
