<?xml version="1.0" encoding="UTF-8"?>
<gpx version="1.1" creator="fitAI Komoot downloader" xmlns="http://www.topografix.com/GPX/1/1">
  <metadata>
    <name>Collado de Márulla y Monte Chilizarrías (1.226 m) - Recorrido circular desde Zorraquín</name>
    <desc>24 visitas · Dificultad: difficult · Distancia: 33.1 km · Desnivel +: 1697 m</desc>
    <link href="https://www.komoot.com/smarttour/e44688270"><text>Komoot</text></link>
  </metadata>
  <trk>
    <name>Collado de Márulla y Monte Chilizarrías (1.226 m) - Recorrido circular desde Zorraquín</name>
    <type>jogging</type>
    <trkseg>
    <trkpt lat="42.325287" lon="-3.014579">
      <ele>815.8</ele>
    </trkpt>
    <trkpt lat="42.325277" lon="-3.01444">
      <ele>815.7</ele>
    </trkpt>
    <trkpt lat="42.325199" lon="-3.014429">
      <ele>815.6</ele>
    </trkpt>
    <trkpt lat="42.325098" lon="-3.01441">
      <ele>815.5</ele>
    </trkpt>
    <trkpt lat="42.325088" lon="-3.014242">
      <ele>815.3</ele>
    </trkpt>
    <trkpt lat="42.325123" lon="-3.013866">
      <ele>814.9</ele>
    </trkpt>
    <trkpt lat="42.325114" lon="-3.013747">
      <ele>814.8</ele>
    </trkpt>
    <trkpt lat="42.325324" lon="-3.013537">
      <ele>814.3</ele>
    </trkpt>
    <trkpt lat="42.326035" lon="-3.013589">
      <ele>812.3</ele>
    </trkpt>
    <trkpt lat="42.326143" lon="-3.013636">
      <ele>812.1</ele>
    </trkpt>
    <trkpt lat="42.326208" lon="-3.013465">
      <ele>811.8</ele>
    </trkpt>
    <trkpt lat="42.326285" lon="-3.013343">
      <ele>811.6</ele>
    </trkpt>
    <trkpt lat="42.326513" lon="-3.013159">
      <ele>811.2</ele>
    </trkpt>
    <trkpt lat="42.326575" lon="-3.013227">
      <ele>811.1</ele>
    </trkpt>
    <trkpt lat="42.326807" lon="-3.013333">
      <ele>810.8</ele>
    </trkpt>
    <trkpt lat="42.326809" lon="-3.012782">
      <ele>810.3</ele>
    </trkpt>
    <trkpt lat="42.326813" lon="-3.012366">
      <ele>809.8</ele>
    </trkpt>
    <trkpt lat="42.326812" lon="-3.011973">
      <ele>809.4</ele>
    </trkpt>
    <trkpt lat="42.326813" lon="-3.011773">
      <ele>809.3</ele>
    </trkpt>
    <trkpt lat="42.326813" lon="-3.011662">
      <ele>809.2</ele>
    </trkpt>
    <trkpt lat="42.326809" lon="-3.010944">
      <ele>808.8</ele>
    </trkpt>
    <trkpt lat="42.326805" lon="-3.010274">
      <ele>809</ele>
    </trkpt>
    <trkpt lat="42.3268" lon="-3.009826">
      <ele>809.5</ele>
    </trkpt>
    <trkpt lat="42.32521" lon="-3.01058">
      <ele>817.9</ele>
    </trkpt>
    <trkpt lat="42.325052" lon="-3.01065">
      <ele>819.1</ele>
    </trkpt>
    <trkpt lat="42.324666" lon="-3.010821">
      <ele>822</ele>
    </trkpt>
    <trkpt lat="42.324527" lon="-3.010848">
      <ele>823.1</ele>
    </trkpt>
    <trkpt lat="42.32444" lon="-3.010865">
      <ele>823.9</ele>
    </trkpt>
    <trkpt lat="42.324562" lon="-3.010706">
      <ele>825.5</ele>
    </trkpt>
    <trkpt lat="42.324892" lon="-3.010345">
      <ele>830.3</ele>
    </trkpt>
    <trkpt lat="42.32512" lon="-3.009584">
      <ele>839.4</ele>
    </trkpt>
    <trkpt lat="42.325134" lon="-3.009275">
      <ele>843.2</ele>
    </trkpt>
    <trkpt lat="42.325296" lon="-3.008911">
      <ele>849.2</ele>
    </trkpt>
    <trkpt lat="42.325431" lon="-3.008437">
      <ele>856.8</ele>
    </trkpt>
    <trkpt lat="42.325458" lon="-3.008164">
      <ele>861</ele>
    </trkpt>
    <trkpt lat="42.325431" lon="-3.007946">
      <ele>864.3</ele>
    </trkpt>
    <trkpt lat="42.325255" lon="-3.007454">
      <ele>872.2</ele>
    </trkpt>
    <trkpt lat="42.325229" lon="-3.007145">
      <ele>876.4</ele>
    </trkpt>
    <trkpt lat="42.325485" lon="-3.006126">
      <ele>889.4</ele>
    </trkpt>
    <trkpt lat="42.325499" lon="-3.005816">
      <ele>893.1</ele>
    </trkpt>
    <trkpt lat="42.325431" lon="-3.005434">
      <ele>897.7</ele>
    </trkpt>
    <trkpt lat="42.325229" lon="-3.00496">
      <ele>903.8</ele>
    </trkpt>
    <trkpt lat="42.324675" lon="-3.004523">
      <ele>911.7</ele>
    </trkpt>
    <trkpt lat="42.324661" lon="-3.004177">
      <ele>914.9</ele>
    </trkpt>
    <trkpt lat="42.324877" lon="-3.003213">
      <ele>928.1</ele>
    </trkpt>
    <trkpt lat="42.324877" lon="-3.003031">
      <ele>930.7</ele>
    </trkpt>
    <trkpt lat="42.32483" lon="-3.002838">
      <ele>933.6</ele>
    </trkpt>
    <trkpt lat="42.324751" lon="-3.002787">
      <ele>935.5</ele>
    </trkpt>
    <trkpt lat="42.324429" lon="-3.002248">
      <ele>945.7</ele>
    </trkpt>
    <trkpt lat="42.324094" lon="-3.001902">
      <ele>955.1</ele>
    </trkpt>
    <trkpt lat="42.324107" lon="-3.001829">
      <ele>956.3</ele>
    </trkpt>
    <trkpt lat="42.324216" lon="-3.001793">
      <ele>958.6</ele>
    </trkpt>
    <trkpt lat="42.323419" lon="-3.000555">
      <ele>975.4</ele>
    </trkpt>
    <trkpt lat="42.323297" lon="-3.000263">
      <ele>978.5</ele>
    </trkpt>
    <trkpt lat="42.323175" lon="-3.000173">
      <ele>980.2</ele>
    </trkpt>
    <trkpt lat="42.322743" lon="-2.999572">
      <ele>988.2</ele>
    </trkpt>
    <trkpt lat="42.322135" lon="-2.998006">
      <ele>1004.7</ele>
    </trkpt>
    <trkpt lat="42.321784" lon="-2.996714">
      <ele>1013.9</ele>
    </trkpt>
    <trkpt lat="42.321595" lon="-2.996186">
      <ele>1016.8</ele>
    </trkpt>
    <trkpt lat="42.321527" lon="-2.995822">
      <ele>1019</ele>
    </trkpt>
    <trkpt lat="42.321446" lon="-2.995658">
      <ele>1020.2</ele>
    </trkpt>
    <trkpt lat="42.321284" lon="-2.996095">
      <ele>1023.9</ele>
    </trkpt>
    <trkpt lat="42.321216" lon="-2.99584">
      <ele>1026.4</ele>
    </trkpt>
    <trkpt lat="42.321081" lon="-2.995676">
      <ele>1028.9</ele>
    </trkpt>
    <trkpt lat="42.32103" lon="-2.99557">
      <ele>1030.3</ele>
    </trkpt>
    <trkpt lat="42.320678" lon="-2.995359">
      <ele>1036.2</ele>
    </trkpt>
    <trkpt lat="42.320298" lon="-2.995239">
      <ele>1042.7</ele>
    </trkpt>
    <trkpt lat="42.320095" lon="-2.99513">
      <ele>1046.5</ele>
    </trkpt>
    <trkpt lat="42.319784" lon="-2.994875">
      <ele>1052.7</ele>
    </trkpt>
    <trkpt lat="42.319474" lon="-2.994311">
      <ele>1060.9</ele>
    </trkpt>
    <trkpt lat="42.319339" lon="-2.994256">
      <ele>1062.9</ele>
    </trkpt>
    <trkpt lat="42.318933" lon="-2.994293">
      <ele>1068.1</ele>
    </trkpt>
    <trkpt lat="42.31869" lon="-2.994202">
      <ele>1071</ele>
    </trkpt>
    <trkpt lat="42.318244" lon="-2.993692">
      <ele>1076.9</ele>
    </trkpt>
    <trkpt lat="42.318069" lon="-2.993219">
      <ele>1080.5</ele>
    </trkpt>
    <trkpt lat="42.317542" lon="-2.992782">
      <ele>1087.1</ele>
    </trkpt>
    <trkpt lat="42.317245" lon="-2.992582">
      <ele>1091.4</ele>
    </trkpt>
    <trkpt lat="42.316313" lon="-2.992528">
      <ele>1104.3</ele>
    </trkpt>
    <trkpt lat="42.316042" lon="-2.992182">
      <ele>1108.5</ele>
    </trkpt>
    <trkpt lat="42.31567" lon="-2.991417">
      <ele>1113.2</ele>
    </trkpt>
    <trkpt lat="42.315778" lon="-2.991244">
      <ele>1113.8</ele>
    </trkpt>
    <trkpt lat="42.315807" lon="-2.991056">
      <ele>1114.2</ele>
    </trkpt>
    <trkpt lat="42.315749" lon="-2.990938">
      <ele>1114.5</ele>
    </trkpt>
    <trkpt lat="42.315229" lon="-2.991002">
      <ele>1115.3</ele>
    </trkpt>
    <trkpt lat="42.315138" lon="-2.990944">
      <ele>1115.5</ele>
    </trkpt>
    <trkpt lat="42.315095" lon="-2.990777">
      <ele>1115.9</ele>
    </trkpt>
    <trkpt lat="42.315103" lon="-2.990257">
      <ele>1117.5</ele>
    </trkpt>
    <trkpt lat="42.31502" lon="-2.99">
      <ele>1118.7</ele>
    </trkpt>
    <trkpt lat="42.314782" lon="-2.989651">
      <ele>1121.5</ele>
    </trkpt>
    <trkpt lat="42.314541" lon="-2.989411">
      <ele>1124.7</ele>
    </trkpt>
    <trkpt lat="42.314115" lon="-2.989254">
      <ele>1130.3</ele>
    </trkpt>
    <trkpt lat="42.313394" lon="-2.98927">
      <ele>1139.8</ele>
    </trkpt>
    <trkpt lat="42.313133" lon="-2.989094">
      <ele>1142.8</ele>
    </trkpt>
    <trkpt lat="42.313007" lon="-2.988457">
      <ele>1146.7</ele>
    </trkpt>
    <trkpt lat="42.312909" lon="-2.988149">
      <ele>1148.3</ele>
    </trkpt>
    <trkpt lat="42.312624" lon="-2.987757">
      <ele>1150.8</ele>
    </trkpt>
    <trkpt lat="42.312239" lon="-2.987575">
      <ele>1154.4</ele>
    </trkpt>
    <trkpt lat="42.311908" lon="-2.987614">
      <ele>1158.3</ele>
    </trkpt>
    <trkpt lat="42.310895" lon="-2.988184">
      <ele>1174.6</ele>
    </trkpt>
    <trkpt lat="42.310917" lon="-2.988283">
      <ele>1175.7</ele>
    </trkpt>
    <trkpt lat="42.311027" lon="-2.988295">
      <ele>1177.4</ele>
    </trkpt>
    <trkpt lat="42.311381" lon="-2.988251">
      <ele>1182.6</ele>
    </trkpt>
    <trkpt lat="42.311557" lon="-2.988305">
      <ele>1185.1</ele>
    </trkpt>
    <trkpt lat="42.311667" lon="-2.98854">
      <ele>1187.9</ele>
    </trkpt>
    <trkpt lat="42.311664" lon="-2.988656">
      <ele>1189.1</ele>
    </trkpt>
    <trkpt lat="42.311556" lon="-2.988728">
      <ele>1190.9</ele>
    </trkpt>
    <trkpt lat="42.310733" lon="-2.989071">
      <ele>1202.6</ele>
    </trkpt>
    <trkpt lat="42.310538" lon="-2.989157">
      <ele>1205.3</ele>
    </trkpt>
    <trkpt lat="42.310177" lon="-2.988894">
      <ele>1209.8</ele>
    </trkpt>
    <trkpt lat="42.309851" lon="-2.988369">
      <ele>1214.2</ele>
    </trkpt>
    <trkpt lat="42.309477" lon="-2.987958">
      <ele>1217</ele>
    </trkpt>
    <trkpt lat="42.309193" lon="-2.98786">
      <ele>1218.7</ele>
    </trkpt>
    <trkpt lat="42.308292" lon="-2.98739">
      <ele>1226.6</ele>
    </trkpt>
    <trkpt lat="42.307873" lon="-2.987263">
      <ele>1231.1</ele>
    </trkpt>
    <trkpt lat="42.307678" lon="-2.987142">
      <ele>1233.4</ele>
    </trkpt>
    <trkpt lat="42.307514" lon="-2.986974">
      <ele>1235.7</ele>
    </trkpt>
    <trkpt lat="42.30724" lon="-2.986588">
      <ele>1240.3</ele>
    </trkpt>
    <trkpt lat="42.30709" lon="-2.986266">
      <ele>1243.7</ele>
    </trkpt>
    <trkpt lat="42.306562" lon="-2.985907">
      <ele>1250.2</ele>
    </trkpt>
    <trkpt lat="42.306467" lon="-2.985767">
      <ele>1251.8</ele>
    </trkpt>
    <trkpt lat="42.30634" lon="-2.985452">
      <ele>1254.6</ele>
    </trkpt>
    <trkpt lat="42.305554" lon="-2.984527">
      <ele>1265.3</ele>
    </trkpt>
    <trkpt lat="42.304972" lon="-2.983981">
      <ele>1272.6</ele>
    </trkpt>
    <trkpt lat="42.304812" lon="-2.983761">
      <ele>1275.2</ele>
    </trkpt>
    <trkpt lat="42.30446" lon="-2.983436">
      <ele>1280.3</ele>
    </trkpt>
    <trkpt lat="42.304081" lon="-2.982926">
      <ele>1287.4</ele>
    </trkpt>
    <trkpt lat="42.303473" lon="-2.981901">
      <ele>1299.9</ele>
    </trkpt>
    <trkpt lat="42.303243" lon="-2.9811">
      <ele>1308.1</ele>
    </trkpt>
    <trkpt lat="42.303122" lon="-2.980372">
      <ele>1315</ele>
    </trkpt>
    <trkpt lat="42.303351" lon="-2.978006">
      <ele>1339.4</ele>
    </trkpt>
    <trkpt lat="42.303441" lon="-2.977733">
      <ele>1342.9</ele>
    </trkpt>
    <trkpt lat="42.303598" lon="-2.976824">
      <ele>1353.8</ele>
    </trkpt>
    <trkpt lat="42.303639" lon="-2.976241">
      <ele>1360.3</ele>
    </trkpt>
    <trkpt lat="42.303557" lon="-2.975386">
      <ele>1368.4</ele>
    </trkpt>
    <trkpt lat="42.303017" lon="-2.974889">
      <ele>1374.2</ele>
    </trkpt>
    <trkpt lat="42.302787" lon="-2.974525">
      <ele>1376.5</ele>
    </trkpt>
    <trkpt lat="42.302733" lon="-2.974507">
      <ele>1376.8</ele>
    </trkpt>
    <trkpt lat="42.301931" lon="-2.97293">
      <ele>1384.5</ele>
    </trkpt>
    <trkpt lat="42.301075" lon="-2.971486">
      <ele>1395.3</ele>
    </trkpt>
    <trkpt lat="42.30003" lon="-2.970104">
      <ele>1407.9</ele>
    </trkpt>
    <trkpt lat="42.29909" lon="-2.968973">
      <ele>1429.7</ele>
    </trkpt>
    <trkpt lat="42.299001" lon="-2.968813">
      <ele>1432.4</ele>
    </trkpt>
    <trkpt lat="42.298913" lon="-2.968394">
      <ele>1438</ele>
    </trkpt>
    <trkpt lat="42.298749" lon="-2.968178">
      <ele>1441.7</ele>
    </trkpt>
    <trkpt lat="42.298531" lon="-2.967993">
      <ele>1445.6</ele>
    </trkpt>
    <trkpt lat="42.298049" lon="-2.967965">
      <ele>1452.3</ele>
    </trkpt>
    <trkpt lat="42.297599" lon="-2.96814">
      <ele>1457.4</ele>
    </trkpt>
    <trkpt lat="42.297317" lon="-2.968401">
      <ele>1460.8</ele>
    </trkpt>
    <trkpt lat="42.297125" lon="-2.968458">
      <ele>1462.8</ele>
    </trkpt>
    <trkpt lat="42.296918" lon="-2.968457">
      <ele>1465.1</ele>
    </trkpt>
    <trkpt lat="42.296451" lon="-2.968276">
      <ele>1471</ele>
    </trkpt>
    <trkpt lat="42.296289" lon="-2.96816">
      <ele>1473.4</ele>
    </trkpt>
    <trkpt lat="42.295918" lon="-2.968067">
      <ele>1478.5</ele>
    </trkpt>
    <trkpt lat="42.295593" lon="-2.967889">
      <ele>1483.3</ele>
    </trkpt>
    <trkpt lat="42.295272" lon="-2.967786">
      <ele>1488</ele>
    </trkpt>
    <trkpt lat="42.29485" lon="-2.967698">
      <ele>1494.4</ele>
    </trkpt>
    <trkpt lat="42.294689" lon="-2.967575">
      <ele>1497.4</ele>
    </trkpt>
    <trkpt lat="42.294463" lon="-2.967488">
      <ele>1501.3</ele>
    </trkpt>
    <trkpt lat="42.294065" lon="-2.967118">
      <ele>1509.6</ele>
    </trkpt>
    <trkpt lat="42.293549" lon="-2.966886">
      <ele>1519.5</ele>
    </trkpt>
    <trkpt lat="42.293336" lon="-2.966774">
      <ele>1524</ele>
    </trkpt>
    <trkpt lat="42.293126" lon="-2.96662">
      <ele>1528.8</ele>
    </trkpt>
    <trkpt lat="42.291946" lon="-2.966042">
      <ele>1550.3</ele>
    </trkpt>
    <trkpt lat="42.29168" lon="-2.965838">
      <ele>1553</ele>
    </trkpt>
    <trkpt lat="42.291586" lon="-2.965711">
      <ele>1553.9</ele>
    </trkpt>
    <trkpt lat="42.290504" lon="-2.965053">
      <ele>1553</ele>
    </trkpt>
    <trkpt lat="42.289924" lon="-2.964256">
      <ele>1547.3</ele>
    </trkpt>
    <trkpt lat="42.289806" lon="-2.963798">
      <ele>1545.5</ele>
    </trkpt>
    <trkpt lat="42.28968" lon="-2.963055">
      <ele>1543.3</ele>
    </trkpt>
    <trkpt lat="42.289552" lon="-2.962966">
      <ele>1542.7</ele>
    </trkpt>
    <trkpt lat="42.289434" lon="-2.962994">
      <ele>1542.4</ele>
    </trkpt>
    <trkpt lat="42.289074" lon="-2.96332">
      <ele>1542.3</ele>
    </trkpt>
    <trkpt lat="42.288936" lon="-2.963451">
      <ele>1542.7</ele>
    </trkpt>
    <trkpt lat="42.288839" lon="-2.963498">
      <ele>1543</ele>
    </trkpt>
    <trkpt lat="42.2887" lon="-2.963519">
      <ele>1543.6</ele>
    </trkpt>
    <trkpt lat="42.288655" lon="-2.963543">
      <ele>1543.8</ele>
    </trkpt>
    <trkpt lat="42.2887" lon="-2.963519">
      <ele>1544</ele>
    </trkpt>
    <trkpt lat="42.288839" lon="-2.963498">
      <ele>1544.7</ele>
    </trkpt>
    <trkpt lat="42.288936" lon="-2.963451">
      <ele>1545.2</ele>
    </trkpt>
    <trkpt lat="42.289074" lon="-2.96332">
      <ele>1546.1</ele>
    </trkpt>
    <trkpt lat="42.28902" lon="-2.963172">
      <ele>1546.9</ele>
    </trkpt>
    <trkpt lat="42.288898" lon="-2.962752">
      <ele>1548.9</ele>
    </trkpt>
    <trkpt lat="42.288311" lon="-2.962581">
      <ele>1554.4</ele>
    </trkpt>
    <trkpt lat="42.28637" lon="-2.961972">
      <ele>1571.3</ele>
    </trkpt>
    <trkpt lat="42.286087" lon="-2.961784">
      <ele>1574.6</ele>
    </trkpt>
    <trkpt lat="42.285783" lon="-2.961491">
      <ele>1578.7</ele>
    </trkpt>
    <trkpt lat="42.28564" lon="-2.961202">
      <ele>1581.7</ele>
    </trkpt>
    <trkpt lat="42.284924" lon="-2.959147">
      <ele>1602.7</ele>
    </trkpt>
    <trkpt lat="42.284639" lon="-2.957437">
      <ele>1621.4</ele>
    </trkpt>
    <trkpt lat="42.284437" lon="-2.957127">
      <ele>1625.8</ele>
    </trkpt>
    <trkpt lat="42.281956" lon="-2.955542">
      <ele>1663.1</ele>
    </trkpt>
    <trkpt lat="42.281614" lon="-2.95538">
      <ele>1667.9</ele>
    </trkpt>
    <trkpt lat="42.280816" lon="-2.955239">
      <ele>1678.5</ele>
    </trkpt>
    <trkpt lat="42.280524" lon="-2.955122">
      <ele>1682.8</ele>
    </trkpt>
    <trkpt lat="42.280215" lon="-2.954903">
      <ele>1687.3</ele>
    </trkpt>
    <trkpt lat="42.279681" lon="-2.954463">
      <ele>1694.9</ele>
    </trkpt>
    <trkpt lat="42.278573" lon="-2.95513">
      <ele>1708.7</ele>
    </trkpt>
    <trkpt lat="42.278209" lon="-2.955578">
      <ele>1713.8</ele>
    </trkpt>
    <trkpt lat="42.277547" lon="-2.956186">
      <ele>1723.6</ele>
    </trkpt>
    <trkpt lat="42.277385" lon="-2.956259">
      <ele>1726.1</ele>
    </trkpt>
    <trkpt lat="42.277215" lon="-2.956233">
      <ele>1728.5</ele>
    </trkpt>
    <trkpt lat="42.276743" lon="-2.957489">
      <ele>1745.2</ele>
    </trkpt>
    <trkpt lat="42.276167" lon="-2.958234">
      <ele>1761.2</ele>
    </trkpt>
    <trkpt lat="42.276046" lon="-2.958369">
      <ele>1764.5</ele>
    </trkpt>
    <trkpt lat="42.275957" lon="-2.95854">
      <ele>1767.7</ele>
    </trkpt>
    <trkpt lat="42.275822" lon="-2.958615">
      <ele>1770.8</ele>
    </trkpt>
    <trkpt lat="42.275711" lon="-2.958626">
      <ele>1773.2</ele>
    </trkpt>
    <trkpt lat="42.275441" lon="-2.958959">
      <ele>1780.9</ele>
    </trkpt>
    <trkpt lat="42.275266" lon="-2.959077">
      <ele>1785.1</ele>
    </trkpt>
    <trkpt lat="42.275052" lon="-2.959195">
      <ele>1790</ele>
    </trkpt>
    <trkpt lat="42.274869" lon="-2.959195">
      <ele>1793.8</ele>
    </trkpt>
    <trkpt lat="42.274321" lon="-2.959023">
      <ele>1804.2</ele>
    </trkpt>
    <trkpt lat="42.274068" lon="-2.958991">
      <ele>1808.3</ele>
    </trkpt>
    <trkpt lat="42.27371" lon="-2.959077">
      <ele>1813.9</ele>
    </trkpt>
    <trkpt lat="42.272972" lon="-2.959195">
      <ele>1825.8</ele>
    </trkpt>
    <trkpt lat="42.272702" lon="-2.959302">
      <ele>1830.6</ele>
    </trkpt>
    <trkpt lat="42.27244" lon="-2.95943">
      <ele>1835.6</ele>
    </trkpt>
    <trkpt lat="42.27221" lon="-2.959667">
      <ele>1841.1</ele>
    </trkpt>
    <trkpt lat="42.271916" lon="-2.960096">
      <ele>1849.7</ele>
    </trkpt>
    <trkpt lat="42.271686" lon="-2.960235">
      <ele>1854.9</ele>
    </trkpt>
    <trkpt lat="42.271352" lon="-2.960342">
      <ele>1861.7</ele>
    </trkpt>
    <trkpt lat="42.270638" lon="-2.960718">
      <ele>1875.5</ele>
    </trkpt>
    <trkpt lat="42.270368" lon="-2.960965">
      <ele>1880.3</ele>
    </trkpt>
    <trkpt lat="42.269804" lon="-2.961362">
      <ele>1887.8</ele>
    </trkpt>
    <trkpt lat="42.269685" lon="-2.961501">
      <ele>1889.4</ele>
    </trkpt>
    <trkpt lat="42.268727" lon="-2.96132">
      <ele>1898.2</ele>
    </trkpt>
    <trkpt lat="42.268382" lon="-2.961387">
      <ele>1902.1</ele>
    </trkpt>
    <trkpt lat="42.268121" lon="-2.961244">
      <ele>1906</ele>
    </trkpt>
    <trkpt lat="42.2676" lon="-2.96123">
      <ele>1915.3</ele>
    </trkpt>
    <trkpt lat="42.266538" lon="-2.960925">
      <ele>1938.6</ele>
    </trkpt>
    <trkpt lat="42.266255" lon="-2.960793">
      <ele>1943.7</ele>
    </trkpt>
    <trkpt lat="42.265964" lon="-2.960751">
      <ele>1947.5</ele>
    </trkpt>
    <trkpt lat="42.265612" lon="-2.960847">
      <ele>1950</ele>
    </trkpt>
    <trkpt lat="42.265575" lon="-2.960871">
      <ele>1950.2</ele>
    </trkpt>
    <trkpt lat="42.265493" lon="-2.960804">
      <ele>1950.4</ele>
    </trkpt>
    <trkpt lat="42.264977" lon="-2.960718">
      <ele>1949.2</ele>
    </trkpt>
    <trkpt lat="42.264632" lon="-2.960616">
      <ele>1946.2</ele>
    </trkpt>
    <trkpt lat="42.263091" lon="-2.960047">
      <ele>1928.1</ele>
    </trkpt>
    <trkpt lat="42.262718" lon="-2.959988">
      <ele>1924.7</ele>
    </trkpt>
    <trkpt lat="42.262424" lon="-2.960021">
      <ele>1922.4</ele>
    </trkpt>
    <trkpt lat="42.261063" lon="-2.960294">
      <ele>1914.9</ele>
    </trkpt>
    <trkpt lat="42.260324" lon="-2.960637">
      <ele>1912.2</ele>
    </trkpt>
    <trkpt lat="42.260074" lon="-2.960702">
      <ele>1911.5</ele>
    </trkpt>
    <trkpt lat="42.259332" lon="-2.960718">
      <ele>1908.9</ele>
    </trkpt>
    <trkpt lat="42.259034" lon="-2.960782">
      <ele>1907.1</ele>
    </trkpt>
    <trkpt lat="42.258752" lon="-2.960782">
      <ele>1905.2</ele>
    </trkpt>
    <trkpt lat="42.258494" lon="-2.960718">
      <ele>1903.2</ele>
    </trkpt>
    <trkpt lat="42.258124" lon="-2.960684">
      <ele>1900.3</ele>
    </trkpt>
    <trkpt lat="42.25766" lon="-2.960466">
      <ele>1896.4</ele>
    </trkpt>
    <trkpt lat="42.257331" lon="-2.96023">
      <ele>1893.3</ele>
    </trkpt>
    <trkpt lat="42.257041" lon="-2.960005">
      <ele>1890.8</ele>
    </trkpt>
    <trkpt lat="42.256937" lon="-2.959994">
      <ele>1890.1</ele>
    </trkpt>
    <trkpt lat="42.256715" lon="-2.959887">
      <ele>1888.8</ele>
    </trkpt>
    <trkpt lat="42.256598" lon="-2.959872">
      <ele>1888.4</ele>
    </trkpt>
    <trkpt lat="42.256413" lon="-2.959785">
      <ele>1888.1</ele>
    </trkpt>
    <trkpt lat="42.256215" lon="-2.959629">
      <ele>1888.4</ele>
    </trkpt>
    <trkpt lat="42.255908" lon="-2.959521">
      <ele>1889.7</ele>
    </trkpt>
    <trkpt lat="42.255719" lon="-2.959519">
      <ele>1891</ele>
    </trkpt>
    <trkpt lat="42.255584" lon="-2.959548">
      <ele>1892.2</ele>
    </trkpt>
    <trkpt lat="42.255511" lon="-2.959597">
      <ele>1893</ele>
    </trkpt>
    <trkpt lat="42.255193" lon="-2.959435">
      <ele>1897.5</ele>
    </trkpt>
    <trkpt lat="42.255063" lon="-2.959323">
      <ele>1899.9</ele>
    </trkpt>
    <trkpt lat="42.254694" lon="-2.959114">
      <ele>1907.3</ele>
    </trkpt>
    <trkpt lat="42.25444" lon="-2.958846">
      <ele>1913.9</ele>
    </trkpt>
    <trkpt lat="42.254273" lon="-2.958808">
      <ele>1917.7</ele>
    </trkpt>
    <trkpt lat="42.254043" lon="-2.958915">
      <ele>1923.4</ele>
    </trkpt>
    <trkpt lat="42.253516" lon="-2.959005">
      <ele>1937.1</ele>
    </trkpt>
    <trkpt lat="42.253438" lon="-2.959008">
      <ele>1939.2</ele>
    </trkpt>
    <trkpt lat="42.253294" lon="-2.958847">
      <ele>1944.4</ele>
    </trkpt>
    <trkpt lat="42.253119" lon="-2.958774">
      <ele>1949.5</ele>
    </trkpt>
    <trkpt lat="42.253027" lon="-2.958774">
      <ele>1952.2</ele>
    </trkpt>
    <trkpt lat="42.252846" lon="-2.958848">
      <ele>1957.9</ele>
    </trkpt>
    <trkpt lat="42.252735" lon="-2.958833">
      <ele>1961.4</ele>
    </trkpt>
    <trkpt lat="42.252655" lon="-2.958857">
      <ele>1964</ele>
    </trkpt>
    <trkpt lat="42.252469" lon="-2.958815">
      <ele>1970.3</ele>
    </trkpt>
    <trkpt lat="42.252332" lon="-2.958742">
      <ele>1975.5</ele>
    </trkpt>
    <trkpt lat="42.252323" lon="-2.95867">
      <ele>1977.3</ele>
    </trkpt>
    <trkpt lat="42.252373" lon="-2.958486">
      <ele>1982.4</ele>
    </trkpt>
    <trkpt lat="42.252356" lon="-2.958357">
      <ele>1985.8</ele>
    </trkpt>
    <trkpt lat="42.252302" lon="-2.958283">
      <ele>1988.4</ele>
    </trkpt>
    <trkpt lat="42.252219" lon="-2.958283">
      <ele>1991.3</ele>
    </trkpt>
    <trkpt lat="42.252224" lon="-2.958207">
      <ele>1993.3</ele>
    </trkpt>
    <trkpt lat="42.252179" lon="-2.95823">
      <ele>1995</ele>
    </trkpt>
    <trkpt lat="42.252166" lon="-2.958141">
      <ele>1997.5</ele>
    </trkpt>
    <trkpt lat="42.252119" lon="-2.958095">
      <ele>1999.6</ele>
    </trkpt>
    <trkpt lat="42.251986" lon="-2.958121">
      <ele>2004.6</ele>
    </trkpt>
    <trkpt lat="42.25198" lon="-2.957916">
      <ele>2010.5</ele>
    </trkpt>
    <trkpt lat="42.251937" lon="-2.957917">
      <ele>2012.2</ele>
    </trkpt>
    <trkpt lat="42.251883" lon="-2.957638">
      <ele>2020.6</ele>
    </trkpt>
    <trkpt lat="42.25169" lon="-2.957449">
      <ele>2030.1</ele>
    </trkpt>
    <trkpt lat="42.251593" lon="-2.957482">
      <ele>2034.1</ele>
    </trkpt>
    <trkpt lat="42.25158" lon="-2.957436">
      <ele>2035.6</ele>
    </trkpt>
    <trkpt lat="42.251595" lon="-2.957357">
      <ele>2038</ele>
    </trkpt>
    <trkpt lat="42.251544" lon="-2.9574">
      <ele>2040.4</ele>
    </trkpt>
    <trkpt lat="42.251425" lon="-2.957256">
      <ele>2046.8</ele>
    </trkpt>
    <trkpt lat="42.2514" lon="-2.957177">
      <ele>2049.2</ele>
    </trkpt>
    <trkpt lat="42.251335" lon="-2.957127">
      <ele>2052.1</ele>
    </trkpt>
    <trkpt lat="42.251283" lon="-2.957173">
      <ele>2054.4</ele>
    </trkpt>
    <trkpt lat="42.251218" lon="-2.957167">
      <ele>2056.8</ele>
    </trkpt>
    <trkpt lat="42.251183" lon="-2.957093">
      <ele>2059.1</ele>
    </trkpt>
    <trkpt lat="42.251179" lon="-2.957015">
      <ele>2061.1</ele>
    </trkpt>
    <trkpt lat="42.251117" lon="-2.956891">
      <ele>2064.7</ele>
    </trkpt>
    <trkpt lat="42.251048" lon="-2.956896">
      <ele>2066.9</ele>
    </trkpt>
    <trkpt lat="42.25103" lon="-2.956842">
      <ele>2068.2</ele>
    </trkpt>
    <trkpt lat="42.250901" lon="-2.956778">
      <ele>2072.2</ele>
    </trkpt>
    <trkpt lat="42.250771" lon="-2.956651">
      <ele>2076.3</ele>
    </trkpt>
    <trkpt lat="42.250704" lon="-2.956529">
      <ele>2078.9</ele>
    </trkpt>
    <trkpt lat="42.250687" lon="-2.956444">
      <ele>2080.2</ele>
    </trkpt>
    <trkpt lat="42.250623" lon="-2.95643">
      <ele>2081.4</ele>
    </trkpt>
    <trkpt lat="42.250609" lon="-2.95638">
      <ele>2082</ele>
    </trkpt>
    <trkpt lat="42.250552" lon="-2.956396">
      <ele>2082.8</ele>
    </trkpt>
    <trkpt lat="42.250474" lon="-2.956292">
      <ele>2084.1</ele>
    </trkpt>
    <trkpt lat="42.250301" lon="-2.956204">
      <ele>2085.3</ele>
    </trkpt>
    <trkpt lat="42.250256" lon="-2.956152">
      <ele>2085.5</ele>
    </trkpt>
    <trkpt lat="42.250238" lon="-2.956075">
      <ele>2085.6</ele>
    </trkpt>
    <trkpt lat="42.250256" lon="-2.956152">
      <ele>2085.5</ele>
    </trkpt>
    <trkpt lat="42.250301" lon="-2.956204">
      <ele>2085.3</ele>
    </trkpt>
    <trkpt lat="42.250474" lon="-2.956292">
      <ele>2084.1</ele>
    </trkpt>
    <trkpt lat="42.250552" lon="-2.956396">
      <ele>2082.8</ele>
    </trkpt>
    <trkpt lat="42.250609" lon="-2.95638">
      <ele>2082</ele>
    </trkpt>
    <trkpt lat="42.250623" lon="-2.95643">
      <ele>2081.4</ele>
    </trkpt>
    <trkpt lat="42.250687" lon="-2.956444">
      <ele>2080.2</ele>
    </trkpt>
    <trkpt lat="42.250704" lon="-2.956529">
      <ele>2078.9</ele>
    </trkpt>
    <trkpt lat="42.250771" lon="-2.956651">
      <ele>2076.3</ele>
    </trkpt>
    <trkpt lat="42.250901" lon="-2.956778">
      <ele>2072.2</ele>
    </trkpt>
    <trkpt lat="42.25103" lon="-2.956842">
      <ele>2068.2</ele>
    </trkpt>
    <trkpt lat="42.251048" lon="-2.956896">
      <ele>2066.9</ele>
    </trkpt>
    <trkpt lat="42.251117" lon="-2.956891">
      <ele>2064.7</ele>
    </trkpt>
    <trkpt lat="42.251179" lon="-2.957015">
      <ele>2061.1</ele>
    </trkpt>
    <trkpt lat="42.251183" lon="-2.957093">
      <ele>2059.1</ele>
    </trkpt>
    <trkpt lat="42.251218" lon="-2.957167">
      <ele>2056.8</ele>
    </trkpt>
    <trkpt lat="42.251283" lon="-2.957173">
      <ele>2054.4</ele>
    </trkpt>
    <trkpt lat="42.251335" lon="-2.957127">
      <ele>2052.1</ele>
    </trkpt>
    <trkpt lat="42.2514" lon="-2.957177">
      <ele>2049.2</ele>
    </trkpt>
    <trkpt lat="42.251425" lon="-2.957256">
      <ele>2046.8</ele>
    </trkpt>
    <trkpt lat="42.251544" lon="-2.9574">
      <ele>2040.4</ele>
    </trkpt>
    <trkpt lat="42.251595" lon="-2.957357">
      <ele>2038</ele>
    </trkpt>
    <trkpt lat="42.25158" lon="-2.957436">
      <ele>2035.6</ele>
    </trkpt>
    <trkpt lat="42.251593" lon="-2.957482">
      <ele>2034.1</ele>
    </trkpt>
    <trkpt lat="42.25169" lon="-2.957449">
      <ele>2030.1</ele>
    </trkpt>
    <trkpt lat="42.251883" lon="-2.957638">
      <ele>2020.6</ele>
    </trkpt>
    <trkpt lat="42.251937" lon="-2.957917">
      <ele>2012.2</ele>
    </trkpt>
    <trkpt lat="42.25198" lon="-2.957916">
      <ele>2010.5</ele>
    </trkpt>
    <trkpt lat="42.251986" lon="-2.958121">
      <ele>2004.6</ele>
    </trkpt>
    <trkpt lat="42.252119" lon="-2.958095">
      <ele>1999.6</ele>
    </trkpt>
    <trkpt lat="42.252166" lon="-2.958141">
      <ele>1997.5</ele>
    </trkpt>
    <trkpt lat="42.252179" lon="-2.95823">
      <ele>1995</ele>
    </trkpt>
    <trkpt lat="42.252224" lon="-2.958207">
      <ele>1993.3</ele>
    </trkpt>
    <trkpt lat="42.252219" lon="-2.958283">
      <ele>1991.3</ele>
    </trkpt>
    <trkpt lat="42.252302" lon="-2.958283">
      <ele>1988.4</ele>
    </trkpt>
    <trkpt lat="42.252356" lon="-2.958357">
      <ele>1985.8</ele>
    </trkpt>
    <trkpt lat="42.252373" lon="-2.958486">
      <ele>1982.4</ele>
    </trkpt>
    <trkpt lat="42.252323" lon="-2.95867">
      <ele>1977.3</ele>
    </trkpt>
    <trkpt lat="42.252332" lon="-2.958742">
      <ele>1975.5</ele>
    </trkpt>
    <trkpt lat="42.252469" lon="-2.958815">
      <ele>1970.3</ele>
    </trkpt>
    <trkpt lat="42.252655" lon="-2.958857">
      <ele>1964</ele>
    </trkpt>
    <trkpt lat="42.252735" lon="-2.958833">
      <ele>1961.4</ele>
    </trkpt>
    <trkpt lat="42.252846" lon="-2.958848">
      <ele>1957.9</ele>
    </trkpt>
    <trkpt lat="42.253027" lon="-2.958774">
      <ele>1952.2</ele>
    </trkpt>
    <trkpt lat="42.253119" lon="-2.958774">
      <ele>1949.5</ele>
    </trkpt>
    <trkpt lat="42.253294" lon="-2.958847">
      <ele>1944.4</ele>
    </trkpt>
    <trkpt lat="42.253438" lon="-2.959008">
      <ele>1939.2</ele>
    </trkpt>
    <trkpt lat="42.253516" lon="-2.959005">
      <ele>1937.1</ele>
    </trkpt>
    <trkpt lat="42.254043" lon="-2.958915">
      <ele>1923.4</ele>
    </trkpt>
    <trkpt lat="42.254273" lon="-2.958808">
      <ele>1917.7</ele>
    </trkpt>
    <trkpt lat="42.25444" lon="-2.958846">
      <ele>1913.9</ele>
    </trkpt>
    <trkpt lat="42.254694" lon="-2.959114">
      <ele>1907.3</ele>
    </trkpt>
    <trkpt lat="42.255063" lon="-2.959323">
      <ele>1899.7</ele>
    </trkpt>
    <trkpt lat="42.255193" lon="-2.959435">
      <ele>1896.9</ele>
    </trkpt>
    <trkpt lat="42.255511" lon="-2.959597">
      <ele>1890.7</ele>
    </trkpt>
    <trkpt lat="42.255584" lon="-2.959548">
      <ele>1889.4</ele>
    </trkpt>
    <trkpt lat="42.255719" lon="-2.959519">
      <ele>1887.1</ele>
    </trkpt>
    <trkpt lat="42.255908" lon="-2.959521">
      <ele>1884.1</ele>
    </trkpt>
    <trkpt lat="42.256068" lon="-2.959221">
      <ele>1880.1</ele>
    </trkpt>
    <trkpt lat="42.256314" lon="-2.95898">
      <ele>1876</ele>
    </trkpt>
    <trkpt lat="42.256525" lon="-2.95883">
      <ele>1873.3</ele>
    </trkpt>
    <trkpt lat="42.256723" lon="-2.958771">
      <ele>1871.3</ele>
    </trkpt>
    <trkpt lat="42.257736" lon="-2.95891">
      <ele>1863.3</ele>
    </trkpt>
    <trkpt lat="42.257986" lon="-2.958985">
      <ele>1862.1</ele>
    </trkpt>
    <trkpt lat="42.25855" lon="-2.958953">
      <ele>1859.9</ele>
    </trkpt>
    <trkpt lat="42.258958" lon="-2.958969">
      <ele>1858.6</ele>
    </trkpt>
    <trkpt lat="42.259173" lon="-2.959012">
      <ele>1858</ele>
    </trkpt>
    <trkpt lat="42.259252" lon="-2.95898">
      <ele>1857.7</ele>
    </trkpt>
    <trkpt lat="42.259578" lon="-2.959028">
      <ele>1856.8</ele>
    </trkpt>
    <trkpt lat="42.259673" lon="-2.958959">
      <ele>1856.5</ele>
    </trkpt>
    <trkpt lat="42.259756" lon="-2.958959">
      <ele>1856.2</ele>
    </trkpt>
    <trkpt lat="42.260221" lon="-2.958728">
      <ele>1854.7</ele>
    </trkpt>
    <trkpt lat="42.260336" lon="-2.958765">
      <ele>1854.4</ele>
    </trkpt>
    <trkpt lat="42.260467" lon="-2.95876">
      <ele>1854</ele>
    </trkpt>
    <trkpt lat="42.260741" lon="-2.958615">
      <ele>1853.2</ele>
    </trkpt>
    <trkpt lat="42.260789" lon="-2.958642">
      <ele>1853</ele>
    </trkpt>
    <trkpt lat="42.260959" lon="-2.958594">
      <ele>1852.6</ele>
    </trkpt>
    <trkpt lat="42.261039" lon="-2.958529">
      <ele>1852.5</ele>
    </trkpt>
    <trkpt lat="42.26117" lon="-2.958508">
      <ele>1852.2</ele>
    </trkpt>
    <trkpt lat="42.261722" lon="-2.958261">
      <ele>1851.1</ele>
    </trkpt>
    <trkpt lat="42.261829" lon="-2.958186">
      <ele>1850.9</ele>
    </trkpt>
    <trkpt lat="42.262055" lon="-2.958154">
      <ele>1850.4</ele>
    </trkpt>
    <trkpt lat="42.262154" lon="-2.958095">
      <ele>1850.1</ele>
    </trkpt>
    <trkpt lat="42.262281" lon="-2.958095">
      <ele>1849.7</ele>
    </trkpt>
    <trkpt lat="42.262508" lon="-2.957998">
      <ele>1848.9</ele>
    </trkpt>
    <trkpt lat="42.262694" lon="-2.957961">
      <ele>1848.2</ele>
    </trkpt>
    <trkpt lat="42.262845" lon="-2.957988">
      <ele>1847.6</ele>
    </trkpt>
    <trkpt lat="42.263302" lon="-2.957778">
      <ele>1845</ele>
    </trkpt>
    <trkpt lat="42.263627" lon="-2.957682">
      <ele>1842.8</ele>
    </trkpt>
    <trkpt lat="42.26383" lon="-2.957655">
      <ele>1841.4</ele>
    </trkpt>
    <trkpt lat="42.264112" lon="-2.957784">
      <ele>1839.2</ele>
    </trkpt>
    <trkpt lat="42.265072" lon="-2.957574">
      <ele>1832.4</ele>
    </trkpt>
    <trkpt lat="42.265946" lon="-2.957531">
      <ele>1828</ele>
    </trkpt>
    <trkpt lat="42.266097" lon="-2.957585">
      <ele>1827.6</ele>
    </trkpt>
    <trkpt lat="42.266406" lon="-2.957612">
      <ele>1826.9</ele>
    </trkpt>
    <trkpt lat="42.266454" lon="-2.957692">
      <ele>1826.8</ele>
    </trkpt>
    <trkpt lat="42.266521" lon="-2.957746">
      <ele>1826.6</ele>
    </trkpt>
    <trkpt lat="42.266839" lon="-2.957945">
      <ele>1826</ele>
    </trkpt>
    <trkpt lat="42.267069" lon="-2.958197">
      <ele>1825.5</ele>
    </trkpt>
    <trkpt lat="42.267172" lon="-2.958267">
      <ele>1825.3</ele>
    </trkpt>
    <trkpt lat="42.267208" lon="-2.958368">
      <ele>1825.1</ele>
    </trkpt>
    <trkpt lat="42.267299" lon="-2.958449">
      <ele>1824.8</ele>
    </trkpt>
    <trkpt lat="42.267391" lon="-2.958465">
      <ele>1824.6</ele>
    </trkpt>
    <trkpt lat="42.267839" lon="-2.958706">
      <ele>1823.1</ele>
    </trkpt>
    <trkpt lat="42.26828" lon="-2.959034">
      <ele>1820</ele>
    </trkpt>
    <trkpt lat="42.268586" lon="-2.959157">
      <ele>1817.6</ele>
    </trkpt>
    <trkpt lat="42.269034" lon="-2.959275">
      <ele>1813.6</ele>
    </trkpt>
    <trkpt lat="42.269669" lon="-2.959211">
      <ele>1806.7</ele>
    </trkpt>
    <trkpt lat="42.269776" lon="-2.959237">
      <ele>1805.4</ele>
    </trkpt>
    <trkpt lat="42.270078" lon="-2.959168">
      <ele>1801.3</ele>
    </trkpt>
    <trkpt lat="42.270753" lon="-2.958867">
      <ele>1792</ele>
    </trkpt>
    <trkpt lat="42.270979" lon="-2.958717">
      <ele>1789.3</ele>
    </trkpt>
    <trkpt lat="42.271245" lon="-2.958486">
      <ele>1786.6</ele>
    </trkpt>
    <trkpt lat="42.271376" lon="-2.958417">
      <ele>1785.6</ele>
    </trkpt>
    <trkpt lat="42.271721" lon="-2.958309">
      <ele>1783.7</ele>
    </trkpt>
    <trkpt lat="42.27217" lon="-2.958315">
      <ele>1782.1</ele>
    </trkpt>
    <trkpt lat="42.272301" lon="-2.958385">
      <ele>1781.7</ele>
    </trkpt>
    <trkpt lat="42.272503" lon="-2.958422">
      <ele>1781.3</ele>
    </trkpt>
    <trkpt lat="42.272726" lon="-2.958422">
      <ele>1780.9</ele>
    </trkpt>
    <trkpt lat="42.272948" lon="-2.958395">
      <ele>1780.4</ele>
    </trkpt>
    <trkpt lat="42.273035" lon="-2.958331">
      <ele>1780.2</ele>
    </trkpt>
    <trkpt lat="42.273353" lon="-2.95824">
      <ele>1778.7</ele>
    </trkpt>
    <trkpt lat="42.273555" lon="-2.958234">
      <ele>1777.5</ele>
    </trkpt>
    <trkpt lat="42.274032" lon="-2.958089">
      <ele>1774</ele>
    </trkpt>
    <trkpt lat="42.274353" lon="-2.958073">
      <ele>1771.2</ele>
    </trkpt>
    <trkpt lat="42.274933" lon="-2.957961">
      <ele>1765.8</ele>
    </trkpt>
    <trkpt lat="42.275242" lon="-2.957988">
      <ele>1762.5</ele>
    </trkpt>
    <trkpt lat="42.275349" lon="-2.95795">
      <ele>1761.3</ele>
    </trkpt>
    <trkpt lat="42.275508" lon="-2.957961">
      <ele>1759.5</ele>
    </trkpt>
    <trkpt lat="42.275715" lon="-2.957853">
      <ele>1756.9</ele>
    </trkpt>
    <trkpt lat="42.276024" lon="-2.95787">
      <ele>1753</ele>
    </trkpt>
    <trkpt lat="42.276393" lon="-2.957639">
      <ele>1747.4</ele>
    </trkpt>
    <trkpt lat="42.276513" lon="-2.957456">
      <ele>1744.7</ele>
    </trkpt>
    <trkpt lat="42.276806" lon="-2.956829">
      <ele>1736.4</ele>
    </trkpt>
    <trkpt lat="42.277215" lon="-2.956233">
      <ele>1728.1</ele>
    </trkpt>
    <trkpt lat="42.277332" lon="-2.955848">
      <ele>1724.9</ele>
    </trkpt>
    <trkpt lat="42.277439" lon="-2.955634">
      <ele>1723.5</ele>
    </trkpt>
    <trkpt lat="42.277703" lon="-2.955107">
      <ele>1722.1</ele>
    </trkpt>
    <trkpt lat="42.277721" lon="-2.954893">
      <ele>1722.3</ele>
    </trkpt>
    <trkpt lat="42.277747" lon="-2.954852">
      <ele>1722.4</ele>
    </trkpt>
    <trkpt lat="42.278219" lon="-2.954077">
      <ele>1727.8</ele>
    </trkpt>
    <trkpt lat="42.278468" lon="-2.953895">
      <ele>1730.9</ele>
    </trkpt>
    <trkpt lat="42.278735" lon="-2.953637">
      <ele>1735</ele>
    </trkpt>
    <trkpt lat="42.2791" lon="-2.953337">
      <ele>1740.1</ele>
    </trkpt>
    <trkpt lat="42.279317" lon="-2.95322">
      <ele>1742.9</ele>
    </trkpt>
    <trkpt lat="42.279862" lon="-2.952693">
      <ele>1750.4</ele>
    </trkpt>
    <trkpt lat="42.280103" lon="-2.952576">
      <ele>1753.1</ele>
    </trkpt>
    <trkpt lat="42.280212" lon="-2.952468">
      <ele>1754.4</ele>
    </trkpt>
    <trkpt lat="42.280355" lon="-2.952457">
      <ele>1755.9</ele>
    </trkpt>
    <trkpt lat="42.281053" lon="-2.952521">
      <ele>1763</ele>
    </trkpt>
    <trkpt lat="42.28145" lon="-2.952628">
      <ele>1767.3</ele>
    </trkpt>
    <trkpt lat="42.281633" lon="-2.952607">
      <ele>1769.3</ele>
    </trkpt>
    <trkpt lat="42.282498" lon="-2.952768">
      <ele>1779.9</ele>
    </trkpt>
    <trkpt lat="42.282961" lon="-2.952748">
      <ele>1786.6</ele>
    </trkpt>
    <trkpt lat="42.283127" lon="-2.952866">
      <ele>1789.2</ele>
    </trkpt>
    <trkpt lat="42.283894" lon="-2.952844">
      <ele>1796.4</ele>
    </trkpt>
    <trkpt lat="42.283902" lon="-2.952843">
      <ele>1796.4</ele>
    </trkpt>
    <trkpt lat="42.284125" lon="-2.952746">
      <ele>1797.1</ele>
    </trkpt>
    <trkpt lat="42.284243" lon="-2.952355">
      <ele>1796.5</ele>
    </trkpt>
    <trkpt lat="42.284643" lon="-2.951683">
      <ele>1790</ele>
    </trkpt>
    <trkpt lat="42.285675" lon="-2.950207">
      <ele>1761.4</ele>
    </trkpt>
    <trkpt lat="42.286623" lon="-2.949348">
      <ele>1739.5</ele>
    </trkpt>
    <trkpt lat="42.287106" lon="-2.949098">
      <ele>1726.9</ele>
    </trkpt>
    <trkpt lat="42.289186" lon="-2.948522">
      <ele>1656.9</ele>
    </trkpt>
    <trkpt lat="42.28964" lon="-2.948441">
      <ele>1643.5</ele>
    </trkpt>
    <trkpt lat="42.289751" lon="-2.948422">
      <ele>1640.4</ele>
    </trkpt>
    <trkpt lat="42.29096" lon="-2.948259">
      <ele>1616.5</ele>
    </trkpt>
    <trkpt lat="42.291385" lon="-2.948371">
      <ele>1613.5</ele>
    </trkpt>
    <trkpt lat="42.291294" lon="-2.948522">
      <ele>1613.1</ele>
    </trkpt>
    <trkpt lat="42.290948" lon="-2.94871">
      <ele>1613.1</ele>
    </trkpt>
    <trkpt lat="42.290567" lon="-2.948828">
      <ele>1615</ele>
    </trkpt>
    <trkpt lat="42.290377" lon="-2.948962">
      <ele>1616.6</ele>
    </trkpt>
    <trkpt lat="42.290194" lon="-2.949144">
      <ele>1618.8</ele>
    </trkpt>
    <trkpt lat="42.289825" lon="-2.949707">
      <ele>1624.9</ele>
    </trkpt>
    <trkpt lat="42.289667" lon="-2.950029">
      <ele>1626.9</ele>
    </trkpt>
    <trkpt lat="42.289432" lon="-2.950646">
      <ele>1628.5</ele>
    </trkpt>
    <trkpt lat="42.289385" lon="-2.950968">
      <ele>1628.6</ele>
    </trkpt>
    <trkpt lat="42.289393" lon="-2.951172">
      <ele>1628.4</ele>
    </trkpt>
    <trkpt lat="42.289484" lon="-2.951515">
      <ele>1627.8</ele>
    </trkpt>
    <trkpt lat="42.289492" lon="-2.951697">
      <ele>1627.3</ele>
    </trkpt>
    <trkpt lat="42.289456" lon="-2.951875">
      <ele>1626.7</ele>
    </trkpt>
    <trkpt lat="42.289337" lon="-2.952025">
      <ele>1625.7</ele>
    </trkpt>
    <trkpt lat="42.28919" lon="-2.952127">
      <ele>1624.5</ele>
    </trkpt>
    <trkpt lat="42.288825" lon="-2.952298">
      <ele>1622.4</ele>
    </trkpt>
    <trkpt lat="42.288599" lon="-2.952486">
      <ele>1621.7</ele>
    </trkpt>
    <trkpt lat="42.288412" lon="-2.952701">
      <ele>1621.6</ele>
    </trkpt>
    <trkpt lat="42.288254" lon="-2.952813">
      <ele>1622</ele>
    </trkpt>
    <trkpt lat="42.288004" lon="-2.953183">
      <ele>1623.6</ele>
    </trkpt>
    <trkpt lat="42.287722" lon="-2.953747">
      <ele>1626.5</ele>
    </trkpt>
    <trkpt lat="42.287575" lon="-2.954224">
      <ele>1628.5</ele>
    </trkpt>
    <trkpt lat="42.2875" lon="-2.954702">
      <ele>1629.3</ele>
    </trkpt>
    <trkpt lat="42.287551" lon="-2.955007">
      <ele>1629.1</ele>
    </trkpt>
    <trkpt lat="42.287658" lon="-2.9552">
      <ele>1628.7</ele>
    </trkpt>
    <trkpt lat="42.288639" lon="-2.95666">
      <ele>1610.4</ele>
    </trkpt>
    <trkpt lat="42.288913" lon="-2.957518">
      <ele>1597.8</ele>
    </trkpt>
    <trkpt lat="42.28898" lon="-2.957845">
      <ele>1593.5</ele>
    </trkpt>
    <trkpt lat="42.289012" lon="-2.958086">
      <ele>1590.4</ele>
    </trkpt>
    <trkpt lat="42.288992" lon="-2.958677">
      <ele>1583.7</ele>
    </trkpt>
    <trkpt lat="42.288889" lon="-2.960077">
      <ele>1572.2</ele>
    </trkpt>
    <trkpt lat="42.288916" lon="-2.961396">
      <ele>1562.2</ele>
    </trkpt>
    <trkpt lat="42.288881" lon="-2.961745">
      <ele>1559.2</ele>
    </trkpt>
    <trkpt lat="42.288817" lon="-2.962067">
      <ele>1556.3</ele>
    </trkpt>
    <trkpt lat="42.288801" lon="-2.962276">
      <ele>1554.5</ele>
    </trkpt>
    <trkpt lat="42.288898" lon="-2.962752">
      <ele>1550.1</ele>
    </trkpt>
    <trkpt lat="42.289359" lon="-2.962961">
      <ele>1544.9</ele>
    </trkpt>
    <trkpt lat="42.289552" lon="-2.962966">
      <ele>1543</ele>
    </trkpt>
    <trkpt lat="42.289756" lon="-2.962919">
      <ele>1541.1</ele>
    </trkpt>
    <trkpt lat="42.28991" lon="-2.962988">
      <ele>1539.7</ele>
    </trkpt>
    <trkpt lat="42.290014" lon="-2.96323">
      <ele>1538.2</ele>
    </trkpt>
    <trkpt lat="42.290019" lon="-2.963253">
      <ele>1538.1</ele>
    </trkpt>
    <trkpt lat="42.290097" lon="-2.963611">
      <ele>1536.2</ele>
    </trkpt>
    <trkpt lat="42.290208" lon="-2.963745">
      <ele>1535.2</ele>
    </trkpt>
    <trkpt lat="42.290684" lon="-2.963847">
      <ele>1532.8</ele>
    </trkpt>
    <trkpt lat="42.291232" lon="-2.963825">
      <ele>1530.1</ele>
    </trkpt>
    <trkpt lat="42.291466" lon="-2.963734">
      <ele>1529</ele>
    </trkpt>
    <trkpt lat="42.292954" lon="-2.962806">
      <ele>1522</ele>
    </trkpt>
    <trkpt lat="42.293375" lon="-2.962597">
      <ele>1520</ele>
    </trkpt>
    <trkpt lat="42.293934" lon="-2.962264">
      <ele>1516.6</ele>
    </trkpt>
    <trkpt lat="42.294625" lon="-2.961706">
      <ele>1510.9</ele>
    </trkpt>
    <trkpt lat="42.294756" lon="-2.961637">
      <ele>1509.9</ele>
    </trkpt>
    <trkpt lat="42.294776" lon="-2.961572">
      <ele>1509.4</ele>
    </trkpt>
    <trkpt lat="42.294744" lon="-2.961529">
      <ele>1509.1</ele>
    </trkpt>
    <trkpt lat="42.294609" lon="-2.961594">
      <ele>1508</ele>
    </trkpt>
    <trkpt lat="42.293883" lon="-2.961803">
      <ele>1502.6</ele>
    </trkpt>
    <trkpt lat="42.293303" lon="-2.961905">
      <ele>1499</ele>
    </trkpt>
    <trkpt lat="42.292156" lon="-2.961889">
      <ele>1492.6</ele>
    </trkpt>
    <trkpt lat="42.29168" lon="-2.961723">
      <ele>1488.9</ele>
    </trkpt>
    <trkpt lat="42.291649" lon="-2.961647">
      <ele>1488.3</ele>
    </trkpt>
    <trkpt lat="42.29168" lon="-2.961578">
      <ele>1487.8</ele>
    </trkpt>
    <trkpt lat="42.29176" lon="-2.961535">
      <ele>1487.1</ele>
    </trkpt>
    <trkpt lat="42.292192" lon="-2.961438">
      <ele>1483.1</ele>
    </trkpt>
    <trkpt lat="42.292841" lon="-2.961202">
      <ele>1475.4</ele>
    </trkpt>
    <trkpt lat="42.293061" lon="-2.961122">
      <ele>1472.8</ele>
    </trkpt>
    <trkpt lat="42.293395" lon="-2.960939">
      <ele>1468.9</ele>
    </trkpt>
    <trkpt lat="42.295141" lon="-2.959507">
      <ele>1448.6</ele>
    </trkpt>
    <trkpt lat="42.295513" lon="-2.959394">
      <ele>1446.2</ele>
    </trkpt>
    <trkpt lat="42.29589" lon="-2.959416">
      <ele>1444</ele>
    </trkpt>
    <trkpt lat="42.296204" lon="-2.959496">
      <ele>1442.4</ele>
    </trkpt>
    <trkpt lat="42.296462" lon="-2.959496">
      <ele>1441.3</ele>
    </trkpt>
    <trkpt lat="42.296883" lon="-2.959373">
      <ele>1439.9</ele>
    </trkpt>
    <trkpt lat="42.297192" lon="-2.959249">
      <ele>1439</ele>
    </trkpt>
    <trkpt lat="42.297565" lon="-2.959212">
      <ele>1437.9</ele>
    </trkpt>
    <trkpt lat="42.297835" lon="-2.959303">
      <ele>1436.9</ele>
    </trkpt>
    <trkpt lat="42.298228" lon="-2.959571">
      <ele>1434.9</ele>
    </trkpt>
    <trkpt lat="42.298525" lon="-2.959829">
      <ele>1433.1</ele>
    </trkpt>
    <trkpt lat="42.299223" lon="-2.96007">
      <ele>1427.7</ele>
    </trkpt>
    <trkpt lat="42.299957" lon="-2.960569">
      <ele>1419.1</ele>
    </trkpt>
    <trkpt lat="42.300533" lon="-2.961154">
      <ele>1411.9</ele>
    </trkpt>
    <trkpt lat="42.300691" lon="-2.961529">
      <ele>1409.1</ele>
    </trkpt>
    <trkpt lat="42.300787" lon="-2.962082">
      <ele>1405.7</ele>
    </trkpt>
    <trkpt lat="42.300874" lon="-2.963015">
      <ele>1401</ele>
    </trkpt>
    <trkpt lat="42.300894" lon="-2.964737">
      <ele>1391.2</ele>
    </trkpt>
    <trkpt lat="42.300862" lon="-2.964968">
      <ele>1389.3</ele>
    </trkpt>
    <trkpt lat="42.300942" lon="-2.965048">
      <ele>1388.1</ele>
    </trkpt>
    <trkpt lat="42.301172" lon="-2.964936">
      <ele>1385</ele>
    </trkpt>
    <trkpt lat="42.302231" lon="-2.964818">
      <ele>1368.8</ele>
    </trkpt>
    <trkpt lat="42.302969" lon="-2.964566">
      <ele>1357.5</ele>
    </trkpt>
    <trkpt lat="42.303735" lon="-2.96419">
      <ele>1346.8</ele>
    </trkpt>
    <trkpt lat="42.304845" lon="-2.963563">
      <ele>1333.2</ele>
    </trkpt>
    <trkpt lat="42.304947" lon="-2.963532">
      <ele>1332</ele>
    </trkpt>
    <trkpt lat="42.305294" lon="-2.963428">
      <ele>1327.8</ele>
    </trkpt>
    <trkpt lat="42.305607" lon="-2.963568">
      <ele>1323.7</ele>
    </trkpt>
    <trkpt lat="42.305857" lon="-2.963546">
      <ele>1320.7</ele>
    </trkpt>
    <trkpt lat="42.306639" lon="-2.962951">
      <ele>1311.2</ele>
    </trkpt>
    <trkpt lat="42.306932" lon="-2.962838">
      <ele>1308.1</ele>
    </trkpt>
    <trkpt lat="42.307162" lon="-2.962967">
      <ele>1305.6</ele>
    </trkpt>
    <trkpt lat="42.307416" lon="-2.963428">
      <ele>1301.2</ele>
    </trkpt>
    <trkpt lat="42.307563" lon="-2.963482">
      <ele>1299.8</ele>
    </trkpt>
    <trkpt lat="42.307746" lon="-2.963353">
      <ele>1297.8</ele>
    </trkpt>
    <trkpt lat="42.30821" lon="-2.962876">
      <ele>1291.9</ele>
    </trkpt>
    <trkpt lat="42.308452" lon="-2.962693">
      <ele>1289.1</ele>
    </trkpt>
    <trkpt lat="42.308654" lon="-2.962726">
      <ele>1287</ele>
    </trkpt>
    <trkpt lat="42.308856" lon="-2.962795">
      <ele>1284.9</ele>
    </trkpt>
    <trkpt lat="42.30919" lon="-2.962752">
      <ele>1281.8</ele>
    </trkpt>
    <trkpt lat="42.309562" lon="-2.962983">
      <ele>1278.3</ele>
    </trkpt>
    <trkpt lat="42.309785" lon="-2.962967">
      <ele>1276.7</ele>
    </trkpt>
    <trkpt lat="42.310031" lon="-2.962849">
      <ele>1274.8</ele>
    </trkpt>
    <trkpt lat="42.310308" lon="-2.962624">
      <ele>1272.6</ele>
    </trkpt>
    <trkpt lat="42.31055" lon="-2.96257">
      <ele>1271</ele>
    </trkpt>
    <trkpt lat="42.311526" lon="-2.962549">
      <ele>1266.3</ele>
    </trkpt>
    <trkpt lat="42.311879" lon="-2.962506">
      <ele>1264.6</ele>
    </trkpt>
    <trkpt lat="42.312323" lon="-2.962306">
      <ele>1261.2</ele>
    </trkpt>
    <trkpt lat="42.312461" lon="-2.962283">
      <ele>1259.9</ele>
    </trkpt>
    <trkpt lat="42.312649" lon="-2.962211">
      <ele>1257.7</ele>
    </trkpt>
    <trkpt lat="42.312701" lon="-2.962152">
      <ele>1256.8</ele>
    </trkpt>
    <trkpt lat="42.312746" lon="-2.96214">
      <ele>1256.3</ele>
    </trkpt>
    <trkpt lat="42.312823" lon="-2.962172">
      <ele>1255.2</ele>
    </trkpt>
    <trkpt lat="42.312956" lon="-2.962353">
      <ele>1252.6</ele>
    </trkpt>
    <trkpt lat="42.313003" lon="-2.962371">
      <ele>1251.9</ele>
    </trkpt>
    <trkpt lat="42.313144" lon="-2.962286">
      <ele>1249.6</ele>
    </trkpt>
    <trkpt lat="42.313252" lon="-2.962274">
      <ele>1247.9</ele>
    </trkpt>
    <trkpt lat="42.313591" lon="-2.962322">
      <ele>1242.2</ele>
    </trkpt>
    <trkpt lat="42.313985" lon="-2.962288">
      <ele>1234.8</ele>
    </trkpt>
    <trkpt lat="42.314197" lon="-2.962334">
      <ele>1230.5</ele>
    </trkpt>
    <trkpt lat="42.314385" lon="-2.96243">
      <ele>1226.3</ele>
    </trkpt>
    <trkpt lat="42.314885" lon="-2.9626">
      <ele>1215.1</ele>
    </trkpt>
    <trkpt lat="42.315077" lon="-2.962918">
      <ele>1208.1</ele>
    </trkpt>
    <trkpt lat="42.315516" lon="-2.963169">
      <ele>1196.8</ele>
    </trkpt>
    <trkpt lat="42.315854" lon="-2.963566">
      <ele>1186.7</ele>
    </trkpt>
    <trkpt lat="42.316291" lon="-2.964019">
      <ele>1176.1</ele>
    </trkpt>
    <trkpt lat="42.316635" lon="-2.964276">
      <ele>1170.1</ele>
    </trkpt>
    <trkpt lat="42.316901" lon="-2.964411">
      <ele>1166.6</ele>
    </trkpt>
    <trkpt lat="42.317048" lon="-2.964448">
      <ele>1165</ele>
    </trkpt>
    <trkpt lat="42.317219" lon="-2.9644">
      <ele>1163.4</ele>
    </trkpt>
    <trkpt lat="42.317459" lon="-2.964271">
      <ele>1161.1</ele>
    </trkpt>
    <trkpt lat="42.317696" lon="-2.9641">
      <ele>1158.9</ele>
    </trkpt>
    <trkpt lat="42.318085" lon="-2.963686">
      <ele>1154.7</ele>
    </trkpt>
    <trkpt lat="42.318843" lon="-2.963322">
      <ele>1147</ele>
    </trkpt>
    <trkpt lat="42.319283" lon="-2.963026">
      <ele>1141.9</ele>
    </trkpt>
    <trkpt lat="42.319427" lon="-2.963048">
      <ele>1140.3</ele>
    </trkpt>
    <trkpt lat="42.3196" lon="-2.963155">
      <ele>1138.2</ele>
    </trkpt>
    <trkpt lat="42.319809" lon="-2.963686">
      <ele>1132.8</ele>
    </trkpt>
    <trkpt lat="42.319947" lon="-2.96382">
      <ele>1130.5</ele>
    </trkpt>
    <trkpt lat="42.319979" lon="-2.964062">
      <ele>1128</ele>
    </trkpt>
    <trkpt lat="42.319936" lon="-2.964268">
      <ele>1125.7</ele>
    </trkpt>
    <trkpt lat="42.319414" lon="-2.965335">
      <ele>1112</ele>
    </trkpt>
    <trkpt lat="42.319285" lon="-2.96551">
      <ele>1109.4</ele>
    </trkpt>
    <trkpt lat="42.319235" lon="-2.965681">
      <ele>1107.5</ele>
    </trkpt>
    <trkpt lat="42.319182" lon="-2.965726">
      <ele>1106.6</ele>
    </trkpt>
    <trkpt lat="42.319144" lon="-2.965765">
      <ele>1106</ele>
    </trkpt>
    <trkpt lat="42.319106" lon="-2.965939">
      <ele>1104.3</ele>
    </trkpt>
    <trkpt lat="42.318916" lon="-2.966134">
      <ele>1101.4</ele>
    </trkpt>
    <trkpt lat="42.318858" lon="-2.966185">
      <ele>1100.6</ele>
    </trkpt>
    <trkpt lat="42.318816" lon="-2.966255">
      <ele>1099.8</ele>
    </trkpt>
    <trkpt lat="42.318739" lon="-2.96653">
      <ele>1097.3</ele>
    </trkpt>
    <trkpt lat="42.31863" lon="-2.966637">
      <ele>1095.7</ele>
    </trkpt>
    <trkpt lat="42.318372" lon="-2.966704">
      <ele>1092.3</ele>
    </trkpt>
    <trkpt lat="42.318237" lon="-2.966843">
      <ele>1089.9</ele>
    </trkpt>
    <trkpt lat="42.317897" lon="-2.967386">
      <ele>1083</ele>
    </trkpt>
    <trkpt lat="42.317698" lon="-2.967557">
      <ele>1080.1</ele>
    </trkpt>
    <trkpt lat="42.317549" lon="-2.967797">
      <ele>1077.2</ele>
    </trkpt>
    <trkpt lat="42.317054" lon="-2.968417">
      <ele>1068.9</ele>
    </trkpt>
    <trkpt lat="42.316942" lon="-2.968608">
      <ele>1066.7</ele>
    </trkpt>
    <trkpt lat="42.316902" lon="-2.968744">
      <ele>1065.5</ele>
    </trkpt>
    <trkpt lat="42.316895" lon="-2.968882">
      <ele>1064.4</ele>
    </trkpt>
    <trkpt lat="42.316931" lon="-2.969102">
      <ele>1062.8</ele>
    </trkpt>
    <trkpt lat="42.316998" lon="-2.970606">
      <ele>1049.1</ele>
    </trkpt>
    <trkpt lat="42.317174" lon="-2.971861">
      <ele>1036.1</ele>
    </trkpt>
    <trkpt lat="42.317305" lon="-2.972419">
      <ele>1031</ele>
    </trkpt>
    <trkpt lat="42.317313" lon="-2.97269">
      <ele>1029.1</ele>
    </trkpt>
    <trkpt lat="42.317393" lon="-2.973321">
      <ele>1025.5</ele>
    </trkpt>
    <trkpt lat="42.317422" lon="-2.973864">
      <ele>1022.5</ele>
    </trkpt>
    <trkpt lat="42.317407" lon="-2.973938">
      <ele>1022.1</ele>
    </trkpt>
    <trkpt lat="42.31744" lon="-2.974286">
      <ele>1020</ele>
    </trkpt>
    <trkpt lat="42.317496" lon="-2.974518">
      <ele>1018.5</ele>
    </trkpt>
    <trkpt lat="42.317502" lon="-2.974815">
      <ele>1016.6</ele>
    </trkpt>
    <trkpt lat="42.31754" lon="-2.975086">
      <ele>1014.6</ele>
    </trkpt>
    <trkpt lat="42.317696" lon="-2.975469">
      <ele>1010.9</ele>
    </trkpt>
    <trkpt lat="42.317742" lon="-2.976513">
      <ele>1000.3</ele>
    </trkpt>
    <trkpt lat="42.317772" lon="-2.976718">
      <ele>998.3</ele>
    </trkpt>
    <trkpt lat="42.317748" lon="-2.976999">
      <ele>995.6</ele>
    </trkpt>
    <trkpt lat="42.317635" lon="-2.977492">
      <ele>991</ele>
    </trkpt>
    <trkpt lat="42.317639" lon="-2.977642">
      <ele>989.7</ele>
    </trkpt>
    <trkpt lat="42.317863" lon="-2.978221">
      <ele>984.2</ele>
    </trkpt>
    <trkpt lat="42.318015" lon="-2.978846">
      <ele>979.5</ele>
    </trkpt>
    <trkpt lat="42.318092" lon="-2.9799">
      <ele>971.9</ele>
    </trkpt>
    <trkpt lat="42.318243" lon="-2.980281">
      <ele>969</ele>
    </trkpt>
    <trkpt lat="42.31816" lon="-2.980945">
      <ele>964.6</ele>
    </trkpt>
    <trkpt lat="42.318151" lon="-2.981421">
      <ele>961.8</ele>
    </trkpt>
    <trkpt lat="42.318371" lon="-2.982521">
      <ele>954.9</ele>
    </trkpt>
    <trkpt lat="42.318607" lon="-2.9831">
      <ele>950.4</ele>
    </trkpt>
    <trkpt lat="42.319035" lon="-2.984564">
      <ele>938.3</ele>
    </trkpt>
    <trkpt lat="42.319253" lon="-2.984883">
      <ele>935.1</ele>
    </trkpt>
    <trkpt lat="42.319307" lon="-2.985013">
      <ele>934</ele>
    </trkpt>
    <trkpt lat="42.319378" lon="-2.985541">
      <ele>930</ele>
    </trkpt>
    <trkpt lat="42.319598" lon="-2.986056">
      <ele>925.8</ele>
    </trkpt>
    <trkpt lat="42.319773" lon="-2.986313">
      <ele>923.4</ele>
    </trkpt>
    <trkpt lat="42.319807" lon="-2.986404">
      <ele>922.7</ele>
    </trkpt>
    <trkpt lat="42.31985" lon="-2.986689">
      <ele>920.7</ele>
    </trkpt>
    <trkpt lat="42.320003" lon="-2.987357">
      <ele>916.3</ele>
    </trkpt>
    <trkpt lat="42.320237" lon="-2.987695">
      <ele>913.7</ele>
    </trkpt>
    <trkpt lat="42.320342" lon="-2.987998">
      <ele>912.1</ele>
    </trkpt>
    <trkpt lat="42.320432" lon="-2.988387">
      <ele>910.1</ele>
    </trkpt>
    <trkpt lat="42.320417" lon="-2.988883">
      <ele>907.7</ele>
    </trkpt>
    <trkpt lat="42.32043" lon="-2.989005">
      <ele>907.1</ele>
    </trkpt>
    <trkpt lat="42.320624" lon="-2.989342">
      <ele>905.3</ele>
    </trkpt>
    <trkpt lat="42.320962" lon="-2.990204">
      <ele>901.3</ele>
    </trkpt>
    <trkpt lat="42.321375" lon="-2.990803">
      <ele>897.3</ele>
    </trkpt>
    <trkpt lat="42.321577" lon="-2.991057">
      <ele>895.4</ele>
    </trkpt>
    <trkpt lat="42.322331" lon="-2.991551">
      <ele>890.2</ele>
    </trkpt>
    <trkpt lat="42.32257" lon="-2.991824">
      <ele>888.3</ele>
    </trkpt>
    <trkpt lat="42.322672" lon="-2.991952">
      <ele>887.5</ele>
    </trkpt>
    <trkpt lat="42.322727" lon="-2.99233">
      <ele>886</ele>
    </trkpt>
    <trkpt lat="42.322833" lon="-2.992523">
      <ele>885.2</ele>
    </trkpt>
    <trkpt lat="42.323023" lon="-2.992763">
      <ele>884.2</ele>
    </trkpt>
    <trkpt lat="42.323345" lon="-2.992977">
      <ele>882.9</ele>
    </trkpt>
    <trkpt lat="42.323682" lon="-2.993132">
      <ele>881.7</ele>
    </trkpt>
    <trkpt lat="42.323815" lon="-2.993305">
      <ele>881.1</ele>
    </trkpt>
    <trkpt lat="42.323916" lon="-2.993816">
      <ele>879.7</ele>
    </trkpt>
    <trkpt lat="42.323866" lon="-2.994124">
      <ele>878.8</ele>
    </trkpt>
    <trkpt lat="42.323914" lon="-2.994261">
      <ele>878.3</ele>
    </trkpt>
    <trkpt lat="42.324045" lon="-2.994435">
      <ele>877.5</ele>
    </trkpt>
    <trkpt lat="42.324156" lon="-2.994636">
      <ele>876.6</ele>
    </trkpt>
    <trkpt lat="42.324313" lon="-2.995494">
      <ele>872.4</ele>
    </trkpt>
    <trkpt lat="42.324463" lon="-2.995855">
      <ele>870.2</ele>
    </trkpt>
    <trkpt lat="42.324584" lon="-2.995994">
      <ele>869</ele>
    </trkpt>
    <trkpt lat="42.324624" lon="-2.996128">
      <ele>868.2</ele>
    </trkpt>
    <trkpt lat="42.324942" lon="-2.99673">
      <ele>864</ele>
    </trkpt>
    <trkpt lat="42.325567" lon="-2.998109">
      <ele>855.8</ele>
    </trkpt>
    <trkpt lat="42.325741" lon="-2.998689">
      <ele>853.2</ele>
    </trkpt>
    <trkpt lat="42.325866" lon="-2.999081">
      <ele>851.4</ele>
    </trkpt>
    <trkpt lat="42.326066" lon="-2.999336">
      <ele>849.8</ele>
    </trkpt>
    <trkpt lat="42.32631" lon="-2.999528">
      <ele>848.3</ele>
    </trkpt>
    <trkpt lat="42.32636" lon="-2.999613">
      <ele>847.8</ele>
    </trkpt>
    <trkpt lat="42.326401" lon="-2.999938">
      <ele>846.4</ele>
    </trkpt>
    <trkpt lat="42.326482" lon="-3.000254">
      <ele>845</ele>
    </trkpt>
    <trkpt lat="42.326542" lon="-3.000436">
      <ele>844.3</ele>
    </trkpt>
    <trkpt lat="42.326625" lon="-3.000559">
      <ele>843.7</ele>
    </trkpt>
    <trkpt lat="42.326709" lon="-3.00069">
      <ele>843</ele>
    </trkpt>
    <trkpt lat="42.326887" lon="-3.001171">
      <ele>841</ele>
    </trkpt>
    <trkpt lat="42.32687" lon="-3.001729">
      <ele>838.9</ele>
    </trkpt>
    <trkpt lat="42.326909" lon="-3.001995">
      <ele>838</ele>
    </trkpt>
    <trkpt lat="42.327138" lon="-3.0026">
      <ele>835.4</ele>
    </trkpt>
    <trkpt lat="42.32777" lon="-3.003939">
      <ele>830.2</ele>
    </trkpt>
    <trkpt lat="42.327787" lon="-3.00407">
      <ele>829.8</ele>
    </trkpt>
    <trkpt lat="42.327723" lon="-3.004625">
      <ele>828.5</ele>
    </trkpt>
    <trkpt lat="42.327649" lon="-3.004851">
      <ele>828.1</ele>
    </trkpt>
    <trkpt lat="42.327569" lon="-3.005105">
      <ele>827.6</ele>
    </trkpt>
    <trkpt lat="42.327569" lon="-3.005629">
      <ele>826.9</ele>
    </trkpt>
    <trkpt lat="42.327471" lon="-3.006394">
      <ele>825.1</ele>
    </trkpt>
    <trkpt lat="42.327447" lon="-3.006773">
      <ele>823.6</ele>
    </trkpt>
    <trkpt lat="42.327476" lon="-3.007001">
      <ele>822.6</ele>
    </trkpt>
    <trkpt lat="42.327734" lon="-3.008426">
      <ele>813.7</ele>
    </trkpt>
    <trkpt lat="42.327702" lon="-3.008863">
      <ele>811.3</ele>
    </trkpt>
    <trkpt lat="42.327714" lon="-3.009151">
      <ele>810.1</ele>
    </trkpt>
    <trkpt lat="42.327803" lon="-3.009353">
      <ele>809.3</ele>
    </trkpt>
    <trkpt lat="42.3268" lon="-3.009826">
      <ele>807.4</ele>
    </trkpt>
    <trkpt lat="42.326805" lon="-3.010274">
      <ele>807.9</ele>
    </trkpt>
    <trkpt lat="42.326809" lon="-3.010944">
      <ele>808.6</ele>
    </trkpt>
    <trkpt lat="42.326813" lon="-3.011662">
      <ele>809.4</ele>
    </trkpt>
    <trkpt lat="42.326087" lon="-3.011737">
      <ele>810.8</ele>
    </trkpt>
    <trkpt lat="42.326103" lon="-3.012055">
      <ele>811.2</ele>
    </trkpt>
    <trkpt lat="42.326147" lon="-3.012715">
      <ele>811.9</ele>
    </trkpt>
    <trkpt lat="42.326104" lon="-3.012781">
      <ele>812</ele>
    </trkpt>
    <trkpt lat="42.325264" lon="-3.012738">
      <ele>813.1</ele>
    </trkpt>
    <trkpt lat="42.324926" lon="-3.013042">
      <ele>813.6</ele>
    </trkpt>
    <trkpt lat="42.324869" lon="-3.013064">
      <ele>813.6</ele>
    </trkpt>
    <trkpt lat="42.324462" lon="-3.013408">
      <ele>814.4</ele>
    </trkpt>
    <trkpt lat="42.324419" lon="-3.013445">
      <ele>814.5</ele>
    </trkpt>
    <trkpt lat="42.323806" lon="-3.01365">
      <ele>816.1</ele>
    </trkpt>
    <trkpt lat="42.323843" lon="-3.013986">
      <ele>816.7</ele>
    </trkpt>
    <trkpt lat="42.323394" lon="-3.014195">
      <ele>817.8</ele>
    </trkpt>
    <trkpt lat="42.323425" lon="-3.014451">
      <ele>818.2</ele>
    </trkpt>
    <trkpt lat="42.323461" lon="-3.01463">
      <ele>818.5</ele>
    </trkpt>
    <trkpt lat="42.32328" lon="-3.014689">
      <ele>818.8</ele>
    </trkpt>
    <trkpt lat="42.323124" lon="-3.014809">
      <ele>819</ele>
    </trkpt>
    <trkpt lat="42.323065" lon="-3.014908">
      <ele>819.1</ele>
    </trkpt>
    <trkpt lat="42.322765" lon="-3.015066">
      <ele>819</ele>
    </trkpt>
    <trkpt lat="42.322732" lon="-3.015231">
      <ele>819</ele>
    </trkpt>
    <trkpt lat="42.322759" lon="-3.015278">
      <ele>819</ele>
    </trkpt>
    <trkpt lat="42.322569" lon="-3.015271">
      <ele>819.1</ele>
    </trkpt>
    <trkpt lat="42.321899" lon="-3.015253">
      <ele>820.5</ele>
    </trkpt>
    <trkpt lat="42.321858" lon="-3.015255">
      <ele>820.7</ele>
    </trkpt>
    <trkpt lat="42.321504" lon="-3.015505">
      <ele>822.5</ele>
    </trkpt>
    <trkpt lat="42.32147" lon="-3.015589">
      <ele>822.9</ele>
    </trkpt>
    <trkpt lat="42.321462" lon="-3.015752">
      <ele>823.7</ele>
    </trkpt>
    <trkpt lat="42.321495" lon="-3.015836">
      <ele>824.2</ele>
    </trkpt>
    <trkpt lat="42.321539" lon="-3.015876">
      <ele>824.5</ele>
    </trkpt>
    <trkpt lat="42.321782" lon="-3.015937">
      <ele>826.7</ele>
    </trkpt>
    <trkpt lat="42.322332" lon="-3.016216">
      <ele>833.8</ele>
    </trkpt>
    <trkpt lat="42.322347" lon="-3.016271">
      <ele>834.4</ele>
    </trkpt>
    <trkpt lat="42.322319" lon="-3.016319">
      <ele>835.1</ele>
    </trkpt>
    <trkpt lat="42.322114" lon="-3.016434">
      <ele>838.4</ele>
    </trkpt>
    <trkpt lat="42.322079" lon="-3.016495">
      <ele>839.3</ele>
    </trkpt>
    <trkpt lat="42.32208" lon="-3.016567">
      <ele>840.2</ele>
    </trkpt>
    <trkpt lat="42.322115" lon="-3.01664">
      <ele>841.2</ele>
    </trkpt>
    <trkpt lat="42.32226" lon="-3.016762">
      <ele>844.2</ele>
    </trkpt>
    <trkpt lat="42.322336" lon="-3.016862">
      <ele>846</ele>
    </trkpt>
    <trkpt lat="42.322395" lon="-3.017076">
      <ele>849.1</ele>
    </trkpt>
    <trkpt lat="42.322364" lon="-3.017095">
      <ele>849.7</ele>
    </trkpt>
    <trkpt lat="42.322277" lon="-3.017159">
      <ele>851.6</ele>
    </trkpt>
    <trkpt lat="42.322255" lon="-3.017217">
      <ele>852.5</ele>
    </trkpt>
    <trkpt lat="42.322198" lon="-3.01719">
      <ele>853.7</ele>
    </trkpt>
    <trkpt lat="42.322165" lon="-3.017231">
      <ele>854.6</ele>
    </trkpt>
    <trkpt lat="42.322159" lon="-3.017287">
      <ele>855.4</ele>
    </trkpt>
    <trkpt lat="42.321753" lon="-3.01751">
      <ele>864.3</ele>
    </trkpt>
    <trkpt lat="42.321657" lon="-3.017545">
      <ele>866.4</ele>
    </trkpt>
    <trkpt lat="42.321319" lon="-3.017539">
      <ele>873.8</ele>
    </trkpt>
    <trkpt lat="42.32132" lon="-3.017578">
      <ele>874.5</ele>
    </trkpt>
    <trkpt lat="42.321609" lon="-3.018144">
      <ele>885.8</ele>
    </trkpt>
    <trkpt lat="42.321193" lon="-3.018134">
      <ele>895.4</ele>
    </trkpt>
    <trkpt lat="42.320597" lon="-3.01844">
      <ele>910.2</ele>
    </trkpt>
    <trkpt lat="42.320883" lon="-3.018721">
      <ele>918.1</ele>
    </trkpt>
    <trkpt lat="42.320867" lon="-3.018755">
      <ele>918.8</ele>
    </trkpt>
    <trkpt lat="42.320503" lon="-3.018866">
      <ele>926.4</ele>
    </trkpt>
    <trkpt lat="42.320708" lon="-3.019075">
      <ele>931.3</ele>
    </trkpt>
    <trkpt lat="42.32071" lon="-3.019178">
      <ele>932.6</ele>
    </trkpt>
    <trkpt lat="42.320314" lon="-3.019177">
      <ele>939.2</ele>
    </trkpt>
    <trkpt lat="42.320087" lon="-3.018928">
      <ele>943.4</ele>
    </trkpt>
    <trkpt lat="42.320063" lon="-3.018939">
      <ele>943.8</ele>
    </trkpt>
    <trkpt lat="42.320221" lon="-3.019401">
      <ele>948.8</ele>
    </trkpt>
    <trkpt lat="42.320462" lon="-3.019622">
      <ele>952.4</ele>
    </trkpt>
    <trkpt lat="42.320102" lon="-3.019627">
      <ele>957.2</ele>
    </trkpt>
    <trkpt lat="42.31978" lon="-3.019366">
      <ele>962.6</ele>
    </trkpt>
    <trkpt lat="42.319936" lon="-3.019777">
      <ele>967.6</ele>
    </trkpt>
    <trkpt lat="42.320056" lon="-3.020021">
      <ele>970.8</ele>
    </trkpt>
    <trkpt lat="42.320024" lon="-3.020132">
      <ele>972.1</ele>
    </trkpt>
    <trkpt lat="42.319938" lon="-3.020213">
      <ele>973.6</ele>
    </trkpt>
    <trkpt lat="42.319808" lon="-3.020245">
      <ele>975.6</ele>
    </trkpt>
    <trkpt lat="42.319898" lon="-3.020492">
      <ele>978.4</ele>
    </trkpt>
    <trkpt lat="42.319854" lon="-3.020526">
      <ele>979.1</ele>
    </trkpt>
    <trkpt lat="42.319572" lon="-3.020449">
      <ele>982.7</ele>
    </trkpt>
    <trkpt lat="42.319265" lon="-3.020414">
      <ele>986</ele>
    </trkpt>
    <trkpt lat="42.319157" lon="-3.020452">
      <ele>987</ele>
    </trkpt>
    <trkpt lat="42.31901" lon="-3.020621">
      <ele>988.7</ele>
    </trkpt>
    <trkpt lat="42.318917" lon="-3.020595">
      <ele>989.3</ele>
    </trkpt>
    <trkpt lat="42.318867" lon="-3.02064">
      <ele>989.9</ele>
    </trkpt>
    <trkpt lat="42.318621" lon="-3.020859">
      <ele>991.7</ele>
    </trkpt>
    <trkpt lat="42.318576" lon="-3.020927">
      <ele>992</ele>
    </trkpt>
    <trkpt lat="42.318546" lon="-3.02107">
      <ele>992.3</ele>
    </trkpt>
    <trkpt lat="42.318615" lon="-3.021547">
      <ele>992.5</ele>
    </trkpt>
    <trkpt lat="42.318686" lon="-3.021465">
      <ele>992.3</ele>
    </trkpt>
    <trkpt lat="42.319066" lon="-3.021205">
      <ele>990.3</ele>
    </trkpt>
    <trkpt lat="42.319272" lon="-3.020967">
      <ele>988.5</ele>
    </trkpt>
    <trkpt lat="42.319854" lon="-3.020526">
      <ele>980.2</ele>
    </trkpt>
    <trkpt lat="42.319898" lon="-3.020492">
      <ele>979.4</ele>
    </trkpt>
    <trkpt lat="42.319808" lon="-3.020245">
      <ele>976.2</ele>
    </trkpt>
    <trkpt lat="42.319938" lon="-3.020213">
      <ele>974</ele>
    </trkpt>
    <trkpt lat="42.320024" lon="-3.020132">
      <ele>972.3</ele>
    </trkpt>
    <trkpt lat="42.320056" lon="-3.020021">
      <ele>970.9</ele>
    </trkpt>
    <trkpt lat="42.319936" lon="-3.019777">
      <ele>967.6</ele>
    </trkpt>
    <trkpt lat="42.31978" lon="-3.019366">
      <ele>962.6</ele>
    </trkpt>
    <trkpt lat="42.320102" lon="-3.019627">
      <ele>957.2</ele>
    </trkpt>
    <trkpt lat="42.320462" lon="-3.019622">
      <ele>952.4</ele>
    </trkpt>
    <trkpt lat="42.320221" lon="-3.019401">
      <ele>948.8</ele>
    </trkpt>
    <trkpt lat="42.320063" lon="-3.018939">
      <ele>943.8</ele>
    </trkpt>
    <trkpt lat="42.320087" lon="-3.018928">
      <ele>943.4</ele>
    </trkpt>
    <trkpt lat="42.320314" lon="-3.019177">
      <ele>939.2</ele>
    </trkpt>
    <trkpt lat="42.32071" lon="-3.019178">
      <ele>932.6</ele>
    </trkpt>
    <trkpt lat="42.320708" lon="-3.019075">
      <ele>931.3</ele>
    </trkpt>
    <trkpt lat="42.320503" lon="-3.018866">
      <ele>926.4</ele>
    </trkpt>
    <trkpt lat="42.320867" lon="-3.018755">
      <ele>918.8</ele>
    </trkpt>
    <trkpt lat="42.320883" lon="-3.018721">
      <ele>918.1</ele>
    </trkpt>
    <trkpt lat="42.320597" lon="-3.01844">
      <ele>910.2</ele>
    </trkpt>
    <trkpt lat="42.321193" lon="-3.018134">
      <ele>895.4</ele>
    </trkpt>
    <trkpt lat="42.321609" lon="-3.018144">
      <ele>885.8</ele>
    </trkpt>
    <trkpt lat="42.32132" lon="-3.017578">
      <ele>874.5</ele>
    </trkpt>
    <trkpt lat="42.321319" lon="-3.017539">
      <ele>873.8</ele>
    </trkpt>
    <trkpt lat="42.321657" lon="-3.017545">
      <ele>866.4</ele>
    </trkpt>
    <trkpt lat="42.321753" lon="-3.01751">
      <ele>864.3</ele>
    </trkpt>
    <trkpt lat="42.322159" lon="-3.017287">
      <ele>855.4</ele>
    </trkpt>
    <trkpt lat="42.322165" lon="-3.017231">
      <ele>854.6</ele>
    </trkpt>
    <trkpt lat="42.322198" lon="-3.01719">
      <ele>853.7</ele>
    </trkpt>
    <trkpt lat="42.322255" lon="-3.017217">
      <ele>852.5</ele>
    </trkpt>
    <trkpt lat="42.322277" lon="-3.017159">
      <ele>851.6</ele>
    </trkpt>
    <trkpt lat="42.322364" lon="-3.017095">
      <ele>849.7</ele>
    </trkpt>
    <trkpt lat="42.322395" lon="-3.017076">
      <ele>849.1</ele>
    </trkpt>
    <trkpt lat="42.322336" lon="-3.016862">
      <ele>846</ele>
    </trkpt>
    <trkpt lat="42.32226" lon="-3.016762">
      <ele>844.2</ele>
    </trkpt>
    <trkpt lat="42.322115" lon="-3.01664">
      <ele>841.2</ele>
    </trkpt>
    <trkpt lat="42.32208" lon="-3.016567">
      <ele>840.2</ele>
    </trkpt>
    <trkpt lat="42.322079" lon="-3.016495">
      <ele>839.3</ele>
    </trkpt>
    <trkpt lat="42.322114" lon="-3.016434">
      <ele>838.4</ele>
    </trkpt>
    <trkpt lat="42.322319" lon="-3.016319">
      <ele>835.1</ele>
    </trkpt>
    <trkpt lat="42.322347" lon="-3.016271">
      <ele>834.4</ele>
    </trkpt>
    <trkpt lat="42.322332" lon="-3.016216">
      <ele>833.8</ele>
    </trkpt>
    <trkpt lat="42.321782" lon="-3.015937">
      <ele>826.7</ele>
    </trkpt>
    <trkpt lat="42.321539" lon="-3.015876">
      <ele>824.5</ele>
    </trkpt>
    <trkpt lat="42.321495" lon="-3.015836">
      <ele>824.2</ele>
    </trkpt>
    <trkpt lat="42.321462" lon="-3.015752">
      <ele>823.7</ele>
    </trkpt>
    <trkpt lat="42.32147" lon="-3.015589">
      <ele>822.9</ele>
    </trkpt>
    <trkpt lat="42.321504" lon="-3.015505">
      <ele>822.5</ele>
    </trkpt>
    <trkpt lat="42.321858" lon="-3.015255">
      <ele>820.6</ele>
    </trkpt>
    <trkpt lat="42.321899" lon="-3.015253">
      <ele>820.5</ele>
    </trkpt>
    <trkpt lat="42.322569" lon="-3.015271">
      <ele>819.4</ele>
    </trkpt>
    <trkpt lat="42.322759" lon="-3.015278">
      <ele>819.4</ele>
    </trkpt>
    <trkpt lat="42.322968" lon="-3.015343">
      <ele>819.6</ele>
    </trkpt>
    <trkpt lat="42.323386" lon="-3.015483">
      <ele>820</ele>
    </trkpt>
    <trkpt lat="42.323502" lon="-3.015535">
      <ele>820.1</ele>
    </trkpt>
    <trkpt lat="42.323743" lon="-3.015648">
      <ele>820.1</ele>
    </trkpt>
    <trkpt lat="42.323869" lon="-3.015704">
      <ele>820.2</ele>
    </trkpt>
    <trkpt lat="42.323946" lon="-3.015738">
      <ele>820.2</ele>
    </trkpt>
    <trkpt lat="42.324132" lon="-3.015826">
      <ele>820.2</ele>
    </trkpt>
    <trkpt lat="42.324177" lon="-3.015552">
      <ele>820.1</ele>
    </trkpt>
    <trkpt lat="42.324585" lon="-3.015655">
      <ele>819.6</ele>
    </trkpt>
    <trkpt lat="42.324723" lon="-3.015261">
      <ele>819</ele>
    </trkpt>
    <trkpt lat="42.324891" lon="-3.015335">
      <ele>818.6</ele>
    </trkpt>
    <trkpt lat="42.324921" lon="-3.015148">
      <ele>818.4</ele>
    </trkpt>
    <trkpt lat="42.324953" lon="-3.014897">
      <ele>818.1</ele>
    </trkpt>
    <trkpt lat="42.325108" lon="-3.014891">
      <ele>817.8</ele>
    </trkpt>
    <trkpt lat="42.32511" lon="-3.014751">
      <ele>817.6</ele>
    </trkpt>
    <trkpt lat="42.32522" lon="-3.014739">
      <ele>817.4</ele>
    </trkpt>
    <trkpt lat="42.325298" lon="-3.01473">
      <ele>817.3</ele>
    </trkpt>
    <trkpt lat="42.325287" lon="-3.014579">
      <ele>817.1</ele>
    </trkpt>
    </trkseg>
  </trk>
</gpx>
