<?xml version="1.0" encoding="UTF-8"?>
<gpx version="1.1" creator="fitAI Komoot downloader" xmlns="http://www.topografix.com/GPX/1/1">
  <metadata>
    <name>Collado de Sagastia y Refugio de Bonicaparra - Recorrido circular desde Zorraquín</name>
    <desc>120 visitas · Dificultad: difficult · Distancia: 33.0 km · Desnivel +: 1127 m</desc>
    <link href="https://www.komoot.com/smarttour/e38180331"><text>Komoot</text></link>
  </metadata>
  <trk>
    <name>Collado de Sagastia y Refugio de Bonicaparra - Recorrido circular desde Zorraquín</name>
    <type>mtb</type>
    <trkseg>
    <trkpt lat="42.328675" lon="-3.014101">
      <ele>808.1</ele>
    </trkpt>
    <trkpt lat="42.328688" lon="-3.014441">
      <ele>808.2</ele>
    </trkpt>
    <trkpt lat="42.328326" lon="-3.014539">
      <ele>808.4</ele>
    </trkpt>
    <trkpt lat="42.327457" lon="-3.014758">
      <ele>810.1</ele>
    </trkpt>
    <trkpt lat="42.326934" lon="-3.014907">
      <ele>811.7</ele>
    </trkpt>
    <trkpt lat="42.326431" lon="-3.015051">
      <ele>813.5</ele>
    </trkpt>
    <trkpt lat="42.326439" lon="-3.015105">
      <ele>813.6</ele>
    </trkpt>
    <trkpt lat="42.326051" lon="-3.014985">
      <ele>815</ele>
    </trkpt>
    <trkpt lat="42.326024" lon="-3.015287">
      <ele>815.7</ele>
    </trkpt>
    <trkpt lat="42.325603" lon="-3.015255">
      <ele>816.8</ele>
    </trkpt>
    <trkpt lat="42.324921" lon="-3.015148">
      <ele>818.1</ele>
    </trkpt>
    <trkpt lat="42.324891" lon="-3.015335">
      <ele>818.4</ele>
    </trkpt>
    <trkpt lat="42.324786" lon="-3.016163">
      <ele>819.2</ele>
    </trkpt>
    <trkpt lat="42.324467" lon="-3.01599">
      <ele>819.6</ele>
    </trkpt>
    <trkpt lat="42.324132" lon="-3.015826">
      <ele>819.8</ele>
    </trkpt>
    <trkpt lat="42.323946" lon="-3.015738">
      <ele>819.9</ele>
    </trkpt>
    <trkpt lat="42.323869" lon="-3.015704">
      <ele>819.9</ele>
    </trkpt>
    <trkpt lat="42.323743" lon="-3.015648">
      <ele>820</ele>
    </trkpt>
    <trkpt lat="42.323502" lon="-3.015535">
      <ele>820</ele>
    </trkpt>
    <trkpt lat="42.323552" lon="-3.01529">
      <ele>819.9</ele>
    </trkpt>
    <trkpt lat="42.323499" lon="-3.015068">
      <ele>819.8</ele>
    </trkpt>
    <trkpt lat="42.32351" lon="-3.014796">
      <ele>819.7</ele>
    </trkpt>
    <trkpt lat="42.323461" lon="-3.01463">
      <ele>819.6</ele>
    </trkpt>
    <trkpt lat="42.323425" lon="-3.014451">
      <ele>819.4</ele>
    </trkpt>
    <trkpt lat="42.323194" lon="-3.01444">
      <ele>819</ele>
    </trkpt>
    <trkpt lat="42.323081" lon="-3.01438">
      <ele>818.8</ele>
    </trkpt>
    <trkpt lat="42.322629" lon="-3.014397">
      <ele>817.9</ele>
    </trkpt>
    <trkpt lat="42.322559" lon="-3.014151">
      <ele>817.6</ele>
    </trkpt>
    <trkpt lat="42.322518" lon="-3.013999">
      <ele>817.5</ele>
    </trkpt>
    <trkpt lat="42.32241" lon="-3.013622">
      <ele>817.1</ele>
    </trkpt>
    <trkpt lat="42.322219" lon="-3.012966">
      <ele>816.5</ele>
    </trkpt>
    <trkpt lat="42.32139" lon="-3.013343">
      <ele>816.2</ele>
    </trkpt>
    <trkpt lat="42.320661" lon="-3.013755">
      <ele>818</ele>
    </trkpt>
    <trkpt lat="42.320644" lon="-3.013661">
      <ele>818.1</ele>
    </trkpt>
    <trkpt lat="42.320416" lon="-3.012944">
      <ele>819.3</ele>
    </trkpt>
    <trkpt lat="42.320396" lon="-3.012868">
      <ele>819.5</ele>
    </trkpt>
    <trkpt lat="42.320166" lon="-3.012806">
      <ele>820.1</ele>
    </trkpt>
    <trkpt lat="42.319664" lon="-3.012547">
      <ele>821.9</ele>
    </trkpt>
    <trkpt lat="42.319117" lon="-3.012247">
      <ele>822.8</ele>
    </trkpt>
    <trkpt lat="42.318838" lon="-3.012214">
      <ele>823</ele>
    </trkpt>
    <trkpt lat="42.318435" lon="-3.012242">
      <ele>823.6</ele>
    </trkpt>
    <trkpt lat="42.317947" lon="-3.012328">
      <ele>824.3</ele>
    </trkpt>
    <trkpt lat="42.317681" lon="-3.01243">
      <ele>824.6</ele>
    </trkpt>
    <trkpt lat="42.316812" lon="-3.01288">
      <ele>825.4</ele>
    </trkpt>
    <trkpt lat="42.316087" lon="-3.013283">
      <ele>826.2</ele>
    </trkpt>
    <trkpt lat="42.315885" lon="-3.013434">
      <ele>826.4</ele>
    </trkpt>
    <trkpt lat="42.314673" lon="-3.014537">
      <ele>829.3</ele>
    </trkpt>
    <trkpt lat="42.314534" lon="-3.014541">
      <ele>829.8</ele>
    </trkpt>
    <trkpt lat="42.31425" lon="-3.014656">
      <ele>831</ele>
    </trkpt>
    <trkpt lat="42.314072" lon="-3.014596">
      <ele>831.8</ele>
    </trkpt>
    <trkpt lat="42.313707" lon="-3.014123">
      <ele>834</ele>
    </trkpt>
    <trkpt lat="42.313933" lon="-3.013947">
      <ele>835.1</ele>
    </trkpt>
    <trkpt lat="42.314205" lon="-3.013653">
      <ele>836.8</ele>
    </trkpt>
    <trkpt lat="42.314209" lon="-3.013621">
      <ele>836.9</ele>
    </trkpt>
    <trkpt lat="42.314191" lon="-3.013598">
      <ele>837</ele>
    </trkpt>
    <trkpt lat="42.31416" lon="-3.013616">
      <ele>837.2</ele>
    </trkpt>
    <trkpt lat="42.313896" lon="-3.013813">
      <ele>839</ele>
    </trkpt>
    <trkpt lat="42.313826" lon="-3.013829">
      <ele>839.4</ele>
    </trkpt>
    <trkpt lat="42.313753" lon="-3.013774">
      <ele>839.9</ele>
    </trkpt>
    <trkpt lat="42.31362" lon="-3.013169">
      <ele>843.3</ele>
    </trkpt>
    <trkpt lat="42.313523" lon="-3.013077">
      <ele>844.2</ele>
    </trkpt>
    <trkpt lat="42.313427" lon="-3.012786">
      <ele>846.3</ele>
    </trkpt>
    <trkpt lat="42.313347" lon="-3.012594">
      <ele>847.9</ele>
    </trkpt>
    <trkpt lat="42.313263" lon="-3.012472">
      <ele>849.2</ele>
    </trkpt>
    <trkpt lat="42.313174" lon="-3.012237">
      <ele>851.3</ele>
    </trkpt>
    <trkpt lat="42.313068" lon="-3.011847">
      <ele>854.4</ele>
    </trkpt>
    <trkpt lat="42.312981" lon="-3.011096">
      <ele>859.1</ele>
    </trkpt>
    <trkpt lat="42.312779" lon="-3.01038">
      <ele>861.9</ele>
    </trkpt>
    <trkpt lat="42.312311" lon="-3.009403">
      <ele>864.1</ele>
    </trkpt>
    <trkpt lat="42.312188" lon="-3.009036">
      <ele>864.7</ele>
    </trkpt>
    <trkpt lat="42.3117" lon="-3.008727">
      <ele>866.3</ele>
    </trkpt>
    <trkpt lat="42.311462" lon="-3.00818">
      <ele>868.6</ele>
    </trkpt>
    <trkpt lat="42.311295" lon="-3.007998">
      <ele>870</ele>
    </trkpt>
    <trkpt lat="42.310978" lon="-3.007547">
      <ele>873</ele>
    </trkpt>
    <trkpt lat="42.310883" lon="-3.007279">
      <ele>874.5</ele>
    </trkpt>
    <trkpt lat="42.310611" lon="-3.006898">
      <ele>877.2</ele>
    </trkpt>
    <trkpt lat="42.310467" lon="-3.00674">
      <ele>878.6</ele>
    </trkpt>
    <trkpt lat="42.308693" lon="-3.003953">
      <ele>895</ele>
    </trkpt>
    <trkpt lat="42.30809" lon="-3.003438">
      <ele>900</ele>
    </trkpt>
    <trkpt lat="42.307777" lon="-3.002927">
      <ele>903.9</ele>
    </trkpt>
    <trkpt lat="42.307669" lon="-3.002752">
      <ele>905.3</ele>
    </trkpt>
    <trkpt lat="42.306797" lon="-3.001765">
      <ele>916.6</ele>
    </trkpt>
    <trkpt lat="42.306342" lon="-3.00113">
      <ele>922.3</ele>
    </trkpt>
    <trkpt lat="42.306048" lon="-3.000925">
      <ele>924.8</ele>
    </trkpt>
    <trkpt lat="42.305856" lon="-3.000845">
      <ele>926.5</ele>
    </trkpt>
    <trkpt lat="42.305583" lon="-3.000672">
      <ele>928.8</ele>
    </trkpt>
    <trkpt lat="42.305512" lon="-3.000598">
      <ele>929.5</ele>
    </trkpt>
    <trkpt lat="42.3054" lon="-3.000376">
      <ele>930.8</ele>
    </trkpt>
    <trkpt lat="42.305267" lon="-3.000223">
      <ele>931.9</ele>
    </trkpt>
    <trkpt lat="42.305137" lon="-3.000123">
      <ele>932.9</ele>
    </trkpt>
    <trkpt lat="42.304912" lon="-2.999776">
      <ele>935.3</ele>
    </trkpt>
    <trkpt lat="42.304524" lon="-2.999515">
      <ele>939.8</ele>
    </trkpt>
    <trkpt lat="42.304351" lon="-2.999239">
      <ele>943</ele>
    </trkpt>
    <trkpt lat="42.304252" lon="-2.998807">
      <ele>946.9</ele>
    </trkpt>
    <trkpt lat="42.304257" lon="-2.998517">
      <ele>949.5</ele>
    </trkpt>
    <trkpt lat="42.304152" lon="-2.998191">
      <ele>952.9</ele>
    </trkpt>
    <trkpt lat="42.3041" lon="-2.997724">
      <ele>957.5</ele>
    </trkpt>
    <trkpt lat="42.304016" lon="-2.997412">
      <ele>961</ele>
    </trkpt>
    <trkpt lat="42.30377" lon="-2.996825">
      <ele>968</ele>
    </trkpt>
    <trkpt lat="42.303592" lon="-2.996558">
      <ele>971.7</ele>
    </trkpt>
    <trkpt lat="42.303179" lon="-2.995336">
      <ele>987.6</ele>
    </trkpt>
    <trkpt lat="42.302634" lon="-2.994496">
      <ele>1000.9</ele>
    </trkpt>
    <trkpt lat="42.302528" lon="-2.994205">
      <ele>1003.9</ele>
    </trkpt>
    <trkpt lat="42.302409" lon="-2.994213">
      <ele>1005.1</ele>
    </trkpt>
    <trkpt lat="42.302352" lon="-2.994291">
      <ele>1005.9</ele>
    </trkpt>
    <trkpt lat="42.302362" lon="-2.994503">
      <ele>1007.1</ele>
    </trkpt>
    <trkpt lat="42.302467" lon="-2.995077">
      <ele>1008.8</ele>
    </trkpt>
    <trkpt lat="42.302498" lon="-2.995565">
      <ele>1008.1</ele>
    </trkpt>
    <trkpt lat="42.302619" lon="-2.995933">
      <ele>1006.3</ele>
    </trkpt>
    <trkpt lat="42.302849" lon="-2.997193">
      <ele>999.3</ele>
    </trkpt>
    <trkpt lat="42.302979" lon="-2.997566">
      <ele>998.9</ele>
    </trkpt>
    <trkpt lat="42.303011" lon="-2.997844">
      <ele>999.3</ele>
    </trkpt>
    <trkpt lat="42.302956" lon="-2.998045">
      <ele>1000.1</ele>
    </trkpt>
    <trkpt lat="42.302864" lon="-2.998064">
      <ele>1000.7</ele>
    </trkpt>
    <trkpt lat="42.302802" lon="-2.997922">
      <ele>1001.6</ele>
    </trkpt>
    <trkpt lat="42.302776" lon="-2.997596">
      <ele>1004</ele>
    </trkpt>
    <trkpt lat="42.302613" lon="-2.997058">
      <ele>1009.4</ele>
    </trkpt>
    <trkpt lat="42.302503" lon="-2.996605">
      <ele>1014.1</ele>
    </trkpt>
    <trkpt lat="42.302372" lon="-2.996202">
      <ele>1018.4</ele>
    </trkpt>
    <trkpt lat="42.302283" lon="-2.996004">
      <ele>1020.4</ele>
    </trkpt>
    <trkpt lat="42.302236" lon="-2.995798">
      <ele>1022.1</ele>
    </trkpt>
    <trkpt lat="42.30221" lon="-2.995515">
      <ele>1024.1</ele>
    </trkpt>
    <trkpt lat="42.301933" lon="-2.99439">
      <ele>1031.6</ele>
    </trkpt>
    <trkpt lat="42.301886" lon="-2.994149">
      <ele>1033.4</ele>
    </trkpt>
    <trkpt lat="42.301886" lon="-2.993236">
      <ele>1041.8</ele>
    </trkpt>
    <trkpt lat="42.301629" lon="-2.992047">
      <ele>1055.2</ele>
    </trkpt>
    <trkpt lat="42.301577" lon="-2.991877">
      <ele>1057.1</ele>
    </trkpt>
    <trkpt lat="42.301435" lon="-2.991601">
      <ele>1060.4</ele>
    </trkpt>
    <trkpt lat="42.301409" lon="-2.991346">
      <ele>1062.7</ele>
    </trkpt>
    <trkpt lat="42.301336" lon="-2.991162">
      <ele>1064.5</ele>
    </trkpt>
    <trkpt lat="42.301341" lon="-2.990985">
      <ele>1066.1</ele>
    </trkpt>
    <trkpt lat="42.301011" lon="-2.990263">
      <ele>1073</ele>
    </trkpt>
    <trkpt lat="42.300692" lon="-2.989421">
      <ele>1081.9</ele>
    </trkpt>
    <trkpt lat="42.300702" lon="-2.989307">
      <ele>1083.2</ele>
    </trkpt>
    <trkpt lat="42.300678" lon="-2.989219">
      <ele>1084.2</ele>
    </trkpt>
    <trkpt lat="42.300531" lon="-2.988959">
      <ele>1087.9</ele>
    </trkpt>
    <trkpt lat="42.300462" lon="-2.988642">
      <ele>1091.7</ele>
    </trkpt>
    <trkpt lat="42.300447" lon="-2.988434">
      <ele>1094</ele>
    </trkpt>
    <trkpt lat="42.300358" lon="-2.988112">
      <ele>1097.7</ele>
    </trkpt>
    <trkpt lat="42.300209" lon="-2.988013">
      <ele>1100.1</ele>
    </trkpt>
    <trkpt lat="42.300147" lon="-2.987687">
      <ele>1103.7</ele>
    </trkpt>
    <trkpt lat="42.300006" lon="-2.987354">
      <ele>1107.8</ele>
    </trkpt>
    <trkpt lat="42.299913" lon="-2.987033">
      <ele>1111.4</ele>
    </trkpt>
    <trkpt lat="42.299861" lon="-2.986757">
      <ele>1114.2</ele>
    </trkpt>
    <trkpt lat="42.299536" lon="-2.9859">
      <ele>1122.9</ele>
    </trkpt>
    <trkpt lat="42.299472" lon="-2.985781">
      <ele>1124</ele>
    </trkpt>
    <trkpt lat="42.299322" lon="-2.985253">
      <ele>1128.5</ele>
    </trkpt>
    <trkpt lat="42.299163" lon="-2.984513">
      <ele>1133.6</ele>
    </trkpt>
    <trkpt lat="42.298282" lon="-2.982893">
      <ele>1143.1</ele>
    </trkpt>
    <trkpt lat="42.298084" lon="-2.982324">
      <ele>1146.5</ele>
    </trkpt>
    <trkpt lat="42.297655" lon="-2.979706">
      <ele>1162.8</ele>
    </trkpt>
    <trkpt lat="42.297414" lon="-2.979334">
      <ele>1165.7</ele>
    </trkpt>
    <trkpt lat="42.297335" lon="-2.979212">
      <ele>1166.7</ele>
    </trkpt>
    <trkpt lat="42.296981" lon="-2.978665">
      <ele>1171.2</ele>
    </trkpt>
    <trkpt lat="42.296124" lon="-2.978064">
      <ele>1178.4</ele>
    </trkpt>
    <trkpt lat="42.295616" lon="-2.977786">
      <ele>1181.9</ele>
    </trkpt>
    <trkpt lat="42.295656" lon="-2.977603">
      <ele>1182.5</ele>
    </trkpt>
    <trkpt lat="42.296243" lon="-2.977603">
      <ele>1183.7</ele>
    </trkpt>
    <trkpt lat="42.296941" lon="-2.977839">
      <ele>1183.4</ele>
    </trkpt>
    <trkpt lat="42.297536" lon="-2.978107">
      <ele>1185.6</ele>
    </trkpt>
    <trkpt lat="42.297846" lon="-2.978054">
      <ele>1188</ele>
    </trkpt>
    <trkpt lat="42.298481" lon="-2.977271">
      <ele>1198.7</ele>
    </trkpt>
    <trkpt lat="42.299306" lon="-2.975382">
      <ele>1218.7</ele>
    </trkpt>
    <trkpt lat="42.299512" lon="-2.975372">
      <ele>1219.5</ele>
    </trkpt>
    <trkpt lat="42.299623" lon="-2.975479">
      <ele>1219.8</ele>
    </trkpt>
    <trkpt lat="42.299973" lon="-2.976981">
      <ele>1217.3</ele>
    </trkpt>
    <trkpt lat="42.299941" lon="-2.977485">
      <ele>1216.4</ele>
    </trkpt>
    <trkpt lat="42.299766" lon="-2.978225">
      <ele>1217</ele>
    </trkpt>
    <trkpt lat="42.299822" lon="-2.97874">
      <ele>1219.1</ele>
    </trkpt>
    <trkpt lat="42.299923" lon="-2.979023">
      <ele>1221</ele>
    </trkpt>
    <trkpt lat="42.300076" lon="-2.979137">
      <ele>1222.6</ele>
    </trkpt>
    <trkpt lat="42.300216" lon="-2.979192">
      <ele>1224</ele>
    </trkpt>
    <trkpt lat="42.300393" lon="-2.979137">
      <ele>1225.7</ele>
    </trkpt>
    <trkpt lat="42.301044" lon="-2.978622">
      <ele>1231.2</ele>
    </trkpt>
    <trkpt lat="42.301127" lon="-2.978663">
      <ele>1231.7</ele>
    </trkpt>
    <trkpt lat="42.30121" lon="-2.978773">
      <ele>1232.3</ele>
    </trkpt>
    <trkpt lat="42.301314" lon="-2.979255">
      <ele>1233.5</ele>
    </trkpt>
    <trkpt lat="42.301464" lon="-2.980865">
      <ele>1234.3</ele>
    </trkpt>
    <trkpt lat="42.301393" lon="-2.981562">
      <ele>1236.2</ele>
    </trkpt>
    <trkpt lat="42.301504" lon="-2.981916">
      <ele>1237.6</ele>
    </trkpt>
    <trkpt lat="42.301932" lon="-2.982571">
      <ele>1241.7</ele>
    </trkpt>
    <trkpt lat="42.302409" lon="-2.983075">
      <ele>1246.7</ele>
    </trkpt>
    <trkpt lat="42.303853" lon="-2.983944">
      <ele>1262.1</ele>
    </trkpt>
    <trkpt lat="42.304639" lon="-2.984163">
      <ele>1268.1</ele>
    </trkpt>
    <trkpt lat="42.304877" lon="-2.984096">
      <ele>1268.8</ele>
    </trkpt>
    <trkpt lat="42.304972" lon="-2.983981">
      <ele>1268.9</ele>
    </trkpt>
    <trkpt lat="42.304836" lon="-2.983794">
      <ele>1268.9</ele>
    </trkpt>
    <trkpt lat="42.304972" lon="-2.983981">
      <ele>1268.5</ele>
    </trkpt>
    <trkpt lat="42.305554" lon="-2.984527">
      <ele>1264.9</ele>
    </trkpt>
    <trkpt lat="42.30634" lon="-2.985452">
      <ele>1254.6</ele>
    </trkpt>
    <trkpt lat="42.306467" lon="-2.985767">
      <ele>1251.8</ele>
    </trkpt>
    <trkpt lat="42.306562" lon="-2.985907">
      <ele>1250.2</ele>
    </trkpt>
    <trkpt lat="42.30709" lon="-2.986266">
      <ele>1243.7</ele>
    </trkpt>
    <trkpt lat="42.30724" lon="-2.986588">
      <ele>1240.3</ele>
    </trkpt>
    <trkpt lat="42.307514" lon="-2.986974">
      <ele>1235.7</ele>
    </trkpt>
    <trkpt lat="42.307678" lon="-2.987142">
      <ele>1233.4</ele>
    </trkpt>
    <trkpt lat="42.307873" lon="-2.987263">
      <ele>1231.1</ele>
    </trkpt>
    <trkpt lat="42.308292" lon="-2.98739">
      <ele>1226.6</ele>
    </trkpt>
    <trkpt lat="42.309193" lon="-2.98786">
      <ele>1218.7</ele>
    </trkpt>
    <trkpt lat="42.309477" lon="-2.987958">
      <ele>1217</ele>
    </trkpt>
    <trkpt lat="42.309851" lon="-2.988369">
      <ele>1214.2</ele>
    </trkpt>
    <trkpt lat="42.310177" lon="-2.988894">
      <ele>1209.8</ele>
    </trkpt>
    <trkpt lat="42.310538" lon="-2.989157">
      <ele>1205.3</ele>
    </trkpt>
    <trkpt lat="42.310733" lon="-2.989071">
      <ele>1202.6</ele>
    </trkpt>
    <trkpt lat="42.311556" lon="-2.988728">
      <ele>1190.9</ele>
    </trkpt>
    <trkpt lat="42.311664" lon="-2.988656">
      <ele>1189.1</ele>
    </trkpt>
    <trkpt lat="42.311667" lon="-2.98854">
      <ele>1187.9</ele>
    </trkpt>
    <trkpt lat="42.311557" lon="-2.988305">
      <ele>1185.1</ele>
    </trkpt>
    <trkpt lat="42.311381" lon="-2.988251">
      <ele>1182.6</ele>
    </trkpt>
    <trkpt lat="42.311027" lon="-2.988295">
      <ele>1177.4</ele>
    </trkpt>
    <trkpt lat="42.310917" lon="-2.988283">
      <ele>1175.7</ele>
    </trkpt>
    <trkpt lat="42.310895" lon="-2.988184">
      <ele>1174.6</ele>
    </trkpt>
    <trkpt lat="42.311908" lon="-2.987614">
      <ele>1158.3</ele>
    </trkpt>
    <trkpt lat="42.312239" lon="-2.987575">
      <ele>1154.4</ele>
    </trkpt>
    <trkpt lat="42.312624" lon="-2.987757">
      <ele>1150.8</ele>
    </trkpt>
    <trkpt lat="42.312909" lon="-2.988149">
      <ele>1148.3</ele>
    </trkpt>
    <trkpt lat="42.313007" lon="-2.988457">
      <ele>1146.7</ele>
    </trkpt>
    <trkpt lat="42.313133" lon="-2.989094">
      <ele>1142.8</ele>
    </trkpt>
    <trkpt lat="42.313394" lon="-2.98927">
      <ele>1139.8</ele>
    </trkpt>
    <trkpt lat="42.314115" lon="-2.989254">
      <ele>1130.3</ele>
    </trkpt>
    <trkpt lat="42.314541" lon="-2.989411">
      <ele>1124.7</ele>
    </trkpt>
    <trkpt lat="42.314782" lon="-2.989651">
      <ele>1121.5</ele>
    </trkpt>
    <trkpt lat="42.31502" lon="-2.99">
      <ele>1118.7</ele>
    </trkpt>
    <trkpt lat="42.315103" lon="-2.990257">
      <ele>1117.5</ele>
    </trkpt>
    <trkpt lat="42.315095" lon="-2.990777">
      <ele>1115.9</ele>
    </trkpt>
    <trkpt lat="42.315138" lon="-2.990944">
      <ele>1115.5</ele>
    </trkpt>
    <trkpt lat="42.315229" lon="-2.991002">
      <ele>1115.3</ele>
    </trkpt>
    <trkpt lat="42.315749" lon="-2.990938">
      <ele>1114.5</ele>
    </trkpt>
    <trkpt lat="42.315807" lon="-2.991056">
      <ele>1114.2</ele>
    </trkpt>
    <trkpt lat="42.315778" lon="-2.991244">
      <ele>1113.8</ele>
    </trkpt>
    <trkpt lat="42.31567" lon="-2.991417">
      <ele>1113.2</ele>
    </trkpt>
    <trkpt lat="42.316042" lon="-2.992182">
      <ele>1108.5</ele>
    </trkpt>
    <trkpt lat="42.316313" lon="-2.992528">
      <ele>1104.3</ele>
    </trkpt>
    <trkpt lat="42.317245" lon="-2.992582">
      <ele>1091.4</ele>
    </trkpt>
    <trkpt lat="42.317542" lon="-2.992782">
      <ele>1087.1</ele>
    </trkpt>
    <trkpt lat="42.318069" lon="-2.993219">
      <ele>1080.5</ele>
    </trkpt>
    <trkpt lat="42.318244" lon="-2.993692">
      <ele>1076.9</ele>
    </trkpt>
    <trkpt lat="42.31869" lon="-2.994202">
      <ele>1071</ele>
    </trkpt>
    <trkpt lat="42.318933" lon="-2.994293">
      <ele>1068.1</ele>
    </trkpt>
    <trkpt lat="42.319339" lon="-2.994256">
      <ele>1062.9</ele>
    </trkpt>
    <trkpt lat="42.319474" lon="-2.994311">
      <ele>1060.9</ele>
    </trkpt>
    <trkpt lat="42.319784" lon="-2.994875">
      <ele>1052.7</ele>
    </trkpt>
    <trkpt lat="42.320095" lon="-2.99513">
      <ele>1046.5</ele>
    </trkpt>
    <trkpt lat="42.320298" lon="-2.995239">
      <ele>1042.7</ele>
    </trkpt>
    <trkpt lat="42.320678" lon="-2.995359">
      <ele>1036.2</ele>
    </trkpt>
    <trkpt lat="42.32103" lon="-2.99557">
      <ele>1030.3</ele>
    </trkpt>
    <trkpt lat="42.321081" lon="-2.995676">
      <ele>1028.9</ele>
    </trkpt>
    <trkpt lat="42.321216" lon="-2.99584">
      <ele>1026.4</ele>
    </trkpt>
    <trkpt lat="42.321284" lon="-2.996095">
      <ele>1023.9</ele>
    </trkpt>
    <trkpt lat="42.321446" lon="-2.995658">
      <ele>1020.2</ele>
    </trkpt>
    <trkpt lat="42.321527" lon="-2.995822">
      <ele>1019</ele>
    </trkpt>
    <trkpt lat="42.321595" lon="-2.996186">
      <ele>1016.8</ele>
    </trkpt>
    <trkpt lat="42.321784" lon="-2.996714">
      <ele>1013.9</ele>
    </trkpt>
    <trkpt lat="42.322135" lon="-2.998006">
      <ele>1004.7</ele>
    </trkpt>
    <trkpt lat="42.322743" lon="-2.999572">
      <ele>988.2</ele>
    </trkpt>
    <trkpt lat="42.323175" lon="-3.000173">
      <ele>980.2</ele>
    </trkpt>
    <trkpt lat="42.323297" lon="-3.000263">
      <ele>978.5</ele>
    </trkpt>
    <trkpt lat="42.323419" lon="-3.000555">
      <ele>975.4</ele>
    </trkpt>
    <trkpt lat="42.324216" lon="-3.001793">
      <ele>961.5</ele>
    </trkpt>
    <trkpt lat="42.324107" lon="-3.001829">
      <ele>960.5</ele>
    </trkpt>
    <trkpt lat="42.324094" lon="-3.001902">
      <ele>960.1</ele>
    </trkpt>
    <trkpt lat="42.324429" lon="-3.002248">
      <ele>957.4</ele>
    </trkpt>
    <trkpt lat="42.324371" lon="-3.001952">
      <ele>956.5</ele>
    </trkpt>
    <trkpt lat="42.324367" lon="-3.001775">
      <ele>956</ele>
    </trkpt>
    <trkpt lat="42.324315" lon="-3.001445">
      <ele>955.5</ele>
    </trkpt>
    <trkpt lat="42.324239" lon="-3.001251">
      <ele>955.4</ele>
    </trkpt>
    <trkpt lat="42.323816" lon="-3.000579">
      <ele>956.7</ele>
    </trkpt>
    <trkpt lat="42.323778" lon="-3.000445">
      <ele>956.9</ele>
    </trkpt>
    <trkpt lat="42.323762" lon="-3.000308">
      <ele>957.1</ele>
    </trkpt>
    <trkpt lat="42.323796" lon="-2.999977">
      <ele>957.6</ele>
    </trkpt>
    <trkpt lat="42.323764" lon="-2.999783">
      <ele>958</ele>
    </trkpt>
    <trkpt lat="42.323692" lon="-2.999614">
      <ele>958.3</ele>
    </trkpt>
    <trkpt lat="42.323495" lon="-2.999327">
      <ele>959.1</ele>
    </trkpt>
    <trkpt lat="42.323422" lon="-2.999144">
      <ele>959.7</ele>
    </trkpt>
    <trkpt lat="42.323148" lon="-2.998223">
      <ele>964.5</ele>
    </trkpt>
    <trkpt lat="42.322823" lon="-2.997857">
      <ele>967.9</ele>
    </trkpt>
    <trkpt lat="42.322711" lon="-2.997685">
      <ele>969.2</ele>
    </trkpt>
    <trkpt lat="42.322532" lon="-2.997187">
      <ele>971.8</ele>
    </trkpt>
    <trkpt lat="42.322464" lon="-2.996836">
      <ele>973</ele>
    </trkpt>
    <trkpt lat="42.322426" lon="-2.995645">
      <ele>974.1</ele>
    </trkpt>
    <trkpt lat="42.3224" lon="-2.995375">
      <ele>974.1</ele>
    </trkpt>
    <trkpt lat="42.322345" lon="-2.995177">
      <ele>974.2</ele>
    </trkpt>
    <trkpt lat="42.322212" lon="-2.994927">
      <ele>974.8</ele>
    </trkpt>
    <trkpt lat="42.322089" lon="-2.99482">
      <ele>975.3</ele>
    </trkpt>
    <trkpt lat="42.321655" lon="-2.994558">
      <ele>977.3</ele>
    </trkpt>
    <trkpt lat="42.321277" lon="-2.994181">
      <ele>979.4</ele>
    </trkpt>
    <trkpt lat="42.321132" lon="-2.99399">
      <ele>980.2</ele>
    </trkpt>
    <trkpt lat="42.320419" lon="-2.992593">
      <ele>983.8</ele>
    </trkpt>
    <trkpt lat="42.320318" lon="-2.992433">
      <ele>984.7</ele>
    </trkpt>
    <trkpt lat="42.320219" lon="-2.992329">
      <ele>985.6</ele>
    </trkpt>
    <trkpt lat="42.320129" lon="-2.992279">
      <ele>986.3</ele>
    </trkpt>
    <trkpt lat="42.319964" lon="-2.992258">
      <ele>987.7</ele>
    </trkpt>
    <trkpt lat="42.319861" lon="-2.992277">
      <ele>988.6</ele>
    </trkpt>
    <trkpt lat="42.319578" lon="-2.99249">
      <ele>991.7</ele>
    </trkpt>
    <trkpt lat="42.319497" lon="-2.992514">
      <ele>992.4</ele>
    </trkpt>
    <trkpt lat="42.319429" lon="-2.992518">
      <ele>993.1</ele>
    </trkpt>
    <trkpt lat="42.319307" lon="-2.992437">
      <ele>994.3</ele>
    </trkpt>
    <trkpt lat="42.319275" lon="-2.992362">
      <ele>994.8</ele>
    </trkpt>
    <trkpt lat="42.319179" lon="-2.991846">
      <ele>998</ele>
    </trkpt>
    <trkpt lat="42.319079" lon="-2.991645">
      <ele>998.9</ele>
    </trkpt>
    <trkpt lat="42.319018" lon="-2.991585">
      <ele>999.2</ele>
    </trkpt>
    <trkpt lat="42.318749" lon="-2.991493">
      <ele>999.8</ele>
    </trkpt>
    <trkpt lat="42.318692" lon="-2.991427">
      <ele>999.8</ele>
    </trkpt>
    <trkpt lat="42.318616" lon="-2.991198">
      <ele>1000</ele>
    </trkpt>
    <trkpt lat="42.318624" lon="-2.990624">
      <ele>1000.8</ele>
    </trkpt>
    <trkpt lat="42.318595" lon="-2.990508">
      <ele>1001.1</ele>
    </trkpt>
    <trkpt lat="42.318353" lon="-2.99017">
      <ele>1002.9</ele>
    </trkpt>
    <trkpt lat="42.318259" lon="-2.990077">
      <ele>1003.6</ele>
    </trkpt>
    <trkpt lat="42.318137" lon="-2.990017">
      <ele>1004.6</ele>
    </trkpt>
    <trkpt lat="42.318062" lon="-2.990028">
      <ele>1005.2</ele>
    </trkpt>
    <trkpt lat="42.317967" lon="-2.990103">
      <ele>1006</ele>
    </trkpt>
    <trkpt lat="42.317678" lon="-2.990451">
      <ele>1008.7</ele>
    </trkpt>
    <trkpt lat="42.317633" lon="-2.990466">
      <ele>1009</ele>
    </trkpt>
    <trkpt lat="42.317565" lon="-2.990435">
      <ele>1009.4</ele>
    </trkpt>
    <trkpt lat="42.317548" lon="-2.990399">
      <ele>1009.6</ele>
    </trkpt>
    <trkpt lat="42.31753" lon="-2.990361">
      <ele>1009.7</ele>
    </trkpt>
    <trkpt lat="42.317405" lon="-2.989846">
      <ele>1011.2</ele>
    </trkpt>
    <trkpt lat="42.317229" lon="-2.98955">
      <ele>1011.1</ele>
    </trkpt>
    <trkpt lat="42.317221" lon="-2.989235">
      <ele>1010.5</ele>
    </trkpt>
    <trkpt lat="42.317349" lon="-2.989039">
      <ele>1009.7</ele>
    </trkpt>
    <trkpt lat="42.317363" lon="-2.98886">
      <ele>1009</ele>
    </trkpt>
    <trkpt lat="42.317147" lon="-2.988292">
      <ele>1007.1</ele>
    </trkpt>
    <trkpt lat="42.31696" lon="-2.987981">
      <ele>1006.5</ele>
    </trkpt>
    <trkpt lat="42.316798" lon="-2.987765">
      <ele>1006.6</ele>
    </trkpt>
    <trkpt lat="42.31665" lon="-2.987621">
      <ele>1007</ele>
    </trkpt>
    <trkpt lat="42.316503" lon="-2.987495">
      <ele>1007.6</ele>
    </trkpt>
    <trkpt lat="42.316226" lon="-2.98737">
      <ele>1009</ele>
    </trkpt>
    <trkpt lat="42.315505" lon="-2.98681">
      <ele>1012.8</ele>
    </trkpt>
    <trkpt lat="42.315433" lon="-2.986661">
      <ele>1013.3</ele>
    </trkpt>
    <trkpt lat="42.315435" lon="-2.986602">
      <ele>1013.4</ele>
    </trkpt>
    <trkpt lat="42.315697" lon="-2.986223">
      <ele>1014.7</ele>
    </trkpt>
    <trkpt lat="42.315723" lon="-2.986063">
      <ele>1015.1</ele>
    </trkpt>
    <trkpt lat="42.315705" lon="-2.985982">
      <ele>1015.3</ele>
    </trkpt>
    <trkpt lat="42.315258" lon="-2.985207">
      <ele>1017.6</ele>
    </trkpt>
    <trkpt lat="42.314473" lon="-2.983694">
      <ele>1024.3</ele>
    </trkpt>
    <trkpt lat="42.314269" lon="-2.983351">
      <ele>1026.3</ele>
    </trkpt>
    <trkpt lat="42.3142" lon="-2.983297">
      <ele>1026.8</ele>
    </trkpt>
    <trkpt lat="42.31407" lon="-2.983274">
      <ele>1027.8</ele>
    </trkpt>
    <trkpt lat="42.313992" lon="-2.983295">
      <ele>1028.4</ele>
    </trkpt>
    <trkpt lat="42.313854" lon="-2.983401">
      <ele>1029.6</ele>
    </trkpt>
    <trkpt lat="42.313745" lon="-2.983421">
      <ele>1030.5</ele>
    </trkpt>
    <trkpt lat="42.313688" lon="-2.983401">
      <ele>1031</ele>
    </trkpt>
    <trkpt lat="42.313584" lon="-2.983299">
      <ele>1032.2</ele>
    </trkpt>
    <trkpt lat="42.31353" lon="-2.983181">
      <ele>1033.2</ele>
    </trkpt>
    <trkpt lat="42.313423" lon="-2.98305">
      <ele>1034.6</ele>
    </trkpt>
    <trkpt lat="42.312675" lon="-2.982828">
      <ele>1042</ele>
    </trkpt>
    <trkpt lat="42.31232" lon="-2.982694">
      <ele>1045</ele>
    </trkpt>
    <trkpt lat="42.311907" lon="-2.982486">
      <ele>1047.2</ele>
    </trkpt>
    <trkpt lat="42.311808" lon="-2.982414">
      <ele>1047.6</ele>
    </trkpt>
    <trkpt lat="42.311723" lon="-2.982272">
      <ele>1048</ele>
    </trkpt>
    <trkpt lat="42.311749" lon="-2.982186">
      <ele>1048.2</ele>
    </trkpt>
    <trkpt lat="42.311791" lon="-2.982156">
      <ele>1048.3</ele>
    </trkpt>
    <trkpt lat="42.312456" lon="-2.982058">
      <ele>1048.4</ele>
    </trkpt>
    <trkpt lat="42.313153" lon="-2.981735">
      <ele>1047.8</ele>
    </trkpt>
    <trkpt lat="42.313711" lon="-2.981596">
      <ele>1048.6</ele>
    </trkpt>
    <trkpt lat="42.314351" lon="-2.981367">
      <ele>1049.9</ele>
    </trkpt>
    <trkpt lat="42.314653" lon="-2.981339">
      <ele>1050.8</ele>
    </trkpt>
    <trkpt lat="42.314802" lon="-2.981352">
      <ele>1051.5</ele>
    </trkpt>
    <trkpt lat="42.315057" lon="-2.981438">
      <ele>1053</ele>
    </trkpt>
    <trkpt lat="42.315288" lon="-2.981477">
      <ele>1054.7</ele>
    </trkpt>
    <trkpt lat="42.3155" lon="-2.981448">
      <ele>1056.6</ele>
    </trkpt>
    <trkpt lat="42.315596" lon="-2.981402">
      <ele>1057.6</ele>
    </trkpt>
    <trkpt lat="42.31566" lon="-2.981326">
      <ele>1058.4</ele>
    </trkpt>
    <trkpt lat="42.315683" lon="-2.981185">
      <ele>1059.5</ele>
    </trkpt>
    <trkpt lat="42.315639" lon="-2.980941">
      <ele>1061.5</ele>
    </trkpt>
    <trkpt lat="42.315641" lon="-2.980793">
      <ele>1062.7</ele>
    </trkpt>
    <trkpt lat="42.31597" lon="-2.980084">
      <ele>1070.8</ele>
    </trkpt>
    <trkpt lat="42.316089" lon="-2.979761">
      <ele>1074.7</ele>
    </trkpt>
    <trkpt lat="42.316111" lon="-2.979661">
      <ele>1075.8</ele>
    </trkpt>
    <trkpt lat="42.316117" lon="-2.979319">
      <ele>1079.6</ele>
    </trkpt>
    <trkpt lat="42.316086" lon="-2.978996">
      <ele>1083</ele>
    </trkpt>
    <trkpt lat="42.315958" lon="-2.978749">
      <ele>1086</ele>
    </trkpt>
    <trkpt lat="42.315848" lon="-2.978633">
      <ele>1087.7</ele>
    </trkpt>
    <trkpt lat="42.315269" lon="-2.978202">
      <ele>1095.5</ele>
    </trkpt>
    <trkpt lat="42.315229" lon="-2.978146">
      <ele>1096.1</ele>
    </trkpt>
    <trkpt lat="42.315187" lon="-2.977968">
      <ele>1097.5</ele>
    </trkpt>
    <trkpt lat="42.315253" lon="-2.977085">
      <ele>1101.9</ele>
    </trkpt>
    <trkpt lat="42.315295" lon="-2.976895">
      <ele>1102.4</ele>
    </trkpt>
    <trkpt lat="42.315422" lon="-2.976538">
      <ele>1103</ele>
    </trkpt>
    <trkpt lat="42.315812" lon="-2.975865">
      <ele>1104</ele>
    </trkpt>
    <trkpt lat="42.315896" lon="-2.975423">
      <ele>1104.7</ele>
    </trkpt>
    <trkpt lat="42.315892" lon="-2.975148">
      <ele>1105.1</ele>
    </trkpt>
    <trkpt lat="42.315678" lon="-2.97446">
      <ele>1106</ele>
    </trkpt>
    <trkpt lat="42.315567" lon="-2.973963">
      <ele>1108.1</ele>
    </trkpt>
    <trkpt lat="42.315469" lon="-2.973666">
      <ele>1110.1</ele>
    </trkpt>
    <trkpt lat="42.315414" lon="-2.973578">
      <ele>1110.9</ele>
    </trkpt>
    <trkpt lat="42.315314" lon="-2.973525">
      <ele>1112</ele>
    </trkpt>
    <trkpt lat="42.314963" lon="-2.973468">
      <ele>1116.1</ele>
    </trkpt>
    <trkpt lat="42.314613" lon="-2.973336">
      <ele>1120.7</ele>
    </trkpt>
    <trkpt lat="42.313911" lon="-2.973285">
      <ele>1130.5</ele>
    </trkpt>
    <trkpt lat="42.313698" lon="-2.973227">
      <ele>1133.3</ele>
    </trkpt>
    <trkpt lat="42.313581" lon="-2.973129">
      <ele>1135</ele>
    </trkpt>
    <trkpt lat="42.313592" lon="-2.972964">
      <ele>1136.3</ele>
    </trkpt>
    <trkpt lat="42.313971" lon="-2.972399">
      <ele>1141.1</ele>
    </trkpt>
    <trkpt lat="42.314496" lon="-2.971348">
      <ele>1147.1</ele>
    </trkpt>
    <trkpt lat="42.314526" lon="-2.971123">
      <ele>1148.4</ele>
    </trkpt>
    <trkpt lat="42.314534" lon="-2.970782">
      <ele>1150.2</ele>
    </trkpt>
    <trkpt lat="42.314625" lon="-2.97025">
      <ele>1152.5</ele>
    </trkpt>
    <trkpt lat="42.31468" lon="-2.969701">
      <ele>1154.4</ele>
    </trkpt>
    <trkpt lat="42.31483" lon="-2.968979">
      <ele>1158.1</ele>
    </trkpt>
    <trkpt lat="42.314839" lon="-2.968582">
      <ele>1160.9</ele>
    </trkpt>
    <trkpt lat="42.314787" lon="-2.968315">
      <ele>1163</ele>
    </trkpt>
    <trkpt lat="42.314748" lon="-2.968119">
      <ele>1164.5</ele>
    </trkpt>
    <trkpt lat="42.314642" lon="-2.967849">
      <ele>1166.8</ele>
    </trkpt>
    <trkpt lat="42.314572" lon="-2.967767">
      <ele>1167.8</ele>
    </trkpt>
    <trkpt lat="42.314269" lon="-2.967667">
      <ele>1171.1</ele>
    </trkpt>
    <trkpt lat="42.314197" lon="-2.967603">
      <ele>1172</ele>
    </trkpt>
    <trkpt lat="42.31415" lon="-2.967445">
      <ele>1173.4</ele>
    </trkpt>
    <trkpt lat="42.314174" lon="-2.967253">
      <ele>1175</ele>
    </trkpt>
    <trkpt lat="42.314328" lon="-2.96704">
      <ele>1177.4</ele>
    </trkpt>
    <trkpt lat="42.314541" lon="-2.966538">
      <ele>1181.4</ele>
    </trkpt>
    <trkpt lat="42.314593" lon="-2.96615">
      <ele>1183.8</ele>
    </trkpt>
    <trkpt lat="42.314591" lon="-2.965911">
      <ele>1185.2</ele>
    </trkpt>
    <trkpt lat="42.31449" lon="-2.965466">
      <ele>1188.4</ele>
    </trkpt>
    <trkpt lat="42.314363" lon="-2.965074">
      <ele>1191.4</ele>
    </trkpt>
    <trkpt lat="42.314243" lon="-2.964177">
      <ele>1196.7</ele>
    </trkpt>
    <trkpt lat="42.314213" lon="-2.964104">
      <ele>1197</ele>
    </trkpt>
    <trkpt lat="42.314181" lon="-2.964106">
      <ele>1197.1</ele>
    </trkpt>
    <trkpt lat="42.314159" lon="-2.964179">
      <ele>1197.4</ele>
    </trkpt>
    <trkpt lat="42.314208" lon="-2.964872">
      <ele>1198.4</ele>
    </trkpt>
    <trkpt lat="42.314195" lon="-2.96511">
      <ele>1198.4</ele>
    </trkpt>
    <trkpt lat="42.314133" lon="-2.965685">
      <ele>1198.6</ele>
    </trkpt>
    <trkpt lat="42.313961" lon="-2.966331">
      <ele>1200.2</ele>
    </trkpt>
    <trkpt lat="42.313863" lon="-2.966576">
      <ele>1201.6</ele>
    </trkpt>
    <trkpt lat="42.313178" lon="-2.967344">
      <ele>1210.2</ele>
    </trkpt>
    <trkpt lat="42.313087" lon="-2.967564">
      <ele>1212.1</ele>
    </trkpt>
    <trkpt lat="42.313101" lon="-2.967669">
      <ele>1212.9</ele>
    </trkpt>
    <trkpt lat="42.313296" lon="-2.967931">
      <ele>1215</ele>
    </trkpt>
    <trkpt lat="42.313456" lon="-2.968234">
      <ele>1216.6</ele>
    </trkpt>
    <trkpt lat="42.313522" lon="-2.968474">
      <ele>1217.3</ele>
    </trkpt>
    <trkpt lat="42.313539" lon="-2.96876">
      <ele>1217.9</ele>
    </trkpt>
    <trkpt lat="42.313492" lon="-2.969031">
      <ele>1218.3</ele>
    </trkpt>
    <trkpt lat="42.313202" lon="-2.969812">
      <ele>1220.4</ele>
    </trkpt>
    <trkpt lat="42.312893" lon="-2.970307">
      <ele>1222.2</ele>
    </trkpt>
    <trkpt lat="42.312844" lon="-2.970349">
      <ele>1222.5</ele>
    </trkpt>
    <trkpt lat="42.312795" lon="-2.970338">
      <ele>1222.9</ele>
    </trkpt>
    <trkpt lat="42.312788" lon="-2.970243">
      <ele>1223.3</ele>
    </trkpt>
    <trkpt lat="42.312812" lon="-2.970167">
      <ele>1223.8</ele>
    </trkpt>
    <trkpt lat="42.313034" lon="-2.969721">
      <ele>1227.6</ele>
    </trkpt>
    <trkpt lat="42.313093" lon="-2.969512">
      <ele>1229.8</ele>
    </trkpt>
    <trkpt lat="42.31312" lon="-2.969294">
      <ele>1232.1</ele>
    </trkpt>
    <trkpt lat="42.313106" lon="-2.968937">
      <ele>1236.1</ele>
    </trkpt>
    <trkpt lat="42.312998" lon="-2.968621">
      <ele>1240</ele>
    </trkpt>
    <trkpt lat="42.312757" lon="-2.968227">
      <ele>1246</ele>
    </trkpt>
    <trkpt lat="42.312612" lon="-2.968069">
      <ele>1248.9</ele>
    </trkpt>
    <trkpt lat="42.312245" lon="-2.967788">
      <ele>1254.9</ele>
    </trkpt>
    <trkpt lat="42.312199" lon="-2.967707">
      <ele>1255.8</ele>
    </trkpt>
    <trkpt lat="42.312206" lon="-2.96757">
      <ele>1256.9</ele>
    </trkpt>
    <trkpt lat="42.312247" lon="-2.967424">
      <ele>1258</ele>
    </trkpt>
    <trkpt lat="42.312435" lon="-2.96676">
      <ele>1261.1</ele>
    </trkpt>
    <trkpt lat="42.312541" lon="-2.966279">
      <ele>1261.7</ele>
    </trkpt>
    <trkpt lat="42.31259" lon="-2.965932">
      <ele>1261.5</ele>
    </trkpt>
    <trkpt lat="42.312614" lon="-2.965658">
      <ele>1261.3</ele>
    </trkpt>
    <trkpt lat="42.312609" lon="-2.965317">
      <ele>1260.9</ele>
    </trkpt>
    <trkpt lat="42.312573" lon="-2.964879">
      <ele>1260.1</ele>
    </trkpt>
    <trkpt lat="42.312588" lon="-2.964231">
      <ele>1259.2</ele>
    </trkpt>
    <trkpt lat="42.312684" lon="-2.963833">
      <ele>1258.7</ele>
    </trkpt>
    <trkpt lat="42.312702" lon="-2.963608">
      <ele>1258.6</ele>
    </trkpt>
    <trkpt lat="42.312731" lon="-2.963263">
      <ele>1258.5</ele>
    </trkpt>
    <trkpt lat="42.312824" lon="-2.962959">
      <ele>1258.8</ele>
    </trkpt>
    <trkpt lat="42.31289" lon="-2.962579">
      <ele>1259.3</ele>
    </trkpt>
    <trkpt lat="42.312862" lon="-2.962374">
      <ele>1259.7</ele>
    </trkpt>
    <trkpt lat="42.312766" lon="-2.962208">
      <ele>1260.2</ele>
    </trkpt>
    <trkpt lat="42.312701" lon="-2.962152">
      <ele>1260.5</ele>
    </trkpt>
    <trkpt lat="42.312649" lon="-2.962211">
      <ele>1260.8</ele>
    </trkpt>
    <trkpt lat="42.312461" lon="-2.962283">
      <ele>1261.6</ele>
    </trkpt>
    <trkpt lat="42.312323" lon="-2.962306">
      <ele>1262.3</ele>
    </trkpt>
    <trkpt lat="42.311879" lon="-2.962506">
      <ele>1264.7</ele>
    </trkpt>
    <trkpt lat="42.311526" lon="-2.962549">
      <ele>1266.3</ele>
    </trkpt>
    <trkpt lat="42.31055" lon="-2.96257">
      <ele>1271</ele>
    </trkpt>
    <trkpt lat="42.310308" lon="-2.962624">
      <ele>1272.6</ele>
    </trkpt>
    <trkpt lat="42.310031" lon="-2.962849">
      <ele>1274.8</ele>
    </trkpt>
    <trkpt lat="42.309785" lon="-2.962967">
      <ele>1276.7</ele>
    </trkpt>
    <trkpt lat="42.309562" lon="-2.962983">
      <ele>1278.3</ele>
    </trkpt>
    <trkpt lat="42.30919" lon="-2.962752">
      <ele>1281.8</ele>
    </trkpt>
    <trkpt lat="42.308856" lon="-2.962795">
      <ele>1284.9</ele>
    </trkpt>
    <trkpt lat="42.308654" lon="-2.962726">
      <ele>1287</ele>
    </trkpt>
    <trkpt lat="42.308452" lon="-2.962693">
      <ele>1289.1</ele>
    </trkpt>
    <trkpt lat="42.30821" lon="-2.962876">
      <ele>1291.9</ele>
    </trkpt>
    <trkpt lat="42.307746" lon="-2.963353">
      <ele>1297.8</ele>
    </trkpt>
    <trkpt lat="42.307563" lon="-2.963482">
      <ele>1299.8</ele>
    </trkpt>
    <trkpt lat="42.307416" lon="-2.963428">
      <ele>1301.2</ele>
    </trkpt>
    <trkpt lat="42.307162" lon="-2.962967">
      <ele>1305.6</ele>
    </trkpt>
    <trkpt lat="42.306932" lon="-2.962838">
      <ele>1308.1</ele>
    </trkpt>
    <trkpt lat="42.306639" lon="-2.962951">
      <ele>1311.2</ele>
    </trkpt>
    <trkpt lat="42.305857" lon="-2.963546">
      <ele>1320.7</ele>
    </trkpt>
    <trkpt lat="42.305607" lon="-2.963568">
      <ele>1323.7</ele>
    </trkpt>
    <trkpt lat="42.305294" lon="-2.963428">
      <ele>1327.8</ele>
    </trkpt>
    <trkpt lat="42.304845" lon="-2.963563">
      <ele>1333.2</ele>
    </trkpt>
    <trkpt lat="42.303735" lon="-2.96419">
      <ele>1346.8</ele>
    </trkpt>
    <trkpt lat="42.302969" lon="-2.964566">
      <ele>1357.5</ele>
    </trkpt>
    <trkpt lat="42.302231" lon="-2.964818">
      <ele>1368.8</ele>
    </trkpt>
    <trkpt lat="42.301172" lon="-2.964936">
      <ele>1385</ele>
    </trkpt>
    <trkpt lat="42.300942" lon="-2.965048">
      <ele>1388.1</ele>
    </trkpt>
    <trkpt lat="42.300862" lon="-2.964968">
      <ele>1389.3</ele>
    </trkpt>
    <trkpt lat="42.300894" lon="-2.964737">
      <ele>1391.2</ele>
    </trkpt>
    <trkpt lat="42.300874" lon="-2.963015">
      <ele>1401</ele>
    </trkpt>
    <trkpt lat="42.300787" lon="-2.962082">
      <ele>1405.7</ele>
    </trkpt>
    <trkpt lat="42.300691" lon="-2.961529">
      <ele>1409.1</ele>
    </trkpt>
    <trkpt lat="42.300533" lon="-2.961154">
      <ele>1411.9</ele>
    </trkpt>
    <trkpt lat="42.299957" lon="-2.960569">
      <ele>1419.1</ele>
    </trkpt>
    <trkpt lat="42.299223" lon="-2.96007">
      <ele>1427.7</ele>
    </trkpt>
    <trkpt lat="42.298525" lon="-2.959829">
      <ele>1433.1</ele>
    </trkpt>
    <trkpt lat="42.298228" lon="-2.959571">
      <ele>1434.9</ele>
    </trkpt>
    <trkpt lat="42.297835" lon="-2.959303">
      <ele>1436.9</ele>
    </trkpt>
    <trkpt lat="42.297565" lon="-2.959212">
      <ele>1437.9</ele>
    </trkpt>
    <trkpt lat="42.297192" lon="-2.959249">
      <ele>1439</ele>
    </trkpt>
    <trkpt lat="42.296883" lon="-2.959373">
      <ele>1439.9</ele>
    </trkpt>
    <trkpt lat="42.296462" lon="-2.959496">
      <ele>1441.3</ele>
    </trkpt>
    <trkpt lat="42.296204" lon="-2.959496">
      <ele>1442.4</ele>
    </trkpt>
    <trkpt lat="42.29589" lon="-2.959416">
      <ele>1444</ele>
    </trkpt>
    <trkpt lat="42.295513" lon="-2.959394">
      <ele>1446.2</ele>
    </trkpt>
    <trkpt lat="42.295141" lon="-2.959507">
      <ele>1448.6</ele>
    </trkpt>
    <trkpt lat="42.293395" lon="-2.960939">
      <ele>1468.9</ele>
    </trkpt>
    <trkpt lat="42.293061" lon="-2.961122">
      <ele>1472.8</ele>
    </trkpt>
    <trkpt lat="42.292841" lon="-2.961202">
      <ele>1475.4</ele>
    </trkpt>
    <trkpt lat="42.292192" lon="-2.961438">
      <ele>1483.1</ele>
    </trkpt>
    <trkpt lat="42.29176" lon="-2.961535">
      <ele>1487.1</ele>
    </trkpt>
    <trkpt lat="42.29168" lon="-2.961578">
      <ele>1487.8</ele>
    </trkpt>
    <trkpt lat="42.291649" lon="-2.961647">
      <ele>1488.3</ele>
    </trkpt>
    <trkpt lat="42.29168" lon="-2.961723">
      <ele>1488.9</ele>
    </trkpt>
    <trkpt lat="42.292156" lon="-2.961889">
      <ele>1492.6</ele>
    </trkpt>
    <trkpt lat="42.293303" lon="-2.961905">
      <ele>1499</ele>
    </trkpt>
    <trkpt lat="42.293883" lon="-2.961803">
      <ele>1502.6</ele>
    </trkpt>
    <trkpt lat="42.294609" lon="-2.961594">
      <ele>1508</ele>
    </trkpt>
    <trkpt lat="42.294744" lon="-2.961529">
      <ele>1509.1</ele>
    </trkpt>
    <trkpt lat="42.294776" lon="-2.961572">
      <ele>1509.4</ele>
    </trkpt>
    <trkpt lat="42.294756" lon="-2.961637">
      <ele>1509.9</ele>
    </trkpt>
    <trkpt lat="42.294625" lon="-2.961706">
      <ele>1510.9</ele>
    </trkpt>
    <trkpt lat="42.293934" lon="-2.962264">
      <ele>1516.6</ele>
    </trkpt>
    <trkpt lat="42.293375" lon="-2.962597">
      <ele>1520</ele>
    </trkpt>
    <trkpt lat="42.292954" lon="-2.962806">
      <ele>1522</ele>
    </trkpt>
    <trkpt lat="42.291466" lon="-2.963734">
      <ele>1529</ele>
    </trkpt>
    <trkpt lat="42.291232" lon="-2.963825">
      <ele>1530.1</ele>
    </trkpt>
    <trkpt lat="42.290684" lon="-2.963847">
      <ele>1532.8</ele>
    </trkpt>
    <trkpt lat="42.290208" lon="-2.963745">
      <ele>1535.2</ele>
    </trkpt>
    <trkpt lat="42.290097" lon="-2.963611">
      <ele>1535.9</ele>
    </trkpt>
    <trkpt lat="42.290014" lon="-2.96323">
      <ele>1537.4</ele>
    </trkpt>
    <trkpt lat="42.28991" lon="-2.962988">
      <ele>1538.4</ele>
    </trkpt>
    <trkpt lat="42.289756" lon="-2.962919">
      <ele>1539.3</ele>
    </trkpt>
    <trkpt lat="42.289552" lon="-2.962966">
      <ele>1540.5</ele>
    </trkpt>
    <trkpt lat="42.28968" lon="-2.963055">
      <ele>1541.3</ele>
    </trkpt>
    <trkpt lat="42.289806" lon="-2.963798">
      <ele>1544.8</ele>
    </trkpt>
    <trkpt lat="42.289924" lon="-2.964256">
      <ele>1547.3</ele>
    </trkpt>
    <trkpt lat="42.290504" lon="-2.965053">
      <ele>1553</ele>
    </trkpt>
    <trkpt lat="42.291586" lon="-2.965711">
      <ele>1553.9</ele>
    </trkpt>
    <trkpt lat="42.29168" lon="-2.965838">
      <ele>1553</ele>
    </trkpt>
    <trkpt lat="42.291946" lon="-2.966042">
      <ele>1550.3</ele>
    </trkpt>
    <trkpt lat="42.293126" lon="-2.96662">
      <ele>1528.8</ele>
    </trkpt>
    <trkpt lat="42.293336" lon="-2.966774">
      <ele>1524</ele>
    </trkpt>
    <trkpt lat="42.293549" lon="-2.966886">
      <ele>1519.5</ele>
    </trkpt>
    <trkpt lat="42.294065" lon="-2.967118">
      <ele>1509.6</ele>
    </trkpt>
    <trkpt lat="42.294463" lon="-2.967488">
      <ele>1501.3</ele>
    </trkpt>
    <trkpt lat="42.294689" lon="-2.967575">
      <ele>1497.4</ele>
    </trkpt>
    <trkpt lat="42.29485" lon="-2.967698">
      <ele>1494.4</ele>
    </trkpt>
    <trkpt lat="42.295272" lon="-2.967786">
      <ele>1488</ele>
    </trkpt>
    <trkpt lat="42.295593" lon="-2.967889">
      <ele>1483.3</ele>
    </trkpt>
    <trkpt lat="42.295918" lon="-2.968067">
      <ele>1478.5</ele>
    </trkpt>
    <trkpt lat="42.296289" lon="-2.96816">
      <ele>1473.4</ele>
    </trkpt>
    <trkpt lat="42.296451" lon="-2.968276">
      <ele>1471</ele>
    </trkpt>
    <trkpt lat="42.296918" lon="-2.968457">
      <ele>1465.1</ele>
    </trkpt>
    <trkpt lat="42.297125" lon="-2.968458">
      <ele>1462.8</ele>
    </trkpt>
    <trkpt lat="42.297132" lon="-2.968456">
      <ele>1462.7</ele>
    </trkpt>
    <trkpt lat="42.297317" lon="-2.968401">
      <ele>1460.8</ele>
    </trkpt>
    <trkpt lat="42.297599" lon="-2.96814">
      <ele>1457.4</ele>
    </trkpt>
    <trkpt lat="42.298049" lon="-2.967965">
      <ele>1453</ele>
    </trkpt>
    <trkpt lat="42.298531" lon="-2.967993">
      <ele>1449.7</ele>
    </trkpt>
    <trkpt lat="42.298749" lon="-2.968178">
      <ele>1448.5</ele>
    </trkpt>
    <trkpt lat="42.298958" lon="-2.96804">
      <ele>1447.6</ele>
    </trkpt>
    <trkpt lat="42.299218" lon="-2.967699">
      <ele>1446.1</ele>
    </trkpt>
    <trkpt lat="42.299513" lon="-2.967186">
      <ele>1444.1</ele>
    </trkpt>
    <trkpt lat="42.299621" lon="-2.967231">
      <ele>1443.6</ele>
    </trkpt>
    <trkpt lat="42.299927" lon="-2.967177">
      <ele>1442</ele>
    </trkpt>
    <trkpt lat="42.300123" lon="-2.967037">
      <ele>1440.5</ele>
    </trkpt>
    <trkpt lat="42.300328" lon="-2.966967">
      <ele>1438.8</ele>
    </trkpt>
    <trkpt lat="42.301268" lon="-2.966506">
      <ele>1431.2</ele>
    </trkpt>
    <trkpt lat="42.301549" lon="-2.966512">
      <ele>1429.4</ele>
    </trkpt>
    <trkpt lat="42.301847" lon="-2.96642">
      <ele>1427.5</ele>
    </trkpt>
    <trkpt lat="42.302164" lon="-2.96642">
      <ele>1425.6</ele>
    </trkpt>
    <trkpt lat="42.302422" lon="-2.966496">
      <ele>1424.1</ele>
    </trkpt>
    <trkpt lat="42.302694" lon="-2.966479">
      <ele>1422.7</ele>
    </trkpt>
    <trkpt lat="42.303439" lon="-2.966308">
      <ele>1419.6</ele>
    </trkpt>
    <trkpt lat="42.304202" lon="-2.9662">
      <ele>1416.6</ele>
    </trkpt>
    <trkpt lat="42.304428" lon="-2.966216">
      <ele>1415.9</ele>
    </trkpt>
    <trkpt lat="42.304701" lon="-2.966164">
      <ele>1415.1</ele>
    </trkpt>
    <trkpt lat="42.305051" lon="-2.966153">
      <ele>1413.6</ele>
    </trkpt>
    <trkpt lat="42.305348" lon="-2.966196">
      <ele>1411.9</ele>
    </trkpt>
    <trkpt lat="42.305634" lon="-2.966309">
      <ele>1409.8</ele>
    </trkpt>
    <trkpt lat="42.306134" lon="-2.966276">
      <ele>1405.5</ele>
    </trkpt>
    <trkpt lat="42.306519" lon="-2.966223">
      <ele>1401.8</ele>
    </trkpt>
    <trkpt lat="42.306694" lon="-2.966169">
      <ele>1399.9</ele>
    </trkpt>
    <trkpt lat="42.306863" lon="-2.966175">
      <ele>1398</ele>
    </trkpt>
    <trkpt lat="42.307337" lon="-2.965965">
      <ele>1391.4</ele>
    </trkpt>
    <trkpt lat="42.307649" lon="-2.96596">
      <ele>1386.7</ele>
    </trkpt>
    <trkpt lat="42.307851" lon="-2.965912">
      <ele>1383.4</ele>
    </trkpt>
    <trkpt lat="42.308077" lon="-2.965778">
      <ele>1379.3</ele>
    </trkpt>
    <trkpt lat="42.308228" lon="-2.965724">
      <ele>1376.5</ele>
    </trkpt>
    <trkpt lat="42.308428" lon="-2.965724">
      <ele>1372.7</ele>
    </trkpt>
    <trkpt lat="42.309378" lon="-2.965493">
      <ele>1350.9</ele>
    </trkpt>
    <trkpt lat="42.309845" lon="-2.965279">
      <ele>1339.3</ele>
    </trkpt>
    <trkpt lat="42.310043" lon="-2.965155">
      <ele>1334.1</ele>
    </trkpt>
    <trkpt lat="42.310186" lon="-2.965134">
      <ele>1330.7</ele>
    </trkpt>
    <trkpt lat="42.310573" lon="-2.964726">
      <ele>1318.9</ele>
    </trkpt>
    <trkpt lat="42.31131" lon="-2.964367">
      <ele>1301.5</ele>
    </trkpt>
    <trkpt lat="42.311357" lon="-2.964313">
      <ele>1300.1</ele>
    </trkpt>
    <trkpt lat="42.311615" lon="-2.9639">
      <ele>1291.5</ele>
    </trkpt>
    <trkpt lat="42.311917" lon="-2.963173">
      <ele>1278.8</ele>
    </trkpt>
    <trkpt lat="42.312116" lon="-2.962814">
      <ele>1272.7</ele>
    </trkpt>
    <trkpt lat="42.312436" lon="-2.962362">
      <ele>1265</ele>
    </trkpt>
    <trkpt lat="42.312461" lon="-2.962283">
      <ele>1264.1</ele>
    </trkpt>
    <trkpt lat="42.312649" lon="-2.962211">
      <ele>1261.3</ele>
    </trkpt>
    <trkpt lat="42.312701" lon="-2.962152">
      <ele>1260.5</ele>
    </trkpt>
    <trkpt lat="42.312746" lon="-2.96214">
      <ele>1259.9</ele>
    </trkpt>
    <trkpt lat="42.312823" lon="-2.962172">
      <ele>1259.1</ele>
    </trkpt>
    <trkpt lat="42.312988" lon="-2.962186">
      <ele>1257.5</ele>
    </trkpt>
    <trkpt lat="42.313069" lon="-2.962125">
      <ele>1256.8</ele>
    </trkpt>
    <trkpt lat="42.313649" lon="-2.962049">
      <ele>1254.2</ele>
    </trkpt>
    <trkpt lat="42.31383" lon="-2.961933">
      <ele>1253.6</ele>
    </trkpt>
    <trkpt lat="42.314179" lon="-2.96161">
      <ele>1252.4</ele>
    </trkpt>
    <trkpt lat="42.314468" lon="-2.961495">
      <ele>1251.4</ele>
    </trkpt>
    <trkpt lat="42.314614" lon="-2.961502">
      <ele>1251</ele>
    </trkpt>
    <trkpt lat="42.314829" lon="-2.961562">
      <ele>1250.4</ele>
    </trkpt>
    <trkpt lat="42.315225" lon="-2.961781">
      <ele>1249</ele>
    </trkpt>
    <trkpt lat="42.315398" lon="-2.961807">
      <ele>1248.3</ele>
    </trkpt>
    <trkpt lat="42.315505" lon="-2.961859">
      <ele>1247.8</ele>
    </trkpt>
    <trkpt lat="42.315623" lon="-2.962019">
      <ele>1247.1</ele>
    </trkpt>
    <trkpt lat="42.315868" lon="-2.962212">
      <ele>1246.3</ele>
    </trkpt>
    <trkpt lat="42.316262" lon="-2.962384">
      <ele>1246.2</ele>
    </trkpt>
    <trkpt lat="42.31649" lon="-2.962398">
      <ele>1246.9</ele>
    </trkpt>
    <trkpt lat="42.316614" lon="-2.96235">
      <ele>1247.4</ele>
    </trkpt>
    <trkpt lat="42.316748" lon="-2.962227">
      <ele>1248.2</ele>
    </trkpt>
    <trkpt lat="42.316911" lon="-2.961997">
      <ele>1249.3</ele>
    </trkpt>
    <trkpt lat="42.317411" lon="-2.961613">
      <ele>1251.7</ele>
    </trkpt>
    <trkpt lat="42.317543" lon="-2.961402">
      <ele>1252.3</ele>
    </trkpt>
    <trkpt lat="42.318137" lon="-2.960118">
      <ele>1252.6</ele>
    </trkpt>
    <trkpt lat="42.318305" lon="-2.959958">
      <ele>1252.1</ele>
    </trkpt>
    <trkpt lat="42.318619" lon="-2.959724">
      <ele>1251.4</ele>
    </trkpt>
    <trkpt lat="42.318921" lon="-2.959132">
      <ele>1250.4</ele>
    </trkpt>
    <trkpt lat="42.319122" lon="-2.958887">
      <ele>1250</ele>
    </trkpt>
    <trkpt lat="42.31932" lon="-2.958731">
      <ele>1249.8</ele>
    </trkpt>
    <trkpt lat="42.319598" lon="-2.958567">
      <ele>1250</ele>
    </trkpt>
    <trkpt lat="42.319763" lon="-2.958493">
      <ele>1250.3</ele>
    </trkpt>
    <trkpt lat="42.319928" lon="-2.958474">
      <ele>1250.5</ele>
    </trkpt>
    <trkpt lat="42.320043" lon="-2.958422">
      <ele>1250.6</ele>
    </trkpt>
    <trkpt lat="42.320142" lon="-2.958288">
      <ele>1250.4</ele>
    </trkpt>
    <trkpt lat="42.320272" lon="-2.958002">
      <ele>1249.8</ele>
    </trkpt>
    <trkpt lat="42.320362" lon="-2.957518">
      <ele>1247.8</ele>
    </trkpt>
    <trkpt lat="42.320514" lon="-2.957517">
      <ele>1246.6</ele>
    </trkpt>
    <trkpt lat="42.320514" lon="-2.957592">
      <ele>1246.1</ele>
    </trkpt>
    <trkpt lat="42.320545" lon="-2.957666">
      <ele>1245.4</ele>
    </trkpt>
    <trkpt lat="42.320642" lon="-2.957903">
      <ele>1243.1</ele>
    </trkpt>
    <trkpt lat="42.320819" lon="-2.957992">
      <ele>1240.5</ele>
    </trkpt>
    <trkpt lat="42.321038" lon="-2.958051">
      <ele>1236.9</ele>
    </trkpt>
    <trkpt lat="42.321066" lon="-2.958091">
      <ele>1236.2</ele>
    </trkpt>
    <trkpt lat="42.321022" lon="-2.958169">
      <ele>1234.8</ele>
    </trkpt>
    <trkpt lat="42.320934" lon="-2.958601">
      <ele>1227.7</ele>
    </trkpt>
    <trkpt lat="42.320858" lon="-2.958741">
      <ele>1224.7</ele>
    </trkpt>
    <trkpt lat="42.320915" lon="-2.959084">
      <ele>1218.6</ele>
    </trkpt>
    <trkpt lat="42.321077" lon="-2.959525">
      <ele>1209.9</ele>
    </trkpt>
    <trkpt lat="42.321079" lon="-2.95953">
      <ele>1209.8</ele>
    </trkpt>
    <trkpt lat="42.32079" lon="-2.96075">
      <ele>1187.3</ele>
    </trkpt>
    <trkpt lat="42.320551" lon="-2.961005">
      <ele>1180.3</ele>
    </trkpt>
    <trkpt lat="42.320431" lon="-2.961266">
      <ele>1175</ele>
    </trkpt>
    <trkpt lat="42.320373" lon="-2.961854">
      <ele>1165.1</ele>
    </trkpt>
    <trkpt lat="42.320224" lon="-2.962431">
      <ele>1155.2</ele>
    </trkpt>
    <trkpt lat="42.320169" lon="-2.962816">
      <ele>1149.1</ele>
    </trkpt>
    <trkpt lat="42.320124" lon="-2.962981">
      <ele>1146.5</ele>
    </trkpt>
    <trkpt lat="42.320116" lon="-2.963183">
      <ele>1143.5</ele>
    </trkpt>
    <trkpt lat="42.319948" lon="-2.963701">
      <ele>1135.3</ele>
    </trkpt>
    <trkpt lat="42.319947" lon="-2.96382">
      <ele>1133.6</ele>
    </trkpt>
    <trkpt lat="42.319979" lon="-2.964062">
      <ele>1130.2</ele>
    </trkpt>
    <trkpt lat="42.319936" lon="-2.964268">
      <ele>1127.3</ele>
    </trkpt>
    <trkpt lat="42.319414" lon="-2.965335">
      <ele>1112</ele>
    </trkpt>
    <trkpt lat="42.319285" lon="-2.96551">
      <ele>1109.2</ele>
    </trkpt>
    <trkpt lat="42.319235" lon="-2.965681">
      <ele>1107.2</ele>
    </trkpt>
    <trkpt lat="42.319182" lon="-2.965726">
      <ele>1106.3</ele>
    </trkpt>
    <trkpt lat="42.319144" lon="-2.965765">
      <ele>1105.7</ele>
    </trkpt>
    <trkpt lat="42.319106" lon="-2.965939">
      <ele>1103.9</ele>
    </trkpt>
    <trkpt lat="42.318916" lon="-2.966134">
      <ele>1101.1</ele>
    </trkpt>
    <trkpt lat="42.318858" lon="-2.966185">
      <ele>1100.4</ele>
    </trkpt>
    <trkpt lat="42.318816" lon="-2.966255">
      <ele>1099.7</ele>
    </trkpt>
    <trkpt lat="42.318532" lon="-2.966444">
      <ele>1096.9</ele>
    </trkpt>
    <trkpt lat="42.318475" lon="-2.966449">
      <ele>1096.5</ele>
    </trkpt>
    <trkpt lat="42.31838" lon="-2.966419">
      <ele>1095.8</ele>
    </trkpt>
    <trkpt lat="42.318173" lon="-2.966275">
      <ele>1094.3</ele>
    </trkpt>
    <trkpt lat="42.31811" lon="-2.966268">
      <ele>1094</ele>
    </trkpt>
    <trkpt lat="42.317774" lon="-2.966396">
      <ele>1092.6</ele>
    </trkpt>
    <trkpt lat="42.317411" lon="-2.966494">
      <ele>1091.4</ele>
    </trkpt>
    <trkpt lat="42.316903" lon="-2.966419">
      <ele>1091</ele>
    </trkpt>
    <trkpt lat="42.316845" lon="-2.966457">
      <ele>1091</ele>
    </trkpt>
    <trkpt lat="42.316782" lon="-2.966499">
      <ele>1091.2</ele>
    </trkpt>
    <trkpt lat="42.316723" lon="-2.966805">
      <ele>1091.7</ele>
    </trkpt>
    <trkpt lat="42.316784" lon="-2.967191">
      <ele>1092.9</ele>
    </trkpt>
    <trkpt lat="42.316675" lon="-2.967687">
      <ele>1095</ele>
    </trkpt>
    <trkpt lat="42.316286" lon="-2.968117">
      <ele>1098.7</ele>
    </trkpt>
    <trkpt lat="42.315939" lon="-2.96879">
      <ele>1104.8</ele>
    </trkpt>
    <trkpt lat="42.315765" lon="-2.969356">
      <ele>1108.8</ele>
    </trkpt>
    <trkpt lat="42.315719" lon="-2.969978">
      <ele>1111.8</ele>
    </trkpt>
    <trkpt lat="42.315414" lon="-2.970595">
      <ele>1114.3</ele>
    </trkpt>
    <trkpt lat="42.314999" lon="-2.971579">
      <ele>1117.9</ele>
    </trkpt>
    <trkpt lat="42.314593" lon="-2.972129">
      <ele>1119.3</ele>
    </trkpt>
    <trkpt lat="42.314248" lon="-2.972731">
      <ele>1118</ele>
    </trkpt>
    <trkpt lat="42.31423" lon="-2.972895">
      <ele>1117.4</ele>
    </trkpt>
    <trkpt lat="42.314243" lon="-2.972983">
      <ele>1117.1</ele>
    </trkpt>
    <trkpt lat="42.314307" lon="-2.973041">
      <ele>1116.6</ele>
    </trkpt>
    <trkpt lat="42.31445" lon="-2.973105">
      <ele>1115.7</ele>
    </trkpt>
    <trkpt lat="42.314834" lon="-2.973151">
      <ele>1113.8</ele>
    </trkpt>
    <trkpt lat="42.315053" lon="-2.973286">
      <ele>1112.3</ele>
    </trkpt>
    <trkpt lat="42.315314" lon="-2.9734">
      <ele>1110.4</ele>
    </trkpt>
    <trkpt lat="42.315412" lon="-2.973457">
      <ele>1109.6</ele>
    </trkpt>
    <trkpt lat="42.31546" lon="-2.973544">
      <ele>1109</ele>
    </trkpt>
    <trkpt lat="42.315469" lon="-2.973666">
      <ele>1108.5</ele>
    </trkpt>
    <trkpt lat="42.315567" lon="-2.973963">
      <ele>1107</ele>
    </trkpt>
    <trkpt lat="42.315678" lon="-2.97446">
      <ele>1105.5</ele>
    </trkpt>
    <trkpt lat="42.315892" lon="-2.975148">
      <ele>1105.1</ele>
    </trkpt>
    <trkpt lat="42.315896" lon="-2.975423">
      <ele>1104.7</ele>
    </trkpt>
    <trkpt lat="42.315812" lon="-2.975865">
      <ele>1104</ele>
    </trkpt>
    <trkpt lat="42.315422" lon="-2.976538">
      <ele>1103</ele>
    </trkpt>
    <trkpt lat="42.315295" lon="-2.976895">
      <ele>1102.4</ele>
    </trkpt>
    <trkpt lat="42.315253" lon="-2.977085">
      <ele>1101.9</ele>
    </trkpt>
    <trkpt lat="42.315187" lon="-2.977968">
      <ele>1097.5</ele>
    </trkpt>
    <trkpt lat="42.315229" lon="-2.978146">
      <ele>1096.1</ele>
    </trkpt>
    <trkpt lat="42.315269" lon="-2.978202">
      <ele>1095.5</ele>
    </trkpt>
    <trkpt lat="42.315848" lon="-2.978633">
      <ele>1087.7</ele>
    </trkpt>
    <trkpt lat="42.315958" lon="-2.978749">
      <ele>1086</ele>
    </trkpt>
    <trkpt lat="42.316086" lon="-2.978996">
      <ele>1083</ele>
    </trkpt>
    <trkpt lat="42.316117" lon="-2.979319">
      <ele>1079.6</ele>
    </trkpt>
    <trkpt lat="42.316111" lon="-2.979661">
      <ele>1075.8</ele>
    </trkpt>
    <trkpt lat="42.316089" lon="-2.979761">
      <ele>1074.7</ele>
    </trkpt>
    <trkpt lat="42.31597" lon="-2.980084">
      <ele>1070.8</ele>
    </trkpt>
    <trkpt lat="42.315641" lon="-2.980793">
      <ele>1062.7</ele>
    </trkpt>
    <trkpt lat="42.315639" lon="-2.980941">
      <ele>1061.5</ele>
    </trkpt>
    <trkpt lat="42.315683" lon="-2.981185">
      <ele>1059.5</ele>
    </trkpt>
    <trkpt lat="42.31566" lon="-2.981326">
      <ele>1058.4</ele>
    </trkpt>
    <trkpt lat="42.315596" lon="-2.981402">
      <ele>1057.6</ele>
    </trkpt>
    <trkpt lat="42.3155" lon="-2.981448">
      <ele>1056.6</ele>
    </trkpt>
    <trkpt lat="42.315288" lon="-2.981477">
      <ele>1054.7</ele>
    </trkpt>
    <trkpt lat="42.315057" lon="-2.981438">
      <ele>1053</ele>
    </trkpt>
    <trkpt lat="42.314802" lon="-2.981352">
      <ele>1051.5</ele>
    </trkpt>
    <trkpt lat="42.314653" lon="-2.981339">
      <ele>1050.8</ele>
    </trkpt>
    <trkpt lat="42.314351" lon="-2.981367">
      <ele>1049.9</ele>
    </trkpt>
    <trkpt lat="42.313711" lon="-2.981596">
      <ele>1048.6</ele>
    </trkpt>
    <trkpt lat="42.313153" lon="-2.981735">
      <ele>1047.8</ele>
    </trkpt>
    <trkpt lat="42.312456" lon="-2.982058">
      <ele>1048.4</ele>
    </trkpt>
    <trkpt lat="42.311791" lon="-2.982156">
      <ele>1048.3</ele>
    </trkpt>
    <trkpt lat="42.311749" lon="-2.982186">
      <ele>1048.2</ele>
    </trkpt>
    <trkpt lat="42.311723" lon="-2.982272">
      <ele>1048</ele>
    </trkpt>
    <trkpt lat="42.311808" lon="-2.982414">
      <ele>1047.6</ele>
    </trkpt>
    <trkpt lat="42.311907" lon="-2.982486">
      <ele>1047.2</ele>
    </trkpt>
    <trkpt lat="42.31232" lon="-2.982694">
      <ele>1045</ele>
    </trkpt>
    <trkpt lat="42.312675" lon="-2.982828">
      <ele>1042</ele>
    </trkpt>
    <trkpt lat="42.313423" lon="-2.98305">
      <ele>1034.6</ele>
    </trkpt>
    <trkpt lat="42.31353" lon="-2.983181">
      <ele>1033.2</ele>
    </trkpt>
    <trkpt lat="42.313584" lon="-2.983299">
      <ele>1032.2</ele>
    </trkpt>
    <trkpt lat="42.313688" lon="-2.983401">
      <ele>1031</ele>
    </trkpt>
    <trkpt lat="42.313745" lon="-2.983421">
      <ele>1030.5</ele>
    </trkpt>
    <trkpt lat="42.313854" lon="-2.983401">
      <ele>1029.6</ele>
    </trkpt>
    <trkpt lat="42.313992" lon="-2.983295">
      <ele>1028.4</ele>
    </trkpt>
    <trkpt lat="42.31407" lon="-2.983274">
      <ele>1027.8</ele>
    </trkpt>
    <trkpt lat="42.3142" lon="-2.983297">
      <ele>1026.8</ele>
    </trkpt>
    <trkpt lat="42.314269" lon="-2.983351">
      <ele>1026.3</ele>
    </trkpt>
    <trkpt lat="42.314473" lon="-2.983694">
      <ele>1024.3</ele>
    </trkpt>
    <trkpt lat="42.315258" lon="-2.985207">
      <ele>1017.6</ele>
    </trkpt>
    <trkpt lat="42.315705" lon="-2.985982">
      <ele>1015.3</ele>
    </trkpt>
    <trkpt lat="42.315723" lon="-2.986063">
      <ele>1015.1</ele>
    </trkpt>
    <trkpt lat="42.315697" lon="-2.986223">
      <ele>1014.7</ele>
    </trkpt>
    <trkpt lat="42.315435" lon="-2.986602">
      <ele>1013.4</ele>
    </trkpt>
    <trkpt lat="42.315433" lon="-2.986661">
      <ele>1013.3</ele>
    </trkpt>
    <trkpt lat="42.315505" lon="-2.98681">
      <ele>1012.8</ele>
    </trkpt>
    <trkpt lat="42.316226" lon="-2.98737">
      <ele>1009</ele>
    </trkpt>
    <trkpt lat="42.316503" lon="-2.987495">
      <ele>1007.6</ele>
    </trkpt>
    <trkpt lat="42.31665" lon="-2.987621">
      <ele>1007</ele>
    </trkpt>
    <trkpt lat="42.316798" lon="-2.987765">
      <ele>1006.6</ele>
    </trkpt>
    <trkpt lat="42.31696" lon="-2.987981">
      <ele>1006.5</ele>
    </trkpt>
    <trkpt lat="42.317147" lon="-2.988292">
      <ele>1007.1</ele>
    </trkpt>
    <trkpt lat="42.317363" lon="-2.98886">
      <ele>1009</ele>
    </trkpt>
    <trkpt lat="42.317349" lon="-2.989039">
      <ele>1009.7</ele>
    </trkpt>
    <trkpt lat="42.317221" lon="-2.989235">
      <ele>1010.5</ele>
    </trkpt>
    <trkpt lat="42.317229" lon="-2.98955">
      <ele>1011.1</ele>
    </trkpt>
    <trkpt lat="42.317405" lon="-2.989846">
      <ele>1011.2</ele>
    </trkpt>
    <trkpt lat="42.31753" lon="-2.990361">
      <ele>1009.7</ele>
    </trkpt>
    <trkpt lat="42.317548" lon="-2.990399">
      <ele>1009.6</ele>
    </trkpt>
    <trkpt lat="42.317565" lon="-2.990435">
      <ele>1009.4</ele>
    </trkpt>
    <trkpt lat="42.317633" lon="-2.990466">
      <ele>1009</ele>
    </trkpt>
    <trkpt lat="42.317678" lon="-2.990451">
      <ele>1008.7</ele>
    </trkpt>
    <trkpt lat="42.317967" lon="-2.990103">
      <ele>1006</ele>
    </trkpt>
    <trkpt lat="42.318062" lon="-2.990028">
      <ele>1005.2</ele>
    </trkpt>
    <trkpt lat="42.318137" lon="-2.990017">
      <ele>1004.6</ele>
    </trkpt>
    <trkpt lat="42.318259" lon="-2.990077">
      <ele>1003.6</ele>
    </trkpt>
    <trkpt lat="42.318353" lon="-2.99017">
      <ele>1002.9</ele>
    </trkpt>
    <trkpt lat="42.318595" lon="-2.990508">
      <ele>1001.1</ele>
    </trkpt>
    <trkpt lat="42.318624" lon="-2.990624">
      <ele>1000.8</ele>
    </trkpt>
    <trkpt lat="42.318616" lon="-2.991198">
      <ele>1000</ele>
    </trkpt>
    <trkpt lat="42.318692" lon="-2.991427">
      <ele>999.8</ele>
    </trkpt>
    <trkpt lat="42.318749" lon="-2.991493">
      <ele>999.8</ele>
    </trkpt>
    <trkpt lat="42.319018" lon="-2.991585">
      <ele>999.2</ele>
    </trkpt>
    <trkpt lat="42.319079" lon="-2.991645">
      <ele>998.9</ele>
    </trkpt>
    <trkpt lat="42.319179" lon="-2.991846">
      <ele>998</ele>
    </trkpt>
    <trkpt lat="42.319275" lon="-2.992362">
      <ele>994.8</ele>
    </trkpt>
    <trkpt lat="42.319307" lon="-2.992437">
      <ele>994.3</ele>
    </trkpt>
    <trkpt lat="42.319429" lon="-2.992518">
      <ele>993.1</ele>
    </trkpt>
    <trkpt lat="42.319497" lon="-2.992514">
      <ele>992.4</ele>
    </trkpt>
    <trkpt lat="42.319578" lon="-2.99249">
      <ele>991.7</ele>
    </trkpt>
    <trkpt lat="42.319861" lon="-2.992277">
      <ele>988.6</ele>
    </trkpt>
    <trkpt lat="42.319964" lon="-2.992258">
      <ele>987.7</ele>
    </trkpt>
    <trkpt lat="42.320129" lon="-2.992279">
      <ele>986.3</ele>
    </trkpt>
    <trkpt lat="42.320219" lon="-2.992329">
      <ele>985.6</ele>
    </trkpt>
    <trkpt lat="42.320318" lon="-2.992433">
      <ele>984.7</ele>
    </trkpt>
    <trkpt lat="42.320419" lon="-2.992593">
      <ele>983.8</ele>
    </trkpt>
    <trkpt lat="42.321132" lon="-2.99399">
      <ele>980.2</ele>
    </trkpt>
    <trkpt lat="42.321277" lon="-2.994181">
      <ele>979.4</ele>
    </trkpt>
    <trkpt lat="42.321655" lon="-2.994558">
      <ele>977.3</ele>
    </trkpt>
    <trkpt lat="42.322089" lon="-2.99482">
      <ele>975.3</ele>
    </trkpt>
    <trkpt lat="42.322212" lon="-2.994927">
      <ele>974.8</ele>
    </trkpt>
    <trkpt lat="42.322345" lon="-2.995177">
      <ele>974.2</ele>
    </trkpt>
    <trkpt lat="42.3224" lon="-2.995375">
      <ele>974.1</ele>
    </trkpt>
    <trkpt lat="42.322426" lon="-2.995645">
      <ele>974.1</ele>
    </trkpt>
    <trkpt lat="42.322464" lon="-2.996836">
      <ele>973</ele>
    </trkpt>
    <trkpt lat="42.322532" lon="-2.997187">
      <ele>971.8</ele>
    </trkpt>
    <trkpt lat="42.322711" lon="-2.997685">
      <ele>969.2</ele>
    </trkpt>
    <trkpt lat="42.322823" lon="-2.997857">
      <ele>967.9</ele>
    </trkpt>
    <trkpt lat="42.323148" lon="-2.998223">
      <ele>964.5</ele>
    </trkpt>
    <trkpt lat="42.323422" lon="-2.999144">
      <ele>959.7</ele>
    </trkpt>
    <trkpt lat="42.323495" lon="-2.999327">
      <ele>959.1</ele>
    </trkpt>
    <trkpt lat="42.323692" lon="-2.999614">
      <ele>958.3</ele>
    </trkpt>
    <trkpt lat="42.323764" lon="-2.999783">
      <ele>958</ele>
    </trkpt>
    <trkpt lat="42.323796" lon="-2.999977">
      <ele>957.6</ele>
    </trkpt>
    <trkpt lat="42.323762" lon="-3.000308">
      <ele>957.1</ele>
    </trkpt>
    <trkpt lat="42.323778" lon="-3.000445">
      <ele>956.9</ele>
    </trkpt>
    <trkpt lat="42.323816" lon="-3.000579">
      <ele>956.7</ele>
    </trkpt>
    <trkpt lat="42.324239" lon="-3.001251">
      <ele>953.7</ele>
    </trkpt>
    <trkpt lat="42.324315" lon="-3.001445">
      <ele>952</ele>
    </trkpt>
    <trkpt lat="42.324367" lon="-3.001775">
      <ele>948.3</ele>
    </trkpt>
    <trkpt lat="42.324371" lon="-3.001952">
      <ele>946.2</ele>
    </trkpt>
    <trkpt lat="42.324429" lon="-3.002248">
      <ele>942.4</ele>
    </trkpt>
    <trkpt lat="42.324751" lon="-3.002787">
      <ele>934.3</ele>
    </trkpt>
    <trkpt lat="42.32483" lon="-3.002838">
      <ele>932.8</ele>
    </trkpt>
    <trkpt lat="42.324877" lon="-3.003031">
      <ele>930.3</ele>
    </trkpt>
    <trkpt lat="42.324877" lon="-3.003213">
      <ele>928</ele>
    </trkpt>
    <trkpt lat="42.324661" lon="-3.004177">
      <ele>914.9</ele>
    </trkpt>
    <trkpt lat="42.324675" lon="-3.004523">
      <ele>911.7</ele>
    </trkpt>
    <trkpt lat="42.325229" lon="-3.00496">
      <ele>903.8</ele>
    </trkpt>
    <trkpt lat="42.325431" lon="-3.005434">
      <ele>897.7</ele>
    </trkpt>
    <trkpt lat="42.325499" lon="-3.005816">
      <ele>893.1</ele>
    </trkpt>
    <trkpt lat="42.325485" lon="-3.006126">
      <ele>889.4</ele>
    </trkpt>
    <trkpt lat="42.325229" lon="-3.007145">
      <ele>876.4</ele>
    </trkpt>
    <trkpt lat="42.325255" lon="-3.007454">
      <ele>872.2</ele>
    </trkpt>
    <trkpt lat="42.325431" lon="-3.007946">
      <ele>864.3</ele>
    </trkpt>
    <trkpt lat="42.325458" lon="-3.008164">
      <ele>861</ele>
    </trkpt>
    <trkpt lat="42.325431" lon="-3.008437">
      <ele>856.8</ele>
    </trkpt>
    <trkpt lat="42.325296" lon="-3.008911">
      <ele>849.2</ele>
    </trkpt>
    <trkpt lat="42.325134" lon="-3.009275">
      <ele>843.2</ele>
    </trkpt>
    <trkpt lat="42.32512" lon="-3.009584">
      <ele>839.4</ele>
    </trkpt>
    <trkpt lat="42.324892" lon="-3.010345">
      <ele>830.3</ele>
    </trkpt>
    <trkpt lat="42.324562" lon="-3.010706">
      <ele>825.5</ele>
    </trkpt>
    <trkpt lat="42.32444" lon="-3.010865">
      <ele>823.9</ele>
    </trkpt>
    <trkpt lat="42.324527" lon="-3.010848">
      <ele>823.1</ele>
    </trkpt>
    <trkpt lat="42.324666" lon="-3.010821">
      <ele>822</ele>
    </trkpt>
    <trkpt lat="42.324922" lon="-3.010707">
      <ele>820</ele>
    </trkpt>
    <trkpt lat="42.32521" lon="-3.01058">
      <ele>817.9</ele>
    </trkpt>
    <trkpt lat="42.3268" lon="-3.009826">
      <ele>809.5</ele>
    </trkpt>
    <trkpt lat="42.326805" lon="-3.010274">
      <ele>809</ele>
    </trkpt>
    <trkpt lat="42.326809" lon="-3.010944">
      <ele>808.8</ele>
    </trkpt>
    <trkpt lat="42.326813" lon="-3.011662">
      <ele>809.1</ele>
    </trkpt>
    <trkpt lat="42.326813" lon="-3.011773">
      <ele>809.2</ele>
    </trkpt>
    <trkpt lat="42.326812" lon="-3.011973">
      <ele>809.3</ele>
    </trkpt>
    <trkpt lat="42.326813" lon="-3.012366">
      <ele>809.5</ele>
    </trkpt>
    <trkpt lat="42.327318" lon="-3.012349">
      <ele>809.7</ele>
    </trkpt>
    <trkpt lat="42.328122" lon="-3.012318">
      <ele>809.1</ele>
    </trkpt>
    <trkpt lat="42.328187" lon="-3.013183">
      <ele>808.8</ele>
    </trkpt>
    <trkpt lat="42.328248" lon="-3.013957">
      <ele>808.5</ele>
    </trkpt>
    <trkpt lat="42.328667" lon="-3.013871">
      <ele>808.3</ele>
    </trkpt>
    <trkpt lat="42.328675" lon="-3.014101">
      <ele>808.3</ele>
    </trkpt>
    </trkseg>
  </trk>
</gpx>
