<?xml version="1.0" encoding="UTF-8"?>
<gpx version="1.1" creator="fitAI Komoot downloader" xmlns="http://www.topografix.com/GPX/1/1">
  <metadata>
    <name>Cruce de San Antonio y PuenteCanto - Recorrido circular desde Ezcaray</name>
    <desc>24 visitas · Dificultad: difficult · Distancia: 36.7 km · Desnivel +: 524 m</desc>
    <link href="https://www.komoot.com/smarttour/e10463242"><text>Komoot</text></link>
  </metadata>
  <trk>
    <name>Cruce de San Antonio y PuenteCanto - Recorrido circular desde Ezcaray</name>
    <type>touringbicycle</type>
    <trkseg>
    <trkpt lat="42.264793" lon="-3.032457">
      <ele>923.6</ele>
    </trkpt>
    <trkpt lat="42.264944" lon="-3.03237">
      <ele>923.2</ele>
    </trkpt>
    <trkpt lat="42.264906" lon="-3.032544">
      <ele>922.8</ele>
    </trkpt>
    <trkpt lat="42.265388" lon="-3.03232">
      <ele>921.5</ele>
    </trkpt>
    <trkpt lat="42.265577" lon="-3.03229">
      <ele>921</ele>
    </trkpt>
    <trkpt lat="42.266039" lon="-3.032323">
      <ele>920.4</ele>
    </trkpt>
    <trkpt lat="42.266165" lon="-3.032314">
      <ele>920.5</ele>
    </trkpt>
    <trkpt lat="42.266354" lon="-3.032302">
      <ele>920.5</ele>
    </trkpt>
    <trkpt lat="42.266714" lon="-3.032233">
      <ele>920.8</ele>
    </trkpt>
    <trkpt lat="42.267087" lon="-3.032123">
      <ele>920.9</ele>
    </trkpt>
    <trkpt lat="42.267462" lon="-3.031838">
      <ele>920.6</ele>
    </trkpt>
    <trkpt lat="42.2678" lon="-3.031649">
      <ele>919.7</ele>
    </trkpt>
    <trkpt lat="42.268189" lon="-3.031495">
      <ele>918</ele>
    </trkpt>
    <trkpt lat="42.26853" lon="-3.0314">
      <ele>916.3</ele>
    </trkpt>
    <trkpt lat="42.268909" lon="-3.031362">
      <ele>914.2</ele>
    </trkpt>
    <trkpt lat="42.270061" lon="-3.03136">
      <ele>909.8</ele>
    </trkpt>
    <trkpt lat="42.27077" lon="-3.03151">
      <ele>909</ele>
    </trkpt>
    <trkpt lat="42.271248" lon="-3.031542">
      <ele>908.8</ele>
    </trkpt>
    <trkpt lat="42.271381" lon="-3.031531">
      <ele>908.8</ele>
    </trkpt>
    <trkpt lat="42.271732" lon="-3.031424">
      <ele>908.8</ele>
    </trkpt>
    <trkpt lat="42.272035" lon="-3.031389">
      <ele>908.9</ele>
    </trkpt>
    <trkpt lat="42.272495" lon="-3.031382">
      <ele>908.9</ele>
    </trkpt>
    <trkpt lat="42.272674" lon="-3.0314">
      <ele>908.9</ele>
    </trkpt>
    <trkpt lat="42.273257" lon="-3.031571">
      <ele>909.1</ele>
    </trkpt>
    <trkpt lat="42.273462" lon="-3.031605">
      <ele>909.2</ele>
    </trkpt>
    <trkpt lat="42.273873" lon="-3.031582">
      <ele>909.1</ele>
    </trkpt>
    <trkpt lat="42.27429" lon="-3.0315">
      <ele>908.8</ele>
    </trkpt>
    <trkpt lat="42.275157" lon="-3.030881">
      <ele>906</ele>
    </trkpt>
    <trkpt lat="42.276007" lon="-3.030485">
      <ele>902.3</ele>
    </trkpt>
    <trkpt lat="42.276279" lon="-3.030325">
      <ele>901.4</ele>
    </trkpt>
    <trkpt lat="42.2767" lon="-3.02998">
      <ele>900.3</ele>
    </trkpt>
    <trkpt lat="42.277198" lon="-3.029353">
      <ele>899.1</ele>
    </trkpt>
    <trkpt lat="42.27787" lon="-3.02878">
      <ele>896.6</ele>
    </trkpt>
    <trkpt lat="42.278171" lon="-3.028619">
      <ele>895.4</ele>
    </trkpt>
    <trkpt lat="42.278411" lon="-3.028547">
      <ele>894.5</ele>
    </trkpt>
    <trkpt lat="42.27892" lon="-3.028549">
      <ele>892.9</ele>
    </trkpt>
    <trkpt lat="42.27904" lon="-3.02849">
      <ele>892.6</ele>
    </trkpt>
    <trkpt lat="42.27915" lon="-3.02841">
      <ele>892.2</ele>
    </trkpt>
    <trkpt lat="42.279488" lon="-3.027904">
      <ele>891.5</ele>
    </trkpt>
    <trkpt lat="42.279591" lon="-3.02781">
      <ele>891.3</ele>
    </trkpt>
    <trkpt lat="42.28002" lon="-3.027559">
      <ele>890.3</ele>
    </trkpt>
    <trkpt lat="42.280426" lon="-3.027421">
      <ele>889</ele>
    </trkpt>
    <trkpt lat="42.281035" lon="-3.027516">
      <ele>887.5</ele>
    </trkpt>
    <trkpt lat="42.28134" lon="-3.02747">
      <ele>887.1</ele>
    </trkpt>
    <trkpt lat="42.281891" lon="-3.027309">
      <ele>886.9</ele>
    </trkpt>
    <trkpt lat="42.282063" lon="-3.027259">
      <ele>887.2</ele>
    </trkpt>
    <trkpt lat="42.28278" lon="-3.027015">
      <ele>889</ele>
    </trkpt>
    <trkpt lat="42.2832" lon="-3.02691">
      <ele>889.5</ele>
    </trkpt>
    <trkpt lat="42.283594" lon="-3.026727">
      <ele>889</ele>
    </trkpt>
    <trkpt lat="42.284018" lon="-3.026604">
      <ele>887.7</ele>
    </trkpt>
    <trkpt lat="42.284171" lon="-3.026596">
      <ele>887</ele>
    </trkpt>
    <trkpt lat="42.284835" lon="-3.02666">
      <ele>883.4</ele>
    </trkpt>
    <trkpt lat="42.286181" lon="-3.02648">
      <ele>877.1</ele>
    </trkpt>
    <trkpt lat="42.287853" lon="-3.026457">
      <ele>873.4</ele>
    </trkpt>
    <trkpt lat="42.288104" lon="-3.02637">
      <ele>872.9</ele>
    </trkpt>
    <trkpt lat="42.288926" lon="-3.025998">
      <ele>871.5</ele>
    </trkpt>
    <trkpt lat="42.289807" lon="-3.025878">
      <ele>870.1</ele>
    </trkpt>
    <trkpt lat="42.290136" lon="-3.025785">
      <ele>869.5</ele>
    </trkpt>
    <trkpt lat="42.291195" lon="-3.025329">
      <ele>867.7</ele>
    </trkpt>
    <trkpt lat="42.291471" lon="-3.02527">
      <ele>867.3</ele>
    </trkpt>
    <trkpt lat="42.292492" lon="-3.025149">
      <ele>865.9</ele>
    </trkpt>
    <trkpt lat="42.293641" lon="-3.024827">
      <ele>864.2</ele>
    </trkpt>
    <trkpt lat="42.293836" lon="-3.024801">
      <ele>863.9</ele>
    </trkpt>
    <trkpt lat="42.293999" lon="-3.024788">
      <ele>863.6</ele>
    </trkpt>
    <trkpt lat="42.295718" lon="-3.025028">
      <ele>859.8</ele>
    </trkpt>
    <trkpt lat="42.29782" lon="-3.025338">
      <ele>855.7</ele>
    </trkpt>
    <trkpt lat="42.29815" lon="-3.025363">
      <ele>855.4</ele>
    </trkpt>
    <trkpt lat="42.29951" lon="-3.025265">
      <ele>855.3</ele>
    </trkpt>
    <trkpt lat="42.300393" lon="-3.02506">
      <ele>855.1</ele>
    </trkpt>
    <trkpt lat="42.300778" lon="-3.024926">
      <ele>854.7</ele>
    </trkpt>
    <trkpt lat="42.301027" lon="-3.024773">
      <ele>854.3</ele>
    </trkpt>
    <trkpt lat="42.302167" lon="-3.023878">
      <ele>851</ele>
    </trkpt>
    <trkpt lat="42.303485" lon="-3.023196">
      <ele>847.5</ele>
    </trkpt>
    <trkpt lat="42.303788" lon="-3.022971">
      <ele>846.8</ele>
    </trkpt>
    <trkpt lat="42.304262" lon="-3.02262">
      <ele>845.8</ele>
    </trkpt>
    <trkpt lat="42.304797" lon="-3.02219">
      <ele>845.1</ele>
    </trkpt>
    <trkpt lat="42.304925" lon="-3.022047">
      <ele>844.9</ele>
    </trkpt>
    <trkpt lat="42.305096" lon="-3.021788">
      <ele>844.8</ele>
    </trkpt>
    <trkpt lat="42.305214" lon="-3.021626">
      <ele>844.6</ele>
    </trkpt>
    <trkpt lat="42.305317" lon="-3.021485">
      <ele>844.5</ele>
    </trkpt>
    <trkpt lat="42.305588" lon="-3.021156">
      <ele>844.2</ele>
    </trkpt>
    <trkpt lat="42.305824" lon="-3.020946">
      <ele>844</ele>
    </trkpt>
    <trkpt lat="42.305881" lon="-3.020923">
      <ele>843.9</ele>
    </trkpt>
    <trkpt lat="42.306517" lon="-3.020326">
      <ele>843.1</ele>
    </trkpt>
    <trkpt lat="42.307577" lon="-3.019327">
      <ele>841.4</ele>
    </trkpt>
    <trkpt lat="42.308646" lon="-3.018376">
      <ele>838.8</ele>
    </trkpt>
    <trkpt lat="42.310097" lon="-3.017159">
      <ele>834.8</ele>
    </trkpt>
    <trkpt lat="42.310255" lon="-3.017049">
      <ele>834.4</ele>
    </trkpt>
    <trkpt lat="42.31076" lon="-3.016834">
      <ele>833.3</ele>
    </trkpt>
    <trkpt lat="42.31129" lon="-3.016538">
      <ele>832.3</ele>
    </trkpt>
    <trkpt lat="42.31224" lon="-3.015886">
      <ele>830.3</ele>
    </trkpt>
    <trkpt lat="42.312462" lon="-3.015776">
      <ele>829.9</ele>
    </trkpt>
    <trkpt lat="42.313041" lon="-3.015561">
      <ele>829.1</ele>
    </trkpt>
    <trkpt lat="42.313269" lon="-3.015477">
      <ele>828.8</ele>
    </trkpt>
    <trkpt lat="42.313609" lon="-3.015345">
      <ele>828.6</ele>
    </trkpt>
    <trkpt lat="42.313816" lon="-3.01521">
      <ele>828.4</ele>
    </trkpt>
    <trkpt lat="42.313948" lon="-3.015122">
      <ele>828.4</ele>
    </trkpt>
    <trkpt lat="42.314673" lon="-3.014537">
      <ele>828</ele>
    </trkpt>
    <trkpt lat="42.315885" lon="-3.013434">
      <ele>826.4</ele>
    </trkpt>
    <trkpt lat="42.316087" lon="-3.013283">
      <ele>826.2</ele>
    </trkpt>
    <trkpt lat="42.316812" lon="-3.01288">
      <ele>825.4</ele>
    </trkpt>
    <trkpt lat="42.317681" lon="-3.01243">
      <ele>824.6</ele>
    </trkpt>
    <trkpt lat="42.317947" lon="-3.012328">
      <ele>824.3</ele>
    </trkpt>
    <trkpt lat="42.318435" lon="-3.012242">
      <ele>823.8</ele>
    </trkpt>
    <trkpt lat="42.318838" lon="-3.012214">
      <ele>823.5</ele>
    </trkpt>
    <trkpt lat="42.319117" lon="-3.012247">
      <ele>823.4</ele>
    </trkpt>
    <trkpt lat="42.31931" lon="-3.012299">
      <ele>823.3</ele>
    </trkpt>
    <trkpt lat="42.319987" lon="-3.01264">
      <ele>821.5</ele>
    </trkpt>
    <trkpt lat="42.320056" lon="-3.012713">
      <ele>821.2</ele>
    </trkpt>
    <trkpt lat="42.320396" lon="-3.012868">
      <ele>820.1</ele>
    </trkpt>
    <trkpt lat="42.320416" lon="-3.012944">
      <ele>819.9</ele>
    </trkpt>
    <trkpt lat="42.320644" lon="-3.013661">
      <ele>818.3</ele>
    </trkpt>
    <trkpt lat="42.320661" lon="-3.013755">
      <ele>818.1</ele>
    </trkpt>
    <trkpt lat="42.32139" lon="-3.013343">
      <ele>816.2</ele>
    </trkpt>
    <trkpt lat="42.322219" lon="-3.012966">
      <ele>816.5</ele>
    </trkpt>
    <trkpt lat="42.32241" lon="-3.013622">
      <ele>817.1</ele>
    </trkpt>
    <trkpt lat="42.322518" lon="-3.013999">
      <ele>817.5</ele>
    </trkpt>
    <trkpt lat="42.322559" lon="-3.014151">
      <ele>817.6</ele>
    </trkpt>
    <trkpt lat="42.322629" lon="-3.014397">
      <ele>817.9</ele>
    </trkpt>
    <trkpt lat="42.323081" lon="-3.01438">
      <ele>818.5</ele>
    </trkpt>
    <trkpt lat="42.323194" lon="-3.01444">
      <ele>818.6</ele>
    </trkpt>
    <trkpt lat="42.323425" lon="-3.014451">
      <ele>818.7</ele>
    </trkpt>
    <trkpt lat="42.323461" lon="-3.01463">
      <ele>818.7</ele>
    </trkpt>
    <trkpt lat="42.323802" lon="-3.014592">
      <ele>818.6</ele>
    </trkpt>
    <trkpt lat="42.323848" lon="-3.014586">
      <ele>818.6</ele>
    </trkpt>
    <trkpt lat="42.324007" lon="-3.01461">
      <ele>818.5</ele>
    </trkpt>
    <trkpt lat="42.324012" lon="-3.014639">
      <ele>818.4</ele>
    </trkpt>
    <trkpt lat="42.324131" lon="-3.01468">
      <ele>818.3</ele>
    </trkpt>
    <trkpt lat="42.32417" lon="-3.014493">
      <ele>818.2</ele>
    </trkpt>
    <trkpt lat="42.324288" lon="-3.01448">
      <ele>818</ele>
    </trkpt>
    <trkpt lat="42.324453" lon="-3.014373">
      <ele>817.6</ele>
    </trkpt>
    <trkpt lat="42.324618" lon="-3.01432">
      <ele>817.3</ele>
    </trkpt>
    <trkpt lat="42.32466" lon="-3.014316">
      <ele>817.3</ele>
    </trkpt>
    <trkpt lat="42.325088" lon="-3.014242">
      <ele>816.5</ele>
    </trkpt>
    <trkpt lat="42.325464" lon="-3.014277">
      <ele>816.2</ele>
    </trkpt>
    <trkpt lat="42.325877" lon="-3.01436">
      <ele>816.2</ele>
    </trkpt>
    <trkpt lat="42.325775" lon="-3.014472">
      <ele>816.3</ele>
    </trkpt>
    <trkpt lat="42.325673" lon="-3.014693">
      <ele>816.4</ele>
    </trkpt>
    <trkpt lat="42.325645" lon="-3.014812">
      <ele>816.5</ele>
    </trkpt>
    <trkpt lat="42.325641" lon="-3.014845">
      <ele>816.5</ele>
    </trkpt>
    <trkpt lat="42.325603" lon="-3.015255">
      <ele>816.9</ele>
    </trkpt>
    <trkpt lat="42.324921" lon="-3.015148">
      <ele>818.1</ele>
    </trkpt>
    <trkpt lat="42.324891" lon="-3.015335">
      <ele>818.4</ele>
    </trkpt>
    <trkpt lat="42.324786" lon="-3.016163">
      <ele>819.2</ele>
    </trkpt>
    <trkpt lat="42.324467" lon="-3.01599">
      <ele>819.7</ele>
    </trkpt>
    <trkpt lat="42.324132" lon="-3.015826">
      <ele>820.3</ele>
    </trkpt>
    <trkpt lat="42.323946" lon="-3.015738">
      <ele>820.7</ele>
    </trkpt>
    <trkpt lat="42.323869" lon="-3.015704">
      <ele>820.8</ele>
    </trkpt>
    <trkpt lat="42.323743" lon="-3.015648">
      <ele>821</ele>
    </trkpt>
    <trkpt lat="42.323617" lon="-3.015928">
      <ele>821.3</ele>
    </trkpt>
    <trkpt lat="42.323697" lon="-3.016573">
      <ele>821.7</ele>
    </trkpt>
    <trkpt lat="42.323741" lon="-3.016704">
      <ele>821.7</ele>
    </trkpt>
    <trkpt lat="42.32383" lon="-3.01676">
      <ele>821.7</ele>
    </trkpt>
    <trkpt lat="42.324083" lon="-3.016902">
      <ele>821.6</ele>
    </trkpt>
    <trkpt lat="42.324281" lon="-3.017169">
      <ele>821.4</ele>
    </trkpt>
    <trkpt lat="42.324304" lon="-3.017362">
      <ele>821.2</ele>
    </trkpt>
    <trkpt lat="42.324576" lon="-3.017769">
      <ele>820.5</ele>
    </trkpt>
    <trkpt lat="42.32508" lon="-3.018644">
      <ele>819.8</ele>
    </trkpt>
    <trkpt lat="42.325183" lon="-3.018747">
      <ele>819.9</ele>
    </trkpt>
    <trkpt lat="42.325313" lon="-3.018812">
      <ele>819.9</ele>
    </trkpt>
    <trkpt lat="42.325393" lon="-3.018961">
      <ele>820.1</ele>
    </trkpt>
    <trkpt lat="42.325532" lon="-3.019502">
      <ele>820.8</ele>
    </trkpt>
    <trkpt lat="42.325608" lon="-3.019978">
      <ele>821.7</ele>
    </trkpt>
    <trkpt lat="42.325676" lon="-3.020131">
      <ele>822.1</ele>
    </trkpt>
    <trkpt lat="42.325664" lon="-3.020552">
      <ele>823.1</ele>
    </trkpt>
    <trkpt lat="42.325711" lon="-3.02083">
      <ele>823.7</ele>
    </trkpt>
    <trkpt lat="42.325585" lon="-3.024637">
      <ele>831.2</ele>
    </trkpt>
    <trkpt lat="42.325623" lon="-3.025089">
      <ele>831.7</ele>
    </trkpt>
    <trkpt lat="42.32561" lon="-3.025214">
      <ele>831.8</ele>
    </trkpt>
    <trkpt lat="42.325498" lon="-3.026534">
      <ele>832.9</ele>
    </trkpt>
    <trkpt lat="42.325326" lon="-3.027375">
      <ele>833.9</ele>
    </trkpt>
    <trkpt lat="42.324753" lon="-3.030757">
      <ele>841.1</ele>
    </trkpt>
    <trkpt lat="42.324534" lon="-3.031909">
      <ele>843.4</ele>
    </trkpt>
    <trkpt lat="42.324532" lon="-3.03225">
      <ele>843.8</ele>
    </trkpt>
    <trkpt lat="42.32459" lon="-3.032981">
      <ele>844.4</ele>
    </trkpt>
    <trkpt lat="42.324626" lon="-3.033151">
      <ele>844.6</ele>
    </trkpt>
    <trkpt lat="42.324675" lon="-3.033245">
      <ele>844.6</ele>
    </trkpt>
    <trkpt lat="42.324754" lon="-3.033396">
      <ele>844.7</ele>
    </trkpt>
    <trkpt lat="42.324874" lon="-3.033511">
      <ele>844.8</ele>
    </trkpt>
    <trkpt lat="42.325122" lon="-3.03382">
      <ele>845</ele>
    </trkpt>
    <trkpt lat="42.32526" lon="-3.033991">
      <ele>845.3</ele>
    </trkpt>
    <trkpt lat="42.325404" lon="-3.034178">
      <ele>845.6</ele>
    </trkpt>
    <trkpt lat="42.325528" lon="-3.034495">
      <ele>846.2</ele>
    </trkpt>
    <trkpt lat="42.325522" lon="-3.034788">
      <ele>846.9</ele>
    </trkpt>
    <trkpt lat="42.325468" lon="-3.035046">
      <ele>847.7</ele>
    </trkpt>
    <trkpt lat="42.325472" lon="-3.035206">
      <ele>848.3</ele>
    </trkpt>
    <trkpt lat="42.325613" lon="-3.035605">
      <ele>850.1</ele>
    </trkpt>
    <trkpt lat="42.325739" lon="-3.036112">
      <ele>851.7</ele>
    </trkpt>
    <trkpt lat="42.325818" lon="-3.036303">
      <ele>852.2</ele>
    </trkpt>
    <trkpt lat="42.325903" lon="-3.036707">
      <ele>852.9</ele>
    </trkpt>
    <trkpt lat="42.325947" lon="-3.036815">
      <ele>853.1</ele>
    </trkpt>
    <trkpt lat="42.325947" lon="-3.036649">
      <ele>853.4</ele>
    </trkpt>
    <trkpt lat="42.325947" lon="-3.036815">
      <ele>853.7</ele>
    </trkpt>
    <trkpt lat="42.325947" lon="-3.036867">
      <ele>853.8</ele>
    </trkpt>
    <trkpt lat="42.325942" lon="-3.03701">
      <ele>854</ele>
    </trkpt>
    <trkpt lat="42.3256" lon="-3.037067">
      <ele>854.7</ele>
    </trkpt>
    <trkpt lat="42.325659" lon="-3.037531">
      <ele>854.8</ele>
    </trkpt>
    <trkpt lat="42.325662" lon="-3.037817">
      <ele>854.8</ele>
    </trkpt>
    <trkpt lat="42.325654" lon="-3.037864">
      <ele>854.8</ele>
    </trkpt>
    <trkpt lat="42.325607" lon="-3.038076">
      <ele>854.8</ele>
    </trkpt>
    <trkpt lat="42.325478" lon="-3.038647">
      <ele>855.7</ele>
    </trkpt>
    <trkpt lat="42.325434" lon="-3.038839">
      <ele>856.1</ele>
    </trkpt>
    <trkpt lat="42.325291" lon="-3.039468">
      <ele>857.9</ele>
    </trkpt>
    <trkpt lat="42.325261" lon="-3.039563">
      <ele>858.2</ele>
    </trkpt>
    <trkpt lat="42.325082" lon="-3.04036">
      <ele>860.4</ele>
    </trkpt>
    <trkpt lat="42.325147" lon="-3.040489">
      <ele>860.8</ele>
    </trkpt>
    <trkpt lat="42.325147" lon="-3.040582">
      <ele>861.1</ele>
    </trkpt>
    <trkpt lat="42.324878" lon="-3.041932">
      <ele>864.6</ele>
    </trkpt>
    <trkpt lat="42.324857" lon="-3.042144">
      <ele>864.9</ele>
    </trkpt>
    <trkpt lat="42.324885" lon="-3.042572">
      <ele>865.4</ele>
    </trkpt>
    <trkpt lat="42.324861" lon="-3.042983">
      <ele>865.8</ele>
    </trkpt>
    <trkpt lat="42.324885" lon="-3.04323">
      <ele>866.1</ele>
    </trkpt>
    <trkpt lat="42.324883" lon="-3.043662">
      <ele>866.6</ele>
    </trkpt>
    <trkpt lat="42.324804" lon="-3.044372">
      <ele>867.4</ele>
    </trkpt>
    <trkpt lat="42.324788" lon="-3.044942">
      <ele>868.1</ele>
    </trkpt>
    <trkpt lat="42.324752" lon="-3.045138">
      <ele>868.4</ele>
    </trkpt>
    <trkpt lat="42.324689" lon="-3.04594">
      <ele>869.5</ele>
    </trkpt>
    <trkpt lat="42.324683" lon="-3.046784">
      <ele>870.9</ele>
    </trkpt>
    <trkpt lat="42.324652" lon="-3.047377">
      <ele>871.8</ele>
    </trkpt>
    <trkpt lat="42.324336" lon="-3.048536">
      <ele>873.8</ele>
    </trkpt>
    <trkpt lat="42.324211" lon="-3.048957">
      <ele>874.7</ele>
    </trkpt>
    <trkpt lat="42.324184" lon="-3.049044">
      <ele>874.9</ele>
    </trkpt>
    <trkpt lat="42.321575" lon="-3.057695">
      <ele>899.4</ele>
    </trkpt>
    <trkpt lat="42.321531" lon="-3.057742">
      <ele>899.6</ele>
    </trkpt>
    <trkpt lat="42.321548" lon="-3.058146">
      <ele>900.5</ele>
    </trkpt>
    <trkpt lat="42.321469" lon="-3.059182">
      <ele>902.2</ele>
    </trkpt>
    <trkpt lat="42.321508" lon="-3.059827">
      <ele>902.7</ele>
    </trkpt>
    <trkpt lat="42.321506" lon="-3.060056">
      <ele>902.9</ele>
    </trkpt>
    <trkpt lat="42.321468" lon="-3.06035">
      <ele>903.1</ele>
    </trkpt>
    <trkpt lat="42.321477" lon="-3.060679">
      <ele>903.4</ele>
    </trkpt>
    <trkpt lat="42.321418" lon="-3.060855">
      <ele>903.6</ele>
    </trkpt>
    <trkpt lat="42.321365" lon="-3.060922">
      <ele>903.7</ele>
    </trkpt>
    <trkpt lat="42.321206" lon="-3.061004">
      <ele>904</ele>
    </trkpt>
    <trkpt lat="42.321161" lon="-3.061378">
      <ele>904.5</ele>
    </trkpt>
    <trkpt lat="42.321059" lon="-3.061515">
      <ele>904.9</ele>
    </trkpt>
    <trkpt lat="42.321056" lon="-3.061679">
      <ele>905.2</ele>
    </trkpt>
    <trkpt lat="42.320975" lon="-3.061975">
      <ele>905.8</ele>
    </trkpt>
    <trkpt lat="42.320724" lon="-3.06262">
      <ele>907.6</ele>
    </trkpt>
    <trkpt lat="42.320709" lon="-3.0628">
      <ele>908</ele>
    </trkpt>
    <trkpt lat="42.320667" lon="-3.062907">
      <ele>908.3</ele>
    </trkpt>
    <trkpt lat="42.320576" lon="-3.06304">
      <ele>908.8</ele>
    </trkpt>
    <trkpt lat="42.320548" lon="-3.063232">
      <ele>909.3</ele>
    </trkpt>
    <trkpt lat="42.320652" lon="-3.063444">
      <ele>909.9</ele>
    </trkpt>
    <trkpt lat="42.320659" lon="-3.063547">
      <ele>910.1</ele>
    </trkpt>
    <trkpt lat="42.320538" lon="-3.063965">
      <ele>911.2</ele>
    </trkpt>
    <trkpt lat="42.320346" lon="-3.064418">
      <ele>912.6</ele>
    </trkpt>
    <trkpt lat="42.31983" lon="-3.065464">
      <ele>917</ele>
    </trkpt>
    <trkpt lat="42.319768" lon="-3.065541">
      <ele>917.5</ele>
    </trkpt>
    <trkpt lat="42.319502" lon="-3.065436">
      <ele>919</ele>
    </trkpt>
    <trkpt lat="42.31913" lon="-3.065435">
      <ele>921.1</ele>
    </trkpt>
    <trkpt lat="42.319113" lon="-3.06549">
      <ele>921.3</ele>
    </trkpt>
    <trkpt lat="42.318631" lon="-3.067099">
      <ele>927.5</ele>
    </trkpt>
    <trkpt lat="42.318592" lon="-3.067238">
      <ele>927.8</ele>
    </trkpt>
    <trkpt lat="42.318485" lon="-3.06759">
      <ele>928.7</ele>
    </trkpt>
    <trkpt lat="42.318279" lon="-3.06827">
      <ele>930</ele>
    </trkpt>
    <trkpt lat="42.318248" lon="-3.068385">
      <ele>930.2</ele>
    </trkpt>
    <trkpt lat="42.31783" lon="-3.06983">
      <ele>931.9</ele>
    </trkpt>
    <trkpt lat="42.317805" lon="-3.069993">
      <ele>932</ele>
    </trkpt>
    <trkpt lat="42.317806" lon="-3.0704">
      <ele>932.4</ele>
    </trkpt>
    <trkpt lat="42.317858" lon="-3.070641">
      <ele>932.6</ele>
    </trkpt>
    <trkpt lat="42.317952" lon="-3.070873">
      <ele>932.8</ele>
    </trkpt>
    <trkpt lat="42.318086" lon="-3.071109">
      <ele>933.2</ele>
    </trkpt>
    <trkpt lat="42.318114" lon="-3.071159">
      <ele>933.3</ele>
    </trkpt>
    <trkpt lat="42.318337" lon="-3.071514">
      <ele>934.1</ele>
    </trkpt>
    <trkpt lat="42.3186" lon="-3.07195">
      <ele>935.7</ele>
    </trkpt>
    <trkpt lat="42.31888" lon="-3.07268">
      <ele>939.2</ele>
    </trkpt>
    <trkpt lat="42.319014" lon="-3.073478">
      <ele>943.3</ele>
    </trkpt>
    <trkpt lat="42.319034" lon="-3.074246">
      <ele>946.9</ele>
    </trkpt>
    <trkpt lat="42.319016" lon="-3.074509">
      <ele>948.1</ele>
    </trkpt>
    <trkpt lat="42.318985" lon="-3.07479">
      <ele>949.3</ele>
    </trkpt>
    <trkpt lat="42.318705" lon="-3.076289">
      <ele>955.3</ele>
    </trkpt>
    <trkpt lat="42.318149" lon="-3.078146">
      <ele>962.4</ele>
    </trkpt>
    <trkpt lat="42.318108" lon="-3.078282">
      <ele>962.8</ele>
    </trkpt>
    <trkpt lat="42.318069" lon="-3.078412">
      <ele>963.3</ele>
    </trkpt>
    <trkpt lat="42.318046" lon="-3.078567">
      <ele>963.8</ele>
    </trkpt>
    <trkpt lat="42.317996" lon="-3.0789">
      <ele>964.9</ele>
    </trkpt>
    <trkpt lat="42.317909" lon="-3.079131">
      <ele>965.7</ele>
    </trkpt>
    <trkpt lat="42.31778" lon="-3.079377">
      <ele>966.7</ele>
    </trkpt>
    <trkpt lat="42.31684" lon="-3.08128">
      <ele>975</ele>
    </trkpt>
    <trkpt lat="42.316689" lon="-3.081563">
      <ele>976.2</ele>
    </trkpt>
    <trkpt lat="42.316696" lon="-3.081799">
      <ele>977</ele>
    </trkpt>
    <trkpt lat="42.316737" lon="-3.081851">
      <ele>977.3</ele>
    </trkpt>
    <trkpt lat="42.316789" lon="-3.081876">
      <ele>977.5</ele>
    </trkpt>
    <trkpt lat="42.316849" lon="-3.081856">
      <ele>977.8</ele>
    </trkpt>
    <trkpt lat="42.316907" lon="-3.081793">
      <ele>978.2</ele>
    </trkpt>
    <trkpt lat="42.317203" lon="-3.081182">
      <ele>980.9</ele>
    </trkpt>
    <trkpt lat="42.317435" lon="-3.080925">
      <ele>982.3</ele>
    </trkpt>
    <trkpt lat="42.31787" lon="-3.08079">
      <ele>984</ele>
    </trkpt>
    <trkpt lat="42.31811" lon="-3.08062">
      <ele>985.1</ele>
    </trkpt>
    <trkpt lat="42.31825" lon="-3.08045">
      <ele>985.9</ele>
    </trkpt>
    <trkpt lat="42.319183" lon="-3.07894">
      <ele>991.9</ele>
    </trkpt>
    <trkpt lat="42.319614" lon="-3.077978">
      <ele>995.7</ele>
    </trkpt>
    <trkpt lat="42.319807" lon="-3.077662">
      <ele>997.2</ele>
    </trkpt>
    <trkpt lat="42.31993" lon="-3.077644">
      <ele>997.8</ele>
    </trkpt>
    <trkpt lat="42.319974" lon="-3.077709">
      <ele>998.1</ele>
    </trkpt>
    <trkpt lat="42.31998" lon="-3.07783">
      <ele>998.5</ele>
    </trkpt>
    <trkpt lat="42.319947" lon="-3.077935">
      <ele>999</ele>
    </trkpt>
    <trkpt lat="42.319734" lon="-3.078313">
      <ele>1000.8</ele>
    </trkpt>
    <trkpt lat="42.319614" lon="-3.078596">
      <ele>1002.2</ele>
    </trkpt>
    <trkpt lat="42.31912" lon="-3.080265">
      <ele>1010.1</ele>
    </trkpt>
    <trkpt lat="42.318882" lon="-3.081371">
      <ele>1015.6</ele>
    </trkpt>
    <trkpt lat="42.318815" lon="-3.081544">
      <ele>1016.5</ele>
    </trkpt>
    <trkpt lat="42.31875" lon="-3.081651">
      <ele>1017.1</ele>
    </trkpt>
    <trkpt lat="42.317986" lon="-3.082533">
      <ele>1021.2</ele>
    </trkpt>
    <trkpt lat="42.317768" lon="-3.082879">
      <ele>1021.9</ele>
    </trkpt>
    <trkpt lat="42.31761" lon="-3.083256">
      <ele>1022.5</ele>
    </trkpt>
    <trkpt lat="42.3174" lon="-3.084056">
      <ele>1024</ele>
    </trkpt>
    <trkpt lat="42.3173" lon="-3.084545">
      <ele>1025.4</ele>
    </trkpt>
    <trkpt lat="42.317252" lon="-3.085508">
      <ele>1030.8</ele>
    </trkpt>
    <trkpt lat="42.3173" lon="-3.085894">
      <ele>1034.1</ele>
    </trkpt>
    <trkpt lat="42.31737" lon="-3.086057">
      <ele>1035.8</ele>
    </trkpt>
    <trkpt lat="42.317515" lon="-3.086228">
      <ele>1038.3</ele>
    </trkpt>
    <trkpt lat="42.317767" lon="-3.086382">
      <ele>1042.2</ele>
    </trkpt>
    <trkpt lat="42.317913" lon="-3.086439">
      <ele>1044.5</ele>
    </trkpt>
    <trkpt lat="42.318105" lon="-3.086463">
      <ele>1047.4</ele>
    </trkpt>
    <trkpt lat="42.318365" lon="-3.086388">
      <ele>1051.3</ele>
    </trkpt>
    <trkpt lat="42.31852" lon="-3.086342">
      <ele>1053.3</ele>
    </trkpt>
    <trkpt lat="42.318761" lon="-3.086348">
      <ele>1055.7</ele>
    </trkpt>
    <trkpt lat="42.318923" lon="-3.086425">
      <ele>1057</ele>
    </trkpt>
    <trkpt lat="42.319035" lon="-3.086589">
      <ele>1058.1</ele>
    </trkpt>
    <trkpt lat="42.319069" lon="-3.086729">
      <ele>1058.6</ele>
    </trkpt>
    <trkpt lat="42.319066" lon="-3.08684">
      <ele>1059</ele>
    </trkpt>
    <trkpt lat="42.31903" lon="-3.08692">
      <ele>1059.3</ele>
    </trkpt>
    <trkpt lat="42.318922" lon="-3.087032">
      <ele>1059.8</ele>
    </trkpt>
    <trkpt lat="42.318618" lon="-3.087257">
      <ele>1060.4</ele>
    </trkpt>
    <trkpt lat="42.318105" lon="-3.087968">
      <ele>1058.7</ele>
    </trkpt>
    <trkpt lat="42.317833" lon="-3.088226">
      <ele>1057.9</ele>
    </trkpt>
    <trkpt lat="42.317457" lon="-3.088709">
      <ele>1058.1</ele>
    </trkpt>
    <trkpt lat="42.317415" lon="-3.088822">
      <ele>1058.2</ele>
    </trkpt>
    <trkpt lat="42.317398" lon="-3.088989">
      <ele>1058.3</ele>
    </trkpt>
    <trkpt lat="42.317351" lon="-3.090383">
      <ele>1061.9</ele>
    </trkpt>
    <trkpt lat="42.317411" lon="-3.09109">
      <ele>1065.8</ele>
    </trkpt>
    <trkpt lat="42.317498" lon="-3.091707">
      <ele>1069.9</ele>
    </trkpt>
    <trkpt lat="42.317589" lon="-3.092163">
      <ele>1073.1</ele>
    </trkpt>
    <trkpt lat="42.317624" lon="-3.092774">
      <ele>1077.4</ele>
    </trkpt>
    <trkpt lat="42.318539" lon="-3.095537">
      <ele>1094</ele>
    </trkpt>
    <trkpt lat="42.318564" lon="-3.095789">
      <ele>1095.1</ele>
    </trkpt>
    <trkpt lat="42.318456" lon="-3.096184">
      <ele>1097</ele>
    </trkpt>
    <trkpt lat="42.31841" lon="-3.096524">
      <ele>1098.6</ele>
    </trkpt>
    <trkpt lat="42.318519" lon="-3.097499">
      <ele>1103.5</ele>
    </trkpt>
    <trkpt lat="42.318523" lon="-3.097733">
      <ele>1104.8</ele>
    </trkpt>
    <trkpt lat="42.318503" lon="-3.097824">
      <ele>1105.4</ele>
    </trkpt>
    <trkpt lat="42.318028" lon="-3.098206">
      <ele>1109.6</ele>
    </trkpt>
    <trkpt lat="42.317711" lon="-3.098829">
      <ele>1115</ele>
    </trkpt>
    <trkpt lat="42.3175" lon="-3.099315">
      <ele>1119.6</ele>
    </trkpt>
    <trkpt lat="42.317437" lon="-3.099404">
      <ele>1120.4</ele>
    </trkpt>
    <trkpt lat="42.317116" lon="-3.099613">
      <ele>1122.9</ele>
    </trkpt>
    <trkpt lat="42.316952" lon="-3.099686">
      <ele>1123.7</ele>
    </trkpt>
    <trkpt lat="42.316895" lon="-3.099735">
      <ele>1123.9</ele>
    </trkpt>
    <trkpt lat="42.316878" lon="-3.099791">
      <ele>1124.1</ele>
    </trkpt>
    <trkpt lat="42.316875" lon="-3.099887">
      <ele>1124.4</ele>
    </trkpt>
    <trkpt lat="42.316963" lon="-3.099946">
      <ele>1124.8</ele>
    </trkpt>
    <trkpt lat="42.317515" lon="-3.099683">
      <ele>1126.8</ele>
    </trkpt>
    <trkpt lat="42.31762" lon="-3.099592">
      <ele>1127</ele>
    </trkpt>
    <trkpt lat="42.318092" lon="-3.098933">
      <ele>1127.2</ele>
    </trkpt>
    <trkpt lat="42.318248" lon="-3.098579">
      <ele>1127.8</ele>
    </trkpt>
    <trkpt lat="42.318319" lon="-3.098511">
      <ele>1128.1</ele>
    </trkpt>
    <trkpt lat="42.318758" lon="-3.098494">
      <ele>1129.4</ele>
    </trkpt>
    <trkpt lat="42.3189" lon="-3.09844">
      <ele>1129.8</ele>
    </trkpt>
    <trkpt lat="42.318963" lon="-3.098373">
      <ele>1130</ele>
    </trkpt>
    <trkpt lat="42.319002" lon="-3.098262">
      <ele>1130.2</ele>
    </trkpt>
    <trkpt lat="42.318989" lon="-3.097795">
      <ele>1131.3</ele>
    </trkpt>
    <trkpt lat="42.319135" lon="-3.097061">
      <ele>1133.4</ele>
    </trkpt>
    <trkpt lat="42.319182" lon="-3.09691">
      <ele>1134</ele>
    </trkpt>
    <trkpt lat="42.319524" lon="-3.096384">
      <ele>1136.6</ele>
    </trkpt>
    <trkpt lat="42.319592" lon="-3.096222">
      <ele>1137.5</ele>
    </trkpt>
    <trkpt lat="42.319619" lon="-3.096056">
      <ele>1138.3</ele>
    </trkpt>
    <trkpt lat="42.319634" lon="-3.095765">
      <ele>1139.8</ele>
    </trkpt>
    <trkpt lat="42.319587" lon="-3.095187">
      <ele>1142.9</ele>
    </trkpt>
    <trkpt lat="42.319511" lon="-3.094756">
      <ele>1145.5</ele>
    </trkpt>
    <trkpt lat="42.319339" lon="-3.094172">
      <ele>1148.6</ele>
    </trkpt>
    <trkpt lat="42.319185" lon="-3.093576">
      <ele>1151.1</ele>
    </trkpt>
    <trkpt lat="42.319222" lon="-3.093435">
      <ele>1151.9</ele>
    </trkpt>
    <trkpt lat="42.319314" lon="-3.093424">
      <ele>1152.5</ele>
    </trkpt>
    <trkpt lat="42.319361" lon="-3.093475">
      <ele>1152.9</ele>
    </trkpt>
    <trkpt lat="42.319476" lon="-3.094003">
      <ele>1156.1</ele>
    </trkpt>
    <trkpt lat="42.319911" lon="-3.094997">
      <ele>1163.1</ele>
    </trkpt>
    <trkpt lat="42.320054" lon="-3.095497">
      <ele>1166.6</ele>
    </trkpt>
    <trkpt lat="42.320159" lon="-3.096049">
      <ele>1170</ele>
    </trkpt>
    <trkpt lat="42.32013" lon="-3.096467">
      <ele>1172.4</ele>
    </trkpt>
    <trkpt lat="42.319941" lon="-3.097452">
      <ele>1178.1</ele>
    </trkpt>
    <trkpt lat="42.319936" lon="-3.097665">
      <ele>1179.4</ele>
    </trkpt>
    <trkpt lat="42.320006" lon="-3.098219">
      <ele>1183.5</ele>
    </trkpt>
    <trkpt lat="42.32002" lon="-3.098509">
      <ele>1185.9</ele>
    </trkpt>
    <trkpt lat="42.320028" lon="-3.099475">
      <ele>1194.7</ele>
    </trkpt>
    <trkpt lat="42.319874" lon="-3.100263">
      <ele>1199.2</ele>
    </trkpt>
    <trkpt lat="42.319784" lon="-3.100517">
      <ele>1199.9</ele>
    </trkpt>
    <trkpt lat="42.319716" lon="-3.100622">
      <ele>1200.1</ele>
    </trkpt>
    <trkpt lat="42.319632" lon="-3.100675">
      <ele>1200.2</ele>
    </trkpt>
    <trkpt lat="42.319561" lon="-3.100677">
      <ele>1200.4</ele>
    </trkpt>
    <trkpt lat="42.319045" lon="-3.10036">
      <ele>1200.8</ele>
    </trkpt>
    <trkpt lat="42.31894" lon="-3.100363">
      <ele>1200.7</ele>
    </trkpt>
    <trkpt lat="42.318865" lon="-3.100414">
      <ele>1200.7</ele>
    </trkpt>
    <trkpt lat="42.318818" lon="-3.100495">
      <ele>1200.6</ele>
    </trkpt>
    <trkpt lat="42.318469" lon="-3.10192">
      <ele>1203.2</ele>
    </trkpt>
    <trkpt lat="42.318336" lon="-3.102218">
      <ele>1203.9</ele>
    </trkpt>
    <trkpt lat="42.318166" lon="-3.102456">
      <ele>1204.2</ele>
    </trkpt>
    <trkpt lat="42.318336" lon="-3.102218">
      <ele>1203.9</ele>
    </trkpt>
    <trkpt lat="42.318469" lon="-3.10192">
      <ele>1203.2</ele>
    </trkpt>
    <trkpt lat="42.318818" lon="-3.100495">
      <ele>1200.6</ele>
    </trkpt>
    <trkpt lat="42.318865" lon="-3.100414">
      <ele>1200.7</ele>
    </trkpt>
    <trkpt lat="42.31894" lon="-3.100363">
      <ele>1200.7</ele>
    </trkpt>
    <trkpt lat="42.319045" lon="-3.10036">
      <ele>1200.8</ele>
    </trkpt>
    <trkpt lat="42.319561" lon="-3.100677">
      <ele>1200.4</ele>
    </trkpt>
    <trkpt lat="42.319632" lon="-3.100675">
      <ele>1200.2</ele>
    </trkpt>
    <trkpt lat="42.319716" lon="-3.100622">
      <ele>1200.1</ele>
    </trkpt>
    <trkpt lat="42.319784" lon="-3.100517">
      <ele>1199.9</ele>
    </trkpt>
    <trkpt lat="42.319874" lon="-3.100263">
      <ele>1199.2</ele>
    </trkpt>
    <trkpt lat="42.320028" lon="-3.099475">
      <ele>1194.7</ele>
    </trkpt>
    <trkpt lat="42.32002" lon="-3.098509">
      <ele>1185.9</ele>
    </trkpt>
    <trkpt lat="42.320006" lon="-3.098219">
      <ele>1183.5</ele>
    </trkpt>
    <trkpt lat="42.319936" lon="-3.097665">
      <ele>1179.4</ele>
    </trkpt>
    <trkpt lat="42.319941" lon="-3.097452">
      <ele>1178.1</ele>
    </trkpt>
    <trkpt lat="42.32013" lon="-3.096467">
      <ele>1172.4</ele>
    </trkpt>
    <trkpt lat="42.320159" lon="-3.096049">
      <ele>1170</ele>
    </trkpt>
    <trkpt lat="42.320054" lon="-3.095497">
      <ele>1166.6</ele>
    </trkpt>
    <trkpt lat="42.319911" lon="-3.094997">
      <ele>1163.1</ele>
    </trkpt>
    <trkpt lat="42.319476" lon="-3.094003">
      <ele>1156.1</ele>
    </trkpt>
    <trkpt lat="42.319361" lon="-3.093475">
      <ele>1152.9</ele>
    </trkpt>
    <trkpt lat="42.319314" lon="-3.093424">
      <ele>1152.5</ele>
    </trkpt>
    <trkpt lat="42.319222" lon="-3.093435">
      <ele>1151.9</ele>
    </trkpt>
    <trkpt lat="42.319185" lon="-3.093576">
      <ele>1151.1</ele>
    </trkpt>
    <trkpt lat="42.319339" lon="-3.094172">
      <ele>1148.6</ele>
    </trkpt>
    <trkpt lat="42.319511" lon="-3.094756">
      <ele>1145.5</ele>
    </trkpt>
    <trkpt lat="42.319587" lon="-3.095187">
      <ele>1142.9</ele>
    </trkpt>
    <trkpt lat="42.319634" lon="-3.095765">
      <ele>1139.8</ele>
    </trkpt>
    <trkpt lat="42.319619" lon="-3.096056">
      <ele>1138.3</ele>
    </trkpt>
    <trkpt lat="42.319592" lon="-3.096222">
      <ele>1137.5</ele>
    </trkpt>
    <trkpt lat="42.319524" lon="-3.096384">
      <ele>1136.6</ele>
    </trkpt>
    <trkpt lat="42.319182" lon="-3.09691">
      <ele>1134</ele>
    </trkpt>
    <trkpt lat="42.319135" lon="-3.097061">
      <ele>1133.4</ele>
    </trkpt>
    <trkpt lat="42.318989" lon="-3.097795">
      <ele>1131.3</ele>
    </trkpt>
    <trkpt lat="42.319002" lon="-3.098262">
      <ele>1130.2</ele>
    </trkpt>
    <trkpt lat="42.318963" lon="-3.098373">
      <ele>1130</ele>
    </trkpt>
    <trkpt lat="42.3189" lon="-3.09844">
      <ele>1129.8</ele>
    </trkpt>
    <trkpt lat="42.318758" lon="-3.098494">
      <ele>1129.4</ele>
    </trkpt>
    <trkpt lat="42.318319" lon="-3.098511">
      <ele>1128.1</ele>
    </trkpt>
    <trkpt lat="42.318248" lon="-3.098579">
      <ele>1127.8</ele>
    </trkpt>
    <trkpt lat="42.318092" lon="-3.098933">
      <ele>1127.2</ele>
    </trkpt>
    <trkpt lat="42.31762" lon="-3.099592">
      <ele>1127</ele>
    </trkpt>
    <trkpt lat="42.317515" lon="-3.099683">
      <ele>1126.8</ele>
    </trkpt>
    <trkpt lat="42.316963" lon="-3.099946">
      <ele>1124.8</ele>
    </trkpt>
    <trkpt lat="42.316875" lon="-3.099887">
      <ele>1124.4</ele>
    </trkpt>
    <trkpt lat="42.316878" lon="-3.099791">
      <ele>1124.1</ele>
    </trkpt>
    <trkpt lat="42.316895" lon="-3.099735">
      <ele>1123.9</ele>
    </trkpt>
    <trkpt lat="42.316952" lon="-3.099686">
      <ele>1123.7</ele>
    </trkpt>
    <trkpt lat="42.317116" lon="-3.099613">
      <ele>1122.9</ele>
    </trkpt>
    <trkpt lat="42.317437" lon="-3.099404">
      <ele>1120.4</ele>
    </trkpt>
    <trkpt lat="42.3175" lon="-3.099315">
      <ele>1119.6</ele>
    </trkpt>
    <trkpt lat="42.317711" lon="-3.098829">
      <ele>1115</ele>
    </trkpt>
    <trkpt lat="42.318028" lon="-3.098206">
      <ele>1109.6</ele>
    </trkpt>
    <trkpt lat="42.318503" lon="-3.097824">
      <ele>1105.4</ele>
    </trkpt>
    <trkpt lat="42.318523" lon="-3.097733">
      <ele>1104.8</ele>
    </trkpt>
    <trkpt lat="42.318519" lon="-3.097499">
      <ele>1103.5</ele>
    </trkpt>
    <trkpt lat="42.31841" lon="-3.096524">
      <ele>1098.6</ele>
    </trkpt>
    <trkpt lat="42.318456" lon="-3.096184">
      <ele>1097</ele>
    </trkpt>
    <trkpt lat="42.318564" lon="-3.095789">
      <ele>1095.1</ele>
    </trkpt>
    <trkpt lat="42.318539" lon="-3.095537">
      <ele>1094</ele>
    </trkpt>
    <trkpt lat="42.317624" lon="-3.092774">
      <ele>1077.4</ele>
    </trkpt>
    <trkpt lat="42.317589" lon="-3.092163">
      <ele>1073.1</ele>
    </trkpt>
    <trkpt lat="42.317498" lon="-3.091707">
      <ele>1069.9</ele>
    </trkpt>
    <trkpt lat="42.317411" lon="-3.09109">
      <ele>1065.8</ele>
    </trkpt>
    <trkpt lat="42.317351" lon="-3.090383">
      <ele>1061.9</ele>
    </trkpt>
    <trkpt lat="42.317398" lon="-3.088989">
      <ele>1058.3</ele>
    </trkpt>
    <trkpt lat="42.317415" lon="-3.088822">
      <ele>1058.2</ele>
    </trkpt>
    <trkpt lat="42.317457" lon="-3.088709">
      <ele>1058.1</ele>
    </trkpt>
    <trkpt lat="42.317833" lon="-3.088226">
      <ele>1057.9</ele>
    </trkpt>
    <trkpt lat="42.318105" lon="-3.087968">
      <ele>1058.7</ele>
    </trkpt>
    <trkpt lat="42.318618" lon="-3.087257">
      <ele>1060.4</ele>
    </trkpt>
    <trkpt lat="42.318922" lon="-3.087032">
      <ele>1059.8</ele>
    </trkpt>
    <trkpt lat="42.31903" lon="-3.08692">
      <ele>1059.3</ele>
    </trkpt>
    <trkpt lat="42.319066" lon="-3.08684">
      <ele>1059</ele>
    </trkpt>
    <trkpt lat="42.319069" lon="-3.086729">
      <ele>1058.6</ele>
    </trkpt>
    <trkpt lat="42.319035" lon="-3.086589">
      <ele>1058.1</ele>
    </trkpt>
    <trkpt lat="42.318923" lon="-3.086425">
      <ele>1057</ele>
    </trkpt>
    <trkpt lat="42.318761" lon="-3.086348">
      <ele>1055.7</ele>
    </trkpt>
    <trkpt lat="42.31852" lon="-3.086342">
      <ele>1053.3</ele>
    </trkpt>
    <trkpt lat="42.318365" lon="-3.086388">
      <ele>1051.3</ele>
    </trkpt>
    <trkpt lat="42.318105" lon="-3.086463">
      <ele>1047.4</ele>
    </trkpt>
    <trkpt lat="42.317913" lon="-3.086439">
      <ele>1044.5</ele>
    </trkpt>
    <trkpt lat="42.317767" lon="-3.086382">
      <ele>1042.2</ele>
    </trkpt>
    <trkpt lat="42.317515" lon="-3.086228">
      <ele>1038.3</ele>
    </trkpt>
    <trkpt lat="42.31737" lon="-3.086057">
      <ele>1035.8</ele>
    </trkpt>
    <trkpt lat="42.3173" lon="-3.085894">
      <ele>1034.1</ele>
    </trkpt>
    <trkpt lat="42.317252" lon="-3.085508">
      <ele>1030.8</ele>
    </trkpt>
    <trkpt lat="42.3173" lon="-3.084545">
      <ele>1025.4</ele>
    </trkpt>
    <trkpt lat="42.3174" lon="-3.084056">
      <ele>1024</ele>
    </trkpt>
    <trkpt lat="42.31761" lon="-3.083256">
      <ele>1022.5</ele>
    </trkpt>
    <trkpt lat="42.317768" lon="-3.082879">
      <ele>1021.9</ele>
    </trkpt>
    <trkpt lat="42.317986" lon="-3.082533">
      <ele>1021.2</ele>
    </trkpt>
    <trkpt lat="42.31875" lon="-3.081651">
      <ele>1017.1</ele>
    </trkpt>
    <trkpt lat="42.318815" lon="-3.081544">
      <ele>1016.5</ele>
    </trkpt>
    <trkpt lat="42.318882" lon="-3.081371">
      <ele>1015.6</ele>
    </trkpt>
    <trkpt lat="42.31912" lon="-3.080265">
      <ele>1010.1</ele>
    </trkpt>
    <trkpt lat="42.319614" lon="-3.078596">
      <ele>1002.2</ele>
    </trkpt>
    <trkpt lat="42.319734" lon="-3.078313">
      <ele>1000.8</ele>
    </trkpt>
    <trkpt lat="42.319947" lon="-3.077935">
      <ele>999</ele>
    </trkpt>
    <trkpt lat="42.31998" lon="-3.07783">
      <ele>998.5</ele>
    </trkpt>
    <trkpt lat="42.319974" lon="-3.077709">
      <ele>998.1</ele>
    </trkpt>
    <trkpt lat="42.31993" lon="-3.077644">
      <ele>997.8</ele>
    </trkpt>
    <trkpt lat="42.319807" lon="-3.077662">
      <ele>997.2</ele>
    </trkpt>
    <trkpt lat="42.319614" lon="-3.077978">
      <ele>995.7</ele>
    </trkpt>
    <trkpt lat="42.319183" lon="-3.07894">
      <ele>991.9</ele>
    </trkpt>
    <trkpt lat="42.31825" lon="-3.08045">
      <ele>985.9</ele>
    </trkpt>
    <trkpt lat="42.31811" lon="-3.08062">
      <ele>985.1</ele>
    </trkpt>
    <trkpt lat="42.31787" lon="-3.08079">
      <ele>984</ele>
    </trkpt>
    <trkpt lat="42.317435" lon="-3.080925">
      <ele>982.3</ele>
    </trkpt>
    <trkpt lat="42.317203" lon="-3.081182">
      <ele>980.9</ele>
    </trkpt>
    <trkpt lat="42.316907" lon="-3.081793">
      <ele>978.2</ele>
    </trkpt>
    <trkpt lat="42.316849" lon="-3.081856">
      <ele>977.8</ele>
    </trkpt>
    <trkpt lat="42.316789" lon="-3.081876">
      <ele>977.5</ele>
    </trkpt>
    <trkpt lat="42.316737" lon="-3.081851">
      <ele>977.3</ele>
    </trkpt>
    <trkpt lat="42.316696" lon="-3.081799">
      <ele>977</ele>
    </trkpt>
    <trkpt lat="42.316689" lon="-3.081563">
      <ele>976.2</ele>
    </trkpt>
    <trkpt lat="42.31684" lon="-3.08128">
      <ele>975</ele>
    </trkpt>
    <trkpt lat="42.31778" lon="-3.079377">
      <ele>966.7</ele>
    </trkpt>
    <trkpt lat="42.317909" lon="-3.079131">
      <ele>965.7</ele>
    </trkpt>
    <trkpt lat="42.317996" lon="-3.0789">
      <ele>964.9</ele>
    </trkpt>
    <trkpt lat="42.318046" lon="-3.078567">
      <ele>963.8</ele>
    </trkpt>
    <trkpt lat="42.318069" lon="-3.078412">
      <ele>963.3</ele>
    </trkpt>
    <trkpt lat="42.318149" lon="-3.078146">
      <ele>962.4</ele>
    </trkpt>
    <trkpt lat="42.318705" lon="-3.076289">
      <ele>955.3</ele>
    </trkpt>
    <trkpt lat="42.318985" lon="-3.07479">
      <ele>949.3</ele>
    </trkpt>
    <trkpt lat="42.319016" lon="-3.074509">
      <ele>948.1</ele>
    </trkpt>
    <trkpt lat="42.319034" lon="-3.074246">
      <ele>946.9</ele>
    </trkpt>
    <trkpt lat="42.319014" lon="-3.073478">
      <ele>943.3</ele>
    </trkpt>
    <trkpt lat="42.31888" lon="-3.07268">
      <ele>939.2</ele>
    </trkpt>
    <trkpt lat="42.3186" lon="-3.07195">
      <ele>935.7</ele>
    </trkpt>
    <trkpt lat="42.318337" lon="-3.071514">
      <ele>934.1</ele>
    </trkpt>
    <trkpt lat="42.318114" lon="-3.071159">
      <ele>933.3</ele>
    </trkpt>
    <trkpt lat="42.318086" lon="-3.071109">
      <ele>933.2</ele>
    </trkpt>
    <trkpt lat="42.317952" lon="-3.070873">
      <ele>932.8</ele>
    </trkpt>
    <trkpt lat="42.317858" lon="-3.070641">
      <ele>932.6</ele>
    </trkpt>
    <trkpt lat="42.317806" lon="-3.0704">
      <ele>932.4</ele>
    </trkpt>
    <trkpt lat="42.317805" lon="-3.069993">
      <ele>932</ele>
    </trkpt>
    <trkpt lat="42.31783" lon="-3.06983">
      <ele>931.9</ele>
    </trkpt>
    <trkpt lat="42.318248" lon="-3.068385">
      <ele>930.2</ele>
    </trkpt>
    <trkpt lat="42.318279" lon="-3.06827">
      <ele>930</ele>
    </trkpt>
    <trkpt lat="42.318485" lon="-3.06759">
      <ele>928.7</ele>
    </trkpt>
    <trkpt lat="42.318592" lon="-3.067238">
      <ele>927.8</ele>
    </trkpt>
    <trkpt lat="42.318631" lon="-3.067099">
      <ele>927.5</ele>
    </trkpt>
    <trkpt lat="42.319113" lon="-3.06549">
      <ele>921.3</ele>
    </trkpt>
    <trkpt lat="42.31913" lon="-3.065435">
      <ele>921.1</ele>
    </trkpt>
    <trkpt lat="42.319502" lon="-3.065436">
      <ele>919</ele>
    </trkpt>
    <trkpt lat="42.319768" lon="-3.065541">
      <ele>917.5</ele>
    </trkpt>
    <trkpt lat="42.31983" lon="-3.065464">
      <ele>917</ele>
    </trkpt>
    <trkpt lat="42.320346" lon="-3.064418">
      <ele>912.6</ele>
    </trkpt>
    <trkpt lat="42.320538" lon="-3.063965">
      <ele>911.2</ele>
    </trkpt>
    <trkpt lat="42.320659" lon="-3.063547">
      <ele>910.1</ele>
    </trkpt>
    <trkpt lat="42.320652" lon="-3.063444">
      <ele>909.9</ele>
    </trkpt>
    <trkpt lat="42.320548" lon="-3.063232">
      <ele>909.3</ele>
    </trkpt>
    <trkpt lat="42.320576" lon="-3.06304">
      <ele>908.8</ele>
    </trkpt>
    <trkpt lat="42.320667" lon="-3.062907">
      <ele>908.3</ele>
    </trkpt>
    <trkpt lat="42.320709" lon="-3.0628">
      <ele>908</ele>
    </trkpt>
    <trkpt lat="42.320724" lon="-3.06262">
      <ele>907.6</ele>
    </trkpt>
    <trkpt lat="42.320975" lon="-3.061975">
      <ele>905.8</ele>
    </trkpt>
    <trkpt lat="42.321056" lon="-3.061679">
      <ele>905.2</ele>
    </trkpt>
    <trkpt lat="42.321059" lon="-3.061515">
      <ele>904.9</ele>
    </trkpt>
    <trkpt lat="42.321161" lon="-3.061378">
      <ele>904.5</ele>
    </trkpt>
    <trkpt lat="42.321206" lon="-3.061004">
      <ele>904</ele>
    </trkpt>
    <trkpt lat="42.321365" lon="-3.060922">
      <ele>903.7</ele>
    </trkpt>
    <trkpt lat="42.321418" lon="-3.060855">
      <ele>903.6</ele>
    </trkpt>
    <trkpt lat="42.321477" lon="-3.060679">
      <ele>903.4</ele>
    </trkpt>
    <trkpt lat="42.321468" lon="-3.06035">
      <ele>903.1</ele>
    </trkpt>
    <trkpt lat="42.321506" lon="-3.060056">
      <ele>902.9</ele>
    </trkpt>
    <trkpt lat="42.321508" lon="-3.059827">
      <ele>902.7</ele>
    </trkpt>
    <trkpt lat="42.321469" lon="-3.059182">
      <ele>902.2</ele>
    </trkpt>
    <trkpt lat="42.321548" lon="-3.058146">
      <ele>900.5</ele>
    </trkpt>
    <trkpt lat="42.321531" lon="-3.057742">
      <ele>899.6</ele>
    </trkpt>
    <trkpt lat="42.321575" lon="-3.057695">
      <ele>899.4</ele>
    </trkpt>
    <trkpt lat="42.324184" lon="-3.049044">
      <ele>874.9</ele>
    </trkpt>
    <trkpt lat="42.324211" lon="-3.048957">
      <ele>874.7</ele>
    </trkpt>
    <trkpt lat="42.324336" lon="-3.048536">
      <ele>873.8</ele>
    </trkpt>
    <trkpt lat="42.324652" lon="-3.047377">
      <ele>871.8</ele>
    </trkpt>
    <trkpt lat="42.324683" lon="-3.046784">
      <ele>870.9</ele>
    </trkpt>
    <trkpt lat="42.324689" lon="-3.04594">
      <ele>869.5</ele>
    </trkpt>
    <trkpt lat="42.324752" lon="-3.045138">
      <ele>868.4</ele>
    </trkpt>
    <trkpt lat="42.324788" lon="-3.044942">
      <ele>868.1</ele>
    </trkpt>
    <trkpt lat="42.324804" lon="-3.044372">
      <ele>867.4</ele>
    </trkpt>
    <trkpt lat="42.324883" lon="-3.043662">
      <ele>866.6</ele>
    </trkpt>
    <trkpt lat="42.324885" lon="-3.04323">
      <ele>866.1</ele>
    </trkpt>
    <trkpt lat="42.324861" lon="-3.042983">
      <ele>865.8</ele>
    </trkpt>
    <trkpt lat="42.324885" lon="-3.042572">
      <ele>865.4</ele>
    </trkpt>
    <trkpt lat="42.324857" lon="-3.042144">
      <ele>864.9</ele>
    </trkpt>
    <trkpt lat="42.324878" lon="-3.041932">
      <ele>864.6</ele>
    </trkpt>
    <trkpt lat="42.325147" lon="-3.040582">
      <ele>861.1</ele>
    </trkpt>
    <trkpt lat="42.325147" lon="-3.040489">
      <ele>860.8</ele>
    </trkpt>
    <trkpt lat="42.325082" lon="-3.04036">
      <ele>860.4</ele>
    </trkpt>
    <trkpt lat="42.325261" lon="-3.039563">
      <ele>858.2</ele>
    </trkpt>
    <trkpt lat="42.325291" lon="-3.039468">
      <ele>857.9</ele>
    </trkpt>
    <trkpt lat="42.325434" lon="-3.038839">
      <ele>856.1</ele>
    </trkpt>
    <trkpt lat="42.325478" lon="-3.038647">
      <ele>855.7</ele>
    </trkpt>
    <trkpt lat="42.325607" lon="-3.038076">
      <ele>854.4</ele>
    </trkpt>
    <trkpt lat="42.325654" lon="-3.037864">
      <ele>854</ele>
    </trkpt>
    <trkpt lat="42.325662" lon="-3.037817">
      <ele>853.9</ele>
    </trkpt>
    <trkpt lat="42.325659" lon="-3.037531">
      <ele>853.4</ele>
    </trkpt>
    <trkpt lat="42.3256" lon="-3.037067">
      <ele>852.4</ele>
    </trkpt>
    <trkpt lat="42.325593" lon="-3.037029">
      <ele>852.3</ele>
    </trkpt>
    <trkpt lat="42.325649" lon="-3.036789">
      <ele>851.7</ele>
    </trkpt>
    <trkpt lat="42.325739" lon="-3.036112">
      <ele>850.1</ele>
    </trkpt>
    <trkpt lat="42.325613" lon="-3.035605">
      <ele>848.8</ele>
    </trkpt>
    <trkpt lat="42.325472" lon="-3.035206">
      <ele>847.8</ele>
    </trkpt>
    <trkpt lat="42.325468" lon="-3.035046">
      <ele>847.5</ele>
    </trkpt>
    <trkpt lat="42.325522" lon="-3.034788">
      <ele>846.9</ele>
    </trkpt>
    <trkpt lat="42.325528" lon="-3.034495">
      <ele>846.2</ele>
    </trkpt>
    <trkpt lat="42.325404" lon="-3.034178">
      <ele>845.6</ele>
    </trkpt>
    <trkpt lat="42.32526" lon="-3.033991">
      <ele>845.3</ele>
    </trkpt>
    <trkpt lat="42.325122" lon="-3.03382">
      <ele>845</ele>
    </trkpt>
    <trkpt lat="42.324874" lon="-3.033511">
      <ele>844.8</ele>
    </trkpt>
    <trkpt lat="42.324754" lon="-3.033396">
      <ele>844.7</ele>
    </trkpt>
    <trkpt lat="42.324675" lon="-3.033245">
      <ele>844.6</ele>
    </trkpt>
    <trkpt lat="42.324626" lon="-3.033151">
      <ele>844.6</ele>
    </trkpt>
    <trkpt lat="42.32459" lon="-3.032981">
      <ele>844.4</ele>
    </trkpt>
    <trkpt lat="42.324532" lon="-3.03225">
      <ele>843.8</ele>
    </trkpt>
    <trkpt lat="42.324534" lon="-3.031909">
      <ele>843.4</ele>
    </trkpt>
    <trkpt lat="42.324753" lon="-3.030757">
      <ele>841.1</ele>
    </trkpt>
    <trkpt lat="42.325326" lon="-3.027375">
      <ele>833.9</ele>
    </trkpt>
    <trkpt lat="42.325498" lon="-3.026534">
      <ele>832.9</ele>
    </trkpt>
    <trkpt lat="42.32561" lon="-3.025214">
      <ele>831.8</ele>
    </trkpt>
    <trkpt lat="42.325623" lon="-3.025089">
      <ele>831.7</ele>
    </trkpt>
    <trkpt lat="42.325585" lon="-3.024637">
      <ele>831.2</ele>
    </trkpt>
    <trkpt lat="42.325711" lon="-3.02083">
      <ele>823.7</ele>
    </trkpt>
    <trkpt lat="42.325664" lon="-3.020552">
      <ele>823.1</ele>
    </trkpt>
    <trkpt lat="42.325676" lon="-3.020131">
      <ele>822.1</ele>
    </trkpt>
    <trkpt lat="42.325732" lon="-3.018626">
      <ele>819.1</ele>
    </trkpt>
    <trkpt lat="42.32576" lon="-3.017466">
      <ele>817.9</ele>
    </trkpt>
    <trkpt lat="42.325768" lon="-3.01704">
      <ele>817.7</ele>
    </trkpt>
    <trkpt lat="42.325775" lon="-3.016872">
      <ele>817.7</ele>
    </trkpt>
    <trkpt lat="42.325762" lon="-3.016757">
      <ele>817.6</ele>
    </trkpt>
    <trkpt lat="42.325745" lon="-3.016615">
      <ele>817.6</ele>
    </trkpt>
    <trkpt lat="42.325682" lon="-3.016171">
      <ele>817.3</ele>
    </trkpt>
    <trkpt lat="42.325598" lon="-3.015527">
      <ele>816.6</ele>
    </trkpt>
    <trkpt lat="42.325603" lon="-3.015255">
      <ele>816.4</ele>
    </trkpt>
    <trkpt lat="42.325641" lon="-3.014845">
      <ele>815.9</ele>
    </trkpt>
    <trkpt lat="42.325645" lon="-3.014812">
      <ele>815.9</ele>
    </trkpt>
    <trkpt lat="42.325673" lon="-3.014693">
      <ele>815.7</ele>
    </trkpt>
    <trkpt lat="42.325775" lon="-3.014472">
      <ele>815.2</ele>
    </trkpt>
    <trkpt lat="42.325877" lon="-3.01436">
      <ele>814.8</ele>
    </trkpt>
    <trkpt lat="42.326073" lon="-3.014296">
      <ele>814.1</ele>
    </trkpt>
    <trkpt lat="42.326115" lon="-3.014283">
      <ele>813.9</ele>
    </trkpt>
    <trkpt lat="42.326286" lon="-3.014251">
      <ele>813.3</ele>
    </trkpt>
    <trkpt lat="42.326389" lon="-3.01421">
      <ele>813</ele>
    </trkpt>
    <trkpt lat="42.326694" lon="-3.013967">
      <ele>812.1</ele>
    </trkpt>
    <trkpt lat="42.326814" lon="-3.013922">
      <ele>811.9</ele>
    </trkpt>
    <trkpt lat="42.326807" lon="-3.013333">
      <ele>811.1</ele>
    </trkpt>
    <trkpt lat="42.326809" lon="-3.012782">
      <ele>810.3</ele>
    </trkpt>
    <trkpt lat="42.326813" lon="-3.012366">
      <ele>809.8</ele>
    </trkpt>
    <trkpt lat="42.326812" lon="-3.011973">
      <ele>809.4</ele>
    </trkpt>
    <trkpt lat="42.326813" lon="-3.011773">
      <ele>809.3</ele>
    </trkpt>
    <trkpt lat="42.326813" lon="-3.011662">
      <ele>809.2</ele>
    </trkpt>
    <trkpt lat="42.326809" lon="-3.010944">
      <ele>808.8</ele>
    </trkpt>
    <trkpt lat="42.326805" lon="-3.010274">
      <ele>809</ele>
    </trkpt>
    <trkpt lat="42.3268" lon="-3.009826">
      <ele>809.5</ele>
    </trkpt>
    <trkpt lat="42.32521" lon="-3.01058">
      <ele>817.4</ele>
    </trkpt>
    <trkpt lat="42.325052" lon="-3.01065">
      <ele>818.2</ele>
    </trkpt>
    <trkpt lat="42.324666" lon="-3.010821">
      <ele>819.9</ele>
    </trkpt>
    <trkpt lat="42.324527" lon="-3.010848">
      <ele>820.4</ele>
    </trkpt>
    <trkpt lat="42.32444" lon="-3.010865">
      <ele>820.7</ele>
    </trkpt>
    <trkpt lat="42.324155" lon="-3.010924">
      <ele>821.6</ele>
    </trkpt>
    <trkpt lat="42.323928" lon="-3.011051">
      <ele>822.2</ele>
    </trkpt>
    <trkpt lat="42.323729" lon="-3.01112">
      <ele>822.6</ele>
    </trkpt>
    <trkpt lat="42.323494" lon="-3.01113">
      <ele>823</ele>
    </trkpt>
    <trkpt lat="42.32311" lon="-3.01122">
      <ele>823.4</ele>
    </trkpt>
    <trkpt lat="42.32273" lon="-3.01138">
      <ele>824.2</ele>
    </trkpt>
    <trkpt lat="42.321957" lon="-3.011571">
      <ele>824.2</ele>
    </trkpt>
    <trkpt lat="42.321777" lon="-3.011685">
      <ele>823.9</ele>
    </trkpt>
    <trkpt lat="42.320907" lon="-3.012531">
      <ele>821.4</ele>
    </trkpt>
    <trkpt lat="42.320745" lon="-3.012681">
      <ele>820.8</ele>
    </trkpt>
    <trkpt lat="42.320598" lon="-3.012809">
      <ele>820.5</ele>
    </trkpt>
    <trkpt lat="42.320396" lon="-3.012868">
      <ele>820.3</ele>
    </trkpt>
    <trkpt lat="42.320416" lon="-3.012944">
      <ele>820.3</ele>
    </trkpt>
    <trkpt lat="42.320562" lon="-3.013404">
      <ele>820.3</ele>
    </trkpt>
    <trkpt lat="42.320416" lon="-3.012944">
      <ele>820.6</ele>
    </trkpt>
    <trkpt lat="42.320396" lon="-3.012868">
      <ele>820.7</ele>
    </trkpt>
    <trkpt lat="42.320166" lon="-3.012806">
      <ele>820.9</ele>
    </trkpt>
    <trkpt lat="42.319664" lon="-3.012547">
      <ele>821.9</ele>
    </trkpt>
    <trkpt lat="42.319117" lon="-3.012247">
      <ele>822.8</ele>
    </trkpt>
    <trkpt lat="42.318838" lon="-3.012214">
      <ele>823</ele>
    </trkpt>
    <trkpt lat="42.318435" lon="-3.012242">
      <ele>823.6</ele>
    </trkpt>
    <trkpt lat="42.317947" lon="-3.012328">
      <ele>824.3</ele>
    </trkpt>
    <trkpt lat="42.317681" lon="-3.01243">
      <ele>824.6</ele>
    </trkpt>
    <trkpt lat="42.316812" lon="-3.01288">
      <ele>825.4</ele>
    </trkpt>
    <trkpt lat="42.316087" lon="-3.013283">
      <ele>826.2</ele>
    </trkpt>
    <trkpt lat="42.315885" lon="-3.013434">
      <ele>826.4</ele>
    </trkpt>
    <trkpt lat="42.314673" lon="-3.014537">
      <ele>828</ele>
    </trkpt>
    <trkpt lat="42.313948" lon="-3.015122">
      <ele>828.4</ele>
    </trkpt>
    <trkpt lat="42.313816" lon="-3.01521">
      <ele>828.4</ele>
    </trkpt>
    <trkpt lat="42.313609" lon="-3.015345">
      <ele>828.6</ele>
    </trkpt>
    <trkpt lat="42.313269" lon="-3.015477">
      <ele>828.8</ele>
    </trkpt>
    <trkpt lat="42.313041" lon="-3.015561">
      <ele>829.1</ele>
    </trkpt>
    <trkpt lat="42.312462" lon="-3.015776">
      <ele>829.9</ele>
    </trkpt>
    <trkpt lat="42.31224" lon="-3.015886">
      <ele>830.3</ele>
    </trkpt>
    <trkpt lat="42.31129" lon="-3.016538">
      <ele>832.3</ele>
    </trkpt>
    <trkpt lat="42.31076" lon="-3.016834">
      <ele>833.3</ele>
    </trkpt>
    <trkpt lat="42.310255" lon="-3.017049">
      <ele>834.4</ele>
    </trkpt>
    <trkpt lat="42.310097" lon="-3.017159">
      <ele>834.8</ele>
    </trkpt>
    <trkpt lat="42.308646" lon="-3.018376">
      <ele>838.8</ele>
    </trkpt>
    <trkpt lat="42.307577" lon="-3.019327">
      <ele>841.4</ele>
    </trkpt>
    <trkpt lat="42.306517" lon="-3.020326">
      <ele>843.1</ele>
    </trkpt>
    <trkpt lat="42.305881" lon="-3.020923">
      <ele>843.8</ele>
    </trkpt>
    <trkpt lat="42.305514" lon="-3.021341">
      <ele>844.2</ele>
    </trkpt>
    <trkpt lat="42.305196" lon="-3.02175">
      <ele>844.5</ele>
    </trkpt>
    <trkpt lat="42.304925" lon="-3.022047">
      <ele>844.8</ele>
    </trkpt>
    <trkpt lat="42.304797" lon="-3.02219">
      <ele>844.9</ele>
    </trkpt>
    <trkpt lat="42.304262" lon="-3.02262">
      <ele>845.7</ele>
    </trkpt>
    <trkpt lat="42.303485" lon="-3.023196">
      <ele>847.5</ele>
    </trkpt>
    <trkpt lat="42.302167" lon="-3.023878">
      <ele>851</ele>
    </trkpt>
    <trkpt lat="42.301027" lon="-3.024773">
      <ele>854.3</ele>
    </trkpt>
    <trkpt lat="42.300778" lon="-3.024926">
      <ele>854.7</ele>
    </trkpt>
    <trkpt lat="42.300393" lon="-3.02506">
      <ele>855.1</ele>
    </trkpt>
    <trkpt lat="42.29951" lon="-3.025265">
      <ele>855.3</ele>
    </trkpt>
    <trkpt lat="42.29815" lon="-3.025363">
      <ele>855.4</ele>
    </trkpt>
    <trkpt lat="42.29782" lon="-3.025338">
      <ele>855.7</ele>
    </trkpt>
    <trkpt lat="42.295718" lon="-3.025028">
      <ele>859.8</ele>
    </trkpt>
    <trkpt lat="42.293999" lon="-3.024788">
      <ele>863.6</ele>
    </trkpt>
    <trkpt lat="42.293836" lon="-3.024801">
      <ele>863.9</ele>
    </trkpt>
    <trkpt lat="42.293641" lon="-3.024827">
      <ele>864.2</ele>
    </trkpt>
    <trkpt lat="42.292492" lon="-3.025149">
      <ele>865.9</ele>
    </trkpt>
    <trkpt lat="42.291471" lon="-3.02527">
      <ele>867.3</ele>
    </trkpt>
    <trkpt lat="42.291195" lon="-3.025329">
      <ele>867.7</ele>
    </trkpt>
    <trkpt lat="42.290136" lon="-3.025785">
      <ele>869.5</ele>
    </trkpt>
    <trkpt lat="42.289807" lon="-3.025878">
      <ele>870.1</ele>
    </trkpt>
    <trkpt lat="42.288926" lon="-3.025998">
      <ele>871.5</ele>
    </trkpt>
    <trkpt lat="42.288104" lon="-3.02637">
      <ele>872.9</ele>
    </trkpt>
    <trkpt lat="42.287853" lon="-3.026457">
      <ele>873.4</ele>
    </trkpt>
    <trkpt lat="42.286181" lon="-3.02648">
      <ele>877.1</ele>
    </trkpt>
    <trkpt lat="42.284835" lon="-3.02666">
      <ele>883.4</ele>
    </trkpt>
    <trkpt lat="42.284171" lon="-3.026596">
      <ele>887</ele>
    </trkpt>
    <trkpt lat="42.284018" lon="-3.026604">
      <ele>887.7</ele>
    </trkpt>
    <trkpt lat="42.283594" lon="-3.026727">
      <ele>889</ele>
    </trkpt>
    <trkpt lat="42.2832" lon="-3.02691">
      <ele>889.5</ele>
    </trkpt>
    <trkpt lat="42.28278" lon="-3.027015">
      <ele>889</ele>
    </trkpt>
    <trkpt lat="42.282063" lon="-3.027259">
      <ele>887.2</ele>
    </trkpt>
    <trkpt lat="42.281891" lon="-3.027309">
      <ele>886.9</ele>
    </trkpt>
    <trkpt lat="42.28134" lon="-3.02747">
      <ele>887.1</ele>
    </trkpt>
    <trkpt lat="42.281035" lon="-3.027516">
      <ele>887.5</ele>
    </trkpt>
    <trkpt lat="42.280426" lon="-3.027421">
      <ele>889</ele>
    </trkpt>
    <trkpt lat="42.28002" lon="-3.027559">
      <ele>890.3</ele>
    </trkpt>
    <trkpt lat="42.279591" lon="-3.02781">
      <ele>891.3</ele>
    </trkpt>
    <trkpt lat="42.279488" lon="-3.027904">
      <ele>891.5</ele>
    </trkpt>
    <trkpt lat="42.27915" lon="-3.02841">
      <ele>892.2</ele>
    </trkpt>
    <trkpt lat="42.27904" lon="-3.02849">
      <ele>892.6</ele>
    </trkpt>
    <trkpt lat="42.27892" lon="-3.028549">
      <ele>892.9</ele>
    </trkpt>
    <trkpt lat="42.278411" lon="-3.028547">
      <ele>894.5</ele>
    </trkpt>
    <trkpt lat="42.278171" lon="-3.028619">
      <ele>895.4</ele>
    </trkpt>
    <trkpt lat="42.27787" lon="-3.02878">
      <ele>896.6</ele>
    </trkpt>
    <trkpt lat="42.277198" lon="-3.029353">
      <ele>899.1</ele>
    </trkpt>
    <trkpt lat="42.2767" lon="-3.02998">
      <ele>900.3</ele>
    </trkpt>
    <trkpt lat="42.276279" lon="-3.030325">
      <ele>901.4</ele>
    </trkpt>
    <trkpt lat="42.276007" lon="-3.030485">
      <ele>902.3</ele>
    </trkpt>
    <trkpt lat="42.275157" lon="-3.030881">
      <ele>906</ele>
    </trkpt>
    <trkpt lat="42.27429" lon="-3.0315">
      <ele>908.8</ele>
    </trkpt>
    <trkpt lat="42.273873" lon="-3.031582">
      <ele>909.1</ele>
    </trkpt>
    <trkpt lat="42.273462" lon="-3.031605">
      <ele>909.2</ele>
    </trkpt>
    <trkpt lat="42.273257" lon="-3.031571">
      <ele>909.1</ele>
    </trkpt>
    <trkpt lat="42.272674" lon="-3.0314">
      <ele>908.9</ele>
    </trkpt>
    <trkpt lat="42.272495" lon="-3.031382">
      <ele>908.9</ele>
    </trkpt>
    <trkpt lat="42.272035" lon="-3.031389">
      <ele>908.9</ele>
    </trkpt>
    <trkpt lat="42.271732" lon="-3.031424">
      <ele>908.8</ele>
    </trkpt>
    <trkpt lat="42.271381" lon="-3.031531">
      <ele>908.8</ele>
    </trkpt>
    <trkpt lat="42.271248" lon="-3.031542">
      <ele>908.8</ele>
    </trkpt>
    <trkpt lat="42.27077" lon="-3.03151">
      <ele>909</ele>
    </trkpt>
    <trkpt lat="42.270061" lon="-3.03136">
      <ele>909.8</ele>
    </trkpt>
    <trkpt lat="42.268909" lon="-3.031362">
      <ele>914.2</ele>
    </trkpt>
    <trkpt lat="42.26853" lon="-3.0314">
      <ele>916.3</ele>
    </trkpt>
    <trkpt lat="42.268189" lon="-3.031495">
      <ele>918</ele>
    </trkpt>
    <trkpt lat="42.2678" lon="-3.031649">
      <ele>919.7</ele>
    </trkpt>
    <trkpt lat="42.267462" lon="-3.031838">
      <ele>920.6</ele>
    </trkpt>
    <trkpt lat="42.267087" lon="-3.032123">
      <ele>920.9</ele>
    </trkpt>
    <trkpt lat="42.266714" lon="-3.032233">
      <ele>920.8</ele>
    </trkpt>
    <trkpt lat="42.266354" lon="-3.032302">
      <ele>920.5</ele>
    </trkpt>
    <trkpt lat="42.266039" lon="-3.032323">
      <ele>920.4</ele>
    </trkpt>
    <trkpt lat="42.265577" lon="-3.03229">
      <ele>921</ele>
    </trkpt>
    <trkpt lat="42.265388" lon="-3.03232">
      <ele>921.5</ele>
    </trkpt>
    <trkpt lat="42.264906" lon="-3.032544">
      <ele>922.8</ele>
    </trkpt>
    <trkpt lat="42.264944" lon="-3.03237">
      <ele>923.2</ele>
    </trkpt>
    <trkpt lat="42.264793" lon="-3.032457">
      <ele>923.6</ele>
    </trkpt>
    </trkseg>
  </trk>
</gpx>
