<?xml version="1.0" encoding="UTF-8"?>
<gpx version="1.1" creator="fitAI Komoot downloader" xmlns="http://www.topografix.com/GPX/1/1">
  <metadata>
    <name>Cueva de Vico - Recorrido circular desde Arnedo</name>
    <desc>54 visitas · Dificultad: moderate · Distancia: 14.3 km · Desnivel +: 280 m</desc>
    <link href="https://www.komoot.com/smarttour/e31849894"><text>Komoot</text></link>
  </metadata>
  <trk>
    <name>Cueva de Vico - Recorrido circular desde Arnedo</name>
    <type>jogging</type>
    <trkseg>
    <trkpt lat="42.22389" lon="-2.102245">
      <ele>516.6</ele>
    </trkpt>
    <trkpt lat="42.223772" lon="-2.102505">
      <ele>516.8</ele>
    </trkpt>
    <trkpt lat="42.223356" lon="-2.103444">
      <ele>517.3</ele>
    </trkpt>
    <trkpt lat="42.223244" lon="-2.103703">
      <ele>517.3</ele>
    </trkpt>
    <trkpt lat="42.223227" lon="-2.103745">
      <ele>517.3</ele>
    </trkpt>
    <trkpt lat="42.222914" lon="-2.104574">
      <ele>517</ele>
    </trkpt>
    <trkpt lat="42.222546" lon="-2.104492">
      <ele>516.5</ele>
    </trkpt>
    <trkpt lat="42.221705" lon="-2.103928">
      <ele>515.7</ele>
    </trkpt>
    <trkpt lat="42.221699" lon="-2.103861">
      <ele>515.7</ele>
    </trkpt>
    <trkpt lat="42.221663" lon="-2.103817">
      <ele>515.7</ele>
    </trkpt>
    <trkpt lat="42.221644" lon="-2.103811">
      <ele>515.6</ele>
    </trkpt>
    <trkpt lat="42.221585" lon="-2.103838">
      <ele>515.6</ele>
    </trkpt>
    <trkpt lat="42.221531" lon="-2.103766">
      <ele>515.6</ele>
    </trkpt>
    <trkpt lat="42.221309" lon="-2.103672">
      <ele>515.5</ele>
    </trkpt>
    <trkpt lat="42.22112" lon="-2.103711">
      <ele>515.5</ele>
    </trkpt>
    <trkpt lat="42.220875" lon="-2.103663">
      <ele>515.5</ele>
    </trkpt>
    <trkpt lat="42.220436" lon="-2.103495">
      <ele>515.7</ele>
    </trkpt>
    <trkpt lat="42.22025" lon="-2.103782">
      <ele>515.9</ele>
    </trkpt>
    <trkpt lat="42.220156" lon="-2.104157">
      <ele>515.9</ele>
    </trkpt>
    <trkpt lat="42.220186" lon="-2.104176">
      <ele>516</ele>
    </trkpt>
    <trkpt lat="42.22016" lon="-2.104443">
      <ele>516</ele>
    </trkpt>
    <trkpt lat="42.220018" lon="-2.104858">
      <ele>516.3</ele>
    </trkpt>
    <trkpt lat="42.21986" lon="-2.105547">
      <ele>516.6</ele>
    </trkpt>
    <trkpt lat="42.219715" lon="-2.106794">
      <ele>517.6</ele>
    </trkpt>
    <trkpt lat="42.219611" lon="-2.107167">
      <ele>518.3</ele>
    </trkpt>
    <trkpt lat="42.21957" lon="-2.107207">
      <ele>518.5</ele>
    </trkpt>
    <trkpt lat="42.219537" lon="-2.107188">
      <ele>518.6</ele>
    </trkpt>
    <trkpt lat="42.219531" lon="-2.107181">
      <ele>518.6</ele>
    </trkpt>
    <trkpt lat="42.219449" lon="-2.107115">
      <ele>518.8</ele>
    </trkpt>
    <trkpt lat="42.219366" lon="-2.107095">
      <ele>519</ele>
    </trkpt>
    <trkpt lat="42.219112" lon="-2.107935">
      <ele>520.9</ele>
    </trkpt>
    <trkpt lat="42.218462" lon="-2.109157">
      <ele>524.4</ele>
    </trkpt>
    <trkpt lat="42.217962" lon="-2.110583">
      <ele>526.4</ele>
    </trkpt>
    <trkpt lat="42.217667" lon="-2.111589">
      <ele>527.1</ele>
    </trkpt>
    <trkpt lat="42.21695" lon="-2.112988">
      <ele>527.7</ele>
    </trkpt>
    <trkpt lat="42.216489" lon="-2.113633">
      <ele>528.7</ele>
    </trkpt>
    <trkpt lat="42.214908" lon="-2.116017">
      <ele>533.2</ele>
    </trkpt>
    <trkpt lat="42.211693" lon="-2.123254">
      <ele>537.3</ele>
    </trkpt>
    <trkpt lat="42.211102" lon="-2.126524">
      <ele>540.6</ele>
    </trkpt>
    <trkpt lat="42.21055" lon="-2.128859">
      <ele>542.1</ele>
    </trkpt>
    <trkpt lat="42.210586" lon="-2.130099">
      <ele>542.2</ele>
    </trkpt>
    <trkpt lat="42.210463" lon="-2.130527">
      <ele>542.2</ele>
    </trkpt>
    <trkpt lat="42.210389" lon="-2.13289">
      <ele>546.2</ele>
    </trkpt>
    <trkpt lat="42.210364" lon="-2.133146">
      <ele>546.9</ele>
    </trkpt>
    <trkpt lat="42.210327" lon="-2.133147">
      <ele>547.1</ele>
    </trkpt>
    <trkpt lat="42.210011" lon="-2.133139">
      <ele>548.9</ele>
    </trkpt>
    <trkpt lat="42.209996" lon="-2.133133">
      <ele>549.1</ele>
    </trkpt>
    <trkpt lat="42.210047" lon="-2.132939">
      <ele>550.2</ele>
    </trkpt>
    <trkpt lat="42.210006" lon="-2.132607">
      <ele>552.3</ele>
    </trkpt>
    <trkpt lat="42.209938" lon="-2.132516">
      <ele>553.2</ele>
    </trkpt>
    <trkpt lat="42.209788" lon="-2.132475">
      <ele>554.7</ele>
    </trkpt>
    <trkpt lat="42.20966" lon="-2.132569">
      <ele>556.2</ele>
    </trkpt>
    <trkpt lat="42.209367" lon="-2.132487">
      <ele>558.6</ele>
    </trkpt>
    <trkpt lat="42.209221" lon="-2.13251">
      <ele>559.6</ele>
    </trkpt>
    <trkpt lat="42.209102" lon="-2.132722">
      <ele>561.2</ele>
    </trkpt>
    <trkpt lat="42.209049" lon="-2.133097">
      <ele>563.9</ele>
    </trkpt>
    <trkpt lat="42.208817" lon="-2.13344">
      <ele>567.2</ele>
    </trkpt>
    <trkpt lat="42.208806" lon="-2.13379">
      <ele>569.2</ele>
    </trkpt>
    <trkpt lat="42.208678" lon="-2.133974">
      <ele>570.5</ele>
    </trkpt>
    <trkpt lat="42.208404" lon="-2.134101">
      <ele>572.2</ele>
    </trkpt>
    <trkpt lat="42.208145" lon="-2.13408">
      <ele>573.6</ele>
    </trkpt>
    <trkpt lat="42.207893" lon="-2.133851">
      <ele>575.1</ele>
    </trkpt>
    <trkpt lat="42.207576" lon="-2.133716">
      <ele>576.6</ele>
    </trkpt>
    <trkpt lat="42.2071" lon="-2.133206">
      <ele>578.4</ele>
    </trkpt>
    <trkpt lat="42.206761" lon="-2.133071">
      <ele>579.7</ele>
    </trkpt>
    <trkpt lat="42.20663" lon="-2.132936">
      <ele>580.4</ele>
    </trkpt>
    <trkpt lat="42.206612" lon="-2.132839">
      <ele>580.6</ele>
    </trkpt>
    <trkpt lat="42.206513" lon="-2.13232">
      <ele>582.6</ele>
    </trkpt>
    <trkpt lat="42.206109" lon="-2.131636">
      <ele>586.6</ele>
    </trkpt>
    <trkpt lat="42.205946" lon="-2.131463">
      <ele>588.4</ele>
    </trkpt>
    <trkpt lat="42.205837" lon="-2.131392">
      <ele>589.4</ele>
    </trkpt>
    <trkpt lat="42.20562" lon="-2.131351">
      <ele>591.3</ele>
    </trkpt>
    <trkpt lat="42.205313" lon="-2.131425">
      <ele>593.8</ele>
    </trkpt>
    <trkpt lat="42.205106" lon="-2.131595">
      <ele>595.5</ele>
    </trkpt>
    <trkpt lat="42.20494" lon="-2.131604">
      <ele>596.6</ele>
    </trkpt>
    <trkpt lat="42.204472" lon="-2.131325">
      <ele>599.6</ele>
    </trkpt>
    <trkpt lat="42.204453" lon="-2.131178">
      <ele>600.3</ele>
    </trkpt>
    <trkpt lat="42.204466" lon="-2.131032">
      <ele>600.9</ele>
    </trkpt>
    <trkpt lat="42.203779" lon="-2.130767">
      <ele>605.8</ele>
    </trkpt>
    <trkpt lat="42.20364" lon="-2.130847">
      <ele>607</ele>
    </trkpt>
    <trkpt lat="42.203111" lon="-2.130715">
      <ele>611.6</ele>
    </trkpt>
    <trkpt lat="42.202954" lon="-2.13083">
      <ele>613.3</ele>
    </trkpt>
    <trkpt lat="42.202704" lon="-2.131133">
      <ele>616.5</ele>
    </trkpt>
    <trkpt lat="42.20257" lon="-2.131252">
      <ele>617.9</ele>
    </trkpt>
    <trkpt lat="42.202476" lon="-2.131263">
      <ele>618.7</ele>
    </trkpt>
    <trkpt lat="42.202319" lon="-2.131368">
      <ele>620.1</ele>
    </trkpt>
    <trkpt lat="42.201943" lon="-2.131702">
      <ele>622.8</ele>
    </trkpt>
    <trkpt lat="42.20173" lon="-2.131841">
      <ele>623.8</ele>
    </trkpt>
    <trkpt lat="42.201358" lon="-2.131883">
      <ele>625.2</ele>
    </trkpt>
    <trkpt lat="42.201197" lon="-2.131808">
      <ele>625.9</ele>
    </trkpt>
    <trkpt lat="42.201052" lon="-2.131643">
      <ele>626.7</ele>
    </trkpt>
    <trkpt lat="42.200931" lon="-2.131569">
      <ele>627.3</ele>
    </trkpt>
    <trkpt lat="42.200822" lon="-2.131558">
      <ele>627.8</ele>
    </trkpt>
    <trkpt lat="42.200655" lon="-2.131629">
      <ele>628.6</ele>
    </trkpt>
    <trkpt lat="42.200533" lon="-2.131891">
      <ele>629.7</ele>
    </trkpt>
    <trkpt lat="42.200465" lon="-2.132312">
      <ele>631.4</ele>
    </trkpt>
    <trkpt lat="42.200418" lon="-2.132347">
      <ele>631.7</ele>
    </trkpt>
    <trkpt lat="42.200173" lon="-2.132299">
      <ele>633.2</ele>
    </trkpt>
    <trkpt lat="42.200076" lon="-2.132384">
      <ele>634</ele>
    </trkpt>
    <trkpt lat="42.200032" lon="-2.132466">
      <ele>634.5</ele>
    </trkpt>
    <trkpt lat="42.20004" lon="-2.132595">
      <ele>635.2</ele>
    </trkpt>
    <trkpt lat="42.199977" lon="-2.132726">
      <ele>636</ele>
    </trkpt>
    <trkpt lat="42.199935" lon="-2.13276">
      <ele>636.3</ele>
    </trkpt>
    <trkpt lat="42.199772" lon="-2.132746">
      <ele>637.4</ele>
    </trkpt>
    <trkpt lat="42.199654" lon="-2.132834">
      <ele>638.3</ele>
    </trkpt>
    <trkpt lat="42.199577" lon="-2.132941">
      <ele>638.9</ele>
    </trkpt>
    <trkpt lat="42.199309" lon="-2.133106">
      <ele>640.8</ele>
    </trkpt>
    <trkpt lat="42.199276" lon="-2.133174">
      <ele>641.2</ele>
    </trkpt>
    <trkpt lat="42.199226" lon="-2.133193">
      <ele>641.6</ele>
    </trkpt>
    <trkpt lat="42.199009" lon="-2.133097">
      <ele>643.2</ele>
    </trkpt>
    <trkpt lat="42.198844" lon="-2.13307">
      <ele>644.5</ele>
    </trkpt>
    <trkpt lat="42.198559" lon="-2.133127">
      <ele>647.1</ele>
    </trkpt>
    <trkpt lat="42.198479" lon="-2.133071">
      <ele>648</ele>
    </trkpt>
    <trkpt lat="42.198377" lon="-2.132923">
      <ele>649.3</ele>
    </trkpt>
    <trkpt lat="42.198269" lon="-2.132879">
      <ele>650.3</ele>
    </trkpt>
    <trkpt lat="42.198095" lon="-2.132981">
      <ele>652.1</ele>
    </trkpt>
    <trkpt lat="42.197761" lon="-2.133099">
      <ele>654.9</ele>
    </trkpt>
    <trkpt lat="42.19766" lon="-2.133174">
      <ele>655.7</ele>
    </trkpt>
    <trkpt lat="42.197452" lon="-2.133209">
      <ele>657.1</ele>
    </trkpt>
    <trkpt lat="42.19728" lon="-2.133078">
      <ele>658.1</ele>
    </trkpt>
    <trkpt lat="42.197307" lon="-2.133206">
      <ele>658.6</ele>
    </trkpt>
    <trkpt lat="42.197172" lon="-2.1332">
      <ele>659.1</ele>
    </trkpt>
    <trkpt lat="42.197307" lon="-2.133206">
      <ele>659.5</ele>
    </trkpt>
    <trkpt lat="42.19728" lon="-2.133078">
      <ele>659.7</ele>
    </trkpt>
    <trkpt lat="42.197005" lon="-2.132986">
      <ele>660.3</ele>
    </trkpt>
    <trkpt lat="42.196777" lon="-2.132545">
      <ele>661</ele>
    </trkpt>
    <trkpt lat="42.196747" lon="-2.132342">
      <ele>661.3</ele>
    </trkpt>
    <trkpt lat="42.196489" lon="-2.132279">
      <ele>661.8</ele>
    </trkpt>
    <trkpt lat="42.195481" lon="-2.132491">
      <ele>668.5</ele>
    </trkpt>
    <trkpt lat="42.195391" lon="-2.132311">
      <ele>669.9</ele>
    </trkpt>
    <trkpt lat="42.195261" lon="-2.132302">
      <ele>671.1</ele>
    </trkpt>
    <trkpt lat="42.195193" lon="-2.132383">
      <ele>671.9</ele>
    </trkpt>
    <trkpt lat="42.195089" lon="-2.132441">
      <ele>673</ele>
    </trkpt>
    <trkpt lat="42.194906" lon="-2.132374">
      <ele>674.8</ele>
    </trkpt>
    <trkpt lat="42.194636" lon="-2.132421">
      <ele>677.4</ele>
    </trkpt>
    <trkpt lat="42.194463" lon="-2.132356">
      <ele>679</ele>
    </trkpt>
    <trkpt lat="42.194295" lon="-2.132367">
      <ele>680.5</ele>
    </trkpt>
    <trkpt lat="42.193725" lon="-2.132828">
      <ele>684.9</ele>
    </trkpt>
    <trkpt lat="42.193425" lon="-2.133156">
      <ele>687.1</ele>
    </trkpt>
    <trkpt lat="42.193454" lon="-2.133485">
      <ele>688.2</ele>
    </trkpt>
    <trkpt lat="42.193379" lon="-2.133688">
      <ele>688.9</ele>
    </trkpt>
    <trkpt lat="42.193048" lon="-2.133963">
      <ele>690.3</ele>
    </trkpt>
    <trkpt lat="42.19297" lon="-2.134235">
      <ele>691</ele>
    </trkpt>
    <trkpt lat="42.192971" lon="-2.13427">
      <ele>691.1</ele>
    </trkpt>
    <trkpt lat="42.192974" lon="-2.13456">
      <ele>691.9</ele>
    </trkpt>
    <trkpt lat="42.193035" lon="-2.134802">
      <ele>692.7</ele>
    </trkpt>
    <trkpt lat="42.193039" lon="-2.134991">
      <ele>693.2</ele>
    </trkpt>
    <trkpt lat="42.192847" lon="-2.135136">
      <ele>694.1</ele>
    </trkpt>
    <trkpt lat="42.192866" lon="-2.135395">
      <ele>694.5</ele>
    </trkpt>
    <trkpt lat="42.193064" lon="-2.135449">
      <ele>694.8</ele>
    </trkpt>
    <trkpt lat="42.193192" lon="-2.135596">
      <ele>695.2</ele>
    </trkpt>
    <trkpt lat="42.193253" lon="-2.135855">
      <ele>695.9</ele>
    </trkpt>
    <trkpt lat="42.193571" lon="-2.136082">
      <ele>697.5</ele>
    </trkpt>
    <trkpt lat="42.193481" lon="-2.136363">
      <ele>698.5</ele>
    </trkpt>
    <trkpt lat="42.193302" lon="-2.136562">
      <ele>699.7</ele>
    </trkpt>
    <trkpt lat="42.192996" lon="-2.137055">
      <ele>702</ele>
    </trkpt>
    <trkpt lat="42.192686" lon="-2.137436">
      <ele>704.7</ele>
    </trkpt>
    <trkpt lat="42.192595" lon="-2.137678">
      <ele>706.4</ele>
    </trkpt>
    <trkpt lat="42.1924" lon="-2.137903">
      <ele>708.5</ele>
    </trkpt>
    <trkpt lat="42.192145" lon="-2.138075">
      <ele>710.9</ele>
    </trkpt>
    <trkpt lat="42.191673" lon="-2.138531">
      <ele>716.8</ele>
    </trkpt>
    <trkpt lat="42.191406" lon="-2.138815">
      <ele>721.3</ele>
    </trkpt>
    <trkpt lat="42.190973" lon="-2.1394">
      <ele>731.2</ele>
    </trkpt>
    <trkpt lat="42.19079" lon="-2.139523">
      <ele>734.9</ele>
    </trkpt>
    <trkpt lat="42.190584" lon="-2.139437">
      <ele>738.8</ele>
    </trkpt>
    <trkpt lat="42.190397" lon="-2.139459">
      <ele>741.7</ele>
    </trkpt>
    <trkpt lat="42.190047" lon="-2.139646">
      <ele>747</ele>
    </trkpt>
    <trkpt lat="42.189844" lon="-2.139657">
      <ele>749.8</ele>
    </trkpt>
    <trkpt lat="42.189689" lon="-2.1397">
      <ele>751.9</ele>
    </trkpt>
    <trkpt lat="42.18961" lon="-2.139802">
      <ele>753.3</ele>
    </trkpt>
    <trkpt lat="42.189546" lon="-2.139958">
      <ele>755</ele>
    </trkpt>
    <trkpt lat="42.18949" lon="-2.140102">
      <ele>756.4</ele>
    </trkpt>
    <trkpt lat="42.189383" lon="-2.14014">
      <ele>757.8</ele>
    </trkpt>
    <trkpt lat="42.189256" lon="-2.139974">
      <ele>759.9</ele>
    </trkpt>
    <trkpt lat="42.189172" lon="-2.139711">
      <ele>762.3</ele>
    </trkpt>
    <trkpt lat="42.18924" lon="-2.139384">
      <ele>764.7</ele>
    </trkpt>
    <trkpt lat="42.189244" lon="-2.139244">
      <ele>765.6</ele>
    </trkpt>
    <trkpt lat="42.189192" lon="-2.139072">
      <ele>766.7</ele>
    </trkpt>
    <trkpt lat="42.189137" lon="-2.139019">
      <ele>767.2</ele>
    </trkpt>
    <trkpt lat="42.189037" lon="-2.139035">
      <ele>768.2</ele>
    </trkpt>
    <trkpt lat="42.188934" lon="-2.139142">
      <ele>769.5</ele>
    </trkpt>
    <trkpt lat="42.188859" lon="-2.139137">
      <ele>770.2</ele>
    </trkpt>
    <trkpt lat="42.188783" lon="-2.139094">
      <ele>771</ele>
    </trkpt>
    <trkpt lat="42.188698" lon="-2.138839">
      <ele>772.7</ele>
    </trkpt>
    <trkpt lat="42.188691" lon="-2.138745">
      <ele>773.3</ele>
    </trkpt>
    <trkpt lat="42.18873" lon="-2.138434">
      <ele>775</ele>
    </trkpt>
    <trkpt lat="42.188569" lon="-2.138478">
      <ele>776</ele>
    </trkpt>
    <trkpt lat="42.188355" lon="-2.138769">
      <ele>777.5</ele>
    </trkpt>
    <trkpt lat="42.188212" lon="-2.138881">
      <ele>778.3</ele>
    </trkpt>
    <trkpt lat="42.188105" lon="-2.139008">
      <ele>779</ele>
    </trkpt>
    <trkpt lat="42.188059" lon="-2.139145">
      <ele>779.5</ele>
    </trkpt>
    <trkpt lat="42.188003" lon="-2.139225">
      <ele>779.9</ele>
    </trkpt>
    <trkpt lat="42.187702" lon="-2.139495">
      <ele>781.9</ele>
    </trkpt>
    <trkpt lat="42.187486" lon="-2.139558">
      <ele>783.2</ele>
    </trkpt>
    <trkpt lat="42.187272" lon="-2.13975">
      <ele>784.8</ele>
    </trkpt>
    <trkpt lat="42.187241" lon="-2.139742">
      <ele>785</ele>
    </trkpt>
    <trkpt lat="42.187117" lon="-2.14006">
      <ele>786.8</ele>
    </trkpt>
    <trkpt lat="42.187066" lon="-2.140443">
      <ele>788.9</ele>
    </trkpt>
    <trkpt lat="42.18701" lon="-2.140591">
      <ele>789.9</ele>
    </trkpt>
    <trkpt lat="42.186999" lon="-2.140683">
      <ele>790.5</ele>
    </trkpt>
    <trkpt lat="42.186962" lon="-2.14073">
      <ele>790.8</ele>
    </trkpt>
    <trkpt lat="42.186961" lon="-2.14073">
      <ele>790.9</ele>
    </trkpt>
    <trkpt lat="42.186789" lon="-2.14071">
      <ele>792</ele>
    </trkpt>
    <trkpt lat="42.186626" lon="-2.140572">
      <ele>792.9</ele>
    </trkpt>
    <trkpt lat="42.18645" lon="-2.140082">
      <ele>793.2</ele>
    </trkpt>
    <trkpt lat="42.186378" lon="-2.139972">
      <ele>793</ele>
    </trkpt>
    <trkpt lat="42.186384" lon="-2.13988">
      <ele>792.9</ele>
    </trkpt>
    <trkpt lat="42.186389" lon="-2.139815">
      <ele>792.8</ele>
    </trkpt>
    <trkpt lat="42.186695" lon="-2.139697">
      <ele>791.5</ele>
    </trkpt>
    <trkpt lat="42.187018" lon="-2.13957">
      <ele>789.1</ele>
    </trkpt>
    <trkpt lat="42.18725" lon="-2.139531">
      <ele>786.8</ele>
    </trkpt>
    <trkpt lat="42.187497" lon="-2.139436">
      <ele>783.7</ele>
    </trkpt>
    <trkpt lat="42.187506" lon="-2.139361">
      <ele>782.9</ele>
    </trkpt>
    <trkpt lat="42.187475" lon="-2.139241">
      <ele>781.6</ele>
    </trkpt>
    <trkpt lat="42.187583" lon="-2.139138">
      <ele>779.8</ele>
    </trkpt>
    <trkpt lat="42.187628" lon="-2.139029">
      <ele>778.6</ele>
    </trkpt>
    <trkpt lat="42.187622" lon="-2.138952">
      <ele>777.9</ele>
    </trkpt>
    <trkpt lat="42.187712" lon="-2.138826">
      <ele>776.2</ele>
    </trkpt>
    <trkpt lat="42.187807" lon="-2.13863">
      <ele>774</ele>
    </trkpt>
    <trkpt lat="42.187867" lon="-2.138584">
      <ele>773.2</ele>
    </trkpt>
    <trkpt lat="42.188076" lon="-2.138295">
      <ele>769.6</ele>
    </trkpt>
    <trkpt lat="42.188084" lon="-2.138209">
      <ele>768.9</ele>
    </trkpt>
    <trkpt lat="42.188172" lon="-2.138093">
      <ele>767.4</ele>
    </trkpt>
    <trkpt lat="42.188247" lon="-2.137922">
      <ele>765.7</ele>
    </trkpt>
    <trkpt lat="42.188271" lon="-2.137841">
      <ele>765</ele>
    </trkpt>
    <trkpt lat="42.188247" lon="-2.137805">
      <ele>764.7</ele>
    </trkpt>
    <trkpt lat="42.18831" lon="-2.137596">
      <ele>763.1</ele>
    </trkpt>
    <trkpt lat="42.188413" lon="-2.137359">
      <ele>761.2</ele>
    </trkpt>
    <trkpt lat="42.188553" lon="-2.137222">
      <ele>759.8</ele>
    </trkpt>
    <trkpt lat="42.188568" lon="-2.137102">
      <ele>759.1</ele>
    </trkpt>
    <trkpt lat="42.188532" lon="-2.136971">
      <ele>758.2</ele>
    </trkpt>
    <trkpt lat="42.188414" lon="-2.136509">
      <ele>755.5</ele>
    </trkpt>
    <trkpt lat="42.188352" lon="-2.13603">
      <ele>752.5</ele>
    </trkpt>
    <trkpt lat="42.18853" lon="-2.135497">
      <ele>748.8</ele>
    </trkpt>
    <trkpt lat="42.188838" lon="-2.135377">
      <ele>745.6</ele>
    </trkpt>
    <trkpt lat="42.18909" lon="-2.135497">
      <ele>742.4</ele>
    </trkpt>
    <trkpt lat="42.189611" lon="-2.135502">
      <ele>735.6</ele>
    </trkpt>
    <trkpt lat="42.189968" lon="-2.135473">
      <ele>730.8</ele>
    </trkpt>
    <trkpt lat="42.190376" lon="-2.135306">
      <ele>725.4</ele>
    </trkpt>
    <trkpt lat="42.190676" lon="-2.135122">
      <ele>721.7</ele>
    </trkpt>
    <trkpt lat="42.191484" lon="-2.13444">
      <ele>711.7</ele>
    </trkpt>
    <trkpt lat="42.191512" lon="-2.134416">
      <ele>711.4</ele>
    </trkpt>
    <trkpt lat="42.192214" lon="-2.133905">
      <ele>703.2</ele>
    </trkpt>
    <trkpt lat="42.192422" lon="-2.13387">
      <ele>700.9</ele>
    </trkpt>
    <trkpt lat="42.192642" lon="-2.133802">
      <ele>698.4</ele>
    </trkpt>
    <trkpt lat="42.193425" lon="-2.133156">
      <ele>690.3</ele>
    </trkpt>
    <trkpt lat="42.193725" lon="-2.132828">
      <ele>687.2</ele>
    </trkpt>
    <trkpt lat="42.193768" lon="-2.132666">
      <ele>686.2</ele>
    </trkpt>
    <trkpt lat="42.193824" lon="-2.132584">
      <ele>685.5</ele>
    </trkpt>
    <trkpt lat="42.193968" lon="-2.132466">
      <ele>684.3</ele>
    </trkpt>
    <trkpt lat="42.194059" lon="-2.132457">
      <ele>683.7</ele>
    </trkpt>
    <trkpt lat="42.194101" lon="-2.132425">
      <ele>683.3</ele>
    </trkpt>
    <trkpt lat="42.19415" lon="-2.132345">
      <ele>682.8</ele>
    </trkpt>
    <trkpt lat="42.194468" lon="-2.13208">
      <ele>680.4</ele>
    </trkpt>
    <trkpt lat="42.19454" lon="-2.131977">
      <ele>679.7</ele>
    </trkpt>
    <trkpt lat="42.194668" lon="-2.131898">
      <ele>678.7</ele>
    </trkpt>
    <trkpt lat="42.194716" lon="-2.131835">
      <ele>678.2</ele>
    </trkpt>
    <trkpt lat="42.194767" lon="-2.131826">
      <ele>677.8</ele>
    </trkpt>
    <trkpt lat="42.194854" lon="-2.13188">
      <ele>677.2</ele>
    </trkpt>
    <trkpt lat="42.19496" lon="-2.132091">
      <ele>676</ele>
    </trkpt>
    <trkpt lat="42.195034" lon="-2.132112">
      <ele>675.6</ele>
    </trkpt>
    <trkpt lat="42.195115" lon="-2.132077">
      <ele>675.1</ele>
    </trkpt>
    <trkpt lat="42.195201" lon="-2.131987">
      <ele>674.5</ele>
    </trkpt>
    <trkpt lat="42.195234" lon="-2.131895">
      <ele>674.1</ele>
    </trkpt>
    <trkpt lat="42.19528" lon="-2.131845">
      <ele>673.8</ele>
    </trkpt>
    <trkpt lat="42.195347" lon="-2.131829">
      <ele>673.4</ele>
    </trkpt>
    <trkpt lat="42.195569" lon="-2.131624">
      <ele>672</ele>
    </trkpt>
    <trkpt lat="42.195619" lon="-2.131511">
      <ele>671.5</ele>
    </trkpt>
    <trkpt lat="42.195758" lon="-2.131354">
      <ele>670.7</ele>
    </trkpt>
    <trkpt lat="42.195815" lon="-2.131254">
      <ele>670.2</ele>
    </trkpt>
    <trkpt lat="42.195832" lon="-2.131189">
      <ele>670</ele>
    </trkpt>
    <trkpt lat="42.195783" lon="-2.131022">
      <ele>669.3</ele>
    </trkpt>
    <trkpt lat="42.195726" lon="-2.130974">
      <ele>669</ele>
    </trkpt>
    <trkpt lat="42.195688" lon="-2.130834">
      <ele>668.5</ele>
    </trkpt>
    <trkpt lat="42.195713" lon="-2.130742">
      <ele>668.1</ele>
    </trkpt>
    <trkpt lat="42.195838" lon="-2.130684">
      <ele>667.5</ele>
    </trkpt>
    <trkpt lat="42.195896" lon="-2.130735">
      <ele>667.2</ele>
    </trkpt>
    <trkpt lat="42.195913" lon="-2.130847">
      <ele>666.8</ele>
    </trkpt>
    <trkpt lat="42.196044" lon="-2.130839">
      <ele>666.2</ele>
    </trkpt>
    <trkpt lat="42.196158" lon="-2.130904">
      <ele>665.6</ele>
    </trkpt>
    <trkpt lat="42.19627" lon="-2.130638">
      <ele>664.4</ele>
    </trkpt>
    <trkpt lat="42.196279" lon="-2.130514">
      <ele>663.9</ele>
    </trkpt>
    <trkpt lat="42.196302" lon="-2.130496">
      <ele>663.8</ele>
    </trkpt>
    <trkpt lat="42.196412" lon="-2.130567">
      <ele>663.1</ele>
    </trkpt>
    <trkpt lat="42.196459" lon="-2.130637">
      <ele>662.8</ele>
    </trkpt>
    <trkpt lat="42.196592" lon="-2.130678">
      <ele>662.1</ele>
    </trkpt>
    <trkpt lat="42.196601" lon="-2.130688">
      <ele>662</ele>
    </trkpt>
    <trkpt lat="42.196658" lon="-2.130746">
      <ele>661.7</ele>
    </trkpt>
    <trkpt lat="42.196708" lon="-2.130876">
      <ele>661.1</ele>
    </trkpt>
    <trkpt lat="42.196895" lon="-2.130913">
      <ele>660.2</ele>
    </trkpt>
    <trkpt lat="42.197048" lon="-2.13102">
      <ele>659.3</ele>
    </trkpt>
    <trkpt lat="42.197077" lon="-2.131075">
      <ele>659</ele>
    </trkpt>
    <trkpt lat="42.197088" lon="-2.131247">
      <ele>658.3</ele>
    </trkpt>
    <trkpt lat="42.197074" lon="-2.131857">
      <ele>655.7</ele>
    </trkpt>
    <trkpt lat="42.197108" lon="-2.131888">
      <ele>655.5</ele>
    </trkpt>
    <trkpt lat="42.197318" lon="-2.131829">
      <ele>654.1</ele>
    </trkpt>
    <trkpt lat="42.19736" lon="-2.131851">
      <ele>653.8</ele>
    </trkpt>
    <trkpt lat="42.197418" lon="-2.131824">
      <ele>653.4</ele>
    </trkpt>
    <trkpt lat="42.197598" lon="-2.131837">
      <ele>652.2</ele>
    </trkpt>
    <trkpt lat="42.197685" lon="-2.131792">
      <ele>651.5</ele>
    </trkpt>
    <trkpt lat="42.197794" lon="-2.131674">
      <ele>650.5</ele>
    </trkpt>
    <trkpt lat="42.198009" lon="-2.1317">
      <ele>648.9</ele>
    </trkpt>
    <trkpt lat="42.198124" lon="-2.131775">
      <ele>648</ele>
    </trkpt>
    <trkpt lat="42.198575" lon="-2.131773">
      <ele>644.4</ele>
    </trkpt>
    <trkpt lat="42.198642" lon="-2.131718">
      <ele>643.8</ele>
    </trkpt>
    <trkpt lat="42.198731" lon="-2.131695">
      <ele>643.1</ele>
    </trkpt>
    <trkpt lat="42.198854" lon="-2.131577">
      <ele>641.9</ele>
    </trkpt>
    <trkpt lat="42.198959" lon="-2.131603">
      <ele>641</ele>
    </trkpt>
    <trkpt lat="42.199002" lon="-2.131659">
      <ele>640.6</ele>
    </trkpt>
    <trkpt lat="42.199063" lon="-2.131674">
      <ele>640.1</ele>
    </trkpt>
    <trkpt lat="42.199594" lon="-2.131715">
      <ele>635.7</ele>
    </trkpt>
    <trkpt lat="42.199792" lon="-2.131607">
      <ele>634</ele>
    </trkpt>
    <trkpt lat="42.199974" lon="-2.131597">
      <ele>632.7</ele>
    </trkpt>
    <trkpt lat="42.200023" lon="-2.131671">
      <ele>632.2</ele>
    </trkpt>
    <trkpt lat="42.200104" lon="-2.131714">
      <ele>631.7</ele>
    </trkpt>
    <trkpt lat="42.200287" lon="-2.131763">
      <ele>630.6</ele>
    </trkpt>
    <trkpt lat="42.200362" lon="-2.131755">
      <ele>630.1</ele>
    </trkpt>
    <trkpt lat="42.200557" lon="-2.131637">
      <ele>629</ele>
    </trkpt>
    <trkpt lat="42.200655" lon="-2.131629">
      <ele>628.5</ele>
    </trkpt>
    <trkpt lat="42.200822" lon="-2.131558">
      <ele>627.7</ele>
    </trkpt>
    <trkpt lat="42.200931" lon="-2.131569">
      <ele>627.2</ele>
    </trkpt>
    <trkpt lat="42.201052" lon="-2.131643">
      <ele>626.6</ele>
    </trkpt>
    <trkpt lat="42.201197" lon="-2.131808">
      <ele>625.8</ele>
    </trkpt>
    <trkpt lat="42.201358" lon="-2.131883">
      <ele>625.2</ele>
    </trkpt>
    <trkpt lat="42.20173" lon="-2.131841">
      <ele>623.8</ele>
    </trkpt>
    <trkpt lat="42.201943" lon="-2.131702">
      <ele>622.8</ele>
    </trkpt>
    <trkpt lat="42.202319" lon="-2.131368">
      <ele>620.1</ele>
    </trkpt>
    <trkpt lat="42.202476" lon="-2.131263">
      <ele>618.7</ele>
    </trkpt>
    <trkpt lat="42.20257" lon="-2.131252">
      <ele>617.9</ele>
    </trkpt>
    <trkpt lat="42.202704" lon="-2.131133">
      <ele>616.5</ele>
    </trkpt>
    <trkpt lat="42.202954" lon="-2.13083">
      <ele>613.3</ele>
    </trkpt>
    <trkpt lat="42.203111" lon="-2.130715">
      <ele>611.6</ele>
    </trkpt>
    <trkpt lat="42.20364" lon="-2.130847">
      <ele>607</ele>
    </trkpt>
    <trkpt lat="42.203779" lon="-2.130767">
      <ele>605.8</ele>
    </trkpt>
    <trkpt lat="42.204466" lon="-2.131032">
      <ele>601.1</ele>
    </trkpt>
    <trkpt lat="42.204453" lon="-2.131178">
      <ele>600.6</ele>
    </trkpt>
    <trkpt lat="42.204472" lon="-2.131325">
      <ele>600.2</ele>
    </trkpt>
    <trkpt lat="42.20494" lon="-2.131604">
      <ele>598.8</ele>
    </trkpt>
    <trkpt lat="42.205106" lon="-2.131595">
      <ele>598.4</ele>
    </trkpt>
    <trkpt lat="42.205438" lon="-2.132519">
      <ele>596.3</ele>
    </trkpt>
    <trkpt lat="42.205639" lon="-2.132854">
      <ele>594.7</ele>
    </trkpt>
    <trkpt lat="42.205689" lon="-2.133037">
      <ele>594</ele>
    </trkpt>
    <trkpt lat="42.20567" lon="-2.133201">
      <ele>593.3</ele>
    </trkpt>
    <trkpt lat="42.205633" lon="-2.13329">
      <ele>592.9</ele>
    </trkpt>
    <trkpt lat="42.205551" lon="-2.133488">
      <ele>591.9</ele>
    </trkpt>
    <trkpt lat="42.205728" lon="-2.134109">
      <ele>588.4</ele>
    </trkpt>
    <trkpt lat="42.205977" lon="-2.134594">
      <ele>585.3</ele>
    </trkpt>
    <trkpt lat="42.206455" lon="-2.135044">
      <ele>581.6</ele>
    </trkpt>
    <trkpt lat="42.206904" lon="-2.135242">
      <ele>579.3</ele>
    </trkpt>
    <trkpt lat="42.208014" lon="-2.135338">
      <ele>575.2</ele>
    </trkpt>
    <trkpt lat="42.20809" lon="-2.135339">
      <ele>574.9</ele>
    </trkpt>
    <trkpt lat="42.208616" lon="-2.135344">
      <ele>572.9</ele>
    </trkpt>
    <trkpt lat="42.208732" lon="-2.135239">
      <ele>572.3</ele>
    </trkpt>
    <trkpt lat="42.208856" lon="-2.134833">
      <ele>571</ele>
    </trkpt>
    <trkpt lat="42.209153" lon="-2.135015">
      <ele>569.8</ele>
    </trkpt>
    <trkpt lat="42.209196" lon="-2.135042">
      <ele>569.6</ele>
    </trkpt>
    <trkpt lat="42.209264" lon="-2.13503">
      <ele>569.3</ele>
    </trkpt>
    <trkpt lat="42.20933" lon="-2.134951">
      <ele>568.9</ele>
    </trkpt>
    <trkpt lat="42.209485" lon="-2.134236">
      <ele>566.7</ele>
    </trkpt>
    <trkpt lat="42.209598" lon="-2.133887">
      <ele>565.1</ele>
    </trkpt>
    <trkpt lat="42.209599" lon="-2.133872">
      <ele>565.1</ele>
    </trkpt>
    <trkpt lat="42.209611" lon="-2.133564">
      <ele>563.8</ele>
    </trkpt>
    <trkpt lat="42.209586" lon="-2.133284">
      <ele>562.7</ele>
    </trkpt>
    <trkpt lat="42.209491" lon="-2.133191">
      <ele>562.1</ele>
    </trkpt>
    <trkpt lat="42.209276" lon="-2.133181">
      <ele>560.7</ele>
    </trkpt>
    <trkpt lat="42.209278" lon="-2.133098">
      <ele>560.2</ele>
    </trkpt>
    <trkpt lat="42.209454" lon="-2.132903">
      <ele>558.1</ele>
    </trkpt>
    <trkpt lat="42.209706" lon="-2.132854">
      <ele>555.7</ele>
    </trkpt>
    <trkpt lat="42.209768" lon="-2.132872">
      <ele>555.1</ele>
    </trkpt>
    <trkpt lat="42.209833" lon="-2.133013">
      <ele>554</ele>
    </trkpt>
    <trkpt lat="42.209996" lon="-2.133133">
      <ele>552.3</ele>
    </trkpt>
    <trkpt lat="42.210011" lon="-2.133139">
      <ele>552.1</ele>
    </trkpt>
    <trkpt lat="42.210327" lon="-2.133147">
      <ele>549.4</ele>
    </trkpt>
    <trkpt lat="42.210364" lon="-2.133146">
      <ele>549</ele>
    </trkpt>
    <trkpt lat="42.210389" lon="-2.13289">
      <ele>547.5</ele>
    </trkpt>
    <trkpt lat="42.210463" lon="-2.130527">
      <ele>542.2</ele>
    </trkpt>
    <trkpt lat="42.210586" lon="-2.130099">
      <ele>542.2</ele>
    </trkpt>
    <trkpt lat="42.21055" lon="-2.128859">
      <ele>542.1</ele>
    </trkpt>
    <trkpt lat="42.211102" lon="-2.126524">
      <ele>540.6</ele>
    </trkpt>
    <trkpt lat="42.211693" lon="-2.123254">
      <ele>537.3</ele>
    </trkpt>
    <trkpt lat="42.214908" lon="-2.116017">
      <ele>533.2</ele>
    </trkpt>
    <trkpt lat="42.216489" lon="-2.113633">
      <ele>528.7</ele>
    </trkpt>
    <trkpt lat="42.21695" lon="-2.112988">
      <ele>527.7</ele>
    </trkpt>
    <trkpt lat="42.217667" lon="-2.111589">
      <ele>527.1</ele>
    </trkpt>
    <trkpt lat="42.217962" lon="-2.110583">
      <ele>526.4</ele>
    </trkpt>
    <trkpt lat="42.218462" lon="-2.109157">
      <ele>524.4</ele>
    </trkpt>
    <trkpt lat="42.219112" lon="-2.107935">
      <ele>520.9</ele>
    </trkpt>
    <trkpt lat="42.219366" lon="-2.107095">
      <ele>519</ele>
    </trkpt>
    <trkpt lat="42.219449" lon="-2.107115">
      <ele>518.8</ele>
    </trkpt>
    <trkpt lat="42.219531" lon="-2.107181">
      <ele>518.6</ele>
    </trkpt>
    <trkpt lat="42.219537" lon="-2.107188">
      <ele>518.6</ele>
    </trkpt>
    <trkpt lat="42.21957" lon="-2.107207">
      <ele>518.5</ele>
    </trkpt>
    <trkpt lat="42.219611" lon="-2.107167">
      <ele>518.3</ele>
    </trkpt>
    <trkpt lat="42.219715" lon="-2.106794">
      <ele>517.6</ele>
    </trkpt>
    <trkpt lat="42.21986" lon="-2.105547">
      <ele>516.6</ele>
    </trkpt>
    <trkpt lat="42.220018" lon="-2.104858">
      <ele>516.3</ele>
    </trkpt>
    <trkpt lat="42.22016" lon="-2.104443">
      <ele>516</ele>
    </trkpt>
    <trkpt lat="42.220186" lon="-2.104176">
      <ele>516</ele>
    </trkpt>
    <trkpt lat="42.220156" lon="-2.104157">
      <ele>515.9</ele>
    </trkpt>
    <trkpt lat="42.22025" lon="-2.103782">
      <ele>515.9</ele>
    </trkpt>
    <trkpt lat="42.220436" lon="-2.103495">
      <ele>515.7</ele>
    </trkpt>
    <trkpt lat="42.220875" lon="-2.103663">
      <ele>515.5</ele>
    </trkpt>
    <trkpt lat="42.22112" lon="-2.103711">
      <ele>515.5</ele>
    </trkpt>
    <trkpt lat="42.221309" lon="-2.103672">
      <ele>515.5</ele>
    </trkpt>
    <trkpt lat="42.221531" lon="-2.103766">
      <ele>515.6</ele>
    </trkpt>
    <trkpt lat="42.221585" lon="-2.103838">
      <ele>515.6</ele>
    </trkpt>
    <trkpt lat="42.221644" lon="-2.103811">
      <ele>515.6</ele>
    </trkpt>
    <trkpt lat="42.221663" lon="-2.103817">
      <ele>515.7</ele>
    </trkpt>
    <trkpt lat="42.221699" lon="-2.103861">
      <ele>515.7</ele>
    </trkpt>
    <trkpt lat="42.221705" lon="-2.103928">
      <ele>515.7</ele>
    </trkpt>
    <trkpt lat="42.222546" lon="-2.104492">
      <ele>516.5</ele>
    </trkpt>
    <trkpt lat="42.222914" lon="-2.104574">
      <ele>517</ele>
    </trkpt>
    <trkpt lat="42.223227" lon="-2.103745">
      <ele>517.3</ele>
    </trkpt>
    <trkpt lat="42.223244" lon="-2.103703">
      <ele>517.3</ele>
    </trkpt>
    <trkpt lat="42.223356" lon="-2.103444">
      <ele>517.3</ele>
    </trkpt>
    <trkpt lat="42.223772" lon="-2.102505">
      <ele>516.8</ele>
    </trkpt>
    <trkpt lat="42.22389" lon="-2.102245">
      <ele>516.6</ele>
    </trkpt>
    </trkseg>
  </trk>
</gpx>
