<?xml version="1.0" encoding="UTF-8"?>
<gpx version="1.1" creator="fitAI Komoot downloader" xmlns="http://www.topografix.com/GPX/1/1">
  <metadata>
    <name>Cumbre de la Cañada Real Soriana y Castillo de Nalda - Recorrido circular desde Albelda de Iregua</name>
    <desc>50 visitas · Dificultad: moderate · Distancia: 29.1 km · Desnivel +: 848 m</desc>
    <link href="https://www.komoot.com/smarttour/e44798486"><text>Komoot</text></link>
  </metadata>
  <trk>
    <name>Cumbre de la Cañada Real Soriana y Castillo de Nalda - Recorrido circular desde Albelda de Iregua</name>
    <type>mtb</type>
    <trkseg>
    <trkpt lat="42.364775" lon="-2.481193">
      <ele>505</ele>
    </trkpt>
    <trkpt lat="42.364585" lon="-2.481321">
      <ele>505</ele>
    </trkpt>
    <trkpt lat="42.364542" lon="-2.48125">
      <ele>505</ele>
    </trkpt>
    <trkpt lat="42.36454" lon="-2.481161">
      <ele>505</ele>
    </trkpt>
    <trkpt lat="42.3649" lon="-2.480908">
      <ele>505</ele>
    </trkpt>
    <trkpt lat="42.364938" lon="-2.480952">
      <ele>505</ele>
    </trkpt>
    <trkpt lat="42.365052" lon="-2.480929">
      <ele>505</ele>
    </trkpt>
    <trkpt lat="42.365049" lon="-2.481105">
      <ele>504.9</ele>
    </trkpt>
    <trkpt lat="42.365116" lon="-2.481336">
      <ele>504.9</ele>
    </trkpt>
    <trkpt lat="42.365108" lon="-2.481465">
      <ele>504.9</ele>
    </trkpt>
    <trkpt lat="42.36505" lon="-2.481586">
      <ele>505</ele>
    </trkpt>
    <trkpt lat="42.36486" lon="-2.481731">
      <ele>505</ele>
    </trkpt>
    <trkpt lat="42.364706" lon="-2.481848">
      <ele>505</ele>
    </trkpt>
    <trkpt lat="42.364667" lon="-2.481841">
      <ele>505</ele>
    </trkpt>
    <trkpt lat="42.364558" lon="-2.481598">
      <ele>505.1</ele>
    </trkpt>
    <trkpt lat="42.364499" lon="-2.481543">
      <ele>505.1</ele>
    </trkpt>
    <trkpt lat="42.364328" lon="-2.481104">
      <ele>505.2</ele>
    </trkpt>
    <trkpt lat="42.363421" lon="-2.479049">
      <ele>504.3</ele>
    </trkpt>
    <trkpt lat="42.363213" lon="-2.478859">
      <ele>503.9</ele>
    </trkpt>
    <trkpt lat="42.36312" lon="-2.478815">
      <ele>503.8</ele>
    </trkpt>
    <trkpt lat="42.362962" lon="-2.478775">
      <ele>503.5</ele>
    </trkpt>
    <trkpt lat="42.362698" lon="-2.478815">
      <ele>503.2</ele>
    </trkpt>
    <trkpt lat="42.362133" lon="-2.478947">
      <ele>502.4</ele>
    </trkpt>
    <trkpt lat="42.361876" lon="-2.478956">
      <ele>502.2</ele>
    </trkpt>
    <trkpt lat="42.361704" lon="-2.478879">
      <ele>502.2</ele>
    </trkpt>
    <trkpt lat="42.361525" lon="-2.478739">
      <ele>502.1</ele>
    </trkpt>
    <trkpt lat="42.361307" lon="-2.478478">
      <ele>501.9</ele>
    </trkpt>
    <trkpt lat="42.361126" lon="-2.478225">
      <ele>501.7</ele>
    </trkpt>
    <trkpt lat="42.361027" lon="-2.478029">
      <ele>501.5</ele>
    </trkpt>
    <trkpt lat="42.361048" lon="-2.477858">
      <ele>501.3</ele>
    </trkpt>
    <trkpt lat="42.360966" lon="-2.477568">
      <ele>501.1</ele>
    </trkpt>
    <trkpt lat="42.360934" lon="-2.477454">
      <ele>500.9</ele>
    </trkpt>
    <trkpt lat="42.360888" lon="-2.477378">
      <ele>500.8</ele>
    </trkpt>
    <trkpt lat="42.36142" lon="-2.476942">
      <ele>499.7</ele>
    </trkpt>
    <trkpt lat="42.362043" lon="-2.476534">
      <ele>499</ele>
    </trkpt>
    <trkpt lat="42.361905" lon="-2.476028">
      <ele>499</ele>
    </trkpt>
    <trkpt lat="42.360693" lon="-2.476697">
      <ele>500.8</ele>
    </trkpt>
    <trkpt lat="42.36013" lon="-2.477265">
      <ele>502</ele>
    </trkpt>
    <trkpt lat="42.359778" lon="-2.477539">
      <ele>502.5</ele>
    </trkpt>
    <trkpt lat="42.35948" lon="-2.477668">
      <ele>502.8</ele>
    </trkpt>
    <trkpt lat="42.359096" lon="-2.477743">
      <ele>503.3</ele>
    </trkpt>
    <trkpt lat="42.35797" lon="-2.477845">
      <ele>505.1</ele>
    </trkpt>
    <trkpt lat="42.357801" lon="-2.477658">
      <ele>505.5</ele>
    </trkpt>
    <trkpt lat="42.357707" lon="-2.477572">
      <ele>505.6</ele>
    </trkpt>
    <trkpt lat="42.357043" lon="-2.477778">
      <ele>506.8</ele>
    </trkpt>
    <trkpt lat="42.356479" lon="-2.477771">
      <ele>507.6</ele>
    </trkpt>
    <trkpt lat="42.356103" lon="-2.477872">
      <ele>508</ele>
    </trkpt>
    <trkpt lat="42.355963" lon="-2.477994">
      <ele>508.2</ele>
    </trkpt>
    <trkpt lat="42.355697" lon="-2.478362">
      <ele>508.4</ele>
    </trkpt>
    <trkpt lat="42.355623" lon="-2.478644">
      <ele>508.6</ele>
    </trkpt>
    <trkpt lat="42.355358" lon="-2.479138">
      <ele>508.9</ele>
    </trkpt>
    <trkpt lat="42.35514" lon="-2.479336">
      <ele>509.1</ele>
    </trkpt>
    <trkpt lat="42.354862" lon="-2.479502">
      <ele>509.3</ele>
    </trkpt>
    <trkpt lat="42.354606" lon="-2.479566">
      <ele>509.5</ele>
    </trkpt>
    <trkpt lat="42.354454" lon="-2.479497">
      <ele>509.7</ele>
    </trkpt>
    <trkpt lat="42.354363" lon="-2.479422">
      <ele>509.8</ele>
    </trkpt>
    <trkpt lat="42.354157" lon="-2.479422">
      <ele>510</ele>
    </trkpt>
    <trkpt lat="42.354061" lon="-2.47947">
      <ele>510.1</ele>
    </trkpt>
    <trkpt lat="42.353978" lon="-2.479594">
      <ele>510.3</ele>
    </trkpt>
    <trkpt lat="42.353965" lon="-2.479749">
      <ele>510.4</ele>
    </trkpt>
    <trkpt lat="42.353911" lon="-2.479836">
      <ele>510.5</ele>
    </trkpt>
    <trkpt lat="42.353836" lon="-2.479893">
      <ele>510.6</ele>
    </trkpt>
    <trkpt lat="42.353685" lon="-2.480178">
      <ele>510.8</ele>
    </trkpt>
    <trkpt lat="42.35329" lon="-2.480389">
      <ele>511.1</ele>
    </trkpt>
    <trkpt lat="42.353035" lon="-2.480693">
      <ele>511.3</ele>
    </trkpt>
    <trkpt lat="42.352773" lon="-2.481069">
      <ele>511.7</ele>
    </trkpt>
    <trkpt lat="42.352281" lon="-2.481986">
      <ele>512.5</ele>
    </trkpt>
    <trkpt lat="42.352174" lon="-2.482496">
      <ele>513</ele>
    </trkpt>
    <trkpt lat="42.351703" lon="-2.483799">
      <ele>514.9</ele>
    </trkpt>
    <trkpt lat="42.351469" lon="-2.484191">
      <ele>515.7</ele>
    </trkpt>
    <trkpt lat="42.351255" lon="-2.484438">
      <ele>516.2</ele>
    </trkpt>
    <trkpt lat="42.350612" lon="-2.484883">
      <ele>517.1</ele>
    </trkpt>
    <trkpt lat="42.350192" lon="-2.485001">
      <ele>517.3</ele>
    </trkpt>
    <trkpt lat="42.349332" lon="-2.484711">
      <ele>517.2</ele>
    </trkpt>
    <trkpt lat="42.349106" lon="-2.484668">
      <ele>517.2</ele>
    </trkpt>
    <trkpt lat="42.348828" lon="-2.48491">
      <ele>517.5</ele>
    </trkpt>
    <trkpt lat="42.348238" lon="-2.485274">
      <ele>518.3</ele>
    </trkpt>
    <trkpt lat="42.348051" lon="-2.485162">
      <ele>518.6</ele>
    </trkpt>
    <trkpt lat="42.347866" lon="-2.485178">
      <ele>518.9</ele>
    </trkpt>
    <trkpt lat="42.347377" lon="-2.485178">
      <ele>519.6</ele>
    </trkpt>
    <trkpt lat="42.347104" lon="-2.485274">
      <ele>519.9</ele>
    </trkpt>
    <trkpt lat="42.346509" lon="-2.485559">
      <ele>520.3</ele>
    </trkpt>
    <trkpt lat="42.346453" lon="-2.48565">
      <ele>520.3</ele>
    </trkpt>
    <trkpt lat="42.346227" lon="-2.485806">
      <ele>520.5</ele>
    </trkpt>
    <trkpt lat="42.346065" lon="-2.485902">
      <ele>520.6</ele>
    </trkpt>
    <trkpt lat="42.345843" lon="-2.485982">
      <ele>520.8</ele>
    </trkpt>
    <trkpt lat="42.345474" lon="-2.486304">
      <ele>521.5</ele>
    </trkpt>
    <trkpt lat="42.345288" lon="-2.48653">
      <ele>522</ele>
    </trkpt>
    <trkpt lat="42.34509" lon="-2.486551">
      <ele>522.4</ele>
    </trkpt>
    <trkpt lat="42.344186" lon="-2.485956">
      <ele>524.7</ele>
    </trkpt>
    <trkpt lat="42.344182" lon="-2.486133">
      <ele>525</ele>
    </trkpt>
    <trkpt lat="42.344106" lon="-2.48624">
      <ele>525.2</ele>
    </trkpt>
    <trkpt lat="42.343551" lon="-2.486433">
      <ele>526.4</ele>
    </trkpt>
    <trkpt lat="42.343087" lon="-2.48676">
      <ele>527.4</ele>
    </trkpt>
    <trkpt lat="42.342473" lon="-2.487415">
      <ele>528.8</ele>
    </trkpt>
    <trkpt lat="42.342334" lon="-2.48741">
      <ele>529</ele>
    </trkpt>
    <trkpt lat="42.342072" lon="-2.48793">
      <ele>529.4</ele>
    </trkpt>
    <trkpt lat="42.34191" lon="-2.488108">
      <ele>529.5</ele>
    </trkpt>
    <trkpt lat="42.342203" lon="-2.488327">
      <ele>529.6</ele>
    </trkpt>
    <trkpt lat="42.342054" lon="-2.488628">
      <ele>529.6</ele>
    </trkpt>
    <trkpt lat="42.342033" lon="-2.488945">
      <ele>529.6</ele>
    </trkpt>
    <trkpt lat="42.34195" lon="-2.489453">
      <ele>529.5</ele>
    </trkpt>
    <trkpt lat="42.341705" lon="-2.489813">
      <ele>529.7</ele>
    </trkpt>
    <trkpt lat="42.341257" lon="-2.490341">
      <ele>530.3</ele>
    </trkpt>
    <trkpt lat="42.341001" lon="-2.490567">
      <ele>530.7</ele>
    </trkpt>
    <trkpt lat="42.340585" lon="-2.49063">
      <ele>531.3</ele>
    </trkpt>
    <trkpt lat="42.340407" lon="-2.490849">
      <ele>531.7</ele>
    </trkpt>
    <trkpt lat="42.339886" lon="-2.491779">
      <ele>532.8</ele>
    </trkpt>
    <trkpt lat="42.339807" lon="-2.492067">
      <ele>533</ele>
    </trkpt>
    <trkpt lat="42.339615" lon="-2.492738">
      <ele>533.4</ele>
    </trkpt>
    <trkpt lat="42.339345" lon="-2.493436">
      <ele>534</ele>
    </trkpt>
    <trkpt lat="42.339027" lon="-2.494507">
      <ele>535.2</ele>
    </trkpt>
    <trkpt lat="42.338584" lon="-2.495741">
      <ele>537.1</ele>
    </trkpt>
    <trkpt lat="42.338089" lon="-2.496678">
      <ele>538.8</ele>
    </trkpt>
    <trkpt lat="42.337854" lon="-2.496953">
      <ele>539.3</ele>
    </trkpt>
    <trkpt lat="42.337475" lon="-2.497295">
      <ele>539.8</ele>
    </trkpt>
    <trkpt lat="42.337302" lon="-2.496481">
      <ele>540.2</ele>
    </trkpt>
    <trkpt lat="42.337173" lon="-2.496567">
      <ele>540.3</ele>
    </trkpt>
    <trkpt lat="42.336859" lon="-2.496953">
      <ele>540.4</ele>
    </trkpt>
    <trkpt lat="42.33664" lon="-2.497468">
      <ele>540.5</ele>
    </trkpt>
    <trkpt lat="42.336296" lon="-2.498067">
      <ele>540.8</ele>
    </trkpt>
    <trkpt lat="42.335973" lon="-2.498532">
      <ele>541.3</ele>
    </trkpt>
    <trkpt lat="42.335546" lon="-2.498638">
      <ele>541.7</ele>
    </trkpt>
    <trkpt lat="42.335239" lon="-2.498856">
      <ele>542.1</ele>
    </trkpt>
    <trkpt lat="42.334989" lon="-2.499209">
      <ele>542.5</ele>
    </trkpt>
    <trkpt lat="42.334718" lon="-2.499949">
      <ele>543.2</ele>
    </trkpt>
    <trkpt lat="42.334525" lon="-2.499921">
      <ele>543.4</ele>
    </trkpt>
    <trkpt lat="42.334395" lon="-2.500026">
      <ele>543.6</ele>
    </trkpt>
    <trkpt lat="42.334009" lon="-2.500478">
      <ele>544.2</ele>
    </trkpt>
    <trkpt lat="42.333566" lon="-2.501063">
      <ele>545.1</ele>
    </trkpt>
    <trkpt lat="42.333394" lon="-2.501041">
      <ele>545.3</ele>
    </trkpt>
    <trkpt lat="42.332753" lon="-2.501084">
      <ele>546.3</ele>
    </trkpt>
    <trkpt lat="42.332451" lon="-2.501267">
      <ele>547</ele>
    </trkpt>
    <trkpt lat="42.332036" lon="-2.501671">
      <ele>548.6</ele>
    </trkpt>
    <trkpt lat="42.331919" lon="-2.501436">
      <ele>549.4</ele>
    </trkpt>
    <trkpt lat="42.331721" lon="-2.500703">
      <ele>552</ele>
    </trkpt>
    <trkpt lat="42.331284" lon="-2.500146">
      <ele>555.3</ele>
    </trkpt>
    <trkpt lat="42.330946" lon="-2.499461">
      <ele>559.1</ele>
    </trkpt>
    <trkpt lat="42.331449" lon="-2.499106">
      <ele>563.3</ele>
    </trkpt>
    <trkpt lat="42.3314" lon="-2.498826">
      <ele>565</ele>
    </trkpt>
    <trkpt lat="42.331222" lon="-2.498487">
      <ele>567.4</ele>
    </trkpt>
    <trkpt lat="42.33101" lon="-2.497952">
      <ele>571.2</ele>
    </trkpt>
    <trkpt lat="42.330829" lon="-2.4977">
      <ele>573.5</ele>
    </trkpt>
    <trkpt lat="42.330201" lon="-2.496681">
      <ele>581.3</ele>
    </trkpt>
    <trkpt lat="42.330082" lon="-2.496325">
      <ele>583.9</ele>
    </trkpt>
    <trkpt lat="42.330044" lon="-2.495884">
      <ele>587</ele>
    </trkpt>
    <trkpt lat="42.330128" lon="-2.495763">
      <ele>588.2</ele>
    </trkpt>
    <trkpt lat="42.330523" lon="-2.495471">
      <ele>593</ele>
    </trkpt>
    <trkpt lat="42.330973" lon="-2.49504">
      <ele>598.1</ele>
    </trkpt>
    <trkpt lat="42.331206" lon="-2.494562">
      <ele>601.6</ele>
    </trkpt>
    <trkpt lat="42.331319" lon="-2.494448">
      <ele>602.6</ele>
    </trkpt>
    <trkpt lat="42.331296" lon="-2.494388">
      <ele>603</ele>
    </trkpt>
    <trkpt lat="42.331283" lon="-2.494071">
      <ele>604.6</ele>
    </trkpt>
    <trkpt lat="42.331231" lon="-2.493902">
      <ele>605.5</ele>
    </trkpt>
    <trkpt lat="42.331203" lon="-2.493812">
      <ele>605.9</ele>
    </trkpt>
    <trkpt lat="42.330726" lon="-2.492818">
      <ele>609.8</ele>
    </trkpt>
    <trkpt lat="42.330608" lon="-2.492679">
      <ele>610.4</ele>
    </trkpt>
    <trkpt lat="42.3305" lon="-2.492628">
      <ele>610.8</ele>
    </trkpt>
    <trkpt lat="42.330345" lon="-2.492636">
      <ele>611</ele>
    </trkpt>
    <trkpt lat="42.330116" lon="-2.492729">
      <ele>611.2</ele>
    </trkpt>
    <trkpt lat="42.329996" lon="-2.492721">
      <ele>611.2</ele>
    </trkpt>
    <trkpt lat="42.329917" lon="-2.492605">
      <ele>611.1</ele>
    </trkpt>
    <trkpt lat="42.329826" lon="-2.492349">
      <ele>610.9</ele>
    </trkpt>
    <trkpt lat="42.329354" lon="-2.492361">
      <ele>609.8</ele>
    </trkpt>
    <trkpt lat="42.329187" lon="-2.492322">
      <ele>609.2</ele>
    </trkpt>
    <trkpt lat="42.329114" lon="-2.492288">
      <ele>608.9</ele>
    </trkpt>
    <trkpt lat="42.328872" lon="-2.492067">
      <ele>607.9</ele>
    </trkpt>
    <trkpt lat="42.328778" lon="-2.491935">
      <ele>607.4</ele>
    </trkpt>
    <trkpt lat="42.328678" lon="-2.491863">
      <ele>607</ele>
    </trkpt>
    <trkpt lat="42.328586" lon="-2.491827">
      <ele>606.7</ele>
    </trkpt>
    <trkpt lat="42.328227" lon="-2.491816">
      <ele>606</ele>
    </trkpt>
    <trkpt lat="42.328129" lon="-2.491752">
      <ele>605.9</ele>
    </trkpt>
    <trkpt lat="42.327923" lon="-2.491598">
      <ele>605.7</ele>
    </trkpt>
    <trkpt lat="42.327818" lon="-2.491466">
      <ele>605.7</ele>
    </trkpt>
    <trkpt lat="42.327563" lon="-2.491005">
      <ele>606.1</ele>
    </trkpt>
    <trkpt lat="42.327308" lon="-2.490878">
      <ele>606.7</ele>
    </trkpt>
    <trkpt lat="42.327229" lon="-2.490803">
      <ele>606.9</ele>
    </trkpt>
    <trkpt lat="42.327045" lon="-2.49048">
      <ele>608</ele>
    </trkpt>
    <trkpt lat="42.326856" lon="-2.489926">
      <ele>610.1</ele>
    </trkpt>
    <trkpt lat="42.326494" lon="-2.489112">
      <ele>614.1</ele>
    </trkpt>
    <trkpt lat="42.32634" lon="-2.488808">
      <ele>615.6</ele>
    </trkpt>
    <trkpt lat="42.325991" lon="-2.488263">
      <ele>618.4</ele>
    </trkpt>
    <trkpt lat="42.325869" lon="-2.488033">
      <ele>619.4</ele>
    </trkpt>
    <trkpt lat="42.32584" lon="-2.487934">
      <ele>619.8</ele>
    </trkpt>
    <trkpt lat="42.325818" lon="-2.48755">
      <ele>621.2</ele>
    </trkpt>
    <trkpt lat="42.325781" lon="-2.48742">
      <ele>621.7</ele>
    </trkpt>
    <trkpt lat="42.32558" lon="-2.487064">
      <ele>623.5</ele>
    </trkpt>
    <trkpt lat="42.325479" lon="-2.486994">
      <ele>624.1</ele>
    </trkpt>
    <trkpt lat="42.3254" lon="-2.487018">
      <ele>624.6</ele>
    </trkpt>
    <trkpt lat="42.325097" lon="-2.486588">
      <ele>627.3</ele>
    </trkpt>
    <trkpt lat="42.32491" lon="-2.486255">
      <ele>629.2</ele>
    </trkpt>
    <trkpt lat="42.324636" lon="-2.485963">
      <ele>631.4</ele>
    </trkpt>
    <trkpt lat="42.324368" lon="-2.485764">
      <ele>633.4</ele>
    </trkpt>
    <trkpt lat="42.324289" lon="-2.485651">
      <ele>634.2</ele>
    </trkpt>
    <trkpt lat="42.32421" lon="-2.485436">
      <ele>635.4</ele>
    </trkpt>
    <trkpt lat="42.324177" lon="-2.485406">
      <ele>635.6</ele>
    </trkpt>
    <trkpt lat="42.324144" lon="-2.485392">
      <ele>635.9</ele>
    </trkpt>
    <trkpt lat="42.324042" lon="-2.485525">
      <ele>636.8</ele>
    </trkpt>
    <trkpt lat="42.323998" lon="-2.485537">
      <ele>637.1</ele>
    </trkpt>
    <trkpt lat="42.323933" lon="-2.485506">
      <ele>637.5</ele>
    </trkpt>
    <trkpt lat="42.323755" lon="-2.485331">
      <ele>639</ele>
    </trkpt>
    <trkpt lat="42.323505" lon="-2.485273">
      <ele>640.6</ele>
    </trkpt>
    <trkpt lat="42.322906" lon="-2.484791">
      <ele>645.4</ele>
    </trkpt>
    <trkpt lat="42.322422" lon="-2.484278">
      <ele>649.9</ele>
    </trkpt>
    <trkpt lat="42.322137" lon="-2.484085">
      <ele>652.3</ele>
    </trkpt>
    <trkpt lat="42.322009" lon="-2.484021">
      <ele>653.3</ele>
    </trkpt>
    <trkpt lat="42.32184" lon="-2.484011">
      <ele>654.6</ele>
    </trkpt>
    <trkpt lat="42.321652" lon="-2.483879">
      <ele>656.1</ele>
    </trkpt>
    <trkpt lat="42.321219" lon="-2.483647">
      <ele>659.3</ele>
    </trkpt>
    <trkpt lat="42.321124" lon="-2.483551">
      <ele>660.2</ele>
    </trkpt>
    <trkpt lat="42.321125" lon="-2.483477">
      <ele>660.5</ele>
    </trkpt>
    <trkpt lat="42.3211" lon="-2.483415">
      <ele>660.8</ele>
    </trkpt>
    <trkpt lat="42.321117" lon="-2.483232">
      <ele>661.7</ele>
    </trkpt>
    <trkpt lat="42.3211" lon="-2.483172">
      <ele>662</ele>
    </trkpt>
    <trkpt lat="42.320979" lon="-2.483107">
      <ele>662.7</ele>
    </trkpt>
    <trkpt lat="42.320947" lon="-2.483128">
      <ele>663</ele>
    </trkpt>
    <trkpt lat="42.320863" lon="-2.483309">
      <ele>663.9</ele>
    </trkpt>
    <trkpt lat="42.320827" lon="-2.483145">
      <ele>664.6</ele>
    </trkpt>
    <trkpt lat="42.32076" lon="-2.483145">
      <ele>665</ele>
    </trkpt>
    <trkpt lat="42.32068" lon="-2.483091">
      <ele>665.5</ele>
    </trkpt>
    <trkpt lat="42.320088" lon="-2.483037">
      <ele>668.9</ele>
    </trkpt>
    <trkpt lat="42.319335" lon="-2.482719">
      <ele>673.3</ele>
    </trkpt>
    <trkpt lat="42.319195" lon="-2.482762">
      <ele>674</ele>
    </trkpt>
    <trkpt lat="42.319091" lon="-2.482758">
      <ele>674.6</ele>
    </trkpt>
    <trkpt lat="42.318433" lon="-2.482544">
      <ele>677.9</ele>
    </trkpt>
    <trkpt lat="42.318189" lon="-2.482482">
      <ele>679.1</ele>
    </trkpt>
    <trkpt lat="42.318087" lon="-2.482483">
      <ele>679.5</ele>
    </trkpt>
    <trkpt lat="42.317761" lon="-2.482358">
      <ele>681.1</ele>
    </trkpt>
    <trkpt lat="42.31746" lon="-2.482152">
      <ele>682.8</ele>
    </trkpt>
    <trkpt lat="42.317427" lon="-2.482086">
      <ele>683.1</ele>
    </trkpt>
    <trkpt lat="42.316687" lon="-2.481516">
      <ele>687.7</ele>
    </trkpt>
    <trkpt lat="42.316614" lon="-2.481362">
      <ele>688.6</ele>
    </trkpt>
    <trkpt lat="42.315944" lon="-2.480834">
      <ele>694.1</ele>
    </trkpt>
    <trkpt lat="42.315715" lon="-2.480572">
      <ele>695.9</ele>
    </trkpt>
    <trkpt lat="42.315541" lon="-2.480422">
      <ele>697.2</ele>
    </trkpt>
    <trkpt lat="42.315463" lon="-2.480421">
      <ele>697.6</ele>
    </trkpt>
    <trkpt lat="42.315424" lon="-2.480469">
      <ele>697.9</ele>
    </trkpt>
    <trkpt lat="42.315405" lon="-2.48056">
      <ele>698.4</ele>
    </trkpt>
    <trkpt lat="42.315421" lon="-2.480636">
      <ele>698.7</ele>
    </trkpt>
    <trkpt lat="42.315398" lon="-2.481116">
      <ele>700.9</ele>
    </trkpt>
    <trkpt lat="42.315364" lon="-2.481267">
      <ele>701.7</ele>
    </trkpt>
    <trkpt lat="42.31526" lon="-2.481413">
      <ele>702.6</ele>
    </trkpt>
    <trkpt lat="42.314895" lon="-2.481805">
      <ele>704.8</ele>
    </trkpt>
    <trkpt lat="42.314747" lon="-2.48189">
      <ele>705.4</ele>
    </trkpt>
    <trkpt lat="42.314425" lon="-2.48198">
      <ele>707</ele>
    </trkpt>
    <trkpt lat="42.3143" lon="-2.482061">
      <ele>707.9</ele>
    </trkpt>
    <trkpt lat="42.314155" lon="-2.482067">
      <ele>708.8</ele>
    </trkpt>
    <trkpt lat="42.314114" lon="-2.482102">
      <ele>709.2</ele>
    </trkpt>
    <trkpt lat="42.314077" lon="-2.482134">
      <ele>709.5</ele>
    </trkpt>
    <trkpt lat="42.313953" lon="-2.482391">
      <ele>711.2</ele>
    </trkpt>
    <trkpt lat="42.313873" lon="-2.482689">
      <ele>713.1</ele>
    </trkpt>
    <trkpt lat="42.313797" lon="-2.482785">
      <ele>714</ele>
    </trkpt>
    <trkpt lat="42.313574" lon="-2.483026">
      <ele>716.3</ele>
    </trkpt>
    <trkpt lat="42.313124" lon="-2.483405">
      <ele>721</ele>
    </trkpt>
    <trkpt lat="42.312943" lon="-2.48348">
      <ele>723</ele>
    </trkpt>
    <trkpt lat="42.312779" lon="-2.483612">
      <ele>725.1</ele>
    </trkpt>
    <trkpt lat="42.312702" lon="-2.483641">
      <ele>726</ele>
    </trkpt>
    <trkpt lat="42.31221" lon="-2.483551">
      <ele>731.9</ele>
    </trkpt>
    <trkpt lat="42.311879" lon="-2.483683">
      <ele>736.4</ele>
    </trkpt>
    <trkpt lat="42.311577" lon="-2.483936">
      <ele>741.5</ele>
    </trkpt>
    <trkpt lat="42.311155" lon="-2.484166">
      <ele>748.7</ele>
    </trkpt>
    <trkpt lat="42.311105" lon="-2.484164">
      <ele>749.5</ele>
    </trkpt>
    <trkpt lat="42.311026" lon="-2.484043">
      <ele>751.4</ele>
    </trkpt>
    <trkpt lat="42.310899" lon="-2.483936">
      <ele>753.9</ele>
    </trkpt>
    <trkpt lat="42.310833" lon="-2.483931">
      <ele>754.9</ele>
    </trkpt>
    <trkpt lat="42.310723" lon="-2.484007">
      <ele>756.7</ele>
    </trkpt>
    <trkpt lat="42.310605" lon="-2.484045">
      <ele>758.4</ele>
    </trkpt>
    <trkpt lat="42.31054" lon="-2.484028">
      <ele>759.2</ele>
    </trkpt>
    <trkpt lat="42.310342" lon="-2.483816">
      <ele>762.7</ele>
    </trkpt>
    <trkpt lat="42.310279" lon="-2.483737">
      <ele>763.7</ele>
    </trkpt>
    <trkpt lat="42.310014" lon="-2.483618">
      <ele>767.1</ele>
    </trkpt>
    <trkpt lat="42.309983" lon="-2.483539">
      <ele>768</ele>
    </trkpt>
    <trkpt lat="42.309983" lon="-2.483424">
      <ele>768.9</ele>
    </trkpt>
    <trkpt lat="42.310037" lon="-2.483206">
      <ele>770.9</ele>
    </trkpt>
    <trkpt lat="42.310099" lon="-2.483067">
      <ele>772.2</ele>
    </trkpt>
    <trkpt lat="42.310208" lon="-2.482993">
      <ele>773.4</ele>
    </trkpt>
    <trkpt lat="42.310352" lon="-2.482803">
      <ele>775.3</ele>
    </trkpt>
    <trkpt lat="42.310448" lon="-2.482376">
      <ele>778.7</ele>
    </trkpt>
    <trkpt lat="42.310684" lon="-2.481872">
      <ele>783.1</ele>
    </trkpt>
    <trkpt lat="42.310977" lon="-2.48077">
      <ele>792.1</ele>
    </trkpt>
    <trkpt lat="42.311124" lon="-2.480511">
      <ele>794.1</ele>
    </trkpt>
    <trkpt lat="42.311377" lon="-2.480187">
      <ele>796.2</ele>
    </trkpt>
    <trkpt lat="42.311407" lon="-2.480065">
      <ele>796.5</ele>
    </trkpt>
    <trkpt lat="42.311266" lon="-2.479578">
      <ele>797.3</ele>
    </trkpt>
    <trkpt lat="42.311257" lon="-2.479476">
      <ele>797.3</ele>
    </trkpt>
    <trkpt lat="42.31129" lon="-2.479359">
      <ele>797.3</ele>
    </trkpt>
    <trkpt lat="42.31142" lon="-2.479273">
      <ele>797.2</ele>
    </trkpt>
    <trkpt lat="42.311733" lon="-2.478941">
      <ele>796.3</ele>
    </trkpt>
    <trkpt lat="42.312026" lon="-2.478542">
      <ele>795.3</ele>
    </trkpt>
    <trkpt lat="42.312109" lon="-2.478365">
      <ele>794.8</ele>
    </trkpt>
    <trkpt lat="42.312219" lon="-2.477905">
      <ele>793.6</ele>
    </trkpt>
    <trkpt lat="42.312319" lon="-2.477157">
      <ele>792.1</ele>
    </trkpt>
    <trkpt lat="42.312316" lon="-2.476722">
      <ele>792</ele>
    </trkpt>
    <trkpt lat="42.312135" lon="-2.475936">
      <ele>792.7</ele>
    </trkpt>
    <trkpt lat="42.312052" lon="-2.475784">
      <ele>792.9</ele>
    </trkpt>
    <trkpt lat="42.311799" lon="-2.475693">
      <ele>793</ele>
    </trkpt>
    <trkpt lat="42.311677" lon="-2.475606">
      <ele>793.1</ele>
    </trkpt>
    <trkpt lat="42.311341" lon="-2.475218">
      <ele>793.3</ele>
    </trkpt>
    <trkpt lat="42.311232" lon="-2.474916">
      <ele>793.2</ele>
    </trkpt>
    <trkpt lat="42.311002" lon="-2.474487">
      <ele>792</ele>
    </trkpt>
    <trkpt lat="42.310793" lon="-2.473703">
      <ele>789.3</ele>
    </trkpt>
    <trkpt lat="42.310801" lon="-2.473597">
      <ele>789</ele>
    </trkpt>
    <trkpt lat="42.310887" lon="-2.473282">
      <ele>788.4</ele>
    </trkpt>
    <trkpt lat="42.310934" lon="-2.473183">
      <ele>788.3</ele>
    </trkpt>
    <trkpt lat="42.310964" lon="-2.472915">
      <ele>788.2</ele>
    </trkpt>
    <trkpt lat="42.310887" lon="-2.472739">
      <ele>788.4</ele>
    </trkpt>
    <trkpt lat="42.310827" lon="-2.472521">
      <ele>788.8</ele>
    </trkpt>
    <trkpt lat="42.310701" lon="-2.471851">
      <ele>791.4</ele>
    </trkpt>
    <trkpt lat="42.310628" lon="-2.471574">
      <ele>793.5</ele>
    </trkpt>
    <trkpt lat="42.310637" lon="-2.47144">
      <ele>794.6</ele>
    </trkpt>
    <trkpt lat="42.31064" lon="-2.4714">
      <ele>794.9</ele>
    </trkpt>
    <trkpt lat="42.310595" lon="-2.471349">
      <ele>795.6</ele>
    </trkpt>
    <trkpt lat="42.310543" lon="-2.471169">
      <ele>797.3</ele>
    </trkpt>
    <trkpt lat="42.310543" lon="-2.470895">
      <ele>799.7</ele>
    </trkpt>
    <trkpt lat="42.310517" lon="-2.4708">
      <ele>800.7</ele>
    </trkpt>
    <trkpt lat="42.310478" lon="-2.47075">
      <ele>801.4</ele>
    </trkpt>
    <trkpt lat="42.310201" lon="-2.470636">
      <ele>805.2</ele>
    </trkpt>
    <trkpt lat="42.310032" lon="-2.470503">
      <ele>807.8</ele>
    </trkpt>
    <trkpt lat="42.309557" lon="-2.469898">
      <ele>817.1</ele>
    </trkpt>
    <trkpt lat="42.309391" lon="-2.469772">
      <ele>819.8</ele>
    </trkpt>
    <trkpt lat="42.309173" lon="-2.469537">
      <ele>823.8</ele>
    </trkpt>
    <trkpt lat="42.309078" lon="-2.469487">
      <ele>825.2</ele>
    </trkpt>
    <trkpt lat="42.309036" lon="-2.469409">
      <ele>826.2</ele>
    </trkpt>
    <trkpt lat="42.308958" lon="-2.469365">
      <ele>827.3</ele>
    </trkpt>
    <trkpt lat="42.308775" lon="-2.46914">
      <ele>830.4</ele>
    </trkpt>
    <trkpt lat="42.30837" lon="-2.468412">
      <ele>838.6</ele>
    </trkpt>
    <trkpt lat="42.308238" lon="-2.468291">
      <ele>840.5</ele>
    </trkpt>
    <trkpt lat="42.30812" lon="-2.468222">
      <ele>842.2</ele>
    </trkpt>
    <trkpt lat="42.307999" lon="-2.468053">
      <ele>844.5</ele>
    </trkpt>
    <trkpt lat="42.307516" lon="-2.467561">
      <ele>853.6</ele>
    </trkpt>
    <trkpt lat="42.307292" lon="-2.467423">
      <ele>857.7</ele>
    </trkpt>
    <trkpt lat="42.306455" lon="-2.467253">
      <ele>869.5</ele>
    </trkpt>
    <trkpt lat="42.306051" lon="-2.467141">
      <ele>873.3</ele>
    </trkpt>
    <trkpt lat="42.3064" lon="-2.467057">
      <ele>875.2</ele>
    </trkpt>
    <trkpt lat="42.306567" lon="-2.466958">
      <ele>875.8</ele>
    </trkpt>
    <trkpt lat="42.306664" lon="-2.466845">
      <ele>876</ele>
    </trkpt>
    <trkpt lat="42.306818" lon="-2.466789">
      <ele>876</ele>
    </trkpt>
    <trkpt lat="42.307112" lon="-2.466718">
      <ele>875.6</ele>
    </trkpt>
    <trkpt lat="42.307436" lon="-2.466727">
      <ele>875.1</ele>
    </trkpt>
    <trkpt lat="42.308001" lon="-2.466634">
      <ele>875.4</ele>
    </trkpt>
    <trkpt lat="42.30822" lon="-2.466486">
      <ele>875.7</ele>
    </trkpt>
    <trkpt lat="42.308448" lon="-2.466463">
      <ele>876.1</ele>
    </trkpt>
    <trkpt lat="42.3087" lon="-2.466669">
      <ele>876.6</ele>
    </trkpt>
    <trkpt lat="42.308883" lon="-2.467088">
      <ele>877.7</ele>
    </trkpt>
    <trkpt lat="42.308954" lon="-2.467171">
      <ele>878.1</ele>
    </trkpt>
    <trkpt lat="42.309185" lon="-2.467286">
      <ele>879.3</ele>
    </trkpt>
    <trkpt lat="42.309304" lon="-2.467285">
      <ele>879.9</ele>
    </trkpt>
    <trkpt lat="42.309536" lon="-2.467101">
      <ele>881.7</ele>
    </trkpt>
    <trkpt lat="42.309656" lon="-2.467104">
      <ele>882.8</ele>
    </trkpt>
    <trkpt lat="42.309816" lon="-2.467288">
      <ele>884.8</ele>
    </trkpt>
    <trkpt lat="42.309874" lon="-2.467298">
      <ele>885.5</ele>
    </trkpt>
    <trkpt lat="42.309952" lon="-2.467062">
      <ele>887.7</ele>
    </trkpt>
    <trkpt lat="42.31001" lon="-2.466964">
      <ele>888.9</ele>
    </trkpt>
    <trkpt lat="42.310152" lon="-2.466823">
      <ele>891.2</ele>
    </trkpt>
    <trkpt lat="42.310374" lon="-2.466756">
      <ele>894.5</ele>
    </trkpt>
    <trkpt lat="42.31051" lon="-2.466615">
      <ele>897.2</ele>
    </trkpt>
    <trkpt lat="42.310563" lon="-2.466491">
      <ele>898.8</ele>
    </trkpt>
    <trkpt lat="42.310569" lon="-2.46626">
      <ele>901.4</ele>
    </trkpt>
    <trkpt lat="42.310704" lon="-2.466016">
      <ele>904.6</ele>
    </trkpt>
    <trkpt lat="42.310731" lon="-2.465729">
      <ele>907.4</ele>
    </trkpt>
    <trkpt lat="42.310765" lon="-2.465596">
      <ele>908.7</ele>
    </trkpt>
    <trkpt lat="42.310869" lon="-2.465464">
      <ele>910.3</ele>
    </trkpt>
    <trkpt lat="42.310981" lon="-2.465429">
      <ele>911.5</ele>
    </trkpt>
    <trkpt lat="42.311029" lon="-2.465352">
      <ele>912.2</ele>
    </trkpt>
    <trkpt lat="42.311021" lon="-2.465141">
      <ele>913.4</ele>
    </trkpt>
    <trkpt lat="42.310959" lon="-2.464731">
      <ele>915.3</ele>
    </trkpt>
    <trkpt lat="42.311045" lon="-2.464563">
      <ele>916.1</ele>
    </trkpt>
    <trkpt lat="42.311228" lon="-2.464486">
      <ele>917</ele>
    </trkpt>
    <trkpt lat="42.311371" lon="-2.464465">
      <ele>917.7</ele>
    </trkpt>
    <trkpt lat="42.311526" lon="-2.464346">
      <ele>918.5</ele>
    </trkpt>
    <trkpt lat="42.31161" lon="-2.46421">
      <ele>919.2</ele>
    </trkpt>
    <trkpt lat="42.311633" lon="-2.464098">
      <ele>919.7</ele>
    </trkpt>
    <trkpt lat="42.311641" lon="-2.46357">
      <ele>922</ele>
    </trkpt>
    <trkpt lat="42.311661" lon="-2.463492">
      <ele>922.4</ele>
    </trkpt>
    <trkpt lat="42.311537" lon="-2.462786">
      <ele>926.4</ele>
    </trkpt>
    <trkpt lat="42.31149" lon="-2.462667">
      <ele>927.2</ele>
    </trkpt>
    <trkpt lat="42.311479" lon="-2.46226">
      <ele>929.8</ele>
    </trkpt>
    <trkpt lat="42.311351" lon="-2.461972">
      <ele>932</ele>
    </trkpt>
    <trkpt lat="42.31138" lon="-2.461898">
      <ele>932.6</ele>
    </trkpt>
    <trkpt lat="42.311451" lon="-2.461853">
      <ele>933.3</ele>
    </trkpt>
    <trkpt lat="42.31149" lon="-2.461697">
      <ele>934.3</ele>
    </trkpt>
    <trkpt lat="42.31142" lon="-2.46146">
      <ele>935.8</ele>
    </trkpt>
    <trkpt lat="42.311354" lon="-2.461316">
      <ele>936.7</ele>
    </trkpt>
    <trkpt lat="42.31119" lon="-2.461156">
      <ele>938</ele>
    </trkpt>
    <trkpt lat="42.310976" lon="-2.461063">
      <ele>939.4</ele>
    </trkpt>
    <trkpt lat="42.310771" lon="-2.460914">
      <ele>940.7</ele>
    </trkpt>
    <trkpt lat="42.310575" lon="-2.460622">
      <ele>942</ele>
    </trkpt>
    <trkpt lat="42.310187" lon="-2.460125">
      <ele>943.5</ele>
    </trkpt>
    <trkpt lat="42.310051" lon="-2.4599">
      <ele>943.7</ele>
    </trkpt>
    <trkpt lat="42.309906" lon="-2.459732">
      <ele>943.5</ele>
    </trkpt>
    <trkpt lat="42.309879" lon="-2.459622">
      <ele>943.4</ele>
    </trkpt>
    <trkpt lat="42.309961" lon="-2.459481">
      <ele>943.2</ele>
    </trkpt>
    <trkpt lat="42.310046" lon="-2.459471">
      <ele>943.1</ele>
    </trkpt>
    <trkpt lat="42.310148" lon="-2.459499">
      <ele>942.8</ele>
    </trkpt>
    <trkpt lat="42.310306" lon="-2.459679">
      <ele>942.4</ele>
    </trkpt>
    <trkpt lat="42.310464" lon="-2.459799">
      <ele>942</ele>
    </trkpt>
    <trkpt lat="42.310754" lon="-2.460157">
      <ele>941.2</ele>
    </trkpt>
    <trkpt lat="42.31087" lon="-2.460189">
      <ele>941</ele>
    </trkpt>
    <trkpt lat="42.311107" lon="-2.460114">
      <ele>940.7</ele>
    </trkpt>
    <trkpt lat="42.31132" lon="-2.460115">
      <ele>940.6</ele>
    </trkpt>
    <trkpt lat="42.311521" lon="-2.460032">
      <ele>940.6</ele>
    </trkpt>
    <trkpt lat="42.312016" lon="-2.459998">
      <ele>941.4</ele>
    </trkpt>
    <trkpt lat="42.3125" lon="-2.460098">
      <ele>943.3</ele>
    </trkpt>
    <trkpt lat="42.312984" lon="-2.460323">
      <ele>945.4</ele>
    </trkpt>
    <trkpt lat="42.313186" lon="-2.460364">
      <ele>946.3</ele>
    </trkpt>
    <trkpt lat="42.313492" lon="-2.460261">
      <ele>948.2</ele>
    </trkpt>
    <trkpt lat="42.313635" lon="-2.460256">
      <ele>949.2</ele>
    </trkpt>
    <trkpt lat="42.313893" lon="-2.460378">
      <ele>951.2</ele>
    </trkpt>
    <trkpt lat="42.314041" lon="-2.460405">
      <ele>952.3</ele>
    </trkpt>
    <trkpt lat="42.314243" lon="-2.460342">
      <ele>953.7</ele>
    </trkpt>
    <trkpt lat="42.314415" lon="-2.460176">
      <ele>954.9</ele>
    </trkpt>
    <trkpt lat="42.314484" lon="-2.459962">
      <ele>955.7</ele>
    </trkpt>
    <trkpt lat="42.314519" lon="-2.459574">
      <ele>957</ele>
    </trkpt>
    <trkpt lat="42.314594" lon="-2.459301">
      <ele>957.9</ele>
    </trkpt>
    <trkpt lat="42.31465" lon="-2.459264">
      <ele>958.2</ele>
    </trkpt>
    <trkpt lat="42.314941" lon="-2.459382">
      <ele>959.7</ele>
    </trkpt>
    <trkpt lat="42.315085" lon="-2.459325">
      <ele>960.4</ele>
    </trkpt>
    <trkpt lat="42.315607" lon="-2.458998">
      <ele>963.1</ele>
    </trkpt>
    <trkpt lat="42.315766" lon="-2.458863">
      <ele>964.1</ele>
    </trkpt>
    <trkpt lat="42.315997" lon="-2.458609">
      <ele>966.1</ele>
    </trkpt>
    <trkpt lat="42.316085" lon="-2.458371">
      <ele>967.6</ele>
    </trkpt>
    <trkpt lat="42.316106" lon="-2.458101">
      <ele>969.4</ele>
    </trkpt>
    <trkpt lat="42.316097" lon="-2.457934">
      <ele>970.4</ele>
    </trkpt>
    <trkpt lat="42.316041" lon="-2.457781">
      <ele>971.4</ele>
    </trkpt>
    <trkpt lat="42.315931" lon="-2.457683">
      <ele>972.2</ele>
    </trkpt>
    <trkpt lat="42.315848" lon="-2.457542">
      <ele>973</ele>
    </trkpt>
    <trkpt lat="42.315832" lon="-2.457462">
      <ele>973.3</ele>
    </trkpt>
    <trkpt lat="42.316003" lon="-2.457056">
      <ele>974.1</ele>
    </trkpt>
    <trkpt lat="42.316114" lon="-2.456904">
      <ele>974</ele>
    </trkpt>
    <trkpt lat="42.316198" lon="-2.456924">
      <ele>973.8</ele>
    </trkpt>
    <trkpt lat="42.316259" lon="-2.457">
      <ele>973.7</ele>
    </trkpt>
    <trkpt lat="42.31631" lon="-2.457175">
      <ele>973.5</ele>
    </trkpt>
    <trkpt lat="42.316277" lon="-2.457431">
      <ele>973.1</ele>
    </trkpt>
    <trkpt lat="42.316395" lon="-2.457578">
      <ele>972.8</ele>
    </trkpt>
    <trkpt lat="42.316608" lon="-2.458154">
      <ele>971.9</ele>
    </trkpt>
    <trkpt lat="42.316684" lon="-2.457879">
      <ele>971.6</ele>
    </trkpt>
    <trkpt lat="42.316868" lon="-2.457764">
      <ele>971.8</ele>
    </trkpt>
    <trkpt lat="42.317317" lon="-2.457373">
      <ele>974.2</ele>
    </trkpt>
    <trkpt lat="42.317415" lon="-2.457342">
      <ele>975.1</ele>
    </trkpt>
    <trkpt lat="42.317481" lon="-2.457358">
      <ele>975.7</ele>
    </trkpt>
    <trkpt lat="42.317594" lon="-2.457521">
      <ele>977.4</ele>
    </trkpt>
    <trkpt lat="42.317806" lon="-2.457742">
      <ele>980</ele>
    </trkpt>
    <trkpt lat="42.317971" lon="-2.457992">
      <ele>982.3</ele>
    </trkpt>
    <trkpt lat="42.318134" lon="-2.45808">
      <ele>983.9</ele>
    </trkpt>
    <trkpt lat="42.318245" lon="-2.458179">
      <ele>985.1</ele>
    </trkpt>
    <trkpt lat="42.31848" lon="-2.458208">
      <ele>987.1</ele>
    </trkpt>
    <trkpt lat="42.318632" lon="-2.458281">
      <ele>988.4</ele>
    </trkpt>
    <trkpt lat="42.318804" lon="-2.458267">
      <ele>989.7</ele>
    </trkpt>
    <trkpt lat="42.31874" lon="-2.458319">
      <ele>990.2</ele>
    </trkpt>
    <trkpt lat="42.318682" lon="-2.458423">
      <ele>990.9</ele>
    </trkpt>
    <trkpt lat="42.31866" lon="-2.458577">
      <ele>991.7</ele>
    </trkpt>
    <trkpt lat="42.318719" lon="-2.458759">
      <ele>992.7</ele>
    </trkpt>
    <trkpt lat="42.31878" lon="-2.458802">
      <ele>993.2</ele>
    </trkpt>
    <trkpt lat="42.318844" lon="-2.458764">
      <ele>993.6</ele>
    </trkpt>
    <trkpt lat="42.318948" lon="-2.458593">
      <ele>994.6</ele>
    </trkpt>
    <trkpt lat="42.319224" lon="-2.458297">
      <ele>996.8</ele>
    </trkpt>
    <trkpt lat="42.319431" lon="-2.457943">
      <ele>999.1</ele>
    </trkpt>
    <trkpt lat="42.31944" lon="-2.457928">
      <ele>999.2</ele>
    </trkpt>
    <trkpt lat="42.319498" lon="-2.457726">
      <ele>1000.4</ele>
    </trkpt>
    <trkpt lat="42.319536" lon="-2.457401">
      <ele>1002.5</ele>
    </trkpt>
    <trkpt lat="42.319392" lon="-2.456867">
      <ele>1006.7</ele>
    </trkpt>
    <trkpt lat="42.319299" lon="-2.45668">
      <ele>1008.5</ele>
    </trkpt>
    <trkpt lat="42.319235" lon="-2.456486">
      <ele>1010.2</ele>
    </trkpt>
    <trkpt lat="42.319231" lon="-2.456475">
      <ele>1010.3</ele>
    </trkpt>
    <trkpt lat="42.319209" lon="-2.456266">
      <ele>1012</ele>
    </trkpt>
    <trkpt lat="42.319083" lon="-2.455652">
      <ele>1016.9</ele>
    </trkpt>
    <trkpt lat="42.319081" lon="-2.455342">
      <ele>1019.2</ele>
    </trkpt>
    <trkpt lat="42.319038" lon="-2.455281">
      <ele>1019.8</ele>
    </trkpt>
    <trkpt lat="42.318875" lon="-2.455176">
      <ele>1021.4</ele>
    </trkpt>
    <trkpt lat="42.318852" lon="-2.454898">
      <ele>1023.3</ele>
    </trkpt>
    <trkpt lat="42.318785" lon="-2.454689">
      <ele>1024.8</ele>
    </trkpt>
    <trkpt lat="42.318681" lon="-2.454509">
      <ele>1026.4</ele>
    </trkpt>
    <trkpt lat="42.318619" lon="-2.45428">
      <ele>1028.1</ele>
    </trkpt>
    <trkpt lat="42.318616" lon="-2.454066">
      <ele>1029.7</ele>
    </trkpt>
    <trkpt lat="42.318487" lon="-2.453875">
      <ele>1031.7</ele>
    </trkpt>
    <trkpt lat="42.318507" lon="-2.45372">
      <ele>1032.9</ele>
    </trkpt>
    <trkpt lat="42.318503" lon="-2.453412">
      <ele>1035.3</ele>
    </trkpt>
    <trkpt lat="42.319014" lon="-2.453594">
      <ele>1041</ele>
    </trkpt>
    <trkpt lat="42.319299" lon="-2.453799">
      <ele>1044.4</ele>
    </trkpt>
    <trkpt lat="42.319366" lon="-2.453791">
      <ele>1045.1</ele>
    </trkpt>
    <trkpt lat="42.319469" lon="-2.453651">
      <ele>1046.5</ele>
    </trkpt>
    <trkpt lat="42.319522" lon="-2.453316">
      <ele>1048.8</ele>
    </trkpt>
    <trkpt lat="42.319659" lon="-2.452902">
      <ele>1051.7</ele>
    </trkpt>
    <trkpt lat="42.319861" lon="-2.45265">
      <ele>1053.8</ele>
    </trkpt>
    <trkpt lat="42.319893" lon="-2.452536">
      <ele>1054.6</ele>
    </trkpt>
    <trkpt lat="42.319899" lon="-2.452426">
      <ele>1055.2</ele>
    </trkpt>
    <trkpt lat="42.319851" lon="-2.452283">
      <ele>1056.2</ele>
    </trkpt>
    <trkpt lat="42.319026" lon="-2.450851">
      <ele>1070.1</ele>
    </trkpt>
    <trkpt lat="42.318989" lon="-2.450442">
      <ele>1073.9</ele>
    </trkpt>
    <trkpt lat="42.319078" lon="-2.449275">
      <ele>1084.9</ele>
    </trkpt>
    <trkpt lat="42.319088" lon="-2.448875">
      <ele>1088.5</ele>
    </trkpt>
    <trkpt lat="42.319123" lon="-2.44867">
      <ele>1090.3</ele>
    </trkpt>
    <trkpt lat="42.319183" lon="-2.448594">
      <ele>1091.3</ele>
    </trkpt>
    <trkpt lat="42.319108" lon="-2.448484">
      <ele>1092.5</ele>
    </trkpt>
    <trkpt lat="42.319017" lon="-2.448455">
      <ele>1093.6</ele>
    </trkpt>
    <trkpt lat="42.3188" lon="-2.448461">
      <ele>1096.1</ele>
    </trkpt>
    <trkpt lat="42.318448" lon="-2.448355">
      <ele>1100.2</ele>
    </trkpt>
    <trkpt lat="42.31819" lon="-2.448358">
      <ele>1103.1</ele>
    </trkpt>
    <trkpt lat="42.317709" lon="-2.448403">
      <ele>1108.8</ele>
    </trkpt>
    <trkpt lat="42.317391" lon="-2.448365">
      <ele>1112.9</ele>
    </trkpt>
    <trkpt lat="42.316815" lon="-2.448485">
      <ele>1121</ele>
    </trkpt>
    <trkpt lat="42.316405" lon="-2.448521">
      <ele>1126.9</ele>
    </trkpt>
    <trkpt lat="42.316053" lon="-2.448632">
      <ele>1132.6</ele>
    </trkpt>
    <trkpt lat="42.315771" lon="-2.448689">
      <ele>1137.3</ele>
    </trkpt>
    <trkpt lat="42.31553" lon="-2.44868">
      <ele>1141.4</ele>
    </trkpt>
    <trkpt lat="42.314958" lon="-2.448566">
      <ele>1151.1</ele>
    </trkpt>
    <trkpt lat="42.314692" lon="-2.448553">
      <ele>1155.1</ele>
    </trkpt>
    <trkpt lat="42.314101" lon="-2.448696">
      <ele>1162.1</ele>
    </trkpt>
    <trkpt lat="42.31391" lon="-2.448794">
      <ele>1164</ele>
    </trkpt>
    <trkpt lat="42.313719" lon="-2.448834">
      <ele>1165.8</ele>
    </trkpt>
    <trkpt lat="42.313509" lon="-2.448954">
      <ele>1167.5</ele>
    </trkpt>
    <trkpt lat="42.313217" lon="-2.449119">
      <ele>1169</ele>
    </trkpt>
    <trkpt lat="42.312729" lon="-2.449397">
      <ele>1169.9</ele>
    </trkpt>
    <trkpt lat="42.312224" lon="-2.451024">
      <ele>1167.2</ele>
    </trkpt>
    <trkpt lat="42.311777" lon="-2.452735">
      <ele>1152</ele>
    </trkpt>
    <trkpt lat="42.311631" lon="-2.452843">
      <ele>1149.4</ele>
    </trkpt>
    <trkpt lat="42.311494" lon="-2.45289">
      <ele>1147.1</ele>
    </trkpt>
    <trkpt lat="42.311154" lon="-2.452839">
      <ele>1141.2</ele>
    </trkpt>
    <trkpt lat="42.311181" lon="-2.452873">
      <ele>1140.5</ele>
    </trkpt>
    <trkpt lat="42.311104" lon="-2.452955">
      <ele>1138.7</ele>
    </trkpt>
    <trkpt lat="42.311121" lon="-2.453167">
      <ele>1135.6</ele>
    </trkpt>
    <trkpt lat="42.31107" lon="-2.453199">
      <ele>1134.5</ele>
    </trkpt>
    <trkpt lat="42.310949" lon="-2.453184">
      <ele>1132</ele>
    </trkpt>
    <trkpt lat="42.310934" lon="-2.453221">
      <ele>1131.3</ele>
    </trkpt>
    <trkpt lat="42.31097" lon="-2.453369">
      <ele>1128.9</ele>
    </trkpt>
    <trkpt lat="42.310483" lon="-2.453133">
      <ele>1117.9</ele>
    </trkpt>
    <trkpt lat="42.310578" lon="-2.453257">
      <ele>1114.9</ele>
    </trkpt>
    <trkpt lat="42.310521" lon="-2.453487">
      <ele>1110.9</ele>
    </trkpt>
    <trkpt lat="42.310375" lon="-2.453697">
      <ele>1106</ele>
    </trkpt>
    <trkpt lat="42.310184" lon="-2.453745">
      <ele>1101.4</ele>
    </trkpt>
    <trkpt lat="42.310144" lon="-2.453755">
      <ele>1100.4</ele>
    </trkpt>
    <trkpt lat="42.310108" lon="-2.453987">
      <ele>1096.1</ele>
    </trkpt>
    <trkpt lat="42.310056" lon="-2.454086">
      <ele>1093.8</ele>
    </trkpt>
    <trkpt lat="42.310084" lon="-2.454363">
      <ele>1088.6</ele>
    </trkpt>
    <trkpt lat="42.310167" lon="-2.454468">
      <ele>1085.8</ele>
    </trkpt>
    <trkpt lat="42.310232" lon="-2.454608">
      <ele>1082.8</ele>
    </trkpt>
    <trkpt lat="42.310252" lon="-2.45473">
      <ele>1080.5</ele>
    </trkpt>
    <trkpt lat="42.310414" lon="-2.455188">
      <ele>1071.5</ele>
    </trkpt>
    <trkpt lat="42.310457" lon="-2.455387">
      <ele>1067.9</ele>
    </trkpt>
    <trkpt lat="42.310416" lon="-2.455636">
      <ele>1063.4</ele>
    </trkpt>
    <trkpt lat="42.310437" lon="-2.455778">
      <ele>1060.9</ele>
    </trkpt>
    <trkpt lat="42.310484" lon="-2.455814">
      <ele>1059.6</ele>
    </trkpt>
    <trkpt lat="42.310564" lon="-2.455997">
      <ele>1056</ele>
    </trkpt>
    <trkpt lat="42.310627" lon="-2.456029">
      <ele>1054.5</ele>
    </trkpt>
    <trkpt lat="42.310729" lon="-2.456293">
      <ele>1049.3</ele>
    </trkpt>
    <trkpt lat="42.310868" lon="-2.456388">
      <ele>1045.8</ele>
    </trkpt>
    <trkpt lat="42.310878" lon="-2.456418">
      <ele>1045.3</ele>
    </trkpt>
    <trkpt lat="42.310846" lon="-2.456461">
      <ele>1044.3</ele>
    </trkpt>
    <trkpt lat="42.310846" lon="-2.456512">
      <ele>1043.5</ele>
    </trkpt>
    <trkpt lat="42.310964" lon="-2.456639">
      <ele>1040.2</ele>
    </trkpt>
    <trkpt lat="42.311045" lon="-2.456851">
      <ele>1036.5</ele>
    </trkpt>
    <trkpt lat="42.311121" lon="-2.45697">
      <ele>1034.3</ele>
    </trkpt>
    <trkpt lat="42.311381" lon="-2.457281">
      <ele>1028.4</ele>
    </trkpt>
    <trkpt lat="42.31148" lon="-2.457433">
      <ele>1026.2</ele>
    </trkpt>
    <trkpt lat="42.311628" lon="-2.457536">
      <ele>1024.1</ele>
    </trkpt>
    <trkpt lat="42.31175" lon="-2.457741">
      <ele>1022.1</ele>
    </trkpt>
    <trkpt lat="42.31187" lon="-2.457783">
      <ele>1021.1</ele>
    </trkpt>
    <trkpt lat="42.312362" lon="-2.457713">
      <ele>1018.7</ele>
    </trkpt>
    <trkpt lat="42.312574" lon="-2.457787">
      <ele>1018.6</ele>
    </trkpt>
    <trkpt lat="42.312731" lon="-2.4577">
      <ele>1018.9</ele>
    </trkpt>
    <trkpt lat="42.313186" lon="-2.457258">
      <ele>1021.7</ele>
    </trkpt>
    <trkpt lat="42.313484" lon="-2.457092">
      <ele>1023.1</ele>
    </trkpt>
    <trkpt lat="42.313706" lon="-2.456919">
      <ele>1023.9</ele>
    </trkpt>
    <trkpt lat="42.313923" lon="-2.456532">
      <ele>1024.5</ele>
    </trkpt>
    <trkpt lat="42.314228" lon="-2.456208">
      <ele>1024.5</ele>
    </trkpt>
    <trkpt lat="42.314655" lon="-2.45609">
      <ele>1024.1</ele>
    </trkpt>
    <trkpt lat="42.315241" lon="-2.455829">
      <ele>1023.6</ele>
    </trkpt>
    <trkpt lat="42.315582" lon="-2.455185">
      <ele>1023.9</ele>
    </trkpt>
    <trkpt lat="42.315605" lon="-2.454627">
      <ele>1024.4</ele>
    </trkpt>
    <trkpt lat="42.315591" lon="-2.454091">
      <ele>1024.6</ele>
    </trkpt>
    <trkpt lat="42.316179" lon="-2.453706">
      <ele>1024.8</ele>
    </trkpt>
    <trkpt lat="42.316486" lon="-2.453619">
      <ele>1024.8</ele>
    </trkpt>
    <trkpt lat="42.316819" lon="-2.45284">
      <ele>1024.6</ele>
    </trkpt>
    <trkpt lat="42.316879" lon="-2.452731">
      <ele>1024.7</ele>
    </trkpt>
    <trkpt lat="42.31708" lon="-2.452561">
      <ele>1025</ele>
    </trkpt>
    <trkpt lat="42.317206" lon="-2.452523">
      <ele>1025.4</ele>
    </trkpt>
    <trkpt lat="42.317251" lon="-2.452542">
      <ele>1025.6</ele>
    </trkpt>
    <trkpt lat="42.317684" lon="-2.452822">
      <ele>1027.7</ele>
    </trkpt>
    <trkpt lat="42.317803" lon="-2.453019">
      <ele>1028.3</ele>
    </trkpt>
    <trkpt lat="42.317852" lon="-2.4532">
      <ele>1028.5</ele>
    </trkpt>
    <trkpt lat="42.317921" lon="-2.453276">
      <ele>1028.6</ele>
    </trkpt>
    <trkpt lat="42.318055" lon="-2.453398">
      <ele>1028.6</ele>
    </trkpt>
    <trkpt lat="42.318145" lon="-2.453421">
      <ele>1028.6</ele>
    </trkpt>
    <trkpt lat="42.318503" lon="-2.453412">
      <ele>1028.3</ele>
    </trkpt>
    <trkpt lat="42.318507" lon="-2.45372">
      <ele>1028</ele>
    </trkpt>
    <trkpt lat="42.318487" lon="-2.453875">
      <ele>1027.9</ele>
    </trkpt>
    <trkpt lat="42.318616" lon="-2.454066">
      <ele>1027.5</ele>
    </trkpt>
    <trkpt lat="42.318619" lon="-2.45428">
      <ele>1026.9</ele>
    </trkpt>
    <trkpt lat="42.318681" lon="-2.454509">
      <ele>1025.9</ele>
    </trkpt>
    <trkpt lat="42.318785" lon="-2.454689">
      <ele>1024.7</ele>
    </trkpt>
    <trkpt lat="42.318852" lon="-2.454898">
      <ele>1023.3</ele>
    </trkpt>
    <trkpt lat="42.318875" lon="-2.455176">
      <ele>1021.4</ele>
    </trkpt>
    <trkpt lat="42.319038" lon="-2.455281">
      <ele>1019.8</ele>
    </trkpt>
    <trkpt lat="42.319081" lon="-2.455342">
      <ele>1019.2</ele>
    </trkpt>
    <trkpt lat="42.319083" lon="-2.455652">
      <ele>1016.9</ele>
    </trkpt>
    <trkpt lat="42.319209" lon="-2.456266">
      <ele>1012</ele>
    </trkpt>
    <trkpt lat="42.319231" lon="-2.456475">
      <ele>1010.3</ele>
    </trkpt>
    <trkpt lat="42.319235" lon="-2.456486">
      <ele>1010.2</ele>
    </trkpt>
    <trkpt lat="42.319299" lon="-2.45668">
      <ele>1008.5</ele>
    </trkpt>
    <trkpt lat="42.319392" lon="-2.456867">
      <ele>1006.7</ele>
    </trkpt>
    <trkpt lat="42.319536" lon="-2.457401">
      <ele>1002.5</ele>
    </trkpt>
    <trkpt lat="42.319498" lon="-2.457726">
      <ele>1000.4</ele>
    </trkpt>
    <trkpt lat="42.31944" lon="-2.457928">
      <ele>999.2</ele>
    </trkpt>
    <trkpt lat="42.319431" lon="-2.457943">
      <ele>999.1</ele>
    </trkpt>
    <trkpt lat="42.319224" lon="-2.458297">
      <ele>996.8</ele>
    </trkpt>
    <trkpt lat="42.318948" lon="-2.458593">
      <ele>994.6</ele>
    </trkpt>
    <trkpt lat="42.318844" lon="-2.458764">
      <ele>993.6</ele>
    </trkpt>
    <trkpt lat="42.31878" lon="-2.458802">
      <ele>993.2</ele>
    </trkpt>
    <trkpt lat="42.318719" lon="-2.458759">
      <ele>992.7</ele>
    </trkpt>
    <trkpt lat="42.31866" lon="-2.458577">
      <ele>991.7</ele>
    </trkpt>
    <trkpt lat="42.318682" lon="-2.458423">
      <ele>990.9</ele>
    </trkpt>
    <trkpt lat="42.31874" lon="-2.458319">
      <ele>990.2</ele>
    </trkpt>
    <trkpt lat="42.318804" lon="-2.458267">
      <ele>989.7</ele>
    </trkpt>
    <trkpt lat="42.318632" lon="-2.458281">
      <ele>988.4</ele>
    </trkpt>
    <trkpt lat="42.31848" lon="-2.458208">
      <ele>987.1</ele>
    </trkpt>
    <trkpt lat="42.318245" lon="-2.458179">
      <ele>985.1</ele>
    </trkpt>
    <trkpt lat="42.318134" lon="-2.45808">
      <ele>983.9</ele>
    </trkpt>
    <trkpt lat="42.317971" lon="-2.457992">
      <ele>982.3</ele>
    </trkpt>
    <trkpt lat="42.317806" lon="-2.457742">
      <ele>980</ele>
    </trkpt>
    <trkpt lat="42.317594" lon="-2.457521">
      <ele>977.4</ele>
    </trkpt>
    <trkpt lat="42.317481" lon="-2.457358">
      <ele>975.7</ele>
    </trkpt>
    <trkpt lat="42.317415" lon="-2.457342">
      <ele>975</ele>
    </trkpt>
    <trkpt lat="42.317317" lon="-2.457373">
      <ele>974</ele>
    </trkpt>
    <trkpt lat="42.316868" lon="-2.457764">
      <ele>968.5</ele>
    </trkpt>
    <trkpt lat="42.316684" lon="-2.457879">
      <ele>966.3</ele>
    </trkpt>
    <trkpt lat="42.316608" lon="-2.458154">
      <ele>964</ele>
    </trkpt>
    <trkpt lat="42.31648" lon="-2.459172">
      <ele>955.5</ele>
    </trkpt>
    <trkpt lat="42.316305" lon="-2.459691">
      <ele>950.7</ele>
    </trkpt>
    <trkpt lat="42.316144" lon="-2.459902">
      <ele>948.2</ele>
    </trkpt>
    <trkpt lat="42.315879" lon="-2.460049">
      <ele>945</ele>
    </trkpt>
    <trkpt lat="42.315742" lon="-2.460158">
      <ele>943.3</ele>
    </trkpt>
    <trkpt lat="42.3156" lon="-2.46044">
      <ele>940.5</ele>
    </trkpt>
    <trkpt lat="42.315524" lon="-2.460657">
      <ele>938.5</ele>
    </trkpt>
    <trkpt lat="42.315216" lon="-2.461905">
      <ele>927.1</ele>
    </trkpt>
    <trkpt lat="42.315055" lon="-2.462226">
      <ele>923.4</ele>
    </trkpt>
    <trkpt lat="42.314345" lon="-2.462629">
      <ele>912.6</ele>
    </trkpt>
    <trkpt lat="42.314118" lon="-2.462802">
      <ele>908.5</ele>
    </trkpt>
    <trkpt lat="42.313754" lon="-2.462802">
      <ele>902.6</ele>
    </trkpt>
    <trkpt lat="42.313441" lon="-2.462917">
      <ele>897.5</ele>
    </trkpt>
    <trkpt lat="42.313209" lon="-2.463039">
      <ele>893.8</ele>
    </trkpt>
    <trkpt lat="42.312973" lon="-2.463378">
      <ele>889.2</ele>
    </trkpt>
    <trkpt lat="42.312898" lon="-2.463694">
      <ele>886.1</ele>
    </trkpt>
    <trkpt lat="42.312712" lon="-2.464914">
      <ele>876.3</ele>
    </trkpt>
    <trkpt lat="42.312248" lon="-2.465836">
      <ele>868.5</ele>
    </trkpt>
    <trkpt lat="42.312135" lon="-2.466367">
      <ele>863.7</ele>
    </trkpt>
    <trkpt lat="42.311766" lon="-2.466873">
      <ele>856.4</ele>
    </trkpt>
    <trkpt lat="42.31159" lon="-2.467058">
      <ele>853</ele>
    </trkpt>
    <trkpt lat="42.311529" lon="-2.467609">
      <ele>846.2</ele>
    </trkpt>
    <trkpt lat="42.311325" lon="-2.467948">
      <ele>840.7</ele>
    </trkpt>
    <trkpt lat="42.311283" lon="-2.468166">
      <ele>837.7</ele>
    </trkpt>
    <trkpt lat="42.31106" lon="-2.468524">
      <ele>831.5</ele>
    </trkpt>
    <trkpt lat="42.311018" lon="-2.469075">
      <ele>824.3</ele>
    </trkpt>
    <trkpt lat="42.310937" lon="-2.469478">
      <ele>819.2</ele>
    </trkpt>
    <trkpt lat="42.311032" lon="-2.469741">
      <ele>815.8</ele>
    </trkpt>
    <trkpt lat="42.311112" lon="-2.470203">
      <ele>810.6</ele>
    </trkpt>
    <trkpt lat="42.311209" lon="-2.470338">
      <ele>808.8</ele>
    </trkpt>
    <trkpt lat="42.311262" lon="-2.470357">
      <ele>808.2</ele>
    </trkpt>
    <trkpt lat="42.311329" lon="-2.470432">
      <ele>806.9</ele>
    </trkpt>
    <trkpt lat="42.311348" lon="-2.470496">
      <ele>806.2</ele>
    </trkpt>
    <trkpt lat="42.31129" lon="-2.470885">
      <ele>801.8</ele>
    </trkpt>
    <trkpt lat="42.311341" lon="-2.47124">
      <ele>798.1</ele>
    </trkpt>
    <trkpt lat="42.311343" lon="-2.471454">
      <ele>796.3</ele>
    </trkpt>
    <trkpt lat="42.3114" lon="-2.47154">
      <ele>795.5</ele>
    </trkpt>
    <trkpt lat="42.311444" lon="-2.47174">
      <ele>794.1</ele>
    </trkpt>
    <trkpt lat="42.311438" lon="-2.471866">
      <ele>793.2</ele>
    </trkpt>
    <trkpt lat="42.311488" lon="-2.471942">
      <ele>792.7</ele>
    </trkpt>
    <trkpt lat="42.311526" lon="-2.472089">
      <ele>792</ele>
    </trkpt>
    <trkpt lat="42.311516" lon="-2.472117">
      <ele>791.8</ele>
    </trkpt>
    <trkpt lat="42.311448" lon="-2.472156">
      <ele>791.2</ele>
    </trkpt>
    <trkpt lat="42.311271" lon="-2.472166">
      <ele>790.1</ele>
    </trkpt>
    <trkpt lat="42.311624" lon="-2.472512">
      <ele>787.5</ele>
    </trkpt>
    <trkpt lat="42.311919" lon="-2.472704">
      <ele>785.6</ele>
    </trkpt>
    <trkpt lat="42.311989" lon="-2.472793">
      <ele>785.3</ele>
    </trkpt>
    <trkpt lat="42.312027" lon="-2.473511">
      <ele>784.8</ele>
    </trkpt>
    <trkpt lat="42.312067" lon="-2.473597">
      <ele>784.8</ele>
    </trkpt>
    <trkpt lat="42.312184" lon="-2.473732">
      <ele>784.6</ele>
    </trkpt>
    <trkpt lat="42.312364" lon="-2.473973">
      <ele>784.4</ele>
    </trkpt>
    <trkpt lat="42.312452" lon="-2.474033">
      <ele>784.5</ele>
    </trkpt>
    <trkpt lat="42.312629" lon="-2.474038">
      <ele>784.6</ele>
    </trkpt>
    <trkpt lat="42.312758" lon="-2.474083">
      <ele>784.9</ele>
    </trkpt>
    <trkpt lat="42.313156" lon="-2.474289">
      <ele>786.4</ele>
    </trkpt>
    <trkpt lat="42.313882" lon="-2.474267">
      <ele>790.2</ele>
    </trkpt>
    <trkpt lat="42.314102" lon="-2.474224">
      <ele>790.9</ele>
    </trkpt>
    <trkpt lat="42.314397" lon="-2.474122">
      <ele>791.6</ele>
    </trkpt>
    <trkpt lat="42.314502" lon="-2.47413">
      <ele>791.8</ele>
    </trkpt>
    <trkpt lat="42.314632" lon="-2.474284">
      <ele>792.2</ele>
    </trkpt>
    <trkpt lat="42.314697" lon="-2.474494">
      <ele>792.5</ele>
    </trkpt>
    <trkpt lat="42.314778" lon="-2.474955">
      <ele>792.7</ele>
    </trkpt>
    <trkpt lat="42.314968" lon="-2.475801">
      <ele>792.9</ele>
    </trkpt>
    <trkpt lat="42.315158" lon="-2.476217">
      <ele>794</ele>
    </trkpt>
    <trkpt lat="42.315215" lon="-2.476269">
      <ele>794.3</ele>
    </trkpt>
    <trkpt lat="42.315297" lon="-2.476291">
      <ele>794.8</ele>
    </trkpt>
    <trkpt lat="42.31561" lon="-2.476306">
      <ele>796.7</ele>
    </trkpt>
    <trkpt lat="42.315669" lon="-2.476334">
      <ele>797.1</ele>
    </trkpt>
    <trkpt lat="42.315939" lon="-2.476718">
      <ele>799.1</ele>
    </trkpt>
    <trkpt lat="42.316056" lon="-2.476778">
      <ele>799.8</ele>
    </trkpt>
    <trkpt lat="42.316291" lon="-2.476755">
      <ele>801</ele>
    </trkpt>
    <trkpt lat="42.316518" lon="-2.476689">
      <ele>802.3</ele>
    </trkpt>
    <trkpt lat="42.316934" lon="-2.476452">
      <ele>804.1</ele>
    </trkpt>
    <trkpt lat="42.317107" lon="-2.476421">
      <ele>804.5</ele>
    </trkpt>
    <trkpt lat="42.317247" lon="-2.476396">
      <ele>804.7</ele>
    </trkpt>
    <trkpt lat="42.317634" lon="-2.476434">
      <ele>804.6</ele>
    </trkpt>
    <trkpt lat="42.317752" lon="-2.476493">
      <ele>804.4</ele>
    </trkpt>
    <trkpt lat="42.317923" lon="-2.476652">
      <ele>803.9</ele>
    </trkpt>
    <trkpt lat="42.318029" lon="-2.476682">
      <ele>803.6</ele>
    </trkpt>
    <trkpt lat="42.318154" lon="-2.476677">
      <ele>803.2</ele>
    </trkpt>
    <trkpt lat="42.318357" lon="-2.476548">
      <ele>802.4</ele>
    </trkpt>
    <trkpt lat="42.318479" lon="-2.476551">
      <ele>801.9</ele>
    </trkpt>
    <trkpt lat="42.318697" lon="-2.47666">
      <ele>800.8</ele>
    </trkpt>
    <trkpt lat="42.319125" lon="-2.476704">
      <ele>798.5</ele>
    </trkpt>
    <trkpt lat="42.319761" lon="-2.476905">
      <ele>794.4</ele>
    </trkpt>
    <trkpt lat="42.319888" lon="-2.476908">
      <ele>793.7</ele>
    </trkpt>
    <trkpt lat="42.320116" lon="-2.476824">
      <ele>792.6</ele>
    </trkpt>
    <trkpt lat="42.320328" lon="-2.476942">
      <ele>791.4</ele>
    </trkpt>
    <trkpt lat="42.320623" lon="-2.477078">
      <ele>789.8</ele>
    </trkpt>
    <trkpt lat="42.320705" lon="-2.477197">
      <ele>789.1</ele>
    </trkpt>
    <trkpt lat="42.320816" lon="-2.477267">
      <ele>788.3</ele>
    </trkpt>
    <trkpt lat="42.320859" lon="-2.477408">
      <ele>787.5</ele>
    </trkpt>
    <trkpt lat="42.321059" lon="-2.47756">
      <ele>785.8</ele>
    </trkpt>
    <trkpt lat="42.321193" lon="-2.477548">
      <ele>784.7</ele>
    </trkpt>
    <trkpt lat="42.321765" lon="-2.477979">
      <ele>777.2</ele>
    </trkpt>
    <trkpt lat="42.321839" lon="-2.478059">
      <ele>775.8</ele>
    </trkpt>
    <trkpt lat="42.321973" lon="-2.478067">
      <ele>773.7</ele>
    </trkpt>
    <trkpt lat="42.322186" lon="-2.47829">
      <ele>768.9</ele>
    </trkpt>
    <trkpt lat="42.322289" lon="-2.478665">
      <ele>763.4</ele>
    </trkpt>
    <trkpt lat="42.322603" lon="-2.478887">
      <ele>756.7</ele>
    </trkpt>
    <trkpt lat="42.322878" lon="-2.479317">
      <ele>748.4</ele>
    </trkpt>
    <trkpt lat="42.322999" lon="-2.479383">
      <ele>745.9</ele>
    </trkpt>
    <trkpt lat="42.323143" lon="-2.479702">
      <ele>740.9</ele>
    </trkpt>
    <trkpt lat="42.323341" lon="-2.479917">
      <ele>736.6</ele>
    </trkpt>
    <trkpt lat="42.323474" lon="-2.480263">
      <ele>732.1</ele>
    </trkpt>
    <trkpt lat="42.323336" lon="-2.480511">
      <ele>728.7</ele>
    </trkpt>
    <trkpt lat="42.323397" lon="-2.480855">
      <ele>725</ele>
    </trkpt>
    <trkpt lat="42.323416" lon="-2.481082">
      <ele>722.4</ele>
    </trkpt>
    <trkpt lat="42.323431" lon="-2.481262">
      <ele>720.3</ele>
    </trkpt>
    <trkpt lat="42.323534" lon="-2.481418">
      <ele>717.9</ele>
    </trkpt>
    <trkpt lat="42.323511" lon="-2.481541">
      <ele>716.4</ele>
    </trkpt>
    <trkpt lat="42.323384" lon="-2.48168">
      <ele>713.7</ele>
    </trkpt>
    <trkpt lat="42.32309" lon="-2.481675">
      <ele>708.7</ele>
    </trkpt>
    <trkpt lat="42.322848" lon="-2.481981">
      <ele>702.8</ele>
    </trkpt>
    <trkpt lat="42.322344" lon="-2.482152">
      <ele>693.7</ele>
    </trkpt>
    <trkpt lat="42.321916" lon="-2.482452">
      <ele>685.8</ele>
    </trkpt>
    <trkpt lat="42.321773" lon="-2.482451">
      <ele>683.6</ele>
    </trkpt>
    <trkpt lat="42.321601" lon="-2.481986">
      <ele>677.8</ele>
    </trkpt>
    <trkpt lat="42.321524" lon="-2.48202">
      <ele>676.7</ele>
    </trkpt>
    <trkpt lat="42.321415" lon="-2.482372">
      <ele>673</ele>
    </trkpt>
    <trkpt lat="42.321308" lon="-2.482546">
      <ele>671.1</ele>
    </trkpt>
    <trkpt lat="42.321214" lon="-2.483176">
      <ele>666</ele>
    </trkpt>
    <trkpt lat="42.321125" lon="-2.483477">
      <ele>663.3</ele>
    </trkpt>
    <trkpt lat="42.321124" lon="-2.483551">
      <ele>662.7</ele>
    </trkpt>
    <trkpt lat="42.321219" lon="-2.483647">
      <ele>661.4</ele>
    </trkpt>
    <trkpt lat="42.321652" lon="-2.483879">
      <ele>656.6</ele>
    </trkpt>
    <trkpt lat="42.32184" lon="-2.484011">
      <ele>654.7</ele>
    </trkpt>
    <trkpt lat="42.322009" lon="-2.484021">
      <ele>653.4</ele>
    </trkpt>
    <trkpt lat="42.322137" lon="-2.484085">
      <ele>652.3</ele>
    </trkpt>
    <trkpt lat="42.322422" lon="-2.484278">
      <ele>649.9</ele>
    </trkpt>
    <trkpt lat="42.322906" lon="-2.484791">
      <ele>645.4</ele>
    </trkpt>
    <trkpt lat="42.323505" lon="-2.485273">
      <ele>640.6</ele>
    </trkpt>
    <trkpt lat="42.323755" lon="-2.485331">
      <ele>639</ele>
    </trkpt>
    <trkpt lat="42.323933" lon="-2.485506">
      <ele>637.5</ele>
    </trkpt>
    <trkpt lat="42.323998" lon="-2.485537">
      <ele>637.1</ele>
    </trkpt>
    <trkpt lat="42.324042" lon="-2.485525">
      <ele>636.8</ele>
    </trkpt>
    <trkpt lat="42.324144" lon="-2.485392">
      <ele>635.9</ele>
    </trkpt>
    <trkpt lat="42.324177" lon="-2.485406">
      <ele>635.6</ele>
    </trkpt>
    <trkpt lat="42.32421" lon="-2.485436">
      <ele>635.4</ele>
    </trkpt>
    <trkpt lat="42.324289" lon="-2.485651">
      <ele>634.2</ele>
    </trkpt>
    <trkpt lat="42.324368" lon="-2.485764">
      <ele>633.4</ele>
    </trkpt>
    <trkpt lat="42.324636" lon="-2.485963">
      <ele>631.4</ele>
    </trkpt>
    <trkpt lat="42.32491" lon="-2.486255">
      <ele>629.2</ele>
    </trkpt>
    <trkpt lat="42.325097" lon="-2.486588">
      <ele>627.3</ele>
    </trkpt>
    <trkpt lat="42.3254" lon="-2.487018">
      <ele>624.6</ele>
    </trkpt>
    <trkpt lat="42.325479" lon="-2.486994">
      <ele>624.1</ele>
    </trkpt>
    <trkpt lat="42.32558" lon="-2.487064">
      <ele>623.5</ele>
    </trkpt>
    <trkpt lat="42.325781" lon="-2.48742">
      <ele>621.7</ele>
    </trkpt>
    <trkpt lat="42.325818" lon="-2.48755">
      <ele>621.2</ele>
    </trkpt>
    <trkpt lat="42.32584" lon="-2.487934">
      <ele>619.8</ele>
    </trkpt>
    <trkpt lat="42.325869" lon="-2.488033">
      <ele>619.4</ele>
    </trkpt>
    <trkpt lat="42.325991" lon="-2.488263">
      <ele>618.4</ele>
    </trkpt>
    <trkpt lat="42.32634" lon="-2.488808">
      <ele>615.6</ele>
    </trkpt>
    <trkpt lat="42.326494" lon="-2.489112">
      <ele>614.1</ele>
    </trkpt>
    <trkpt lat="42.326856" lon="-2.489926">
      <ele>610.1</ele>
    </trkpt>
    <trkpt lat="42.327045" lon="-2.49048">
      <ele>608</ele>
    </trkpt>
    <trkpt lat="42.327229" lon="-2.490803">
      <ele>606.9</ele>
    </trkpt>
    <trkpt lat="42.327308" lon="-2.490878">
      <ele>606.7</ele>
    </trkpt>
    <trkpt lat="42.327563" lon="-2.491005">
      <ele>606.1</ele>
    </trkpt>
    <trkpt lat="42.327818" lon="-2.491466">
      <ele>605.7</ele>
    </trkpt>
    <trkpt lat="42.327923" lon="-2.491598">
      <ele>605.7</ele>
    </trkpt>
    <trkpt lat="42.328129" lon="-2.491752">
      <ele>605.9</ele>
    </trkpt>
    <trkpt lat="42.328227" lon="-2.491816">
      <ele>606</ele>
    </trkpt>
    <trkpt lat="42.328586" lon="-2.491827">
      <ele>606.7</ele>
    </trkpt>
    <trkpt lat="42.328678" lon="-2.491863">
      <ele>607</ele>
    </trkpt>
    <trkpt lat="42.328778" lon="-2.491935">
      <ele>607.4</ele>
    </trkpt>
    <trkpt lat="42.328872" lon="-2.492067">
      <ele>608</ele>
    </trkpt>
    <trkpt lat="42.329114" lon="-2.492288">
      <ele>609.4</ele>
    </trkpt>
    <trkpt lat="42.329187" lon="-2.492322">
      <ele>609.8</ele>
    </trkpt>
    <trkpt lat="42.329354" lon="-2.492361">
      <ele>610.8</ele>
    </trkpt>
    <trkpt lat="42.329826" lon="-2.492349">
      <ele>614.2</ele>
    </trkpt>
    <trkpt lat="42.33016" lon="-2.492044">
      <ele>617.7</ele>
    </trkpt>
    <trkpt lat="42.330223" lon="-2.49194">
      <ele>618.6</ele>
    </trkpt>
    <trkpt lat="42.330312" lon="-2.491702">
      <ele>620.4</ele>
    </trkpt>
    <trkpt lat="42.330411" lon="-2.491183">
      <ele>623.6</ele>
    </trkpt>
    <trkpt lat="42.330554" lon="-2.490793">
      <ele>625.6</ele>
    </trkpt>
    <trkpt lat="42.330596" lon="-2.490584">
      <ele>626.4</ele>
    </trkpt>
    <trkpt lat="42.330612" lon="-2.490416">
      <ele>626.9</ele>
    </trkpt>
    <trkpt lat="42.330554" lon="-2.489867">
      <ele>627.8</ele>
    </trkpt>
    <trkpt lat="42.330603" lon="-2.489476">
      <ele>627.9</ele>
    </trkpt>
    <trkpt lat="42.33082" lon="-2.488972">
      <ele>627.4</ele>
    </trkpt>
    <trkpt lat="42.33103" lon="-2.488677">
      <ele>626.7</ele>
    </trkpt>
    <trkpt lat="42.331378" lon="-2.488522">
      <ele>625.8</ele>
    </trkpt>
    <trkpt lat="42.331519" lon="-2.488413">
      <ele>625.5</ele>
    </trkpt>
    <trkpt lat="42.331957" lon="-2.487777">
      <ele>624.6</ele>
    </trkpt>
    <trkpt lat="42.332168" lon="-2.487598">
      <ele>624.4</ele>
    </trkpt>
    <trkpt lat="42.332506" lon="-2.486956">
      <ele>624</ele>
    </trkpt>
    <trkpt lat="42.332922" lon="-2.486488">
      <ele>623.3</ele>
    </trkpt>
    <trkpt lat="42.333054" lon="-2.486448">
      <ele>623.1</ele>
    </trkpt>
    <trkpt lat="42.333453" lon="-2.4864">
      <ele>622</ele>
    </trkpt>
    <trkpt lat="42.333619" lon="-2.48643">
      <ele>621.6</ele>
    </trkpt>
    <trkpt lat="42.334256" lon="-2.48691">
      <ele>620.9</ele>
    </trkpt>
    <trkpt lat="42.334372" lon="-2.487073">
      <ele>621.3</ele>
    </trkpt>
    <trkpt lat="42.334421" lon="-2.487142">
      <ele>621.5</ele>
    </trkpt>
    <trkpt lat="42.334443" lon="-2.487173">
      <ele>621.6</ele>
    </trkpt>
    <trkpt lat="42.334595" lon="-2.487046">
      <ele>622.1</ele>
    </trkpt>
    <trkpt lat="42.334664" lon="-2.487045">
      <ele>622.2</ele>
    </trkpt>
    <trkpt lat="42.334678" lon="-2.487217">
      <ele>622.4</ele>
    </trkpt>
    <trkpt lat="42.334651" lon="-2.487211">
      <ele>622.4</ele>
    </trkpt>
    <trkpt lat="42.334623" lon="-2.487361">
      <ele>622.5</ele>
    </trkpt>
    <trkpt lat="42.334723" lon="-2.487464">
      <ele>622.4</ele>
    </trkpt>
    <trkpt lat="42.334766" lon="-2.487509">
      <ele>622.5</ele>
    </trkpt>
    <trkpt lat="42.334831" lon="-2.487671">
      <ele>622.5</ele>
    </trkpt>
    <trkpt lat="42.334963" lon="-2.487656">
      <ele>622.6</ele>
    </trkpt>
    <trkpt lat="42.335129" lon="-2.487633">
      <ele>622.6</ele>
    </trkpt>
    <trkpt lat="42.33513" lon="-2.48742">
      <ele>622.5</ele>
    </trkpt>
    <trkpt lat="42.335119" lon="-2.487195">
      <ele>622.3</ele>
    </trkpt>
    <trkpt lat="42.335093" lon="-2.486994">
      <ele>621.9</ele>
    </trkpt>
    <trkpt lat="42.335141" lon="-2.48688">
      <ele>621.5</ele>
    </trkpt>
    <trkpt lat="42.335195" lon="-2.486841">
      <ele>621.2</ele>
    </trkpt>
    <trkpt lat="42.335503" lon="-2.48706">
      <ele>618.8</ele>
    </trkpt>
    <trkpt lat="42.335569" lon="-2.487099">
      <ele>618.1</ele>
    </trkpt>
    <trkpt lat="42.335986" lon="-2.487549">
      <ele>612.5</ele>
    </trkpt>
    <trkpt lat="42.336107" lon="-2.48753">
      <ele>611.3</ele>
    </trkpt>
    <trkpt lat="42.336274" lon="-2.487881">
      <ele>608</ele>
    </trkpt>
    <trkpt lat="42.336281" lon="-2.487992">
      <ele>607</ele>
    </trkpt>
    <trkpt lat="42.33637" lon="-2.488039">
      <ele>605.7</ele>
    </trkpt>
    <trkpt lat="42.336503" lon="-2.488178">
      <ele>603.4</ele>
    </trkpt>
    <trkpt lat="42.336623" lon="-2.488014">
      <ele>600.9</ele>
    </trkpt>
    <trkpt lat="42.336628" lon="-2.487693">
      <ele>597.1</ele>
    </trkpt>
    <trkpt lat="42.336665" lon="-2.487537">
      <ele>595.1</ele>
    </trkpt>
    <trkpt lat="42.336778" lon="-2.487263">
      <ele>591.2</ele>
    </trkpt>
    <trkpt lat="42.337043" lon="-2.487033">
      <ele>585.7</ele>
    </trkpt>
    <trkpt lat="42.337144" lon="-2.486909">
      <ele>583.3</ele>
    </trkpt>
    <trkpt lat="42.337442" lon="-2.48677">
      <ele>577.7</ele>
    </trkpt>
    <trkpt lat="42.337666" lon="-2.486719">
      <ele>573.7</ele>
    </trkpt>
    <trkpt lat="42.338066" lon="-2.486687">
      <ele>566.9</ele>
    </trkpt>
    <trkpt lat="42.338621" lon="-2.48651">
      <ele>558.4</ele>
    </trkpt>
    <trkpt lat="42.338838" lon="-2.486467">
      <ele>555.6</ele>
    </trkpt>
    <trkpt lat="42.339167" lon="-2.486504">
      <ele>551.7</ele>
    </trkpt>
    <trkpt lat="42.339317" lon="-2.486601">
      <ele>549.8</ele>
    </trkpt>
    <trkpt lat="42.339476" lon="-2.486644">
      <ele>548.1</ele>
    </trkpt>
    <trkpt lat="42.339797" lon="-2.486646">
      <ele>545.1</ele>
    </trkpt>
    <trkpt lat="42.339984" lon="-2.486638">
      <ele>543.5</ele>
    </trkpt>
    <trkpt lat="42.340142" lon="-2.486708">
      <ele>542.1</ele>
    </trkpt>
    <trkpt lat="42.340614" lon="-2.487062">
      <ele>538.5</ele>
    </trkpt>
    <trkpt lat="42.340745" lon="-2.487121">
      <ele>537.6</ele>
    </trkpt>
    <trkpt lat="42.340995" lon="-2.487325">
      <ele>535.9</ele>
    </trkpt>
    <trkpt lat="42.341427" lon="-2.487797">
      <ele>533.4</ele>
    </trkpt>
    <trkpt lat="42.341597" lon="-2.487942">
      <ele>532.6</ele>
    </trkpt>
    <trkpt lat="42.34191" lon="-2.488108">
      <ele>531.4</ele>
    </trkpt>
    <trkpt lat="42.342072" lon="-2.48793">
      <ele>530.7</ele>
    </trkpt>
    <trkpt lat="42.342334" lon="-2.48741">
      <ele>529.4</ele>
    </trkpt>
    <trkpt lat="42.342473" lon="-2.487415">
      <ele>529.1</ele>
    </trkpt>
    <trkpt lat="42.343087" lon="-2.48676">
      <ele>527.4</ele>
    </trkpt>
    <trkpt lat="42.343551" lon="-2.486433">
      <ele>526.4</ele>
    </trkpt>
    <trkpt lat="42.344106" lon="-2.48624">
      <ele>525.2</ele>
    </trkpt>
    <trkpt lat="42.344182" lon="-2.486133">
      <ele>525</ele>
    </trkpt>
    <trkpt lat="42.344186" lon="-2.485956">
      <ele>524.7</ele>
    </trkpt>
    <trkpt lat="42.34509" lon="-2.486551">
      <ele>522.4</ele>
    </trkpt>
    <trkpt lat="42.345288" lon="-2.48653">
      <ele>522</ele>
    </trkpt>
    <trkpt lat="42.345474" lon="-2.486304">
      <ele>521.5</ele>
    </trkpt>
    <trkpt lat="42.345843" lon="-2.485982">
      <ele>520.8</ele>
    </trkpt>
    <trkpt lat="42.346065" lon="-2.485902">
      <ele>520.6</ele>
    </trkpt>
    <trkpt lat="42.346227" lon="-2.485806">
      <ele>520.5</ele>
    </trkpt>
    <trkpt lat="42.346453" lon="-2.48565">
      <ele>520.3</ele>
    </trkpt>
    <trkpt lat="42.346509" lon="-2.485559">
      <ele>520.3</ele>
    </trkpt>
    <trkpt lat="42.347104" lon="-2.485274">
      <ele>519.9</ele>
    </trkpt>
    <trkpt lat="42.347377" lon="-2.485178">
      <ele>519.6</ele>
    </trkpt>
    <trkpt lat="42.347866" lon="-2.485178">
      <ele>518.9</ele>
    </trkpt>
    <trkpt lat="42.348051" lon="-2.485162">
      <ele>518.6</ele>
    </trkpt>
    <trkpt lat="42.348238" lon="-2.485274">
      <ele>518.3</ele>
    </trkpt>
    <trkpt lat="42.348828" lon="-2.48491">
      <ele>517.5</ele>
    </trkpt>
    <trkpt lat="42.349106" lon="-2.484668">
      <ele>517.2</ele>
    </trkpt>
    <trkpt lat="42.349332" lon="-2.484711">
      <ele>517.2</ele>
    </trkpt>
    <trkpt lat="42.350192" lon="-2.485001">
      <ele>517.3</ele>
    </trkpt>
    <trkpt lat="42.350612" lon="-2.484883">
      <ele>517.1</ele>
    </trkpt>
    <trkpt lat="42.351255" lon="-2.484438">
      <ele>516.2</ele>
    </trkpt>
    <trkpt lat="42.351469" lon="-2.484191">
      <ele>515.7</ele>
    </trkpt>
    <trkpt lat="42.351703" lon="-2.483799">
      <ele>514.9</ele>
    </trkpt>
    <trkpt lat="42.352174" lon="-2.482496">
      <ele>513</ele>
    </trkpt>
    <trkpt lat="42.352281" lon="-2.481986">
      <ele>512.5</ele>
    </trkpt>
    <trkpt lat="42.352773" lon="-2.481069">
      <ele>511.7</ele>
    </trkpt>
    <trkpt lat="42.353035" lon="-2.480693">
      <ele>511.3</ele>
    </trkpt>
    <trkpt lat="42.35329" lon="-2.480389">
      <ele>511.1</ele>
    </trkpt>
    <trkpt lat="42.353685" lon="-2.480178">
      <ele>510.8</ele>
    </trkpt>
    <trkpt lat="42.353836" lon="-2.479893">
      <ele>510.6</ele>
    </trkpt>
    <trkpt lat="42.353911" lon="-2.479836">
      <ele>510.5</ele>
    </trkpt>
    <trkpt lat="42.353965" lon="-2.479749">
      <ele>510.4</ele>
    </trkpt>
    <trkpt lat="42.353978" lon="-2.479594">
      <ele>510.3</ele>
    </trkpt>
    <trkpt lat="42.354061" lon="-2.47947">
      <ele>510.1</ele>
    </trkpt>
    <trkpt lat="42.354157" lon="-2.479422">
      <ele>510</ele>
    </trkpt>
    <trkpt lat="42.354363" lon="-2.479422">
      <ele>509.8</ele>
    </trkpt>
    <trkpt lat="42.354454" lon="-2.479497">
      <ele>509.7</ele>
    </trkpt>
    <trkpt lat="42.354606" lon="-2.479566">
      <ele>509.5</ele>
    </trkpt>
    <trkpt lat="42.354862" lon="-2.479502">
      <ele>509.3</ele>
    </trkpt>
    <trkpt lat="42.35514" lon="-2.479336">
      <ele>509.1</ele>
    </trkpt>
    <trkpt lat="42.355358" lon="-2.479138">
      <ele>508.9</ele>
    </trkpt>
    <trkpt lat="42.355623" lon="-2.478644">
      <ele>508.6</ele>
    </trkpt>
    <trkpt lat="42.355697" lon="-2.478362">
      <ele>508.4</ele>
    </trkpt>
    <trkpt lat="42.355963" lon="-2.477994">
      <ele>508.2</ele>
    </trkpt>
    <trkpt lat="42.356103" lon="-2.477872">
      <ele>508</ele>
    </trkpt>
    <trkpt lat="42.356479" lon="-2.477771">
      <ele>507.6</ele>
    </trkpt>
    <trkpt lat="42.357043" lon="-2.477778">
      <ele>506.8</ele>
    </trkpt>
    <trkpt lat="42.357707" lon="-2.477572">
      <ele>505.7</ele>
    </trkpt>
    <trkpt lat="42.357801" lon="-2.477658">
      <ele>505.6</ele>
    </trkpt>
    <trkpt lat="42.357861" lon="-2.477843">
      <ele>505.4</ele>
    </trkpt>
    <trkpt lat="42.357895" lon="-2.478252">
      <ele>504.9</ele>
    </trkpt>
    <trkpt lat="42.357938" lon="-2.47829">
      <ele>504.9</ele>
    </trkpt>
    <trkpt lat="42.359365" lon="-2.478198">
      <ele>502.9</ele>
    </trkpt>
    <trkpt lat="42.359931" lon="-2.478012">
      <ele>502.1</ele>
    </trkpt>
    <trkpt lat="42.36062" lon="-2.477597">
      <ele>501.6</ele>
    </trkpt>
    <trkpt lat="42.360735" lon="-2.477471">
      <ele>501.6</ele>
    </trkpt>
    <trkpt lat="42.360888" lon="-2.477378">
      <ele>501.6</ele>
    </trkpt>
    <trkpt lat="42.360934" lon="-2.477454">
      <ele>501.6</ele>
    </trkpt>
    <trkpt lat="42.360966" lon="-2.477568">
      <ele>501.6</ele>
    </trkpt>
    <trkpt lat="42.361048" lon="-2.477858">
      <ele>501.6</ele>
    </trkpt>
    <trkpt lat="42.361027" lon="-2.478029">
      <ele>501.7</ele>
    </trkpt>
    <trkpt lat="42.361126" lon="-2.478225">
      <ele>501.8</ele>
    </trkpt>
    <trkpt lat="42.361307" lon="-2.478478">
      <ele>501.9</ele>
    </trkpt>
    <trkpt lat="42.361525" lon="-2.478739">
      <ele>502.1</ele>
    </trkpt>
    <trkpt lat="42.361704" lon="-2.478879">
      <ele>502.2</ele>
    </trkpt>
    <trkpt lat="42.361876" lon="-2.478956">
      <ele>502.1</ele>
    </trkpt>
    <trkpt lat="42.362133" lon="-2.478947">
      <ele>502</ele>
    </trkpt>
    <trkpt lat="42.362698" lon="-2.478815">
      <ele>502.5</ele>
    </trkpt>
    <trkpt lat="42.36299" lon="-2.478719">
      <ele>503</ele>
    </trkpt>
    <trkpt lat="42.363116" lon="-2.478647">
      <ele>503.2</ele>
    </trkpt>
    <trkpt lat="42.36317" lon="-2.478598">
      <ele>503.3</ele>
    </trkpt>
    <trkpt lat="42.363258" lon="-2.478621">
      <ele>503.4</ele>
    </trkpt>
    <trkpt lat="42.363286" lon="-2.478673">
      <ele>503.5</ele>
    </trkpt>
    <trkpt lat="42.363289" lon="-2.47877">
      <ele>503.6</ele>
    </trkpt>
    <trkpt lat="42.363421" lon="-2.479049">
      <ele>504</ele>
    </trkpt>
    <trkpt lat="42.364328" lon="-2.481104">
      <ele>505.2</ele>
    </trkpt>
    <trkpt lat="42.364561" lon="-2.481546">
      <ele>505.1</ele>
    </trkpt>
    <trkpt lat="42.364674" lon="-2.481658">
      <ele>505.1</ele>
    </trkpt>
    <trkpt lat="42.36486" lon="-2.481731">
      <ele>505</ele>
    </trkpt>
    <trkpt lat="42.36505" lon="-2.481586">
      <ele>505</ele>
    </trkpt>
    <trkpt lat="42.365108" lon="-2.481465">
      <ele>505</ele>
    </trkpt>
    <trkpt lat="42.365116" lon="-2.481336">
      <ele>505</ele>
    </trkpt>
    <trkpt lat="42.365049" lon="-2.481105">
      <ele>504.9</ele>
    </trkpt>
    <trkpt lat="42.365052" lon="-2.480929">
      <ele>505</ele>
    </trkpt>
    <trkpt lat="42.364938" lon="-2.480952">
      <ele>505</ele>
    </trkpt>
    <trkpt lat="42.364958" lon="-2.48107">
      <ele>505</ele>
    </trkpt>
    <trkpt lat="42.364775" lon="-2.481193">
      <ele>505</ele>
    </trkpt>
    </trkseg>
  </trk>
</gpx>
