<?xml version="1.0" encoding="UTF-8"?>
<gpx version="1.1" creator="fitAI Komoot downloader" xmlns="http://www.topografix.com/GPX/1/1">
  <metadata>
    <name>Dos puertos míticos: Puerto de Peñacerrada y Puerto de Herrera — circular desde Haro</name>
    <desc>116 visitas · Dificultad: difficult · Distancia: 61.0 km · Desnivel +: 1181 m</desc>
    <link href="https://www.komoot.com/smarttour/e990696986"><text>Komoot</text></link>
  </metadata>
  <trk>
    <name>Dos puertos míticos: Puerto de Peñacerrada y Puerto de Herrera — circular desde Haro</name>
    <type>racebike</type>
    <trkseg>
    <trkpt lat="42.581793" lon="-2.847667">
      <ele>444</ele>
    </trkpt>
    <trkpt lat="42.581606" lon="-2.847487">
      <ele>443.9</ele>
    </trkpt>
    <trkpt lat="42.581679" lon="-2.847318">
      <ele>443.9</ele>
    </trkpt>
    <trkpt lat="42.582095" lon="-2.847704">
      <ele>443.8</ele>
    </trkpt>
    <trkpt lat="42.582027" lon="-2.847851">
      <ele>443.7</ele>
    </trkpt>
    <trkpt lat="42.581913" lon="-2.8479">
      <ele>443.8</ele>
    </trkpt>
    <trkpt lat="42.581925" lon="-2.848066">
      <ele>443.7</ele>
    </trkpt>
    <trkpt lat="42.581734" lon="-2.84809">
      <ele>443.7</ele>
    </trkpt>
    <trkpt lat="42.581482" lon="-2.848118">
      <ele>443.5</ele>
    </trkpt>
    <trkpt lat="42.581155" lon="-2.848048">
      <ele>443.5</ele>
    </trkpt>
    <trkpt lat="42.58101" lon="-2.847932">
      <ele>443.5</ele>
    </trkpt>
    <trkpt lat="42.58135" lon="-2.847394">
      <ele>443</ele>
    </trkpt>
    <trkpt lat="42.581705" lon="-2.846796">
      <ele>442.4</ele>
    </trkpt>
    <trkpt lat="42.581743" lon="-2.846595">
      <ele>442.1</ele>
    </trkpt>
    <trkpt lat="42.581762" lon="-2.846394">
      <ele>442</ele>
    </trkpt>
    <trkpt lat="42.581754" lon="-2.846267">
      <ele>441.9</ele>
    </trkpt>
    <trkpt lat="42.581778" lon="-2.846145">
      <ele>441.8</ele>
    </trkpt>
    <trkpt lat="42.581832" lon="-2.846041">
      <ele>441.7</ele>
    </trkpt>
    <trkpt lat="42.581908" lon="-2.845969">
      <ele>441.6</ele>
    </trkpt>
    <trkpt lat="42.582092" lon="-2.845813">
      <ele>441.3</ele>
    </trkpt>
    <trkpt lat="42.58225" lon="-2.845657">
      <ele>441.1</ele>
    </trkpt>
    <trkpt lat="42.582282" lon="-2.845635">
      <ele>441</ele>
    </trkpt>
    <trkpt lat="42.582507" lon="-2.84547">
      <ele>440.8</ele>
    </trkpt>
    <trkpt lat="42.582605" lon="-2.845313">
      <ele>440.6</ele>
    </trkpt>
    <trkpt lat="42.583024" lon="-2.843625">
      <ele>439.4</ele>
    </trkpt>
    <trkpt lat="42.583098" lon="-2.843325">
      <ele>439.3</ele>
    </trkpt>
    <trkpt lat="42.583879" lon="-2.84018">
      <ele>439.1</ele>
    </trkpt>
    <trkpt lat="42.584989" lon="-2.835711">
      <ele>439</ele>
    </trkpt>
    <trkpt lat="42.58519" lon="-2.834912">
      <ele>439.1</ele>
    </trkpt>
    <trkpt lat="42.58538" lon="-2.834134">
      <ele>439.9</ele>
    </trkpt>
    <trkpt lat="42.585427" lon="-2.833716">
      <ele>440.5</ele>
    </trkpt>
    <trkpt lat="42.585391" lon="-2.833466">
      <ele>441</ele>
    </trkpt>
    <trkpt lat="42.585346" lon="-2.833347">
      <ele>441.3</ele>
    </trkpt>
    <trkpt lat="42.585207" lon="-2.833131">
      <ele>441.9</ele>
    </trkpt>
    <trkpt lat="42.585043" lon="-2.832999">
      <ele>442.6</ele>
    </trkpt>
    <trkpt lat="42.584539" lon="-2.832695">
      <ele>444.6</ele>
    </trkpt>
    <trkpt lat="42.584025" lon="-2.832394">
      <ele>446.9</ele>
    </trkpt>
    <trkpt lat="42.583447" lon="-2.832043">
      <ele>450</ele>
    </trkpt>
    <trkpt lat="42.582962" lon="-2.831688">
      <ele>452.6</ele>
    </trkpt>
    <trkpt lat="42.581434" lon="-2.83033">
      <ele>461.3</ele>
    </trkpt>
    <trkpt lat="42.580996" lon="-2.829823">
      <ele>463.9</ele>
    </trkpt>
    <trkpt lat="42.580699" lon="-2.829282">
      <ele>466</ele>
    </trkpt>
    <trkpt lat="42.580502" lon="-2.82872">
      <ele>467.4</ele>
    </trkpt>
    <trkpt lat="42.580417" lon="-2.82833">
      <ele>468.3</ele>
    </trkpt>
    <trkpt lat="42.580357" lon="-2.827664">
      <ele>469.5</ele>
    </trkpt>
    <trkpt lat="42.580303" lon="-2.82391">
      <ele>472</ele>
    </trkpt>
    <trkpt lat="42.580303" lon="-2.823249">
      <ele>473</ele>
    </trkpt>
    <trkpt lat="42.580349" lon="-2.822595">
      <ele>474.2</ele>
    </trkpt>
    <trkpt lat="42.580491" lon="-2.821824">
      <ele>476</ele>
    </trkpt>
    <trkpt lat="42.580592" lon="-2.821456">
      <ele>477</ele>
    </trkpt>
    <trkpt lat="42.580821" lon="-2.820867">
      <ele>479</ele>
    </trkpt>
    <trkpt lat="42.581103" lon="-2.820319">
      <ele>480.9</ele>
    </trkpt>
    <trkpt lat="42.581477" lon="-2.819785">
      <ele>482.6</ele>
    </trkpt>
    <trkpt lat="42.581716" lon="-2.81951">
      <ele>483.4</ele>
    </trkpt>
    <trkpt lat="42.581964" lon="-2.819275">
      <ele>484.2</ele>
    </trkpt>
    <trkpt lat="42.583009" lon="-2.818545">
      <ele>486.2</ele>
    </trkpt>
    <trkpt lat="42.583357" lon="-2.818221">
      <ele>486.7</ele>
    </trkpt>
    <trkpt lat="42.584799" lon="-2.816243">
      <ele>489.2</ele>
    </trkpt>
    <trkpt lat="42.585072" lon="-2.815816">
      <ele>490</ele>
    </trkpt>
    <trkpt lat="42.585385" lon="-2.815195">
      <ele>491.3</ele>
    </trkpt>
    <trkpt lat="42.586458" lon="-2.812617">
      <ele>498.3</ele>
    </trkpt>
    <trkpt lat="42.587718" lon="-2.809527">
      <ele>506.1</ele>
    </trkpt>
    <trkpt lat="42.587876" lon="-2.809092">
      <ele>507.4</ele>
    </trkpt>
    <trkpt lat="42.588002" lon="-2.808723">
      <ele>508.5</ele>
    </trkpt>
    <trkpt lat="42.588152" lon="-2.80817">
      <ele>510.3</ele>
    </trkpt>
    <trkpt lat="42.588269" lon="-2.807616">
      <ele>511.8</ele>
    </trkpt>
    <trkpt lat="42.588377" lon="-2.806786">
      <ele>513.8</ele>
    </trkpt>
    <trkpt lat="42.588404" lon="-2.806293">
      <ele>514.8</ele>
    </trkpt>
    <trkpt lat="42.588443" lon="-2.803557">
      <ele>516.6</ele>
    </trkpt>
    <trkpt lat="42.588462" lon="-2.801719">
      <ele>518.2</ele>
    </trkpt>
    <trkpt lat="42.588476" lon="-2.801281">
      <ele>518.8</ele>
    </trkpt>
    <trkpt lat="42.588516" lon="-2.80087">
      <ele>519.4</ele>
    </trkpt>
    <trkpt lat="42.588525" lon="-2.800802">
      <ele>519.5</ele>
    </trkpt>
    <trkpt lat="42.588641" lon="-2.8001">
      <ele>520.6</ele>
    </trkpt>
    <trkpt lat="42.588969" lon="-2.798319">
      <ele>524.2</ele>
    </trkpt>
    <trkpt lat="42.589151" lon="-2.797397">
      <ele>526.1</ele>
    </trkpt>
    <trkpt lat="42.589351" lon="-2.796425">
      <ele>527.7</ele>
    </trkpt>
    <trkpt lat="42.589462" lon="-2.796101">
      <ele>528</ele>
    </trkpt>
    <trkpt lat="42.589676" lon="-2.79579">
      <ele>528.4</ele>
    </trkpt>
    <trkpt lat="42.589915" lon="-2.795581">
      <ele>528.5</ele>
    </trkpt>
    <trkpt lat="42.589868" lon="-2.795474">
      <ele>528.6</ele>
    </trkpt>
    <trkpt lat="42.589516" lon="-2.794639">
      <ele>529.5</ele>
    </trkpt>
    <trkpt lat="42.589491" lon="-2.794579">
      <ele>529.6</ele>
    </trkpt>
    <trkpt lat="42.589453" lon="-2.79449">
      <ele>529.7</ele>
    </trkpt>
    <trkpt lat="42.589252" lon="-2.794071">
      <ele>530.5</ele>
    </trkpt>
    <trkpt lat="42.58914" lon="-2.793848">
      <ele>530.9</ele>
    </trkpt>
    <trkpt lat="42.588999" lon="-2.793422">
      <ele>531.7</ele>
    </trkpt>
    <trkpt lat="42.588778" lon="-2.792896">
      <ele>532.6</ele>
    </trkpt>
    <trkpt lat="42.588674" lon="-2.792605">
      <ele>533</ele>
    </trkpt>
    <trkpt lat="42.588661" lon="-2.792381">
      <ele>533.1</ele>
    </trkpt>
    <trkpt lat="42.588703" lon="-2.792117">
      <ele>533.3</ele>
    </trkpt>
    <trkpt lat="42.588913" lon="-2.791335">
      <ele>533</ele>
    </trkpt>
    <trkpt lat="42.588936" lon="-2.791199">
      <ele>532.8</ele>
    </trkpt>
    <trkpt lat="42.588932" lon="-2.790963">
      <ele>532.5</ele>
    </trkpt>
    <trkpt lat="42.5889" lon="-2.790492">
      <ele>532</ele>
    </trkpt>
    <trkpt lat="42.588862" lon="-2.790261">
      <ele>531.7</ele>
    </trkpt>
    <trkpt lat="42.588757" lon="-2.790016">
      <ele>531.4</ele>
    </trkpt>
    <trkpt lat="42.588563" lon="-2.78975">
      <ele>531.3</ele>
    </trkpt>
    <trkpt lat="42.58857" lon="-2.789713">
      <ele>531.4</ele>
    </trkpt>
    <trkpt lat="42.588557" lon="-2.789532">
      <ele>531.3</ele>
    </trkpt>
    <trkpt lat="42.588522" lon="-2.789176">
      <ele>531.4</ele>
    </trkpt>
    <trkpt lat="42.588475" lon="-2.788712">
      <ele>531.5</ele>
    </trkpt>
    <trkpt lat="42.588475" lon="-2.788357">
      <ele>531.6</ele>
    </trkpt>
    <trkpt lat="42.588535" lon="-2.788134">
      <ele>531.4</ele>
    </trkpt>
    <trkpt lat="42.588659" lon="-2.787833">
      <ele>531.1</ele>
    </trkpt>
    <trkpt lat="42.588887" lon="-2.787287">
      <ele>530.9</ele>
    </trkpt>
    <trkpt lat="42.589138" lon="-2.786985">
      <ele>530.8</ele>
    </trkpt>
    <trkpt lat="42.589294" lon="-2.786831">
      <ele>530.6</ele>
    </trkpt>
    <trkpt lat="42.589694" lon="-2.7864">
      <ele>529.6</ele>
    </trkpt>
    <trkpt lat="42.590196" lon="-2.785602">
      <ele>526.6</ele>
    </trkpt>
    <trkpt lat="42.590815" lon="-2.785131">
      <ele>524.7</ele>
    </trkpt>
    <trkpt lat="42.591343" lon="-2.784832">
      <ele>524.9</ele>
    </trkpt>
    <trkpt lat="42.591537" lon="-2.784754">
      <ele>525.1</ele>
    </trkpt>
    <trkpt lat="42.59171" lon="-2.784729">
      <ele>525.3</ele>
    </trkpt>
    <trkpt lat="42.592383" lon="-2.784782">
      <ele>526.3</ele>
    </trkpt>
    <trkpt lat="42.592535" lon="-2.78472">
      <ele>526.6</ele>
    </trkpt>
    <trkpt lat="42.592631" lon="-2.784597">
      <ele>526.8</ele>
    </trkpt>
    <trkpt lat="42.59267" lon="-2.784505">
      <ele>527</ele>
    </trkpt>
    <trkpt lat="42.592724" lon="-2.784243">
      <ele>527.3</ele>
    </trkpt>
    <trkpt lat="42.592739" lon="-2.784165">
      <ele>527.4</ele>
    </trkpt>
    <trkpt lat="42.592747" lon="-2.784093">
      <ele>527.5</ele>
    </trkpt>
    <trkpt lat="42.592714" lon="-2.783883">
      <ele>527.9</ele>
    </trkpt>
    <trkpt lat="42.592296" lon="-2.782907">
      <ele>529.2</ele>
    </trkpt>
    <trkpt lat="42.591926" lon="-2.781836">
      <ele>530.2</ele>
    </trkpt>
    <trkpt lat="42.591856" lon="-2.781571">
      <ele>530.4</ele>
    </trkpt>
    <trkpt lat="42.591851" lon="-2.781322">
      <ele>530.6</ele>
    </trkpt>
    <trkpt lat="42.591898" lon="-2.780541">
      <ele>531.6</ele>
    </trkpt>
    <trkpt lat="42.59194" lon="-2.780318">
      <ele>531.9</ele>
    </trkpt>
    <trkpt lat="42.592036" lon="-2.780076">
      <ele>532.4</ele>
    </trkpt>
    <trkpt lat="42.592872" lon="-2.778332">
      <ele>536.3</ele>
    </trkpt>
    <trkpt lat="42.593652" lon="-2.77676">
      <ele>540.6</ele>
    </trkpt>
    <trkpt lat="42.594779" lon="-2.774761">
      <ele>547.1</ele>
    </trkpt>
    <trkpt lat="42.594839" lon="-2.774531">
      <ele>547.8</ele>
    </trkpt>
    <trkpt lat="42.594872" lon="-2.773046">
      <ele>551.4</ele>
    </trkpt>
    <trkpt lat="42.594902" lon="-2.772877">
      <ele>551.9</ele>
    </trkpt>
    <trkpt lat="42.595006" lon="-2.772684">
      <ele>552.6</ele>
    </trkpt>
    <trkpt lat="42.595303" lon="-2.772394">
      <ele>553.9</ele>
    </trkpt>
    <trkpt lat="42.595396" lon="-2.772243">
      <ele>554.3</ele>
    </trkpt>
    <trkpt lat="42.595507" lon="-2.771986">
      <ele>555.3</ele>
    </trkpt>
    <trkpt lat="42.595688" lon="-2.771485">
      <ele>557</ele>
    </trkpt>
    <trkpt lat="42.595824" lon="-2.77118">
      <ele>558.3</ele>
    </trkpt>
    <trkpt lat="42.595973" lon="-2.771029">
      <ele>559.1</ele>
    </trkpt>
    <trkpt lat="42.5976" lon="-2.770208">
      <ele>568.6</ele>
    </trkpt>
    <trkpt lat="42.597776" lon="-2.770078">
      <ele>569.8</ele>
    </trkpt>
    <trkpt lat="42.597842" lon="-2.769981">
      <ele>570.4</ele>
    </trkpt>
    <trkpt lat="42.597932" lon="-2.769773">
      <ele>571.6</ele>
    </trkpt>
    <trkpt lat="42.598353" lon="-2.768607">
      <ele>578</ele>
    </trkpt>
    <trkpt lat="42.598795" lon="-2.76781">
      <ele>582</ele>
    </trkpt>
    <trkpt lat="42.599199" lon="-2.767145">
      <ele>584.8</ele>
    </trkpt>
    <trkpt lat="42.599244" lon="-2.767026">
      <ele>585.3</ele>
    </trkpt>
    <trkpt lat="42.599248" lon="-2.766928">
      <ele>585.6</ele>
    </trkpt>
    <trkpt lat="42.599198" lon="-2.76681">
      <ele>586</ele>
    </trkpt>
    <trkpt lat="42.599015" lon="-2.766618">
      <ele>586.9</ele>
    </trkpt>
    <trkpt lat="42.598922" lon="-2.766569">
      <ele>587.2</ele>
    </trkpt>
    <trkpt lat="42.598784" lon="-2.766556">
      <ele>587.5</ele>
    </trkpt>
    <trkpt lat="42.598273" lon="-2.766705">
      <ele>588.1</ele>
    </trkpt>
    <trkpt lat="42.598159" lon="-2.766666">
      <ele>588.2</ele>
    </trkpt>
    <trkpt lat="42.598055" lon="-2.766559">
      <ele>588.4</ele>
    </trkpt>
    <trkpt lat="42.597981" lon="-2.766335">
      <ele>588.7</ele>
    </trkpt>
    <trkpt lat="42.597732" lon="-2.765116">
      <ele>591.5</ele>
    </trkpt>
    <trkpt lat="42.597719" lon="-2.76493">
      <ele>591.9</ele>
    </trkpt>
    <trkpt lat="42.597737" lon="-2.764351">
      <ele>593.6</ele>
    </trkpt>
    <trkpt lat="42.597758" lon="-2.764035">
      <ele>594.6</ele>
    </trkpt>
    <trkpt lat="42.597801" lon="-2.763778">
      <ele>595.4</ele>
    </trkpt>
    <trkpt lat="42.598142" lon="-2.762551">
      <ele>600</ele>
    </trkpt>
    <trkpt lat="42.598319" lon="-2.761921">
      <ele>602.4</ele>
    </trkpt>
    <trkpt lat="42.598431" lon="-2.761508">
      <ele>604</ele>
    </trkpt>
    <trkpt lat="42.598535" lon="-2.761212">
      <ele>605.2</ele>
    </trkpt>
    <trkpt lat="42.598667" lon="-2.761021">
      <ele>606.3</ele>
    </trkpt>
    <trkpt lat="42.599747" lon="-2.759986">
      <ele>613.7</ele>
    </trkpt>
    <trkpt lat="42.599956" lon="-2.759744">
      <ele>615.3</ele>
    </trkpt>
    <trkpt lat="42.600035" lon="-2.759546">
      <ele>616.1</ele>
    </trkpt>
    <trkpt lat="42.600246" lon="-2.758528">
      <ele>619.6</ele>
    </trkpt>
    <trkpt lat="42.600335" lon="-2.758262">
      <ele>620.5</ele>
    </trkpt>
    <trkpt lat="42.600404" lon="-2.758139">
      <ele>620.9</ele>
    </trkpt>
    <trkpt lat="42.601053" lon="-2.757352">
      <ele>624.1</ele>
    </trkpt>
    <trkpt lat="42.601371" lon="-2.756906">
      <ele>625.7</ele>
    </trkpt>
    <trkpt lat="42.601793" lon="-2.756305">
      <ele>627.4</ele>
    </trkpt>
    <trkpt lat="42.601902" lon="-2.756106">
      <ele>628</ele>
    </trkpt>
    <trkpt lat="42.60196" lon="-2.755819">
      <ele>628.7</ele>
    </trkpt>
    <trkpt lat="42.60198" lon="-2.755295">
      <ele>630</ele>
    </trkpt>
    <trkpt lat="42.602043" lon="-2.755019">
      <ele>630.6</ele>
    </trkpt>
    <trkpt lat="42.602145" lon="-2.754869">
      <ele>631.1</ele>
    </trkpt>
    <trkpt lat="42.602228" lon="-2.754794">
      <ele>631.5</ele>
    </trkpt>
    <trkpt lat="42.602637" lon="-2.754494">
      <ele>632.9</ele>
    </trkpt>
    <trkpt lat="42.602866" lon="-2.754183">
      <ele>633.9</ele>
    </trkpt>
    <trkpt lat="42.603029" lon="-2.753905">
      <ele>634.7</ele>
    </trkpt>
    <trkpt lat="42.603117" lon="-2.753703">
      <ele>635.2</ele>
    </trkpt>
    <trkpt lat="42.603178" lon="-2.75341">
      <ele>636.4</ele>
    </trkpt>
    <trkpt lat="42.603211" lon="-2.753107">
      <ele>637.3</ele>
    </trkpt>
    <trkpt lat="42.603261" lon="-2.752965">
      <ele>638</ele>
    </trkpt>
    <trkpt lat="42.603586" lon="-2.752448">
      <ele>640.7</ele>
    </trkpt>
    <trkpt lat="42.603908" lon="-2.752174">
      <ele>642.9</ele>
    </trkpt>
    <trkpt lat="42.603983" lon="-2.752047">
      <ele>643.4</ele>
    </trkpt>
    <trkpt lat="42.604022" lon="-2.75191">
      <ele>644.3</ele>
    </trkpt>
    <trkpt lat="42.604073" lon="-2.751896">
      <ele>644.5</ele>
    </trkpt>
    <trkpt lat="42.6042" lon="-2.751789">
      <ele>645</ele>
    </trkpt>
    <trkpt lat="42.60425" lon="-2.751708">
      <ele>645.4</ele>
    </trkpt>
    <trkpt lat="42.60436" lon="-2.751349">
      <ele>646.8</ele>
    </trkpt>
    <trkpt lat="42.604474" lon="-2.750848">
      <ele>648.6</ele>
    </trkpt>
    <trkpt lat="42.60452" lon="-2.75072">
      <ele>649.3</ele>
    </trkpt>
    <trkpt lat="42.604637" lon="-2.750548">
      <ele>650</ele>
    </trkpt>
    <trkpt lat="42.605154" lon="-2.750007">
      <ele>652.6</ele>
    </trkpt>
    <trkpt lat="42.605213" lon="-2.749992">
      <ele>652.8</ele>
    </trkpt>
    <trkpt lat="42.605292" lon="-2.750021">
      <ele>653.2</ele>
    </trkpt>
    <trkpt lat="42.605343" lon="-2.750085">
      <ele>653.4</ele>
    </trkpt>
    <trkpt lat="42.60536" lon="-2.750169">
      <ele>653.6</ele>
    </trkpt>
    <trkpt lat="42.605335" lon="-2.750315">
      <ele>654.1</ele>
    </trkpt>
    <trkpt lat="42.605047" lon="-2.751164">
      <ele>656</ele>
    </trkpt>
    <trkpt lat="42.605034" lon="-2.751621">
      <ele>656.9</ele>
    </trkpt>
    <trkpt lat="42.604923" lon="-2.752105">
      <ele>658</ele>
    </trkpt>
    <trkpt lat="42.604943" lon="-2.752629">
      <ele>659.2</ele>
    </trkpt>
    <trkpt lat="42.604924" lon="-2.752818">
      <ele>659.6</ele>
    </trkpt>
    <trkpt lat="42.604816" lon="-2.752992">
      <ele>660.1</ele>
    </trkpt>
    <trkpt lat="42.604425" lon="-2.75326">
      <ele>661.5</ele>
    </trkpt>
    <trkpt lat="42.604337" lon="-2.75336">
      <ele>661.9</ele>
    </trkpt>
    <trkpt lat="42.604217" lon="-2.753622">
      <ele>663.4</ele>
    </trkpt>
    <trkpt lat="42.604113" lon="-2.75395">
      <ele>664.6</ele>
    </trkpt>
    <trkpt lat="42.604058" lon="-2.754237">
      <ele>665.8</ele>
    </trkpt>
    <trkpt lat="42.603964" lon="-2.755086">
      <ele>669</ele>
    </trkpt>
    <trkpt lat="42.603953" lon="-2.755313">
      <ele>669.6</ele>
    </trkpt>
    <trkpt lat="42.603976" lon="-2.75553">
      <ele>670.8</ele>
    </trkpt>
    <trkpt lat="42.604028" lon="-2.755622">
      <ele>671.3</ele>
    </trkpt>
    <trkpt lat="42.604095" lon="-2.755651">
      <ele>671.6</ele>
    </trkpt>
    <trkpt lat="42.604141" lon="-2.755637">
      <ele>671.7</ele>
    </trkpt>
    <trkpt lat="42.604197" lon="-2.755563">
      <ele>672.3</ele>
    </trkpt>
    <trkpt lat="42.604215" lon="-2.755403">
      <ele>673.2</ele>
    </trkpt>
    <trkpt lat="42.604196" lon="-2.754911">
      <ele>675.4</ele>
    </trkpt>
    <trkpt lat="42.604332" lon="-2.754336">
      <ele>678.2</ele>
    </trkpt>
    <trkpt lat="42.604478" lon="-2.754004">
      <ele>680.2</ele>
    </trkpt>
    <trkpt lat="42.604537" lon="-2.753918">
      <ele>680.7</ele>
    </trkpt>
    <trkpt lat="42.604707" lon="-2.753771">
      <ele>681.3</ele>
    </trkpt>
    <trkpt lat="42.605549" lon="-2.753365">
      <ele>685.5</ele>
    </trkpt>
    <trkpt lat="42.605695" lon="-2.75324">
      <ele>686.5</ele>
    </trkpt>
    <trkpt lat="42.605757" lon="-2.753109">
      <ele>687.1</ele>
    </trkpt>
    <trkpt lat="42.605832" lon="-2.752631">
      <ele>689.3</ele>
    </trkpt>
    <trkpt lat="42.605935" lon="-2.752316">
      <ele>690.9</ele>
    </trkpt>
    <trkpt lat="42.60618" lon="-2.751723">
      <ele>695</ele>
    </trkpt>
    <trkpt lat="42.606236" lon="-2.751626">
      <ele>695.8</ele>
    </trkpt>
    <trkpt lat="42.606357" lon="-2.751504">
      <ele>697.2</ele>
    </trkpt>
    <trkpt lat="42.606458" lon="-2.751446">
      <ele>698.4</ele>
    </trkpt>
    <trkpt lat="42.607017" lon="-2.751259">
      <ele>704.2</ele>
    </trkpt>
    <trkpt lat="42.607259" lon="-2.751269">
      <ele>706.9</ele>
    </trkpt>
    <trkpt lat="42.607876" lon="-2.751542">
      <ele>713.2</ele>
    </trkpt>
    <trkpt lat="42.608082" lon="-2.751707">
      <ele>715.3</ele>
    </trkpt>
    <trkpt lat="42.608307" lon="-2.751943">
      <ele>717.6</ele>
    </trkpt>
    <trkpt lat="42.608441" lon="-2.752016">
      <ele>718.8</ele>
    </trkpt>
    <trkpt lat="42.608528" lon="-2.752017">
      <ele>719.5</ele>
    </trkpt>
    <trkpt lat="42.608821" lon="-2.751954">
      <ele>721.4</ele>
    </trkpt>
    <trkpt lat="42.608932" lon="-2.751902">
      <ele>722</ele>
    </trkpt>
    <trkpt lat="42.60941" lon="-2.751481">
      <ele>724.5</ele>
    </trkpt>
    <trkpt lat="42.609503" lon="-2.751331">
      <ele>725</ele>
    </trkpt>
    <trkpt lat="42.609546" lon="-2.751118">
      <ele>725.6</ele>
    </trkpt>
    <trkpt lat="42.609539" lon="-2.750602">
      <ele>726.8</ele>
    </trkpt>
    <trkpt lat="42.609514" lon="-2.750413">
      <ele>727.2</ele>
    </trkpt>
    <trkpt lat="42.609452" lon="-2.750194">
      <ele>727.6</ele>
    </trkpt>
    <trkpt lat="42.609448" lon="-2.750042">
      <ele>728</ele>
    </trkpt>
    <trkpt lat="42.609465" lon="-2.749965">
      <ele>728.2</ele>
    </trkpt>
    <trkpt lat="42.609742" lon="-2.749366">
      <ele>729.8</ele>
    </trkpt>
    <trkpt lat="42.60985" lon="-2.748967">
      <ele>730.8</ele>
    </trkpt>
    <trkpt lat="42.610075" lon="-2.748632">
      <ele>732</ele>
    </trkpt>
    <trkpt lat="42.610108" lon="-2.748452">
      <ele>732.5</ele>
    </trkpt>
    <trkpt lat="42.610073" lon="-2.748227">
      <ele>733.1</ele>
    </trkpt>
    <trkpt lat="42.610078" lon="-2.747994">
      <ele>733.7</ele>
    </trkpt>
    <trkpt lat="42.610181" lon="-2.747651">
      <ele>734.7</ele>
    </trkpt>
    <trkpt lat="42.610401" lon="-2.747346">
      <ele>735.8</ele>
    </trkpt>
    <trkpt lat="42.610868" lon="-2.746807">
      <ele>738.4</ele>
    </trkpt>
    <trkpt lat="42.611891" lon="-2.746202">
      <ele>746.4</ele>
    </trkpt>
    <trkpt lat="42.612719" lon="-2.745498">
      <ele>759.5</ele>
    </trkpt>
    <trkpt lat="42.612886" lon="-2.745385">
      <ele>762.3</ele>
    </trkpt>
    <trkpt lat="42.613017" lon="-2.745212">
      <ele>764.5</ele>
    </trkpt>
    <trkpt lat="42.61317" lon="-2.744803">
      <ele>769.2</ele>
    </trkpt>
    <trkpt lat="42.613281" lon="-2.744682">
      <ele>771</ele>
    </trkpt>
    <trkpt lat="42.613381" lon="-2.744624">
      <ele>772.9</ele>
    </trkpt>
    <trkpt lat="42.613502" lon="-2.744607">
      <ele>774</ele>
    </trkpt>
    <trkpt lat="42.614428" lon="-2.744663">
      <ele>783.6</ele>
    </trkpt>
    <trkpt lat="42.614546" lon="-2.744592">
      <ele>784.7</ele>
    </trkpt>
    <trkpt lat="42.614595" lon="-2.744502">
      <ele>785.1</ele>
    </trkpt>
    <trkpt lat="42.614623" lon="-2.744281">
      <ele>786.5</ele>
    </trkpt>
    <trkpt lat="42.614604" lon="-2.744116">
      <ele>787</ele>
    </trkpt>
    <trkpt lat="42.614548" lon="-2.743957">
      <ele>787.4</ele>
    </trkpt>
    <trkpt lat="42.614419" lon="-2.743835">
      <ele>787.9</ele>
    </trkpt>
    <trkpt lat="42.613881" lon="-2.743535">
      <ele>790.2</ele>
    </trkpt>
    <trkpt lat="42.613219" lon="-2.743321">
      <ele>792.7</ele>
    </trkpt>
    <trkpt lat="42.613078" lon="-2.743164">
      <ele>793.2</ele>
    </trkpt>
    <trkpt lat="42.613048" lon="-2.743081">
      <ele>793.5</ele>
    </trkpt>
    <trkpt lat="42.613036" lon="-2.742919">
      <ele>794</ele>
    </trkpt>
    <trkpt lat="42.613151" lon="-2.742246">
      <ele>796</ele>
    </trkpt>
    <trkpt lat="42.613147" lon="-2.741993">
      <ele>796.8</ele>
    </trkpt>
    <trkpt lat="42.61308" lon="-2.741841">
      <ele>797.2</ele>
    </trkpt>
    <trkpt lat="42.61268" lon="-2.741326">
      <ele>798.7</ele>
    </trkpt>
    <trkpt lat="42.61258" lon="-2.741159">
      <ele>799.1</ele>
    </trkpt>
    <trkpt lat="42.612453" lon="-2.740614">
      <ele>800.1</ele>
    </trkpt>
    <trkpt lat="42.612308" lon="-2.740217">
      <ele>800.9</ele>
    </trkpt>
    <trkpt lat="42.612294" lon="-2.740073">
      <ele>801.3</ele>
    </trkpt>
    <trkpt lat="42.612332" lon="-2.739786">
      <ele>802</ele>
    </trkpt>
    <trkpt lat="42.612406" lon="-2.739628">
      <ele>802.5</ele>
    </trkpt>
    <trkpt lat="42.61248" lon="-2.73955">
      <ele>802.8</ele>
    </trkpt>
    <trkpt lat="42.612661" lon="-2.739386">
      <ele>803.6</ele>
    </trkpt>
    <trkpt lat="42.612761" lon="-2.739217">
      <ele>804.2</ele>
    </trkpt>
    <trkpt lat="42.612875" lon="-2.73878">
      <ele>805.7</ele>
    </trkpt>
    <trkpt lat="42.61297" lon="-2.738591">
      <ele>806.8</ele>
    </trkpt>
    <trkpt lat="42.613079" lon="-2.738541">
      <ele>807.5</ele>
    </trkpt>
    <trkpt lat="42.613271" lon="-2.738572">
      <ele>809.1</ele>
    </trkpt>
    <trkpt lat="42.61343" lon="-2.738524">
      <ele>810.5</ele>
    </trkpt>
    <trkpt lat="42.613885" lon="-2.73824">
      <ele>816.3</ele>
    </trkpt>
    <trkpt lat="42.614058" lon="-2.738043">
      <ele>819.2</ele>
    </trkpt>
    <trkpt lat="42.614187" lon="-2.737733">
      <ele>822.8</ele>
    </trkpt>
    <trkpt lat="42.614222" lon="-2.73759">
      <ele>824.2</ele>
    </trkpt>
    <trkpt lat="42.614462" lon="-2.736094">
      <ele>839.5</ele>
    </trkpt>
    <trkpt lat="42.614548" lon="-2.735971">
      <ele>841.2</ele>
    </trkpt>
    <trkpt lat="42.614808" lon="-2.735809">
      <ele>844.5</ele>
    </trkpt>
    <trkpt lat="42.614855" lon="-2.735754">
      <ele>845.3</ele>
    </trkpt>
    <trkpt lat="42.614914" lon="-2.735563">
      <ele>846.9</ele>
    </trkpt>
    <trkpt lat="42.614878" lon="-2.735359">
      <ele>848.5</ele>
    </trkpt>
    <trkpt lat="42.614813" lon="-2.735201">
      <ele>849.7</ele>
    </trkpt>
    <trkpt lat="42.61471" lon="-2.735046">
      <ele>851.1</ele>
    </trkpt>
    <trkpt lat="42.614242" lon="-2.734798">
      <ele>854.1</ele>
    </trkpt>
    <trkpt lat="42.613972" lon="-2.734744">
      <ele>855</ele>
    </trkpt>
    <trkpt lat="42.613791" lon="-2.73474">
      <ele>855.5</ele>
    </trkpt>
    <trkpt lat="42.613296" lon="-2.73483">
      <ele>857.1</ele>
    </trkpt>
    <trkpt lat="42.613163" lon="-2.734878">
      <ele>857.3</ele>
    </trkpt>
    <trkpt lat="42.613036" lon="-2.734966">
      <ele>858</ele>
    </trkpt>
    <trkpt lat="42.612756" lon="-2.735286">
      <ele>859.4</ele>
    </trkpt>
    <trkpt lat="42.612653" lon="-2.735343">
      <ele>859.9</ele>
    </trkpt>
    <trkpt lat="42.612547" lon="-2.73535">
      <ele>860</ele>
    </trkpt>
    <trkpt lat="42.612406" lon="-2.735273">
      <ele>860.9</ele>
    </trkpt>
    <trkpt lat="42.61212" lon="-2.73504">
      <ele>862.2</ele>
    </trkpt>
    <trkpt lat="42.612026" lon="-2.734949">
      <ele>862.7</ele>
    </trkpt>
    <trkpt lat="42.611951" lon="-2.734812">
      <ele>862.8</ele>
    </trkpt>
    <trkpt lat="42.611883" lon="-2.734511">
      <ele>863.7</ele>
    </trkpt>
    <trkpt lat="42.611899" lon="-2.733997">
      <ele>865.2</ele>
    </trkpt>
    <trkpt lat="42.611871" lon="-2.733848">
      <ele>865.4</ele>
    </trkpt>
    <trkpt lat="42.61161" lon="-2.733332">
      <ele>867.8</ele>
    </trkpt>
    <trkpt lat="42.611482" lon="-2.733169">
      <ele>868.7</ele>
    </trkpt>
    <trkpt lat="42.611226" lon="-2.732973">
      <ele>870.3</ele>
    </trkpt>
    <trkpt lat="42.610613" lon="-2.73234">
      <ele>874.2</ele>
    </trkpt>
    <trkpt lat="42.610421" lon="-2.732049">
      <ele>875.6</ele>
    </trkpt>
    <trkpt lat="42.610309" lon="-2.731805">
      <ele>876.6</ele>
    </trkpt>
    <trkpt lat="42.610288" lon="-2.731638">
      <ele>877.3</ele>
    </trkpt>
    <trkpt lat="42.610341" lon="-2.731361">
      <ele>878.4</ele>
    </trkpt>
    <trkpt lat="42.610341" lon="-2.73115">
      <ele>879.3</ele>
    </trkpt>
    <trkpt lat="42.610383" lon="-2.730994">
      <ele>879.9</ele>
    </trkpt>
    <trkpt lat="42.610429" lon="-2.730955">
      <ele>880.2</ele>
    </trkpt>
    <trkpt lat="42.610538" lon="-2.730942">
      <ele>880.7</ele>
    </trkpt>
    <trkpt lat="42.610597" lon="-2.730978">
      <ele>881</ele>
    </trkpt>
    <trkpt lat="42.610733" lon="-2.731266">
      <ele>882.9</ele>
    </trkpt>
    <trkpt lat="42.610802" lon="-2.731345">
      <ele>883.9</ele>
    </trkpt>
    <trkpt lat="42.610893" lon="-2.731362">
      <ele>884.6</ele>
    </trkpt>
    <trkpt lat="42.610973" lon="-2.731328">
      <ele>885.4</ele>
    </trkpt>
    <trkpt lat="42.611067" lon="-2.731185">
      <ele>886.9</ele>
    </trkpt>
    <trkpt lat="42.611086" lon="-2.731121">
      <ele>887.5</ele>
    </trkpt>
    <trkpt lat="42.611122" lon="-2.730461">
      <ele>891.3</ele>
    </trkpt>
    <trkpt lat="42.611097" lon="-2.730284">
      <ele>892.4</ele>
    </trkpt>
    <trkpt lat="42.610974" lon="-2.730007">
      <ele>894</ele>
    </trkpt>
    <trkpt lat="42.610989" lon="-2.729716">
      <ele>895.8</ele>
    </trkpt>
    <trkpt lat="42.610989" lon="-2.729523">
      <ele>896.6</ele>
    </trkpt>
    <trkpt lat="42.610849" lon="-2.728918">
      <ele>900.3</ele>
    </trkpt>
    <trkpt lat="42.61086" lon="-2.728657">
      <ele>901.8</ele>
    </trkpt>
    <trkpt lat="42.61093" lon="-2.728524">
      <ele>902.8</ele>
    </trkpt>
    <trkpt lat="42.611027" lon="-2.728441">
      <ele>903.8</ele>
    </trkpt>
    <trkpt lat="42.611221" lon="-2.728394">
      <ele>905.4</ele>
    </trkpt>
    <trkpt lat="42.611468" lon="-2.72838">
      <ele>907.8</ele>
    </trkpt>
    <trkpt lat="42.611747" lon="-2.728534">
      <ele>909.4</ele>
    </trkpt>
    <trkpt lat="42.613363" lon="-2.729954">
      <ele>920.9</ele>
    </trkpt>
    <trkpt lat="42.614246" lon="-2.730466">
      <ele>927.6</ele>
    </trkpt>
    <trkpt lat="42.614992" lon="-2.730603">
      <ele>931.7</ele>
    </trkpt>
    <trkpt lat="42.615129" lon="-2.730572">
      <ele>932.3</ele>
    </trkpt>
    <trkpt lat="42.615388" lon="-2.730437">
      <ele>933.5</ele>
    </trkpt>
    <trkpt lat="42.615492" lon="-2.730422">
      <ele>933.9</ele>
    </trkpt>
    <trkpt lat="42.61565" lon="-2.730455">
      <ele>934.6</ele>
    </trkpt>
    <trkpt lat="42.615993" lon="-2.730676">
      <ele>936.2</ele>
    </trkpt>
    <trkpt lat="42.616498" lon="-2.730597">
      <ele>937.8</ele>
    </trkpt>
    <trkpt lat="42.616841" lon="-2.730729">
      <ele>938.4</ele>
    </trkpt>
    <trkpt lat="42.617237" lon="-2.730755">
      <ele>939.4</ele>
    </trkpt>
    <trkpt lat="42.617395" lon="-2.730751">
      <ele>939.6</ele>
    </trkpt>
    <trkpt lat="42.6175" lon="-2.730753">
      <ele>939.7</ele>
    </trkpt>
    <trkpt lat="42.617614" lon="-2.730802">
      <ele>940.4</ele>
    </trkpt>
    <trkpt lat="42.617691" lon="-2.730899">
      <ele>940.3</ele>
    </trkpt>
    <trkpt lat="42.617829" lon="-2.731346">
      <ele>941.2</ele>
    </trkpt>
    <trkpt lat="42.617905" lon="-2.731479">
      <ele>941.3</ele>
    </trkpt>
    <trkpt lat="42.617923" lon="-2.731498">
      <ele>941.3</ele>
    </trkpt>
    <trkpt lat="42.617997" lon="-2.73154">
      <ele>941.6</ele>
    </trkpt>
    <trkpt lat="42.618031" lon="-2.731559">
      <ele>941.8</ele>
    </trkpt>
    <trkpt lat="42.618254" lon="-2.731758">
      <ele>941.5</ele>
    </trkpt>
    <trkpt lat="42.618637" lon="-2.73194">
      <ele>941.4</ele>
    </trkpt>
    <trkpt lat="42.618748" lon="-2.732068">
      <ele>941</ele>
    </trkpt>
    <trkpt lat="42.618963" lon="-2.732456">
      <ele>940.7</ele>
    </trkpt>
    <trkpt lat="42.619312" lon="-2.732952">
      <ele>940.2</ele>
    </trkpt>
    <trkpt lat="42.619394" lon="-2.733001">
      <ele>940.1</ele>
    </trkpt>
    <trkpt lat="42.619458" lon="-2.733005">
      <ele>940</ele>
    </trkpt>
    <trkpt lat="42.619506" lon="-2.732954">
      <ele>939.9</ele>
    </trkpt>
    <trkpt lat="42.619524" lon="-2.732858">
      <ele>939.8</ele>
    </trkpt>
    <trkpt lat="42.619506" lon="-2.732751">
      <ele>939.6</ele>
    </trkpt>
    <trkpt lat="42.61935" lon="-2.732338">
      <ele>938.6</ele>
    </trkpt>
    <trkpt lat="42.619337" lon="-2.732109">
      <ele>938</ele>
    </trkpt>
    <trkpt lat="42.619428" lon="-2.731602">
      <ele>936.1</ele>
    </trkpt>
    <trkpt lat="42.619409" lon="-2.731464">
      <ele>935.6</ele>
    </trkpt>
    <trkpt lat="42.619324" lon="-2.73126">
      <ele>934.7</ele>
    </trkpt>
    <trkpt lat="42.61932" lon="-2.73113">
      <ele>934.2</ele>
    </trkpt>
    <trkpt lat="42.619344" lon="-2.730938">
      <ele>933.6</ele>
    </trkpt>
    <trkpt lat="42.619822" lon="-2.728935">
      <ele>921.2</ele>
    </trkpt>
    <trkpt lat="42.619851" lon="-2.728651">
      <ele>919.2</ele>
    </trkpt>
    <trkpt lat="42.619844" lon="-2.728412">
      <ele>917.3</ele>
    </trkpt>
    <trkpt lat="42.619791" lon="-2.728177">
      <ele>915.8</ele>
    </trkpt>
    <trkpt lat="42.619644" lon="-2.727839">
      <ele>913.3</ele>
    </trkpt>
    <trkpt lat="42.619629" lon="-2.727673">
      <ele>912.2</ele>
    </trkpt>
    <trkpt lat="42.619791" lon="-2.727243">
      <ele>909.6</ele>
    </trkpt>
    <trkpt lat="42.619836" lon="-2.726976">
      <ele>908.2</ele>
    </trkpt>
    <trkpt lat="42.619802" lon="-2.72673">
      <ele>907.1</ele>
    </trkpt>
    <trkpt lat="42.61975" lon="-2.72662">
      <ele>906.5</ele>
    </trkpt>
    <trkpt lat="42.619622" lon="-2.726492">
      <ele>905.9</ele>
    </trkpt>
    <trkpt lat="42.61923" lon="-2.72599">
      <ele>904.4</ele>
    </trkpt>
    <trkpt lat="42.618843" lon="-2.725605">
      <ele>903.9</ele>
    </trkpt>
    <trkpt lat="42.618483" lon="-2.725376">
      <ele>903.1</ele>
    </trkpt>
    <trkpt lat="42.61842" lon="-2.7253">
      <ele>902.8</ele>
    </trkpt>
    <trkpt lat="42.618388" lon="-2.72523">
      <ele>902.5</ele>
    </trkpt>
    <trkpt lat="42.618367" lon="-2.72509">
      <ele>902.2</ele>
    </trkpt>
    <trkpt lat="42.61838" lon="-2.72498">
      <ele>902.6</ele>
    </trkpt>
    <trkpt lat="42.61858" lon="-2.72483">
      <ele>901.6</ele>
    </trkpt>
    <trkpt lat="42.61875" lon="-2.724793">
      <ele>901.7</ele>
    </trkpt>
    <trkpt lat="42.619144" lon="-2.724772">
      <ele>900.3</ele>
    </trkpt>
    <trkpt lat="42.619495" lon="-2.724661">
      <ele>899</ele>
    </trkpt>
    <trkpt lat="42.619598" lon="-2.724663">
      <ele>898.3</ele>
    </trkpt>
    <trkpt lat="42.61979" lon="-2.724843">
      <ele>897.5</ele>
    </trkpt>
    <trkpt lat="42.620022" lon="-2.724964">
      <ele>895.8</ele>
    </trkpt>
    <trkpt lat="42.620576" lon="-2.725175">
      <ele>893.7</ele>
    </trkpt>
    <trkpt lat="42.62138" lon="-2.72558">
      <ele>890.6</ele>
    </trkpt>
    <trkpt lat="42.621508" lon="-2.725611">
      <ele>889.9</ele>
    </trkpt>
    <trkpt lat="42.621602" lon="-2.725602">
      <ele>889.5</ele>
    </trkpt>
    <trkpt lat="42.621765" lon="-2.725515">
      <ele>888.8</ele>
    </trkpt>
    <trkpt lat="42.622143" lon="-2.72514">
      <ele>886.6</ele>
    </trkpt>
    <trkpt lat="42.622283" lon="-2.724923">
      <ele>885.4</ele>
    </trkpt>
    <trkpt lat="42.62249" lon="-2.72476">
      <ele>883.3</ele>
    </trkpt>
    <trkpt lat="42.622696" lon="-2.724673">
      <ele>881.8</ele>
    </trkpt>
    <trkpt lat="42.622963" lon="-2.724676">
      <ele>879.9</ele>
    </trkpt>
    <trkpt lat="42.623174" lon="-2.724738">
      <ele>877.7</ele>
    </trkpt>
    <trkpt lat="42.62332" lon="-2.72484">
      <ele>876.5</ele>
    </trkpt>
    <trkpt lat="42.623712" lon="-2.725508">
      <ele>870.6</ele>
    </trkpt>
    <trkpt lat="42.623746" lon="-2.725561">
      <ele>870.3</ele>
    </trkpt>
    <trkpt lat="42.623849" lon="-2.725612">
      <ele>869.3</ele>
    </trkpt>
    <trkpt lat="42.623964" lon="-2.725628">
      <ele>868.3</ele>
    </trkpt>
    <trkpt lat="42.624124" lon="-2.725602">
      <ele>867</ele>
    </trkpt>
    <trkpt lat="42.624424" lon="-2.725498">
      <ele>864.3</ele>
    </trkpt>
    <trkpt lat="42.62458" lon="-2.72553">
      <ele>863.1</ele>
    </trkpt>
    <trkpt lat="42.62472" lon="-2.72562">
      <ele>861.7</ele>
    </trkpt>
    <trkpt lat="42.624995" lon="-2.725983">
      <ele>859.2</ele>
    </trkpt>
    <trkpt lat="42.625109" lon="-2.72606">
      <ele>858.5</ele>
    </trkpt>
    <trkpt lat="42.625446" lon="-2.726175">
      <ele>856.8</ele>
    </trkpt>
    <trkpt lat="42.625616" lon="-2.726174">
      <ele>855.9</ele>
    </trkpt>
    <trkpt lat="42.626362" lon="-2.726053">
      <ele>851.3</ele>
    </trkpt>
    <trkpt lat="42.62662" lon="-2.725956">
      <ele>849.4</ele>
    </trkpt>
    <trkpt lat="42.627555" lon="-2.725193">
      <ele>842.8</ele>
    </trkpt>
    <trkpt lat="42.627744" lon="-2.724966">
      <ele>841.5</ele>
    </trkpt>
    <trkpt lat="42.627818" lon="-2.72475">
      <ele>840.5</ele>
    </trkpt>
    <trkpt lat="42.627823" lon="-2.724596">
      <ele>840</ele>
    </trkpt>
    <trkpt lat="42.627796" lon="-2.72422">
      <ele>838.9</ele>
    </trkpt>
    <trkpt lat="42.627732" lon="-2.72389">
      <ele>837.9</ele>
    </trkpt>
    <trkpt lat="42.627736" lon="-2.723792">
      <ele>837.6</ele>
    </trkpt>
    <trkpt lat="42.627772" lon="-2.72371">
      <ele>837.4</ele>
    </trkpt>
    <trkpt lat="42.627846" lon="-2.723646">
      <ele>837.1</ele>
    </trkpt>
    <trkpt lat="42.628" lon="-2.72367">
      <ele>836.6</ele>
    </trkpt>
    <trkpt lat="42.628518" lon="-2.723938">
      <ele>834.9</ele>
    </trkpt>
    <trkpt lat="42.62865" lon="-2.723971">
      <ele>834.5</ele>
    </trkpt>
    <trkpt lat="42.62878" lon="-2.72396">
      <ele>834.1</ele>
    </trkpt>
    <trkpt lat="42.628898" lon="-2.723888">
      <ele>833.5</ele>
    </trkpt>
    <trkpt lat="42.629115" lon="-2.723648">
      <ele>832.3</ele>
    </trkpt>
    <trkpt lat="42.629332" lon="-2.72326">
      <ele>830.4</ele>
    </trkpt>
    <trkpt lat="42.629474" lon="-2.722916">
      <ele>828.8</ele>
    </trkpt>
    <trkpt lat="42.629616" lon="-2.721911">
      <ele>823.4</ele>
    </trkpt>
    <trkpt lat="42.629709" lon="-2.721585">
      <ele>821.4</ele>
    </trkpt>
    <trkpt lat="42.629938" lon="-2.721178">
      <ele>818.3</ele>
    </trkpt>
    <trkpt lat="42.630072" lon="-2.721013">
      <ele>816.7</ele>
    </trkpt>
    <trkpt lat="42.630216" lon="-2.720929">
      <ele>815.3</ele>
    </trkpt>
    <trkpt lat="42.630529" lon="-2.720842">
      <ele>812.5</ele>
    </trkpt>
    <trkpt lat="42.63071" lon="-2.720866">
      <ele>811</ele>
    </trkpt>
    <trkpt lat="42.631042" lon="-2.721017">
      <ele>808.3</ele>
    </trkpt>
    <trkpt lat="42.63115" lon="-2.72101">
      <ele>807.5</ele>
    </trkpt>
    <trkpt lat="42.631885" lon="-2.720673">
      <ele>802</ele>
    </trkpt>
    <trkpt lat="42.632628" lon="-2.71978">
      <ele>795.6</ele>
    </trkpt>
    <trkpt lat="42.632765" lon="-2.719661">
      <ele>794.6</ele>
    </trkpt>
    <trkpt lat="42.633048" lon="-2.71949">
      <ele>792.5</ele>
    </trkpt>
    <trkpt lat="42.63314" lon="-2.71939">
      <ele>791.6</ele>
    </trkpt>
    <trkpt lat="42.633932" lon="-2.718408">
      <ele>780.6</ele>
    </trkpt>
    <trkpt lat="42.634045" lon="-2.718336">
      <ele>779.2</ele>
    </trkpt>
    <trkpt lat="42.634239" lon="-2.718311">
      <ele>776.7</ele>
    </trkpt>
    <trkpt lat="42.635403" lon="-2.718376">
      <ele>763.5</ele>
    </trkpt>
    <trkpt lat="42.63612" lon="-2.718341">
      <ele>755.5</ele>
    </trkpt>
    <trkpt lat="42.636422" lon="-2.718146">
      <ele>752.4</ele>
    </trkpt>
    <trkpt lat="42.639015" lon="-2.71611">
      <ele>732.9</ele>
    </trkpt>
    <trkpt lat="42.640777" lon="-2.714742">
      <ele>733.5</ele>
    </trkpt>
    <trkpt lat="42.640905" lon="-2.714565">
      <ele>733.7</ele>
    </trkpt>
    <trkpt lat="42.640955" lon="-2.714267">
      <ele>733.9</ele>
    </trkpt>
    <trkpt lat="42.641199" lon="-2.714483">
      <ele>733.9</ele>
    </trkpt>
    <trkpt lat="42.64126" lon="-2.714533">
      <ele>734</ele>
    </trkpt>
    <trkpt lat="42.641862" lon="-2.715006">
      <ele>733.5</ele>
    </trkpt>
    <trkpt lat="42.64247" lon="-2.715225">
      <ele>732</ele>
    </trkpt>
    <trkpt lat="42.642921" lon="-2.715336">
      <ele>730.5</ele>
    </trkpt>
    <trkpt lat="42.643066" lon="-2.715437">
      <ele>729.7</ele>
    </trkpt>
    <trkpt lat="42.643125" lon="-2.715571">
      <ele>729.2</ele>
    </trkpt>
    <trkpt lat="42.643135" lon="-2.715797">
      <ele>728.4</ele>
    </trkpt>
    <trkpt lat="42.642985" lon="-2.717263">
      <ele>723.7</ele>
    </trkpt>
    <trkpt lat="42.643" lon="-2.717624">
      <ele>722.5</ele>
    </trkpt>
    <trkpt lat="42.643061" lon="-2.717878">
      <ele>721.8</ele>
    </trkpt>
    <trkpt lat="42.643637" lon="-2.719652">
      <ele>717.3</ele>
    </trkpt>
    <trkpt lat="42.643722" lon="-2.719981">
      <ele>716.9</ele>
    </trkpt>
    <trkpt lat="42.644424" lon="-2.724536">
      <ele>712.6</ele>
    </trkpt>
    <trkpt lat="42.644479" lon="-2.724907">
      <ele>712.6</ele>
    </trkpt>
    <trkpt lat="42.644449" lon="-2.725212">
      <ele>712.6</ele>
    </trkpt>
    <trkpt lat="42.643786" lon="-2.727055">
      <ele>712.8</ele>
    </trkpt>
    <trkpt lat="42.643782" lon="-2.727067">
      <ele>712.9</ele>
    </trkpt>
    <trkpt lat="42.643694" lon="-2.727374">
      <ele>712.6</ele>
    </trkpt>
    <trkpt lat="42.643293" lon="-2.729855">
      <ele>709.6</ele>
    </trkpt>
    <trkpt lat="42.64321" lon="-2.73048">
      <ele>708.8</ele>
    </trkpt>
    <trkpt lat="42.643208" lon="-2.730519">
      <ele>708.7</ele>
    </trkpt>
    <trkpt lat="42.644877" lon="-2.729999">
      <ele>707.5</ele>
    </trkpt>
    <trkpt lat="42.646999" lon="-2.729771">
      <ele>708.3</ele>
    </trkpt>
    <trkpt lat="42.647928" lon="-2.729407">
      <ele>710.4</ele>
    </trkpt>
    <trkpt lat="42.648184" lon="-2.729269">
      <ele>711.3</ele>
    </trkpt>
    <trkpt lat="42.649621" lon="-2.728066">
      <ele>718.3</ele>
    </trkpt>
    <trkpt lat="42.649763" lon="-2.727888">
      <ele>719.3</ele>
    </trkpt>
    <trkpt lat="42.64989" lon="-2.727648">
      <ele>720.4</ele>
    </trkpt>
    <trkpt lat="42.650226" lon="-2.726767">
      <ele>724.3</ele>
    </trkpt>
    <trkpt lat="42.650299" lon="-2.726688">
      <ele>724.8</ele>
    </trkpt>
    <trkpt lat="42.650601" lon="-2.726483">
      <ele>726.1</ele>
    </trkpt>
    <trkpt lat="42.650692" lon="-2.726362">
      <ele>726.4</ele>
    </trkpt>
    <trkpt lat="42.650745" lon="-2.726277">
      <ele>726.6</ele>
    </trkpt>
    <trkpt lat="42.651002" lon="-2.725785">
      <ele>726.8</ele>
    </trkpt>
    <trkpt lat="42.651333" lon="-2.725113">
      <ele>726.3</ele>
    </trkpt>
    <trkpt lat="42.651588" lon="-2.724593">
      <ele>725.1</ele>
    </trkpt>
    <trkpt lat="42.65171" lon="-2.724191">
      <ele>723.8</ele>
    </trkpt>
    <trkpt lat="42.651983" lon="-2.72327">
      <ele>720</ele>
    </trkpt>
    <trkpt lat="42.652159" lon="-2.722975">
      <ele>718.4</ele>
    </trkpt>
    <trkpt lat="42.652346" lon="-2.722665">
      <ele>717</ele>
    </trkpt>
    <trkpt lat="42.652963" lon="-2.721664">
      <ele>714.7</ele>
    </trkpt>
    <trkpt lat="42.653145" lon="-2.721416">
      <ele>714.5</ele>
    </trkpt>
    <trkpt lat="42.653459" lon="-2.721121">
      <ele>714.5</ele>
    </trkpt>
    <trkpt lat="42.653724" lon="-2.720944">
      <ele>714.6</ele>
    </trkpt>
    <trkpt lat="42.654174" lon="-2.720703">
      <ele>715.2</ele>
    </trkpt>
    <trkpt lat="42.6544" lon="-2.720496">
      <ele>715.7</ele>
    </trkpt>
    <trkpt lat="42.654596" lon="-2.720153">
      <ele>716.5</ele>
    </trkpt>
    <trkpt lat="42.654657" lon="-2.719984">
      <ele>716.8</ele>
    </trkpt>
    <trkpt lat="42.654717" lon="-2.719667">
      <ele>717.5</ele>
    </trkpt>
    <trkpt lat="42.65488" lon="-2.716156">
      <ele>726.5</ele>
    </trkpt>
    <trkpt lat="42.654852" lon="-2.716039">
      <ele>726.7</ele>
    </trkpt>
    <trkpt lat="42.654773" lon="-2.71587">
      <ele>726.8</ele>
    </trkpt>
    <trkpt lat="42.654614" lon="-2.715674">
      <ele>727</ele>
    </trkpt>
    <trkpt lat="42.6502" lon="-2.714122">
      <ele>714.8</ele>
    </trkpt>
    <trkpt lat="42.649012" lon="-2.713719">
      <ele>713.1</ele>
    </trkpt>
    <trkpt lat="42.647145" lon="-2.713085">
      <ele>716.2</ele>
    </trkpt>
    <trkpt lat="42.64623" lon="-2.71278">
      <ele>721.3</ele>
    </trkpt>
    <trkpt lat="42.646008" lon="-2.712695">
      <ele>722.8</ele>
    </trkpt>
    <trkpt lat="42.645916" lon="-2.71263">
      <ele>723.2</ele>
    </trkpt>
    <trkpt lat="42.645748" lon="-2.712411">
      <ele>725.2</ele>
    </trkpt>
    <trkpt lat="42.645006" lon="-2.711239">
      <ele>734.2</ele>
    </trkpt>
    <trkpt lat="42.644851" lon="-2.711181">
      <ele>735.4</ele>
    </trkpt>
    <trkpt lat="42.644737" lon="-2.711236">
      <ele>736.5</ele>
    </trkpt>
    <trkpt lat="42.644655" lon="-2.711362">
      <ele>737.3</ele>
    </trkpt>
    <trkpt lat="42.644564" lon="-2.711787">
      <ele>738.9</ele>
    </trkpt>
    <trkpt lat="42.644478" lon="-2.711971">
      <ele>739.6</ele>
    </trkpt>
    <trkpt lat="42.644372" lon="-2.712095">
      <ele>740.4</ele>
    </trkpt>
    <trkpt lat="42.644249" lon="-2.712176">
      <ele>741</ele>
    </trkpt>
    <trkpt lat="42.644072" lon="-2.712214">
      <ele>742</ele>
    </trkpt>
    <trkpt lat="42.643709" lon="-2.712208">
      <ele>743.7</ele>
    </trkpt>
    <trkpt lat="42.643559" lon="-2.712205">
      <ele>744.3</ele>
    </trkpt>
    <trkpt lat="42.643452" lon="-2.712192">
      <ele>744.6</ele>
    </trkpt>
    <trkpt lat="42.643245" lon="-2.71213">
      <ele>745</ele>
    </trkpt>
    <trkpt lat="42.64318" lon="-2.712099">
      <ele>745.2</ele>
    </trkpt>
    <trkpt lat="42.643002" lon="-2.711989">
      <ele>745.6</ele>
    </trkpt>
    <trkpt lat="42.642719" lon="-2.711734">
      <ele>746.1</ele>
    </trkpt>
    <trkpt lat="42.641853" lon="-2.710882">
      <ele>746.5</ele>
    </trkpt>
    <trkpt lat="42.64181" lon="-2.710839">
      <ele>746.5</ele>
    </trkpt>
    <trkpt lat="42.638673" lon="-2.707721">
      <ele>754.4</ele>
    </trkpt>
    <trkpt lat="42.637289" lon="-2.706343">
      <ele>764.4</ele>
    </trkpt>
    <trkpt lat="42.634927" lon="-2.704002">
      <ele>789</ele>
    </trkpt>
    <trkpt lat="42.634804" lon="-2.703886">
      <ele>790.6</ele>
    </trkpt>
    <trkpt lat="42.634604" lon="-2.703758">
      <ele>792.9</ele>
    </trkpt>
    <trkpt lat="42.632832" lon="-2.703293">
      <ele>813.3</ele>
    </trkpt>
    <trkpt lat="42.632535" lon="-2.703241">
      <ele>816.6</ele>
    </trkpt>
    <trkpt lat="42.632289" lon="-2.703249">
      <ele>819.4</ele>
    </trkpt>
    <trkpt lat="42.631973" lon="-2.703309">
      <ele>822.9</ele>
    </trkpt>
    <trkpt lat="42.631087" lon="-2.7036">
      <ele>831.9</ele>
    </trkpt>
    <trkpt lat="42.630811" lon="-2.703575">
      <ele>834.3</ele>
    </trkpt>
    <trkpt lat="42.630652" lon="-2.703489">
      <ele>835.6</ele>
    </trkpt>
    <trkpt lat="42.630444" lon="-2.703251">
      <ele>838.1</ele>
    </trkpt>
    <trkpt lat="42.630354" lon="-2.703059">
      <ele>839.7</ele>
    </trkpt>
    <trkpt lat="42.630138" lon="-2.702412">
      <ele>845.4</ele>
    </trkpt>
    <trkpt lat="42.630041" lon="-2.702272">
      <ele>847</ele>
    </trkpt>
    <trkpt lat="42.629956" lon="-2.702204">
      <ele>848.3</ele>
    </trkpt>
    <trkpt lat="42.629701" lon="-2.702069">
      <ele>851.6</ele>
    </trkpt>
    <trkpt lat="42.628091" lon="-2.701507">
      <ele>871.7</ele>
    </trkpt>
    <trkpt lat="42.627736" lon="-2.701288">
      <ele>876.9</ele>
    </trkpt>
    <trkpt lat="42.627263" lon="-2.700887">
      <ele>883.7</ele>
    </trkpt>
    <trkpt lat="42.627017" lon="-2.700649">
      <ele>887.1</ele>
    </trkpt>
    <trkpt lat="42.626775" lon="-2.700351">
      <ele>890.3</ele>
    </trkpt>
    <trkpt lat="42.626322" lon="-2.699527">
      <ele>897.3</ele>
    </trkpt>
    <trkpt lat="42.626232" lon="-2.699419">
      <ele>898.4</ele>
    </trkpt>
    <trkpt lat="42.625921" lon="-2.699169">
      <ele>902</ele>
    </trkpt>
    <trkpt lat="42.625392" lon="-2.698911">
      <ele>907.5</ele>
    </trkpt>
    <trkpt lat="42.625212" lon="-2.698775">
      <ele>909.4</ele>
    </trkpt>
    <trkpt lat="42.624705" lon="-2.698103">
      <ele>915.9</ele>
    </trkpt>
    <trkpt lat="42.624202" lon="-2.697368">
      <ele>923.3</ele>
    </trkpt>
    <trkpt lat="42.623385" lon="-2.696511">
      <ele>932.7</ele>
    </trkpt>
    <trkpt lat="42.623105" lon="-2.696256">
      <ele>934.8</ele>
    </trkpt>
    <trkpt lat="42.622935" lon="-2.696168">
      <ele>935.9</ele>
    </trkpt>
    <trkpt lat="42.622583" lon="-2.696066">
      <ele>937.3</ele>
    </trkpt>
    <trkpt lat="42.622441" lon="-2.695947">
      <ele>937.6</ele>
    </trkpt>
    <trkpt lat="42.622373" lon="-2.695854">
      <ele>937.9</ele>
    </trkpt>
    <trkpt lat="42.62225" lon="-2.695597">
      <ele>938.4</ele>
    </trkpt>
    <trkpt lat="42.622043" lon="-2.694965">
      <ele>938.9</ele>
    </trkpt>
    <trkpt lat="42.621904" lon="-2.694632">
      <ele>938.5</ele>
    </trkpt>
    <trkpt lat="42.620979" lon="-2.692948">
      <ele>940.2</ele>
    </trkpt>
    <trkpt lat="42.620772" lon="-2.692648">
      <ele>941.3</ele>
    </trkpt>
    <trkpt lat="42.620518" lon="-2.69244">
      <ele>942.8</ele>
    </trkpt>
    <trkpt lat="42.620306" lon="-2.69234">
      <ele>944.7</ele>
    </trkpt>
    <trkpt lat="42.619629" lon="-2.692159">
      <ele>953.8</ele>
    </trkpt>
    <trkpt lat="42.619263" lon="-2.692009">
      <ele>959.2</ele>
    </trkpt>
    <trkpt lat="42.619096" lon="-2.691999">
      <ele>961</ele>
    </trkpt>
    <trkpt lat="42.618751" lon="-2.69218">
      <ele>965.7</ele>
    </trkpt>
    <trkpt lat="42.618615" lon="-2.692234">
      <ele>968.1</ele>
    </trkpt>
    <trkpt lat="42.618492" lon="-2.692234">
      <ele>969.2</ele>
    </trkpt>
    <trkpt lat="42.618356" lon="-2.692172">
      <ele>970.8</ele>
    </trkpt>
    <trkpt lat="42.61823" lon="-2.692054">
      <ele>972.9</ele>
    </trkpt>
    <trkpt lat="42.617886" lon="-2.691491">
      <ele>979</ele>
    </trkpt>
    <trkpt lat="42.617208" lon="-2.6908">
      <ele>987.6</ele>
    </trkpt>
    <trkpt lat="42.617016" lon="-2.690557">
      <ele>989.2</ele>
    </trkpt>
    <trkpt lat="42.616185" lon="-2.689283">
      <ele>995.8</ele>
    </trkpt>
    <trkpt lat="42.615908" lon="-2.688823">
      <ele>997.7</ele>
    </trkpt>
    <trkpt lat="42.615597" lon="-2.688236">
      <ele>999.6</ele>
    </trkpt>
    <trkpt lat="42.61436" lon="-2.685497">
      <ele>1005.9</ele>
    </trkpt>
    <trkpt lat="42.614292" lon="-2.685364">
      <ele>1006.3</ele>
    </trkpt>
    <trkpt lat="42.614089" lon="-2.685096">
      <ele>1007.3</ele>
    </trkpt>
    <trkpt lat="42.613762" lon="-2.684711">
      <ele>1008.7</ele>
    </trkpt>
    <trkpt lat="42.613573" lon="-2.684407">
      <ele>1009.6</ele>
    </trkpt>
    <trkpt lat="42.6135" lon="-2.684246">
      <ele>1010.1</ele>
    </trkpt>
    <trkpt lat="42.613342" lon="-2.683775">
      <ele>1011.5</ele>
    </trkpt>
    <trkpt lat="42.613265" lon="-2.683373">
      <ele>1012.6</ele>
    </trkpt>
    <trkpt lat="42.613219" lon="-2.682966">
      <ele>1013.7</ele>
    </trkpt>
    <trkpt lat="42.613215" lon="-2.682476">
      <ele>1014.8</ele>
    </trkpt>
    <trkpt lat="42.613329" lon="-2.68075">
      <ele>1021.3</ele>
    </trkpt>
    <trkpt lat="42.613596" lon="-2.679051">
      <ele>1029.8</ele>
    </trkpt>
    <trkpt lat="42.613643" lon="-2.678619">
      <ele>1031.5</ele>
    </trkpt>
    <trkpt lat="42.613638" lon="-2.678164">
      <ele>1033</ele>
    </trkpt>
    <trkpt lat="42.613587" lon="-2.677645">
      <ele>1034.2</ele>
    </trkpt>
    <trkpt lat="42.61313" lon="-2.675608">
      <ele>1032.5</ele>
    </trkpt>
    <trkpt lat="42.613012" lon="-2.675266">
      <ele>1031.8</ele>
    </trkpt>
    <trkpt lat="42.612945" lon="-2.675135">
      <ele>1031.6</ele>
    </trkpt>
    <trkpt lat="42.612624" lon="-2.67472">
      <ele>1031.4</ele>
    </trkpt>
    <trkpt lat="42.612476" lon="-2.674568">
      <ele>1031.7</ele>
    </trkpt>
    <trkpt lat="42.612355" lon="-2.674489">
      <ele>1032</ele>
    </trkpt>
    <trkpt lat="42.612149" lon="-2.674427">
      <ele>1032.8</ele>
    </trkpt>
    <trkpt lat="42.612019" lon="-2.674425">
      <ele>1033.3</ele>
    </trkpt>
    <trkpt lat="42.61161" lon="-2.674541">
      <ele>1035.8</ele>
    </trkpt>
    <trkpt lat="42.610157" lon="-2.675371">
      <ele>1048.3</ele>
    </trkpt>
    <trkpt lat="42.609903" lon="-2.67549">
      <ele>1050.2</ele>
    </trkpt>
    <trkpt lat="42.609752" lon="-2.675504">
      <ele>1051</ele>
    </trkpt>
    <trkpt lat="42.609522" lon="-2.675431">
      <ele>1052.2</ele>
    </trkpt>
    <trkpt lat="42.609346" lon="-2.675285">
      <ele>1052.9</ele>
    </trkpt>
    <trkpt lat="42.609189" lon="-2.675033">
      <ele>1053.4</ele>
    </trkpt>
    <trkpt lat="42.60904" lon="-2.674672">
      <ele>1053.6</ele>
    </trkpt>
    <trkpt lat="42.608905" lon="-2.674498">
      <ele>1053.3</ele>
    </trkpt>
    <trkpt lat="42.608768" lon="-2.674431">
      <ele>1053.1</ele>
    </trkpt>
    <trkpt lat="42.608621" lon="-2.674435">
      <ele>1052.7</ele>
    </trkpt>
    <trkpt lat="42.60843" lon="-2.674527">
      <ele>1052.3</ele>
    </trkpt>
    <trkpt lat="42.607111" lon="-2.675391">
      <ele>1048.4</ele>
    </trkpt>
    <trkpt lat="42.606921" lon="-2.675576">
      <ele>1047.4</ele>
    </trkpt>
    <trkpt lat="42.606843" lon="-2.675686">
      <ele>1047</ele>
    </trkpt>
    <trkpt lat="42.606587" lon="-2.676185">
      <ele>1045.1</ele>
    </trkpt>
    <trkpt lat="42.606379" lon="-2.676668">
      <ele>1043.4</ele>
    </trkpt>
    <trkpt lat="42.606118" lon="-2.677435">
      <ele>1041.1</ele>
    </trkpt>
    <trkpt lat="42.606037" lon="-2.677797">
      <ele>1040.2</ele>
    </trkpt>
    <trkpt lat="42.605951" lon="-2.678386">
      <ele>1039</ele>
    </trkpt>
    <trkpt lat="42.605859" lon="-2.678615">
      <ele>1038.6</ele>
    </trkpt>
    <trkpt lat="42.60568" lon="-2.678867">
      <ele>1038.5</ele>
    </trkpt>
    <trkpt lat="42.60519" lon="-2.679293">
      <ele>1040.7</ele>
    </trkpt>
    <trkpt lat="42.604764" lon="-2.679626">
      <ele>1043.7</ele>
    </trkpt>
    <trkpt lat="42.604403" lon="-2.679807">
      <ele>1046.8</ele>
    </trkpt>
    <trkpt lat="42.604267" lon="-2.67994">
      <ele>1048.4</ele>
    </trkpt>
    <trkpt lat="42.604175" lon="-2.680071">
      <ele>1049.4</ele>
    </trkpt>
    <trkpt lat="42.604053" lon="-2.680286">
      <ele>1051.5</ele>
    </trkpt>
    <trkpt lat="42.603916" lon="-2.680796">
      <ele>1055.3</ele>
    </trkpt>
    <trkpt lat="42.603755" lon="-2.681252">
      <ele>1059.2</ele>
    </trkpt>
    <trkpt lat="42.603461" lon="-2.681901">
      <ele>1064.5</ele>
    </trkpt>
    <trkpt lat="42.603017" lon="-2.682482">
      <ele>1068.2</ele>
    </trkpt>
    <trkpt lat="42.602422" lon="-2.683062">
      <ele>1071.7</ele>
    </trkpt>
    <trkpt lat="42.602165" lon="-2.6832">
      <ele>1072.9</ele>
    </trkpt>
    <trkpt lat="42.601621" lon="-2.683281">
      <ele>1075.2</ele>
    </trkpt>
    <trkpt lat="42.60096" lon="-2.683544">
      <ele>1077.8</ele>
    </trkpt>
    <trkpt lat="42.600709" lon="-2.683563">
      <ele>1079.2</ele>
    </trkpt>
    <trkpt lat="42.600274" lon="-2.683515">
      <ele>1081.6</ele>
    </trkpt>
    <trkpt lat="42.600158" lon="-2.683532">
      <ele>1082.2</ele>
    </trkpt>
    <trkpt lat="42.599958" lon="-2.683642">
      <ele>1083.5</ele>
    </trkpt>
    <trkpt lat="42.599474" lon="-2.684094">
      <ele>1088</ele>
    </trkpt>
    <trkpt lat="42.599311" lon="-2.684177">
      <ele>1089.6</ele>
    </trkpt>
    <trkpt lat="42.598971" lon="-2.684272">
      <ele>1092.3</ele>
    </trkpt>
    <trkpt lat="42.598741" lon="-2.684302">
      <ele>1093.8</ele>
    </trkpt>
    <trkpt lat="42.598481" lon="-2.684268">
      <ele>1095.8</ele>
    </trkpt>
    <trkpt lat="42.598098" lon="-2.684113">
      <ele>1098.8</ele>
    </trkpt>
    <trkpt lat="42.597884" lon="-2.683955">
      <ele>1100.6</ele>
    </trkpt>
    <trkpt lat="42.597169" lon="-2.683159">
      <ele>1104.5</ele>
    </trkpt>
    <trkpt lat="42.596601" lon="-2.682657">
      <ele>1104.6</ele>
    </trkpt>
    <trkpt lat="42.596021" lon="-2.682133">
      <ele>1103</ele>
    </trkpt>
    <trkpt lat="42.594512" lon="-2.680985">
      <ele>1093.3</ele>
    </trkpt>
    <trkpt lat="42.594381" lon="-2.680971">
      <ele>1092.2</ele>
    </trkpt>
    <trkpt lat="42.594266" lon="-2.681032">
      <ele>1091.3</ele>
    </trkpt>
    <trkpt lat="42.594174" lon="-2.681117">
      <ele>1089.8</ele>
    </trkpt>
    <trkpt lat="42.593816" lon="-2.681602">
      <ele>1083.8</ele>
    </trkpt>
    <trkpt lat="42.593476" lon="-2.682087">
      <ele>1077</ele>
    </trkpt>
    <trkpt lat="42.593389" lon="-2.682176">
      <ele>1074.8</ele>
    </trkpt>
    <trkpt lat="42.593204" lon="-2.682293">
      <ele>1072.5</ele>
    </trkpt>
    <trkpt lat="42.592975" lon="-2.682381">
      <ele>1068.5</ele>
    </trkpt>
    <trkpt lat="42.592876" lon="-2.682376">
      <ele>1066.9</ele>
    </trkpt>
    <trkpt lat="42.592712" lon="-2.682283">
      <ele>1063.3</ele>
    </trkpt>
    <trkpt lat="42.592016" lon="-2.681646">
      <ele>1049.8</ele>
    </trkpt>
    <trkpt lat="42.591715" lon="-2.6813">
      <ele>1044.4</ele>
    </trkpt>
    <trkpt lat="42.591337" lon="-2.680771">
      <ele>1038</ele>
    </trkpt>
    <trkpt lat="42.591049" lon="-2.680212">
      <ele>1032.7</ele>
    </trkpt>
    <trkpt lat="42.590842" lon="-2.67966">
      <ele>1027.3</ele>
    </trkpt>
    <trkpt lat="42.590733" lon="-2.67918">
      <ele>1023.7</ele>
    </trkpt>
    <trkpt lat="42.590698" lon="-2.678932">
      <ele>1021.8</ele>
    </trkpt>
    <trkpt lat="42.590635" lon="-2.678168">
      <ele>1016.8</ele>
    </trkpt>
    <trkpt lat="42.590567" lon="-2.678223">
      <ele>1016.2</ele>
    </trkpt>
    <trkpt lat="42.590259" lon="-2.679114">
      <ele>1012.2</ele>
    </trkpt>
    <trkpt lat="42.590184" lon="-2.679194">
      <ele>1011.9</ele>
    </trkpt>
    <trkpt lat="42.590101" lon="-2.679151">
      <ele>1011.7</ele>
    </trkpt>
    <trkpt lat="42.590038" lon="-2.679162">
      <ele>1011.4</ele>
    </trkpt>
    <trkpt lat="42.58999" lon="-2.67921">
      <ele>1010.9</ele>
    </trkpt>
    <trkpt lat="42.589994" lon="-2.67936">
      <ele>1010.3</ele>
    </trkpt>
    <trkpt lat="42.58999" lon="-2.67921">
      <ele>1009.9</ele>
    </trkpt>
    <trkpt lat="42.590038" lon="-2.679162">
      <ele>1009.7</ele>
    </trkpt>
    <trkpt lat="42.590101" lon="-2.679151">
      <ele>1009.2</ele>
    </trkpt>
    <trkpt lat="42.590184" lon="-2.679194">
      <ele>1008.7</ele>
    </trkpt>
    <trkpt lat="42.590259" lon="-2.679114">
      <ele>1008.5</ele>
    </trkpt>
    <trkpt lat="42.590567" lon="-2.678223">
      <ele>1006.5</ele>
    </trkpt>
    <trkpt lat="42.590635" lon="-2.678168">
      <ele>1006.5</ele>
    </trkpt>
    <trkpt lat="42.590611" lon="-2.677592">
      <ele>1005.3</ele>
    </trkpt>
    <trkpt lat="42.590574" lon="-2.677225">
      <ele>1004.9</ele>
    </trkpt>
    <trkpt lat="42.590385" lon="-2.676425">
      <ele>1001.3</ele>
    </trkpt>
    <trkpt lat="42.590252" lon="-2.6756">
      <ele>997.1</ele>
    </trkpt>
    <trkpt lat="42.590101" lon="-2.673128">
      <ele>986.7</ele>
    </trkpt>
    <trkpt lat="42.590132" lon="-2.672906">
      <ele>985.6</ele>
    </trkpt>
    <trkpt lat="42.59018" lon="-2.672794">
      <ele>985.1</ele>
    </trkpt>
    <trkpt lat="42.590404" lon="-2.672444">
      <ele>982.9</ele>
    </trkpt>
    <trkpt lat="42.590515" lon="-2.67218">
      <ele>981.4</ele>
    </trkpt>
    <trkpt lat="42.590562" lon="-2.671897">
      <ele>979.9</ele>
    </trkpt>
    <trkpt lat="42.590544" lon="-2.671579">
      <ele>978.2</ele>
    </trkpt>
    <trkpt lat="42.590128" lon="-2.669533">
      <ele>963.6</ele>
    </trkpt>
    <trkpt lat="42.589321" lon="-2.66763">
      <ele>945.9</ele>
    </trkpt>
    <trkpt lat="42.589089" lon="-2.666935">
      <ele>939.7</ele>
    </trkpt>
    <trkpt lat="42.589016" lon="-2.666838">
      <ele>938.3</ele>
    </trkpt>
    <trkpt lat="42.588921" lon="-2.666842">
      <ele>937.1</ele>
    </trkpt>
    <trkpt lat="42.58883" lon="-2.666936">
      <ele>936.1</ele>
    </trkpt>
    <trkpt lat="42.58737" lon="-2.668783">
      <ele>912.2</ele>
    </trkpt>
    <trkpt lat="42.587228" lon="-2.668858">
      <ele>910.1</ele>
    </trkpt>
    <trkpt lat="42.587064" lon="-2.668803">
      <ele>907.7</ele>
    </trkpt>
    <trkpt lat="42.586949" lon="-2.668694">
      <ele>905.6</ele>
    </trkpt>
    <trkpt lat="42.586839" lon="-2.668515">
      <ele>903.2</ele>
    </trkpt>
    <trkpt lat="42.586073" lon="-2.666893">
      <ele>879.6</ele>
    </trkpt>
    <trkpt lat="42.585978" lon="-2.666629">
      <ele>876.3</ele>
    </trkpt>
    <trkpt lat="42.585949" lon="-2.666262">
      <ele>871.6</ele>
    </trkpt>
    <trkpt lat="42.585994" lon="-2.665891">
      <ele>868</ele>
    </trkpt>
    <trkpt lat="42.586072" lon="-2.665656">
      <ele>866</ele>
    </trkpt>
    <trkpt lat="42.586338" lon="-2.665125">
      <ele>860.9</ele>
    </trkpt>
    <trkpt lat="42.586388" lon="-2.664961">
      <ele>859.4</ele>
    </trkpt>
    <trkpt lat="42.58639" lon="-2.664892">
      <ele>859</ele>
    </trkpt>
    <trkpt lat="42.586358" lon="-2.664789">
      <ele>858.2</ele>
    </trkpt>
    <trkpt lat="42.586262" lon="-2.664739">
      <ele>857</ele>
    </trkpt>
    <trkpt lat="42.586149" lon="-2.664777">
      <ele>855.9</ele>
    </trkpt>
    <trkpt lat="42.585903" lon="-2.664955">
      <ele>854.4</ele>
    </trkpt>
    <trkpt lat="42.585465" lon="-2.665353">
      <ele>851.4</ele>
    </trkpt>
    <trkpt lat="42.585265" lon="-2.665593">
      <ele>848.2</ele>
    </trkpt>
    <trkpt lat="42.58514" lon="-2.665816">
      <ele>844.3</ele>
    </trkpt>
    <trkpt lat="42.584912" lon="-2.666428">
      <ele>839.2</ele>
    </trkpt>
    <trkpt lat="42.584795" lon="-2.666955">
      <ele>834.1</ele>
    </trkpt>
    <trkpt lat="42.584715" lon="-2.667029">
      <ele>832.3</ele>
    </trkpt>
    <trkpt lat="42.584657" lon="-2.667009">
      <ele>830.5</ele>
    </trkpt>
    <trkpt lat="42.584594" lon="-2.666867">
      <ele>829.7</ele>
    </trkpt>
    <trkpt lat="42.584578" lon="-2.666682">
      <ele>828</ele>
    </trkpt>
    <trkpt lat="42.584603" lon="-2.666244">
      <ele>823.7</ele>
    </trkpt>
    <trkpt lat="42.584541" lon="-2.665639">
      <ele>817.5</ele>
    </trkpt>
    <trkpt lat="42.584605" lon="-2.665181">
      <ele>813</ele>
    </trkpt>
    <trkpt lat="42.584699" lon="-2.664875">
      <ele>809.8</ele>
    </trkpt>
    <trkpt lat="42.585005" lon="-2.664268">
      <ele>806.2</ele>
    </trkpt>
    <trkpt lat="42.585203" lon="-2.663784">
      <ele>804.2</ele>
    </trkpt>
    <trkpt lat="42.585428" lon="-2.663321">
      <ele>802.7</ele>
    </trkpt>
    <trkpt lat="42.585597" lon="-2.663001">
      <ele>802</ele>
    </trkpt>
    <trkpt lat="42.585782" lon="-2.662733">
      <ele>801.6</ele>
    </trkpt>
    <trkpt lat="42.585992" lon="-2.662549">
      <ele>801.4</ele>
    </trkpt>
    <trkpt lat="42.586301" lon="-2.662336">
      <ele>801.2</ele>
    </trkpt>
    <trkpt lat="42.586709" lon="-2.662132">
      <ele>801.3</ele>
    </trkpt>
    <trkpt lat="42.587256" lon="-2.661927">
      <ele>801.8</ele>
    </trkpt>
    <trkpt lat="42.587345" lon="-2.661871">
      <ele>801.9</ele>
    </trkpt>
    <trkpt lat="42.587459" lon="-2.661743">
      <ele>801.5</ele>
    </trkpt>
    <trkpt lat="42.587523" lon="-2.661595">
      <ele>800.8</ele>
    </trkpt>
    <trkpt lat="42.58754" lon="-2.661491">
      <ele>800.4</ele>
    </trkpt>
    <trkpt lat="42.587523" lon="-2.660665">
      <ele>796.2</ele>
    </trkpt>
    <trkpt lat="42.587571" lon="-2.659988">
      <ele>791.6</ele>
    </trkpt>
    <trkpt lat="42.587562" lon="-2.659861">
      <ele>790.8</ele>
    </trkpt>
    <trkpt lat="42.587486" lon="-2.659496">
      <ele>787.8</ele>
    </trkpt>
    <trkpt lat="42.587298" lon="-2.659023">
      <ele>783.8</ele>
    </trkpt>
    <trkpt lat="42.587232" lon="-2.658909">
      <ele>782.7</ele>
    </trkpt>
    <trkpt lat="42.587042" lon="-2.658687">
      <ele>780</ele>
    </trkpt>
    <trkpt lat="42.586709" lon="-2.658403">
      <ele>775.7</ele>
    </trkpt>
    <trkpt lat="42.586613" lon="-2.65822">
      <ele>773.8</ele>
    </trkpt>
    <trkpt lat="42.586343" lon="-2.657023">
      <ele>765.3</ele>
    </trkpt>
    <trkpt lat="42.586328" lon="-2.656741">
      <ele>763.1</ele>
    </trkpt>
    <trkpt lat="42.586345" lon="-2.65648">
      <ele>761</ele>
    </trkpt>
    <trkpt lat="42.586293" lon="-2.656292">
      <ele>759.3</ele>
    </trkpt>
    <trkpt lat="42.586245" lon="-2.656213">
      <ele>758.4</ele>
    </trkpt>
    <trkpt lat="42.586106" lon="-2.656109">
      <ele>756.5</ele>
    </trkpt>
    <trkpt lat="42.585766" lon="-2.656">
      <ele>751.9</ele>
    </trkpt>
    <trkpt lat="42.583476" lon="-2.655112">
      <ele>713.8</ele>
    </trkpt>
    <trkpt lat="42.583047" lon="-2.654976">
      <ele>708</ele>
    </trkpt>
    <trkpt lat="42.582488" lon="-2.654844">
      <ele>700.7</ele>
    </trkpt>
    <trkpt lat="42.581862" lon="-2.654828">
      <ele>693.7</ele>
    </trkpt>
    <trkpt lat="42.581305" lon="-2.654738">
      <ele>688.1</ele>
    </trkpt>
    <trkpt lat="42.58055" lon="-2.654579">
      <ele>681.2</ele>
    </trkpt>
    <trkpt lat="42.580394" lon="-2.654473">
      <ele>679.6</ele>
    </trkpt>
    <trkpt lat="42.580297" lon="-2.654321">
      <ele>678.2</ele>
    </trkpt>
    <trkpt lat="42.580265" lon="-2.654153">
      <ele>677.2</ele>
    </trkpt>
    <trkpt lat="42.580277" lon="-2.654059">
      <ele>676.5</ele>
    </trkpt>
    <trkpt lat="42.580395" lon="-2.653762">
      <ele>674.6</ele>
    </trkpt>
    <trkpt lat="42.580841" lon="-2.652941">
      <ele>669.9</ele>
    </trkpt>
    <trkpt lat="42.581143" lon="-2.652013">
      <ele>666.5</ele>
    </trkpt>
    <trkpt lat="42.581211" lon="-2.651721">
      <ele>665.5</ele>
    </trkpt>
    <trkpt lat="42.581262" lon="-2.651247">
      <ele>663.5</ele>
    </trkpt>
    <trkpt lat="42.581251" lon="-2.650796">
      <ele>661.5</ele>
    </trkpt>
    <trkpt lat="42.581185" lon="-2.65054">
      <ele>660.2</ele>
    </trkpt>
    <trkpt lat="42.58104" lon="-2.65025">
      <ele>658.6</ele>
    </trkpt>
    <trkpt lat="42.579714" lon="-2.648384">
      <ele>645.1</ele>
    </trkpt>
    <trkpt lat="42.57844" lon="-2.646605">
      <ele>635.8</ele>
    </trkpt>
    <trkpt lat="42.577866" lon="-2.64545">
      <ele>632.6</ele>
    </trkpt>
    <trkpt lat="42.577749" lon="-2.645369">
      <ele>632.1</ele>
    </trkpt>
    <trkpt lat="42.577688" lon="-2.645363">
      <ele>631.9</ele>
    </trkpt>
    <trkpt lat="42.577609" lon="-2.645357">
      <ele>631.6</ele>
    </trkpt>
    <trkpt lat="42.577459" lon="-2.645474">
      <ele>631</ele>
    </trkpt>
    <trkpt lat="42.577416" lon="-2.645553">
      <ele>630.8</ele>
    </trkpt>
    <trkpt lat="42.577292" lon="-2.646034">
      <ele>629.3</ele>
    </trkpt>
    <trkpt lat="42.576558" lon="-2.648415">
      <ele>621.9</ele>
    </trkpt>
    <trkpt lat="42.576218" lon="-2.649494">
      <ele>619.8</ele>
    </trkpt>
    <trkpt lat="42.576128" lon="-2.649689">
      <ele>619.4</ele>
    </trkpt>
    <trkpt lat="42.5753" lon="-2.651104">
      <ele>618.7</ele>
    </trkpt>
    <trkpt lat="42.573441" lon="-2.654275">
      <ele>618</ele>
    </trkpt>
    <trkpt lat="42.573278" lon="-2.654553">
      <ele>617.3</ele>
    </trkpt>
    <trkpt lat="42.572263" lon="-2.656303">
      <ele>608.8</ele>
    </trkpt>
    <trkpt lat="42.571868" lon="-2.657125">
      <ele>604.6</ele>
    </trkpt>
    <trkpt lat="42.571696" lon="-2.657516">
      <ele>602.9</ele>
    </trkpt>
    <trkpt lat="42.571546" lon="-2.657957">
      <ele>601.3</ele>
    </trkpt>
    <trkpt lat="42.571484" lon="-2.658225">
      <ele>600.6</ele>
    </trkpt>
    <trkpt lat="42.571419" lon="-2.658727">
      <ele>599.2</ele>
    </trkpt>
    <trkpt lat="42.571408" lon="-2.659195">
      <ele>597.9</ele>
    </trkpt>
    <trkpt lat="42.571457" lon="-2.659758">
      <ele>596.3</ele>
    </trkpt>
    <trkpt lat="42.571553" lon="-2.660324">
      <ele>594.4</ele>
    </trkpt>
    <trkpt lat="42.571596" lon="-2.66053">
      <ele>593.7</ele>
    </trkpt>
    <trkpt lat="42.571723" lon="-2.661291">
      <ele>590.6</ele>
    </trkpt>
    <trkpt lat="42.571815" lon="-2.662168">
      <ele>586.3</ele>
    </trkpt>
    <trkpt lat="42.571799" lon="-2.663052">
      <ele>582</ele>
    </trkpt>
    <trkpt lat="42.571715" lon="-2.663788">
      <ele>578.8</ele>
    </trkpt>
    <trkpt lat="42.571504" lon="-2.66473">
      <ele>575.7</ele>
    </trkpt>
    <trkpt lat="42.57135" lon="-2.665201">
      <ele>574.6</ele>
    </trkpt>
    <trkpt lat="42.571094" lon="-2.665945">
      <ele>573.5</ele>
    </trkpt>
    <trkpt lat="42.570819" lon="-2.666907">
      <ele>572.5</ele>
    </trkpt>
    <trkpt lat="42.570575" lon="-2.66811">
      <ele>571.4</ele>
    </trkpt>
    <trkpt lat="42.570138" lon="-2.67027">
      <ele>571</ele>
    </trkpt>
    <trkpt lat="42.569814" lon="-2.671921">
      <ele>572.1</ele>
    </trkpt>
    <trkpt lat="42.56958" lon="-2.673093">
      <ele>572.2</ele>
    </trkpt>
    <trkpt lat="42.56947" lon="-2.673686">
      <ele>571.8</ele>
    </trkpt>
    <trkpt lat="42.569303" lon="-2.674802">
      <ele>570</ele>
    </trkpt>
    <trkpt lat="42.569286" lon="-2.675104">
      <ele>569.2</ele>
    </trkpt>
    <trkpt lat="42.569154" lon="-2.675749">
      <ele>567.6</ele>
    </trkpt>
    <trkpt lat="42.569093" lon="-2.676021">
      <ele>567.1</ele>
    </trkpt>
    <trkpt lat="42.568988" lon="-2.676306">
      <ele>566.6</ele>
    </trkpt>
    <trkpt lat="42.568577" lon="-2.677254">
      <ele>566.1</ele>
    </trkpt>
    <trkpt lat="42.568471" lon="-2.677518">
      <ele>566.3</ele>
    </trkpt>
    <trkpt lat="42.568341" lon="-2.677764">
      <ele>566.3</ele>
    </trkpt>
    <trkpt lat="42.56821" lon="-2.678113">
      <ele>566.5</ele>
    </trkpt>
    <trkpt lat="42.568168" lon="-2.678686">
      <ele>567.1</ele>
    </trkpt>
    <trkpt lat="42.568181" lon="-2.67889">
      <ele>567.2</ele>
    </trkpt>
    <trkpt lat="42.568219" lon="-2.679367">
      <ele>568</ele>
    </trkpt>
    <trkpt lat="42.568303" lon="-2.679614">
      <ele>568.6</ele>
    </trkpt>
    <trkpt lat="42.568348" lon="-2.679832">
      <ele>569</ele>
    </trkpt>
    <trkpt lat="42.568185" lon="-2.680828">
      <ele>570.6</ele>
    </trkpt>
    <trkpt lat="42.568022" lon="-2.681894">
      <ele>570.6</ele>
    </trkpt>
    <trkpt lat="42.568036" lon="-2.682087">
      <ele>570.7</ele>
    </trkpt>
    <trkpt lat="42.567116" lon="-2.683899">
      <ele>571.5</ele>
    </trkpt>
    <trkpt lat="42.566965" lon="-2.684434">
      <ele>571.7</ele>
    </trkpt>
    <trkpt lat="42.56679" lon="-2.685155">
      <ele>572</ele>
    </trkpt>
    <trkpt lat="42.566508" lon="-2.686324">
      <ele>573.2</ele>
    </trkpt>
    <trkpt lat="42.566456" lon="-2.686596">
      <ele>573.3</ele>
    </trkpt>
    <trkpt lat="42.566443" lon="-2.686845">
      <ele>573.5</ele>
    </trkpt>
    <trkpt lat="42.56648" lon="-2.687209">
      <ele>573.5</ele>
    </trkpt>
    <trkpt lat="42.567049" lon="-2.690551">
      <ele>575.2</ele>
    </trkpt>
    <trkpt lat="42.567105" lon="-2.691248">
      <ele>576.8</ele>
    </trkpt>
    <trkpt lat="42.567091" lon="-2.692013">
      <ele>579</ele>
    </trkpt>
    <trkpt lat="42.56708" lon="-2.692155">
      <ele>579.3</ele>
    </trkpt>
    <trkpt lat="42.567058" lon="-2.692458">
      <ele>580.3</ele>
    </trkpt>
    <trkpt lat="42.566944" lon="-2.693151">
      <ele>582.4</ele>
    </trkpt>
    <trkpt lat="42.566252" lon="-2.695956">
      <ele>591.8</ele>
    </trkpt>
    <trkpt lat="42.566188" lon="-2.696307">
      <ele>593.1</ele>
    </trkpt>
    <trkpt lat="42.566143" lon="-2.696696">
      <ele>595.1</ele>
    </trkpt>
    <trkpt lat="42.566136" lon="-2.697056">
      <ele>597.4</ele>
    </trkpt>
    <trkpt lat="42.566164" lon="-2.697388">
      <ele>599.3</ele>
    </trkpt>
    <trkpt lat="42.566233" lon="-2.697812">
      <ele>601.7</ele>
    </trkpt>
    <trkpt lat="42.5664" lon="-2.698327">
      <ele>604.5</ele>
    </trkpt>
    <trkpt lat="42.566507" lon="-2.698567">
      <ele>605.9</ele>
    </trkpt>
    <trkpt lat="42.56669" lon="-2.698885">
      <ele>606.6</ele>
    </trkpt>
    <trkpt lat="42.566924" lon="-2.69919">
      <ele>606.9</ele>
    </trkpt>
    <trkpt lat="42.568342" lon="-2.700361">
      <ele>603.5</ele>
    </trkpt>
    <trkpt lat="42.568924" lon="-2.70089">
      <ele>600.6</ele>
    </trkpt>
    <trkpt lat="42.569348" lon="-2.701395">
      <ele>599.2</ele>
    </trkpt>
    <trkpt lat="42.569691" lon="-2.701931">
      <ele>598.7</ele>
    </trkpt>
    <trkpt lat="42.570878" lon="-2.704151">
      <ele>595.7</ele>
    </trkpt>
    <trkpt lat="42.570958" lon="-2.7043">
      <ele>595.3</ele>
    </trkpt>
    <trkpt lat="42.571393" lon="-2.705148">
      <ele>592.6</ele>
    </trkpt>
    <trkpt lat="42.571584" lon="-2.705653">
      <ele>590.3</ele>
    </trkpt>
    <trkpt lat="42.571695" lon="-2.706133">
      <ele>588.2</ele>
    </trkpt>
    <trkpt lat="42.57174" lon="-2.706443">
      <ele>587</ele>
    </trkpt>
    <trkpt lat="42.571768" lon="-2.706895">
      <ele>585.4</ele>
    </trkpt>
    <trkpt lat="42.571708" lon="-2.707659">
      <ele>583.3</ele>
    </trkpt>
    <trkpt lat="42.571337" lon="-2.709148">
      <ele>580.4</ele>
    </trkpt>
    <trkpt lat="42.571313" lon="-2.709227">
      <ele>580.5</ele>
    </trkpt>
    <trkpt lat="42.571092" lon="-2.710062">
      <ele>581.1</ele>
    </trkpt>
    <trkpt lat="42.570818" lon="-2.711065">
      <ele>581.2</ele>
    </trkpt>
    <trkpt lat="42.570754" lon="-2.71127">
      <ele>581</ele>
    </trkpt>
    <trkpt lat="42.570539" lon="-2.712008">
      <ele>579.1</ele>
    </trkpt>
    <trkpt lat="42.570512" lon="-2.712173">
      <ele>578.5</ele>
    </trkpt>
    <trkpt lat="42.570525" lon="-2.712508">
      <ele>577.6</ele>
    </trkpt>
    <trkpt lat="42.570575" lon="-2.71273">
      <ele>576.7</ele>
    </trkpt>
    <trkpt lat="42.570792" lon="-2.713318">
      <ele>574.1</ele>
    </trkpt>
    <trkpt lat="42.57087" lon="-2.713544">
      <ele>572.6</ele>
    </trkpt>
    <trkpt lat="42.570893" lon="-2.713738">
      <ele>571.8</ele>
    </trkpt>
    <trkpt lat="42.570877" lon="-2.713933">
      <ele>570.6</ele>
    </trkpt>
    <trkpt lat="42.570824" lon="-2.714137">
      <ele>569.4</ele>
    </trkpt>
    <trkpt lat="42.570708" lon="-2.714362">
      <ele>567.9</ele>
    </trkpt>
    <trkpt lat="42.570341" lon="-2.714854">
      <ele>564.5</ele>
    </trkpt>
    <trkpt lat="42.570135" lon="-2.715215">
      <ele>562.8</ele>
    </trkpt>
    <trkpt lat="42.569961" lon="-2.715638">
      <ele>561.8</ele>
    </trkpt>
    <trkpt lat="42.569809" lon="-2.716286">
      <ele>560.5</ele>
    </trkpt>
    <trkpt lat="42.569571" lon="-2.719226">
      <ele>558.3</ele>
    </trkpt>
    <trkpt lat="42.569455" lon="-2.720163">
      <ele>556.4</ele>
    </trkpt>
    <trkpt lat="42.568556" lon="-2.72585">
      <ele>532.7</ele>
    </trkpt>
    <trkpt lat="42.568393" lon="-2.726712">
      <ele>531.5</ele>
    </trkpt>
    <trkpt lat="42.568263" lon="-2.727136">
      <ele>531.4</ele>
    </trkpt>
    <trkpt lat="42.568047" lon="-2.727632">
      <ele>531.9</ele>
    </trkpt>
    <trkpt lat="42.567892" lon="-2.7279">
      <ele>532.6</ele>
    </trkpt>
    <trkpt lat="42.5672" lon="-2.728896">
      <ele>537</ele>
    </trkpt>
    <trkpt lat="42.567019" lon="-2.729192">
      <ele>538.6</ele>
    </trkpt>
    <trkpt lat="42.566757" lon="-2.729781">
      <ele>541.4</ele>
    </trkpt>
    <trkpt lat="42.566578" lon="-2.730433">
      <ele>544</ele>
    </trkpt>
    <trkpt lat="42.566522" lon="-2.730779">
      <ele>545.3</ele>
    </trkpt>
    <trkpt lat="42.566283" lon="-2.732969">
      <ele>547.3</ele>
    </trkpt>
    <trkpt lat="42.566274" lon="-2.733278">
      <ele>546.8</ele>
    </trkpt>
    <trkpt lat="42.566335" lon="-2.733903">
      <ele>545.4</ele>
    </trkpt>
    <trkpt lat="42.566509" lon="-2.734813">
      <ele>543</ele>
    </trkpt>
    <trkpt lat="42.566602" lon="-2.735435">
      <ele>541.1</ele>
    </trkpt>
    <trkpt lat="42.566602" lon="-2.736154">
      <ele>539.1</ele>
    </trkpt>
    <trkpt lat="42.566558" lon="-2.736779">
      <ele>537.6</ele>
    </trkpt>
    <trkpt lat="42.56621" lon="-2.741634">
      <ele>524.8</ele>
    </trkpt>
    <trkpt lat="42.566155" lon="-2.742665">
      <ele>521.8</ele>
    </trkpt>
    <trkpt lat="42.566195" lon="-2.743564">
      <ele>518.7</ele>
    </trkpt>
    <trkpt lat="42.566281" lon="-2.744175">
      <ele>516.2</ele>
    </trkpt>
    <trkpt lat="42.56644" lon="-2.744938">
      <ele>513</ele>
    </trkpt>
    <trkpt lat="42.566658" lon="-2.745585">
      <ele>510.1</ele>
    </trkpt>
    <trkpt lat="42.566943" lon="-2.746196">
      <ele>507.2</ele>
    </trkpt>
    <trkpt lat="42.567915" lon="-2.747949">
      <ele>500.2</ele>
    </trkpt>
    <trkpt lat="42.567789" lon="-2.748048">
      <ele>499.8</ele>
    </trkpt>
    <trkpt lat="42.56748" lon="-2.748147">
      <ele>499</ele>
    </trkpt>
    <trkpt lat="42.567367" lon="-2.748304">
      <ele>498.7</ele>
    </trkpt>
    <trkpt lat="42.56694" lon="-2.74954">
      <ele>497.2</ele>
    </trkpt>
    <trkpt lat="42.566609" lon="-2.749946">
      <ele>497.3</ele>
    </trkpt>
    <trkpt lat="42.566043" lon="-2.750518">
      <ele>497.5</ele>
    </trkpt>
    <trkpt lat="42.565895" lon="-2.750797">
      <ele>497.4</ele>
    </trkpt>
    <trkpt lat="42.565795" lon="-2.751058">
      <ele>497.3</ele>
    </trkpt>
    <trkpt lat="42.565548" lon="-2.751883">
      <ele>496.6</ele>
    </trkpt>
    <trkpt lat="42.565328" lon="-2.752784">
      <ele>495</ele>
    </trkpt>
    <trkpt lat="42.565003" lon="-2.753704">
      <ele>491.9</ele>
    </trkpt>
    <trkpt lat="42.564833" lon="-2.754183">
      <ele>489.6</ele>
    </trkpt>
    <trkpt lat="42.564723" lon="-2.754401">
      <ele>488.5</ele>
    </trkpt>
    <trkpt lat="42.564591" lon="-2.754548">
      <ele>487.6</ele>
    </trkpt>
    <trkpt lat="42.564219" lon="-2.754865">
      <ele>485.8</ele>
    </trkpt>
    <trkpt lat="42.564009" lon="-2.755093">
      <ele>485</ele>
    </trkpt>
    <trkpt lat="42.564016" lon="-2.75518">
      <ele>484.8</ele>
    </trkpt>
    <trkpt lat="42.564023" lon="-2.755354">
      <ele>484.4</ele>
    </trkpt>
    <trkpt lat="42.563976" lon="-2.755954">
      <ele>483.9</ele>
    </trkpt>
    <trkpt lat="42.563897" lon="-2.756247">
      <ele>484</ele>
    </trkpt>
    <trkpt lat="42.563501" lon="-2.757105">
      <ele>486.1</ele>
    </trkpt>
    <trkpt lat="42.563399" lon="-2.757231">
      <ele>486.9</ele>
    </trkpt>
    <trkpt lat="42.563063" lon="-2.757435">
      <ele>489.4</ele>
    </trkpt>
    <trkpt lat="42.563045" lon="-2.757649">
      <ele>490.6</ele>
    </trkpt>
    <trkpt lat="42.562696" lon="-2.757908">
      <ele>493.4</ele>
    </trkpt>
    <trkpt lat="42.562495" lon="-2.758021">
      <ele>494.2</ele>
    </trkpt>
    <trkpt lat="42.562514" lon="-2.758483">
      <ele>494.9</ele>
    </trkpt>
    <trkpt lat="42.562521" lon="-2.758533">
      <ele>495</ele>
    </trkpt>
    <trkpt lat="42.56236" lon="-2.758471">
      <ele>495</ele>
    </trkpt>
    <trkpt lat="42.562359" lon="-2.758471">
      <ele>495</ele>
    </trkpt>
    <trkpt lat="42.562359" lon="-2.758475">
      <ele>495</ele>
    </trkpt>
    <trkpt lat="42.562348" lon="-2.758893">
      <ele>494.8</ele>
    </trkpt>
    <trkpt lat="42.562342" lon="-2.759069">
      <ele>494.4</ele>
    </trkpt>
    <trkpt lat="42.562285" lon="-2.759438">
      <ele>493.4</ele>
    </trkpt>
    <trkpt lat="42.562252" lon="-2.759506">
      <ele>493.1</ele>
    </trkpt>
    <trkpt lat="42.562114" lon="-2.759757">
      <ele>491.8</ele>
    </trkpt>
    <trkpt lat="42.562215" lon="-2.759876">
      <ele>490.8</ele>
    </trkpt>
    <trkpt lat="42.562351" lon="-2.760101">
      <ele>489.1</ele>
    </trkpt>
    <trkpt lat="42.562812" lon="-2.760857">
      <ele>481.8</ele>
    </trkpt>
    <trkpt lat="42.563523" lon="-2.761807">
      <ele>471</ele>
    </trkpt>
    <trkpt lat="42.563832" lon="-2.7625">
      <ele>466.3</ele>
    </trkpt>
    <trkpt lat="42.564007" lon="-2.762749">
      <ele>465.1</ele>
    </trkpt>
    <trkpt lat="42.564011" lon="-2.762855">
      <ele>464.3</ele>
    </trkpt>
    <trkpt lat="42.563935" lon="-2.762869">
      <ele>463.8</ele>
    </trkpt>
    <trkpt lat="42.563867" lon="-2.76281">
      <ele>463.5</ele>
    </trkpt>
    <trkpt lat="42.563409" lon="-2.762077">
      <ele>460.1</ele>
    </trkpt>
    <trkpt lat="42.562973" lon="-2.761808">
      <ele>458.7</ele>
    </trkpt>
    <trkpt lat="42.562295" lon="-2.76109">
      <ele>457.1</ele>
    </trkpt>
    <trkpt lat="42.561242" lon="-2.760294">
      <ele>456.3</ele>
    </trkpt>
    <trkpt lat="42.56103" lon="-2.760164">
      <ele>456.2</ele>
    </trkpt>
    <trkpt lat="42.560739" lon="-2.760038">
      <ele>455.7</ele>
    </trkpt>
    <trkpt lat="42.560635" lon="-2.760001">
      <ele>455.4</ele>
    </trkpt>
    <trkpt lat="42.560521" lon="-2.759962">
      <ele>455</ele>
    </trkpt>
    <trkpt lat="42.559872" lon="-2.759735">
      <ele>451.8</ele>
    </trkpt>
    <trkpt lat="42.559347" lon="-2.759634">
      <ele>449.1</ele>
    </trkpt>
    <trkpt lat="42.559074" lon="-2.759646">
      <ele>447.3</ele>
    </trkpt>
    <trkpt lat="42.558761" lon="-2.759724">
      <ele>445.3</ele>
    </trkpt>
    <trkpt lat="42.558721" lon="-2.759742">
      <ele>445.1</ele>
    </trkpt>
    <trkpt lat="42.558485" lon="-2.759869">
      <ele>443.5</ele>
    </trkpt>
    <trkpt lat="42.558071" lon="-2.760208">
      <ele>440.5</ele>
    </trkpt>
    <trkpt lat="42.557887" lon="-2.760396">
      <ele>439.2</ele>
    </trkpt>
    <trkpt lat="42.557183" lon="-2.761116">
      <ele>436.8</ele>
    </trkpt>
    <trkpt lat="42.556388" lon="-2.762007">
      <ele>438.2</ele>
    </trkpt>
    <trkpt lat="42.556339" lon="-2.762068">
      <ele>438.4</ele>
    </trkpt>
    <trkpt lat="42.556099" lon="-2.76234">
      <ele>439.2</ele>
    </trkpt>
    <trkpt lat="42.55604" lon="-2.762413">
      <ele>439.5</ele>
    </trkpt>
    <trkpt lat="42.555776" lon="-2.762753">
      <ele>440.7</ele>
    </trkpt>
    <trkpt lat="42.555509" lon="-2.763134">
      <ele>442.3</ele>
    </trkpt>
    <trkpt lat="42.555187" lon="-2.76367">
      <ele>444.7</ele>
    </trkpt>
    <trkpt lat="42.554521" lon="-2.764742">
      <ele>448.6</ele>
    </trkpt>
    <trkpt lat="42.55262" lon="-2.767772">
      <ele>455.9</ele>
    </trkpt>
    <trkpt lat="42.55199" lon="-2.768739">
      <ele>456.4</ele>
    </trkpt>
    <trkpt lat="42.551181" lon="-2.769778">
      <ele>456.2</ele>
    </trkpt>
    <trkpt lat="42.550685" lon="-2.770626">
      <ele>456.3</ele>
    </trkpt>
    <trkpt lat="42.549893" lon="-2.772141">
      <ele>456.9</ele>
    </trkpt>
    <trkpt lat="42.54957" lon="-2.772682">
      <ele>457.3</ele>
    </trkpt>
    <trkpt lat="42.54861" lon="-2.774029">
      <ele>458</ele>
    </trkpt>
    <trkpt lat="42.548201" lon="-2.774511">
      <ele>458.2</ele>
    </trkpt>
    <trkpt lat="42.546896" lon="-2.775792">
      <ele>457.8</ele>
    </trkpt>
    <trkpt lat="42.546778" lon="-2.775979">
      <ele>457.7</ele>
    </trkpt>
    <trkpt lat="42.546638" lon="-2.776201">
      <ele>457.4</ele>
    </trkpt>
    <trkpt lat="42.546497" lon="-2.776633">
      <ele>456.9</ele>
    </trkpt>
    <trkpt lat="42.546427" lon="-2.777014">
      <ele>456.4</ele>
    </trkpt>
    <trkpt lat="42.54605" lon="-2.780755">
      <ele>452</ele>
    </trkpt>
    <trkpt lat="42.54601" lon="-2.781038">
      <ele>452.2</ele>
    </trkpt>
    <trkpt lat="42.545974" lon="-2.781213">
      <ele>452.3</ele>
    </trkpt>
    <trkpt lat="42.545734" lon="-2.781485">
      <ele>452.8</ele>
    </trkpt>
    <trkpt lat="42.54546" lon="-2.781546">
      <ele>453.4</ele>
    </trkpt>
    <trkpt lat="42.545381" lon="-2.781528">
      <ele>453.7</ele>
    </trkpt>
    <trkpt lat="42.545325" lon="-2.781486">
      <ele>453.8</ele>
    </trkpt>
    <trkpt lat="42.544984" lon="-2.781626">
      <ele>455.4</ele>
    </trkpt>
    <trkpt lat="42.544537" lon="-2.781653">
      <ele>457.9</ele>
    </trkpt>
    <trkpt lat="42.54415" lon="-2.781813">
      <ele>460.2</ele>
    </trkpt>
    <trkpt lat="42.544035" lon="-2.781835">
      <ele>460.9</ele>
    </trkpt>
    <trkpt lat="42.543975" lon="-2.781976">
      <ele>461.5</ele>
    </trkpt>
    <trkpt lat="42.543866" lon="-2.78211">
      <ele>462.4</ele>
    </trkpt>
    <trkpt lat="42.54355" lon="-2.782891">
      <ele>465.9</ele>
    </trkpt>
    <trkpt lat="42.543507" lon="-2.782934">
      <ele>466.2</ele>
    </trkpt>
    <trkpt lat="42.543189" lon="-2.783449">
      <ele>468.2</ele>
    </trkpt>
    <trkpt lat="42.543215" lon="-2.783507">
      <ele>468.4</ele>
    </trkpt>
    <trkpt lat="42.542965" lon="-2.783771">
      <ele>469.4</ele>
    </trkpt>
    <trkpt lat="42.54276" lon="-2.783932">
      <ele>469.7</ele>
    </trkpt>
    <trkpt lat="42.54253" lon="-2.784001">
      <ele>470</ele>
    </trkpt>
    <trkpt lat="42.542513" lon="-2.783953">
      <ele>470.1</ele>
    </trkpt>
    <trkpt lat="42.541989" lon="-2.784133">
      <ele>470.6</ele>
    </trkpt>
    <trkpt lat="42.541876" lon="-2.784211">
      <ele>470.8</ele>
    </trkpt>
    <trkpt lat="42.54162" lon="-2.784455">
      <ele>471</ele>
    </trkpt>
    <trkpt lat="42.541447" lon="-2.784809">
      <ele>471.9</ele>
    </trkpt>
    <trkpt lat="42.541397" lon="-2.78484">
      <ele>471.9</ele>
    </trkpt>
    <trkpt lat="42.541445" lon="-2.784985">
      <ele>472.5</ele>
    </trkpt>
    <trkpt lat="42.541723" lon="-2.785823">
      <ele>475.4</ele>
    </trkpt>
    <trkpt lat="42.541894" lon="-2.786096">
      <ele>476.9</ele>
    </trkpt>
    <trkpt lat="42.542167" lon="-2.78631">
      <ele>479</ele>
    </trkpt>
    <trkpt lat="42.542225" lon="-2.786352">
      <ele>479.3</ele>
    </trkpt>
    <trkpt lat="42.542651" lon="-2.78659">
      <ele>482.7</ele>
    </trkpt>
    <trkpt lat="42.543232" lon="-2.786903">
      <ele>485.9</ele>
    </trkpt>
    <trkpt lat="42.543413" lon="-2.787145">
      <ele>486.7</ele>
    </trkpt>
    <trkpt lat="42.543482" lon="-2.787245">
      <ele>486.8</ele>
    </trkpt>
    <trkpt lat="42.543558" lon="-2.787238">
      <ele>486.9</ele>
    </trkpt>
    <trkpt lat="42.543607" lon="-2.78732">
      <ele>486.9</ele>
    </trkpt>
    <trkpt lat="42.543737" lon="-2.787333">
      <ele>486.8</ele>
    </trkpt>
    <trkpt lat="42.543919" lon="-2.787448">
      <ele>486.6</ele>
    </trkpt>
    <trkpt lat="42.544179" lon="-2.787723">
      <ele>485.7</ele>
    </trkpt>
    <trkpt lat="42.544233" lon="-2.78778">
      <ele>485.4</ele>
    </trkpt>
    <trkpt lat="42.544615" lon="-2.788174">
      <ele>482.9</ele>
    </trkpt>
    <trkpt lat="42.544926" lon="-2.788664">
      <ele>479.4</ele>
    </trkpt>
    <trkpt lat="42.545929" lon="-2.790439">
      <ele>464.9</ele>
    </trkpt>
    <trkpt lat="42.54612" lon="-2.791109">
      <ele>460.7</ele>
    </trkpt>
    <trkpt lat="42.546589" lon="-2.79352">
      <ele>450.5</ele>
    </trkpt>
    <trkpt lat="42.546737" lon="-2.794474">
      <ele>448.8</ele>
    </trkpt>
    <trkpt lat="42.546861" lon="-2.795607">
      <ele>448.1</ele>
    </trkpt>
    <trkpt lat="42.546915" lon="-2.795763">
      <ele>448.1</ele>
    </trkpt>
    <trkpt lat="42.547011" lon="-2.795892">
      <ele>448.2</ele>
    </trkpt>
    <trkpt lat="42.547161" lon="-2.795975">
      <ele>448.5</ele>
    </trkpt>
    <trkpt lat="42.547349" lon="-2.795962">
      <ele>449</ele>
    </trkpt>
    <trkpt lat="42.547588" lon="-2.795901">
      <ele>449.6</ele>
    </trkpt>
    <trkpt lat="42.548155" lon="-2.795464">
      <ele>451.3</ele>
    </trkpt>
    <trkpt lat="42.548308" lon="-2.795404">
      <ele>451.8</ele>
    </trkpt>
    <trkpt lat="42.548464" lon="-2.795387">
      <ele>452.2</ele>
    </trkpt>
    <trkpt lat="42.548588" lon="-2.795447">
      <ele>452.9</ele>
    </trkpt>
    <trkpt lat="42.548674" lon="-2.795573">
      <ele>453.2</ele>
    </trkpt>
    <trkpt lat="42.548709" lon="-2.795724">
      <ele>453.6</ele>
    </trkpt>
    <trkpt lat="42.548684" lon="-2.795953">
      <ele>454.4</ele>
    </trkpt>
    <trkpt lat="42.547559" lon="-2.798206">
      <ele>463</ele>
    </trkpt>
    <trkpt lat="42.547329" lon="-2.798783">
      <ele>464.7</ele>
    </trkpt>
    <trkpt lat="42.547306" lon="-2.799004">
      <ele>465.3</ele>
    </trkpt>
    <trkpt lat="42.547441" lon="-2.799695">
      <ele>466.6</ele>
    </trkpt>
    <trkpt lat="42.547434" lon="-2.799817">
      <ele>466.9</ele>
    </trkpt>
    <trkpt lat="42.547563" lon="-2.800254">
      <ele>467.8</ele>
    </trkpt>
    <trkpt lat="42.547786" lon="-2.801242">
      <ele>469.3</ele>
    </trkpt>
    <trkpt lat="42.548445" lon="-2.804299">
      <ele>473.8</ele>
    </trkpt>
    <trkpt lat="42.549097" lon="-2.808624">
      <ele>483.7</ele>
    </trkpt>
    <trkpt lat="42.549117" lon="-2.809226">
      <ele>484.5</ele>
    </trkpt>
    <trkpt lat="42.548944" lon="-2.814497">
      <ele>488.3</ele>
    </trkpt>
    <trkpt lat="42.548888" lon="-2.815559">
      <ele>488</ele>
    </trkpt>
    <trkpt lat="42.548802" lon="-2.816615">
      <ele>487.2</ele>
    </trkpt>
    <trkpt lat="42.548938" lon="-2.818348">
      <ele>485.8</ele>
    </trkpt>
    <trkpt lat="42.54894" lon="-2.818551">
      <ele>485.7</ele>
    </trkpt>
    <trkpt lat="42.548904" lon="-2.819213">
      <ele>485.1</ele>
    </trkpt>
    <trkpt lat="42.548768" lon="-2.819873">
      <ele>484.3</ele>
    </trkpt>
    <trkpt lat="42.548613" lon="-2.820427">
      <ele>483.2</ele>
    </trkpt>
    <trkpt lat="42.548613" lon="-2.820864">
      <ele>482.2</ele>
    </trkpt>
    <trkpt lat="42.548649" lon="-2.821365">
      <ele>480.9</ele>
    </trkpt>
    <trkpt lat="42.548772" lon="-2.822551">
      <ele>478.9</ele>
    </trkpt>
    <trkpt lat="42.548858" lon="-2.823165">
      <ele>478.6</ele>
    </trkpt>
    <trkpt lat="42.54891" lon="-2.82348">
      <ele>478.6</ele>
    </trkpt>
    <trkpt lat="42.549155" lon="-2.824061">
      <ele>479.5</ele>
    </trkpt>
    <trkpt lat="42.549666" lon="-2.825252">
      <ele>485.6</ele>
    </trkpt>
    <trkpt lat="42.550487" lon="-2.826807">
      <ele>496.7</ele>
    </trkpt>
    <trkpt lat="42.551622" lon="-2.828407">
      <ele>506.6</ele>
    </trkpt>
    <trkpt lat="42.551815" lon="-2.828758">
      <ele>507.3</ele>
    </trkpt>
    <trkpt lat="42.5519" lon="-2.829022">
      <ele>507.5</ele>
    </trkpt>
    <trkpt lat="42.55211" lon="-2.830216">
      <ele>506.1</ele>
    </trkpt>
    <trkpt lat="42.552242" lon="-2.830789">
      <ele>504.3</ele>
    </trkpt>
    <trkpt lat="42.552776" lon="-2.83248">
      <ele>497.2</ele>
    </trkpt>
    <trkpt lat="42.552942" lon="-2.832836">
      <ele>495.7</ele>
    </trkpt>
    <trkpt lat="42.553059" lon="-2.833016">
      <ele>494.9</ele>
    </trkpt>
    <trkpt lat="42.55402" lon="-2.834359">
      <ele>489.9</ele>
    </trkpt>
    <trkpt lat="42.554366" lon="-2.834774">
      <ele>488.2</ele>
    </trkpt>
    <trkpt lat="42.555608" lon="-2.835285">
      <ele>482.1</ele>
    </trkpt>
    <trkpt lat="42.556454" lon="-2.835684">
      <ele>477.1</ele>
    </trkpt>
    <trkpt lat="42.557098" lon="-2.835987">
      <ele>473.3</ele>
    </trkpt>
    <trkpt lat="42.560107" lon="-2.837627">
      <ele>461.9</ele>
    </trkpt>
    <trkpt lat="42.560316" lon="-2.837749">
      <ele>461.7</ele>
    </trkpt>
    <trkpt lat="42.560587" lon="-2.837831">
      <ele>461.5</ele>
    </trkpt>
    <trkpt lat="42.56236" lon="-2.838688">
      <ele>461</ele>
    </trkpt>
    <trkpt lat="42.562783" lon="-2.838841">
      <ele>460.8</ele>
    </trkpt>
    <trkpt lat="42.562975" lon="-2.838857">
      <ele>460.7</ele>
    </trkpt>
    <trkpt lat="42.563136" lon="-2.838807">
      <ele>460.6</ele>
    </trkpt>
    <trkpt lat="42.563248" lon="-2.83884">
      <ele>460.6</ele>
    </trkpt>
    <trkpt lat="42.563343" lon="-2.838924">
      <ele>460.5</ele>
    </trkpt>
    <trkpt lat="42.563381" lon="-2.838982">
      <ele>460.5</ele>
    </trkpt>
    <trkpt lat="42.563406" lon="-2.839034">
      <ele>460.4</ele>
    </trkpt>
    <trkpt lat="42.563444" lon="-2.839213">
      <ele>460.3</ele>
    </trkpt>
    <trkpt lat="42.563424" lon="-2.839397">
      <ele>460.2</ele>
    </trkpt>
    <trkpt lat="42.563394" lon="-2.839478">
      <ele>460.1</ele>
    </trkpt>
    <trkpt lat="42.563413" lon="-2.839684">
      <ele>460</ele>
    </trkpt>
    <trkpt lat="42.563492" lon="-2.83991">
      <ele>459.8</ele>
    </trkpt>
    <trkpt lat="42.5637" lon="-2.840115">
      <ele>459.6</ele>
    </trkpt>
    <trkpt lat="42.563845" lon="-2.840192">
      <ele>459.4</ele>
    </trkpt>
    <trkpt lat="42.56568" lon="-2.841003">
      <ele>458.6</ele>
    </trkpt>
    <trkpt lat="42.566667" lon="-2.841439">
      <ele>459</ele>
    </trkpt>
    <trkpt lat="42.567935" lon="-2.842064">
      <ele>461.1</ele>
    </trkpt>
    <trkpt lat="42.568162" lon="-2.842091">
      <ele>461.6</ele>
    </trkpt>
    <trkpt lat="42.568249" lon="-2.842059">
      <ele>461.8</ele>
    </trkpt>
    <trkpt lat="42.568367" lon="-2.842142">
      <ele>462.1</ele>
    </trkpt>
    <trkpt lat="42.568396" lon="-2.842227">
      <ele>462.2</ele>
    </trkpt>
    <trkpt lat="42.568394" lon="-2.842321">
      <ele>462.4</ele>
    </trkpt>
    <trkpt lat="42.569014" lon="-2.842678">
      <ele>463.8</ele>
    </trkpt>
    <trkpt lat="42.56948" lon="-2.842961">
      <ele>464.9</ele>
    </trkpt>
    <trkpt lat="42.569942" lon="-2.843239">
      <ele>466.3</ele>
    </trkpt>
    <trkpt lat="42.570407" lon="-2.843636">
      <ele>468</ele>
    </trkpt>
    <trkpt lat="42.570888" lon="-2.844229">
      <ele>470.3</ele>
    </trkpt>
    <trkpt lat="42.571104" lon="-2.844556">
      <ele>471.5</ele>
    </trkpt>
    <trkpt lat="42.571304" lon="-2.844979">
      <ele>472.8</ele>
    </trkpt>
    <trkpt lat="42.57185" lon="-2.846306">
      <ele>477.4</ele>
    </trkpt>
    <trkpt lat="42.572061" lon="-2.846666">
      <ele>479.1</ele>
    </trkpt>
    <trkpt lat="42.572082" lon="-2.846738">
      <ele>479.3</ele>
    </trkpt>
    <trkpt lat="42.572272" lon="-2.846836">
      <ele>480</ele>
    </trkpt>
    <trkpt lat="42.572312" lon="-2.846882">
      <ele>480.3</ele>
    </trkpt>
    <trkpt lat="42.572846" lon="-2.847204">
      <ele>482.5</ele>
    </trkpt>
    <trkpt lat="42.573187" lon="-2.84737">
      <ele>483.7</ele>
    </trkpt>
    <trkpt lat="42.573552" lon="-2.847475">
      <ele>484.9</ele>
    </trkpt>
    <trkpt lat="42.57383" lon="-2.847544">
      <ele>485.7</ele>
    </trkpt>
    <trkpt lat="42.574267" lon="-2.847566">
      <ele>486.5</ele>
    </trkpt>
    <trkpt lat="42.574692" lon="-2.84755">
      <ele>486.8</ele>
    </trkpt>
    <trkpt lat="42.574814" lon="-2.847535">
      <ele>486.6</ele>
    </trkpt>
    <trkpt lat="42.575097" lon="-2.84749">
      <ele>486.3</ele>
    </trkpt>
    <trkpt lat="42.575294" lon="-2.847464">
      <ele>486</ele>
    </trkpt>
    <trkpt lat="42.575947" lon="-2.847415">
      <ele>484.3</ele>
    </trkpt>
    <trkpt lat="42.576024" lon="-2.847282">
      <ele>484.1</ele>
    </trkpt>
    <trkpt lat="42.57614" lon="-2.847569">
      <ele>483.2</ele>
    </trkpt>
    <trkpt lat="42.576921" lon="-2.847124">
      <ele>480.9</ele>
    </trkpt>
    <trkpt lat="42.576979" lon="-2.847151">
      <ele>480.6</ele>
    </trkpt>
    <trkpt lat="42.576976" lon="-2.847299">
      <ele>480.3</ele>
    </trkpt>
    <trkpt lat="42.576972" lon="-2.847533">
      <ele>480</ele>
    </trkpt>
    <trkpt lat="42.576979" lon="-2.847803">
      <ele>479.2</ele>
    </trkpt>
    <trkpt lat="42.577082" lon="-2.848752">
      <ele>476.4</ele>
    </trkpt>
    <trkpt lat="42.577059" lon="-2.849059">
      <ele>475.3</ele>
    </trkpt>
    <trkpt lat="42.577019" lon="-2.849267">
      <ele>474</ele>
    </trkpt>
    <trkpt lat="42.577139" lon="-2.849171">
      <ele>473.2</ele>
    </trkpt>
    <trkpt lat="42.577282" lon="-2.84914">
      <ele>471.9</ele>
    </trkpt>
    <trkpt lat="42.577393" lon="-2.848975">
      <ele>470.7</ele>
    </trkpt>
    <trkpt lat="42.577625" lon="-2.849315">
      <ele>467.4</ele>
    </trkpt>
    <trkpt lat="42.577736" lon="-2.849732">
      <ele>463.9</ele>
    </trkpt>
    <trkpt lat="42.577895" lon="-2.849665">
      <ele>462.4</ele>
    </trkpt>
    <trkpt lat="42.57802" lon="-2.849721">
      <ele>460.7</ele>
    </trkpt>
    <trkpt lat="42.578467" lon="-2.850162">
      <ele>455.2</ele>
    </trkpt>
    <trkpt lat="42.578979" lon="-2.850643">
      <ele>449.4</ele>
    </trkpt>
    <trkpt lat="42.579019" lon="-2.850664">
      <ele>449.1</ele>
    </trkpt>
    <trkpt lat="42.579202" lon="-2.850626">
      <ele>447.6</ele>
    </trkpt>
    <trkpt lat="42.580081" lon="-2.849935">
      <ele>443.3</ele>
    </trkpt>
    <trkpt lat="42.580148" lon="-2.849849">
      <ele>443.2</ele>
    </trkpt>
    <trkpt lat="42.580587" lon="-2.848704">
      <ele>442.8</ele>
    </trkpt>
    <trkpt lat="42.580801" lon="-2.848255">
      <ele>442.8</ele>
    </trkpt>
    <trkpt lat="42.58101" lon="-2.847932">
      <ele>442.9</ele>
    </trkpt>
    <trkpt lat="42.58135" lon="-2.847394">
      <ele>443.1</ele>
    </trkpt>
    <trkpt lat="42.581301" lon="-2.847568">
      <ele>443.2</ele>
    </trkpt>
    <trkpt lat="42.581307" lon="-2.847784">
      <ele>443.3</ele>
    </trkpt>
    <trkpt lat="42.581378" lon="-2.847952">
      <ele>443.4</ele>
    </trkpt>
    <trkpt lat="42.581435" lon="-2.848022">
      <ele>443.4</ele>
    </trkpt>
    <trkpt lat="42.581734" lon="-2.84809">
      <ele>443.6</ele>
    </trkpt>
    <trkpt lat="42.581925" lon="-2.848066">
      <ele>443.6</ele>
    </trkpt>
    <trkpt lat="42.581913" lon="-2.8479">
      <ele>443.6</ele>
    </trkpt>
    <trkpt lat="42.581902" lon="-2.847772">
      <ele>443.6</ele>
    </trkpt>
    <trkpt lat="42.581793" lon="-2.847667">
      <ele>443.6</ele>
    </trkpt>
    </trkseg>
  </trk>
</gpx>
