<?xml version="1.0" encoding="UTF-8"?>
<gpx version="1.1" creator="fitAI Komoot downloader" xmlns="http://www.topografix.com/GPX/1/1">
  <metadata>
    <name>Embalse de La Grajera y Vista de Navarrete - Recorrido circular desde Navarrete</name>
    <desc>53 visitas · Dificultad: moderate · Distancia: 26.4 km · Desnivel +: 295 m</desc>
    <link href="https://www.komoot.com/smarttour/e44799920"><text>Komoot</text></link>
  </metadata>
  <trk>
    <name>Embalse de La Grajera y Vista de Navarrete - Recorrido circular desde Navarrete</name>
    <type>touringbicycle</type>
    <trkseg>
    <trkpt lat="42.428761" lon="-2.560952">
      <ele>500.6</ele>
    </trkpt>
    <trkpt lat="42.428759" lon="-2.560985">
      <ele>500.7</ele>
    </trkpt>
    <trkpt lat="42.428824" lon="-2.561461">
      <ele>502.3</ele>
    </trkpt>
    <trkpt lat="42.429094" lon="-2.561497">
      <ele>503.6</ele>
    </trkpt>
    <trkpt lat="42.429253" lon="-2.561521">
      <ele>504.3</ele>
    </trkpt>
    <trkpt lat="42.429268" lon="-2.561051">
      <ele>505.2</ele>
    </trkpt>
    <trkpt lat="42.429267" lon="-2.56096">
      <ele>505.2</ele>
    </trkpt>
    <trkpt lat="42.429276" lon="-2.560933">
      <ele>505.2</ele>
    </trkpt>
    <trkpt lat="42.429502" lon="-2.560997">
      <ele>505.4</ele>
    </trkpt>
    <trkpt lat="42.429475" lon="-2.561365">
      <ele>505.2</ele>
    </trkpt>
    <trkpt lat="42.429462" lon="-2.561542">
      <ele>504.9</ele>
    </trkpt>
    <trkpt lat="42.429253" lon="-2.561521">
      <ele>504.2</ele>
    </trkpt>
    <trkpt lat="42.429094" lon="-2.561497">
      <ele>503.6</ele>
    </trkpt>
    <trkpt lat="42.428824" lon="-2.561461">
      <ele>502.2</ele>
    </trkpt>
    <trkpt lat="42.428759" lon="-2.560985">
      <ele>499.7</ele>
    </trkpt>
    <trkpt lat="42.4288" lon="-2.560313">
      <ele>496.7</ele>
    </trkpt>
    <trkpt lat="42.428805" lon="-2.560258">
      <ele>496.4</ele>
    </trkpt>
    <trkpt lat="42.428981" lon="-2.558502">
      <ele>490.8</ele>
    </trkpt>
    <trkpt lat="42.429069" lon="-2.557636">
      <ele>488.2</ele>
    </trkpt>
    <trkpt lat="42.429077" lon="-2.557557">
      <ele>488</ele>
    </trkpt>
    <trkpt lat="42.429113" lon="-2.557289">
      <ele>487.1</ele>
    </trkpt>
    <trkpt lat="42.429161" lon="-2.557135">
      <ele>486.6</ele>
    </trkpt>
    <trkpt lat="42.429254" lon="-2.557009">
      <ele>486</ele>
    </trkpt>
    <trkpt lat="42.429494" lon="-2.556882">
      <ele>484.7</ele>
    </trkpt>
    <trkpt lat="42.429567" lon="-2.556857">
      <ele>484.4</ele>
    </trkpt>
    <trkpt lat="42.429542" lon="-2.556693">
      <ele>483.7</ele>
    </trkpt>
    <trkpt lat="42.42969" lon="-2.555233">
      <ele>478</ele>
    </trkpt>
    <trkpt lat="42.429696" lon="-2.555187">
      <ele>477.8</ele>
    </trkpt>
    <trkpt lat="42.429786" lon="-2.554741">
      <ele>476.2</ele>
    </trkpt>
    <trkpt lat="42.429895" lon="-2.553735">
      <ele>473.6</ele>
    </trkpt>
    <trkpt lat="42.429872" lon="-2.55325">
      <ele>472.9</ele>
    </trkpt>
    <trkpt lat="42.429725" lon="-2.552599">
      <ele>472.2</ele>
    </trkpt>
    <trkpt lat="42.42965" lon="-2.552442">
      <ele>472</ele>
    </trkpt>
    <trkpt lat="42.429623" lon="-2.552301">
      <ele>472</ele>
    </trkpt>
    <trkpt lat="42.429637" lon="-2.552179">
      <ele>471.9</ele>
    </trkpt>
    <trkpt lat="42.429718" lon="-2.552104">
      <ele>471.8</ele>
    </trkpt>
    <trkpt lat="42.429899" lon="-2.552012">
      <ele>471.7</ele>
    </trkpt>
    <trkpt lat="42.430003" lon="-2.551911">
      <ele>471.6</ele>
    </trkpt>
    <trkpt lat="42.430125" lon="-2.551691">
      <ele>471.5</ele>
    </trkpt>
    <trkpt lat="42.43041" lon="-2.550843">
      <ele>471.4</ele>
    </trkpt>
    <trkpt lat="42.430442" lon="-2.550479">
      <ele>471.4</ele>
    </trkpt>
    <trkpt lat="42.430498" lon="-2.550237">
      <ele>471.3</ele>
    </trkpt>
    <trkpt lat="42.43074" lon="-2.549412">
      <ele>471.3</ele>
    </trkpt>
    <trkpt lat="42.431032" lon="-2.548589">
      <ele>471.4</ele>
    </trkpt>
    <trkpt lat="42.431392" lon="-2.547666">
      <ele>471.4</ele>
    </trkpt>
    <trkpt lat="42.431845" lon="-2.54685">
      <ele>471.8</ele>
    </trkpt>
    <trkpt lat="42.431886" lon="-2.546643">
      <ele>472</ele>
    </trkpt>
    <trkpt lat="42.431948" lon="-2.546336">
      <ele>472.2</ele>
    </trkpt>
    <trkpt lat="42.432079" lon="-2.545999">
      <ele>472.6</ele>
    </trkpt>
    <trkpt lat="42.432518" lon="-2.545672">
      <ele>473.3</ele>
    </trkpt>
    <trkpt lat="42.432817" lon="-2.545485">
      <ele>473.8</ele>
    </trkpt>
    <trkpt lat="42.433434" lon="-2.545046">
      <ele>474.6</ele>
    </trkpt>
    <trkpt lat="42.433359" lon="-2.544439">
      <ele>475</ele>
    </trkpt>
    <trkpt lat="42.433405" lon="-2.544175">
      <ele>475.2</ele>
    </trkpt>
    <trkpt lat="42.433493" lon="-2.54393">
      <ele>475.4</ele>
    </trkpt>
    <trkpt lat="42.433676" lon="-2.54363">
      <ele>475.8</ele>
    </trkpt>
    <trkpt lat="42.434615" lon="-2.54245">
      <ele>479.1</ele>
    </trkpt>
    <trkpt lat="42.434722" lon="-2.542294">
      <ele>479.6</ele>
    </trkpt>
    <trkpt lat="42.434987" lon="-2.54172">
      <ele>481.1</ele>
    </trkpt>
    <trkpt lat="42.435129" lon="-2.541875">
      <ele>481.6</ele>
    </trkpt>
    <trkpt lat="42.435277" lon="-2.541912">
      <ele>482.1</ele>
    </trkpt>
    <trkpt lat="42.435382" lon="-2.541854">
      <ele>482.5</ele>
    </trkpt>
    <trkpt lat="42.435401" lon="-2.541821">
      <ele>482.6</ele>
    </trkpt>
    <trkpt lat="42.435507" lon="-2.541627">
      <ele>483.3</ele>
    </trkpt>
    <trkpt lat="42.435586" lon="-2.541542">
      <ele>483.6</ele>
    </trkpt>
    <trkpt lat="42.435773" lon="-2.541472">
      <ele>484.4</ele>
    </trkpt>
    <trkpt lat="42.435785" lon="-2.541296">
      <ele>484.9</ele>
    </trkpt>
    <trkpt lat="42.435865" lon="-2.541157">
      <ele>485.4</ele>
    </trkpt>
    <trkpt lat="42.435971" lon="-2.541101">
      <ele>485.9</ele>
    </trkpt>
    <trkpt lat="42.436141" lon="-2.540902">
      <ele>487</ele>
    </trkpt>
    <trkpt lat="42.436528" lon="-2.539791">
      <ele>493.2</ele>
    </trkpt>
    <trkpt lat="42.436799" lon="-2.539041">
      <ele>498.4</ele>
    </trkpt>
    <trkpt lat="42.437122" lon="-2.538147">
      <ele>503.4</ele>
    </trkpt>
    <trkpt lat="42.437197" lon="-2.537938">
      <ele>503.8</ele>
    </trkpt>
    <trkpt lat="42.437168" lon="-2.53769">
      <ele>503.9</ele>
    </trkpt>
    <trkpt lat="42.437113" lon="-2.53761">
      <ele>503.9</ele>
    </trkpt>
    <trkpt lat="42.437081" lon="-2.537509">
      <ele>503.8</ele>
    </trkpt>
    <trkpt lat="42.437085" lon="-2.537346">
      <ele>503.5</ele>
    </trkpt>
    <trkpt lat="42.43715" lon="-2.537208">
      <ele>503.2</ele>
    </trkpt>
    <trkpt lat="42.437252" lon="-2.537134">
      <ele>502.9</ele>
    </trkpt>
    <trkpt lat="42.437369" lon="-2.537137">
      <ele>502.5</ele>
    </trkpt>
    <trkpt lat="42.437423" lon="-2.536958">
      <ele>502.1</ele>
    </trkpt>
    <trkpt lat="42.437523" lon="-2.536818">
      <ele>501.6</ele>
    </trkpt>
    <trkpt lat="42.43761" lon="-2.536758">
      <ele>501.2</ele>
    </trkpt>
    <trkpt lat="42.43776" lon="-2.53674">
      <ele>500.6</ele>
    </trkpt>
    <trkpt lat="42.438044" lon="-2.536833">
      <ele>499.3</ele>
    </trkpt>
    <trkpt lat="42.438251" lon="-2.536171">
      <ele>498.1</ele>
    </trkpt>
    <trkpt lat="42.43828" lon="-2.536092">
      <ele>498.1</ele>
    </trkpt>
    <trkpt lat="42.438463" lon="-2.535587">
      <ele>498.8</ele>
    </trkpt>
    <trkpt lat="42.438518" lon="-2.535305">
      <ele>499.3</ele>
    </trkpt>
    <trkpt lat="42.438605" lon="-2.534661">
      <ele>500.4</ele>
    </trkpt>
    <trkpt lat="42.438626" lon="-2.534338">
      <ele>500.8</ele>
    </trkpt>
    <trkpt lat="42.43878" lon="-2.533424">
      <ele>501.7</ele>
    </trkpt>
    <trkpt lat="42.438861" lon="-2.532231">
      <ele>503.7</ele>
    </trkpt>
    <trkpt lat="42.438916" lon="-2.531922">
      <ele>504.3</ele>
    </trkpt>
    <trkpt lat="42.439094" lon="-2.531366">
      <ele>505.6</ele>
    </trkpt>
    <trkpt lat="42.439217" lon="-2.530874">
      <ele>506.6</ele>
    </trkpt>
    <trkpt lat="42.43936" lon="-2.530056">
      <ele>508.2</ele>
    </trkpt>
    <trkpt lat="42.43955" lon="-2.529125">
      <ele>509.9</ele>
    </trkpt>
    <trkpt lat="42.439566" lon="-2.528964">
      <ele>510.2</ele>
    </trkpt>
    <trkpt lat="42.439572" lon="-2.528731">
      <ele>510.8</ele>
    </trkpt>
    <trkpt lat="42.439712" lon="-2.527795">
      <ele>513.7</ele>
    </trkpt>
    <trkpt lat="42.439772" lon="-2.527191">
      <ele>515.4</ele>
    </trkpt>
    <trkpt lat="42.439783" lon="-2.526741">
      <ele>516.3</ele>
    </trkpt>
    <trkpt lat="42.439791" lon="-2.526616">
      <ele>516.5</ele>
    </trkpt>
    <trkpt lat="42.439907" lon="-2.524977">
      <ele>516.8</ele>
    </trkpt>
    <trkpt lat="42.439937" lon="-2.524755">
      <ele>516.3</ele>
    </trkpt>
    <trkpt lat="42.44007" lon="-2.524029">
      <ele>514.4</ele>
    </trkpt>
    <trkpt lat="42.440094" lon="-2.523912">
      <ele>514</ele>
    </trkpt>
    <trkpt lat="42.440035" lon="-2.523585">
      <ele>513</ele>
    </trkpt>
    <trkpt lat="42.439864" lon="-2.523168">
      <ele>511.4</ele>
    </trkpt>
    <trkpt lat="42.439739" lon="-2.522981">
      <ele>510.4</ele>
    </trkpt>
    <trkpt lat="42.439638" lon="-2.522829">
      <ele>509.5</ele>
    </trkpt>
    <trkpt lat="42.43949" lon="-2.522483">
      <ele>507.6</ele>
    </trkpt>
    <trkpt lat="42.439299" lon="-2.52182">
      <ele>504.1</ele>
    </trkpt>
    <trkpt lat="42.439141" lon="-2.52127">
      <ele>501.3</ele>
    </trkpt>
    <trkpt lat="42.438882" lon="-2.520851">
      <ele>498.6</ele>
    </trkpt>
    <trkpt lat="42.438583" lon="-2.520075">
      <ele>494.1</ele>
    </trkpt>
    <trkpt lat="42.438481" lon="-2.519887">
      <ele>493</ele>
    </trkpt>
    <trkpt lat="42.438297" lon="-2.519639">
      <ele>491.4</ele>
    </trkpt>
    <trkpt lat="42.438001" lon="-2.519042">
      <ele>488.4</ele>
    </trkpt>
    <trkpt lat="42.437815" lon="-2.518434">
      <ele>486</ele>
    </trkpt>
    <trkpt lat="42.437613" lon="-2.517876">
      <ele>484.3</ele>
    </trkpt>
    <trkpt lat="42.437261" lon="-2.517339">
      <ele>482.2</ele>
    </trkpt>
    <trkpt lat="42.436815" lon="-2.516746">
      <ele>478.5</ele>
    </trkpt>
    <trkpt lat="42.436749" lon="-2.516617">
      <ele>477.7</ele>
    </trkpt>
    <trkpt lat="42.436547" lon="-2.516337">
      <ele>475.2</ele>
    </trkpt>
    <trkpt lat="42.436542" lon="-2.516265">
      <ele>474.7</ele>
    </trkpt>
    <trkpt lat="42.436584" lon="-2.51615">
      <ele>473.8</ele>
    </trkpt>
    <trkpt lat="42.436789" lon="-2.515825">
      <ele>470.5</ele>
    </trkpt>
    <trkpt lat="42.437194" lon="-2.515489">
      <ele>465.1</ele>
    </trkpt>
    <trkpt lat="42.437329" lon="-2.515307">
      <ele>463.2</ele>
    </trkpt>
    <trkpt lat="42.4375" lon="-2.514922">
      <ele>460.4</ele>
    </trkpt>
    <trkpt lat="42.437347" lon="-2.514728">
      <ele>458.9</ele>
    </trkpt>
    <trkpt lat="42.437293" lon="-2.514755">
      <ele>458.6</ele>
    </trkpt>
    <trkpt lat="42.437166" lon="-2.514734">
      <ele>457.8</ele>
    </trkpt>
    <trkpt lat="42.437079" lon="-2.514651">
      <ele>457.2</ele>
    </trkpt>
    <trkpt lat="42.436481" lon="-2.513146">
      <ele>454.8</ele>
    </trkpt>
    <trkpt lat="42.436017" lon="-2.511117">
      <ele>454</ele>
    </trkpt>
    <trkpt lat="42.435979" lon="-2.510972">
      <ele>453.8</ele>
    </trkpt>
    <trkpt lat="42.436498" lon="-2.510818">
      <ele>452.5</ele>
    </trkpt>
    <trkpt lat="42.437591" lon="-2.510362">
      <ele>449.1</ele>
    </trkpt>
    <trkpt lat="42.437982" lon="-2.510258">
      <ele>448.8</ele>
    </trkpt>
    <trkpt lat="42.437979" lon="-2.510024">
      <ele>448.8</ele>
    </trkpt>
    <trkpt lat="42.438019" lon="-2.509632">
      <ele>449</ele>
    </trkpt>
    <trkpt lat="42.438378" lon="-2.50761">
      <ele>452.3</ele>
    </trkpt>
    <trkpt lat="42.438551" lon="-2.507078">
      <ele>452.3</ele>
    </trkpt>
    <trkpt lat="42.439183" lon="-2.505742">
      <ele>449.5</ele>
    </trkpt>
    <trkpt lat="42.439416" lon="-2.505429">
      <ele>448.6</ele>
    </trkpt>
    <trkpt lat="42.439569" lon="-2.505283">
      <ele>448.2</ele>
    </trkpt>
    <trkpt lat="42.439579" lon="-2.505212">
      <ele>448.1</ele>
    </trkpt>
    <trkpt lat="42.439662" lon="-2.50509">
      <ele>447.8</ele>
    </trkpt>
    <trkpt lat="42.439761" lon="-2.504792">
      <ele>447.5</ele>
    </trkpt>
    <trkpt lat="42.439983" lon="-2.503542">
      <ele>447.1</ele>
    </trkpt>
    <trkpt lat="42.440169" lon="-2.502893">
      <ele>447.3</ele>
    </trkpt>
    <trkpt lat="42.440221" lon="-2.502447">
      <ele>447.5</ele>
    </trkpt>
    <trkpt lat="42.440454" lon="-2.501519">
      <ele>448</ele>
    </trkpt>
    <trkpt lat="42.44064" lon="-2.501278">
      <ele>448.2</ele>
    </trkpt>
    <trkpt lat="42.441064" lon="-2.500613">
      <ele>448.2</ele>
    </trkpt>
    <trkpt lat="42.44129" lon="-2.500098">
      <ele>448</ele>
    </trkpt>
    <trkpt lat="42.44142" lon="-2.499948">
      <ele>448.1</ele>
    </trkpt>
    <trkpt lat="42.441651" lon="-2.499763">
      <ele>448.1</ele>
    </trkpt>
    <trkpt lat="42.441769" lon="-2.499668">
      <ele>448.1</ele>
    </trkpt>
    <trkpt lat="42.441836" lon="-2.499556">
      <ele>448.1</ele>
    </trkpt>
    <trkpt lat="42.441856" lon="-2.499352">
      <ele>448</ele>
    </trkpt>
    <trkpt lat="42.44184" lon="-2.499159">
      <ele>447.8</ele>
    </trkpt>
    <trkpt lat="42.44178" lon="-2.498567">
      <ele>447.4</ele>
    </trkpt>
    <trkpt lat="42.442089" lon="-2.498551">
      <ele>447.1</ele>
    </trkpt>
    <trkpt lat="42.442306" lon="-2.498585">
      <ele>446.9</ele>
    </trkpt>
    <trkpt lat="42.442506" lon="-2.498659">
      <ele>446.6</ele>
    </trkpt>
    <trkpt lat="42.442717" lon="-2.498737">
      <ele>446.1</ele>
    </trkpt>
    <trkpt lat="42.442865" lon="-2.498792">
      <ele>445.7</ele>
    </trkpt>
    <trkpt lat="42.443139" lon="-2.498996">
      <ele>444.8</ele>
    </trkpt>
    <trkpt lat="42.443229" lon="-2.499003">
      <ele>444.5</ele>
    </trkpt>
    <trkpt lat="42.443318" lon="-2.498937">
      <ele>444.1</ele>
    </trkpt>
    <trkpt lat="42.443496" lon="-2.498687">
      <ele>443.2</ele>
    </trkpt>
    <trkpt lat="42.443583" lon="-2.498641">
      <ele>442.9</ele>
    </trkpt>
    <trkpt lat="42.443753" lon="-2.498647">
      <ele>442.1</ele>
    </trkpt>
    <trkpt lat="42.443961" lon="-2.498745">
      <ele>441.3</ele>
    </trkpt>
    <trkpt lat="42.444136" lon="-2.498885">
      <ele>440.5</ele>
    </trkpt>
    <trkpt lat="42.444386" lon="-2.499291">
      <ele>439.3</ele>
    </trkpt>
    <trkpt lat="42.444541" lon="-2.49946">
      <ele>438.7</ele>
    </trkpt>
    <trkpt lat="42.444609" lon="-2.499478">
      <ele>438.5</ele>
    </trkpt>
    <trkpt lat="42.444662" lon="-2.499403">
      <ele>438.4</ele>
    </trkpt>
    <trkpt lat="42.444707" lon="-2.499416">
      <ele>438.3</ele>
    </trkpt>
    <trkpt lat="42.444735" lon="-2.499477">
      <ele>438.1</ele>
    </trkpt>
    <trkpt lat="42.444715" lon="-2.499552">
      <ele>438</ele>
    </trkpt>
    <trkpt lat="42.444665" lon="-2.499574">
      <ele>437.9</ele>
    </trkpt>
    <trkpt lat="42.444639" lon="-2.499631">
      <ele>437.7</ele>
    </trkpt>
    <trkpt lat="42.444823" lon="-2.499562">
      <ele>437.4</ele>
    </trkpt>
    <trkpt lat="42.444959" lon="-2.499435">
      <ele>437.1</ele>
    </trkpt>
    <trkpt lat="42.44514" lon="-2.499321">
      <ele>436.8</ele>
    </trkpt>
    <trkpt lat="42.445349" lon="-2.499236">
      <ele>436.6</ele>
    </trkpt>
    <trkpt lat="42.44584" lon="-2.499109">
      <ele>436.2</ele>
    </trkpt>
    <trkpt lat="42.446064" lon="-2.499103">
      <ele>436</ele>
    </trkpt>
    <trkpt lat="42.446199" lon="-2.499182">
      <ele>435.8</ele>
    </trkpt>
    <trkpt lat="42.446414" lon="-2.499517">
      <ele>435.3</ele>
    </trkpt>
    <trkpt lat="42.446781" lon="-2.499876">
      <ele>434.6</ele>
    </trkpt>
    <trkpt lat="42.447045" lon="-2.500293">
      <ele>433.6</ele>
    </trkpt>
    <trkpt lat="42.447186" lon="-2.500387">
      <ele>433.1</ele>
    </trkpt>
    <trkpt lat="42.447283" lon="-2.500396">
      <ele>432.8</ele>
    </trkpt>
    <trkpt lat="42.447411" lon="-2.500304">
      <ele>432.4</ele>
    </trkpt>
    <trkpt lat="42.447636" lon="-2.499896">
      <ele>431.4</ele>
    </trkpt>
    <trkpt lat="42.447687" lon="-2.499853">
      <ele>431.3</ele>
    </trkpt>
    <trkpt lat="42.447796" lon="-2.499897">
      <ele>431</ele>
    </trkpt>
    <trkpt lat="42.447865" lon="-2.499917">
      <ele>430.8</ele>
    </trkpt>
    <trkpt lat="42.447872" lon="-2.499914">
      <ele>430.8</ele>
    </trkpt>
    <trkpt lat="42.447988" lon="-2.499875">
      <ele>430.5</ele>
    </trkpt>
    <trkpt lat="42.448104" lon="-2.499777">
      <ele>430.2</ele>
    </trkpt>
    <trkpt lat="42.448184" lon="-2.499628">
      <ele>429.9</ele>
    </trkpt>
    <trkpt lat="42.448303" lon="-2.499213">
      <ele>429.3</ele>
    </trkpt>
    <trkpt lat="42.448378" lon="-2.499116">
      <ele>429.2</ele>
    </trkpt>
    <trkpt lat="42.44858" lon="-2.498969">
      <ele>428.9</ele>
    </trkpt>
    <trkpt lat="42.448676" lon="-2.498807">
      <ele>428.8</ele>
    </trkpt>
    <trkpt lat="42.448766" lon="-2.498604">
      <ele>428.8</ele>
    </trkpt>
    <trkpt lat="42.448769" lon="-2.498333">
      <ele>428.8</ele>
    </trkpt>
    <trkpt lat="42.448788" lon="-2.498272">
      <ele>428.8</ele>
    </trkpt>
    <trkpt lat="42.448886" lon="-2.498211">
      <ele>428.7</ele>
    </trkpt>
    <trkpt lat="42.449238" lon="-2.49823">
      <ele>428.3</ele>
    </trkpt>
    <trkpt lat="42.449445" lon="-2.498053">
      <ele>427.9</ele>
    </trkpt>
    <trkpt lat="42.449714" lon="-2.497844">
      <ele>427.3</ele>
    </trkpt>
    <trkpt lat="42.449719" lon="-2.497763">
      <ele>427.1</ele>
    </trkpt>
    <trkpt lat="42.449814" lon="-2.497578">
      <ele>426.7</ele>
    </trkpt>
    <trkpt lat="42.449838" lon="-2.4974">
      <ele>426.4</ele>
    </trkpt>
    <trkpt lat="42.44986" lon="-2.496608">
      <ele>424.7</ele>
    </trkpt>
    <trkpt lat="42.449917" lon="-2.496197">
      <ele>423.9</ele>
    </trkpt>
    <trkpt lat="42.449894" lon="-2.495143">
      <ele>421.9</ele>
    </trkpt>
    <trkpt lat="42.449925" lon="-2.494995">
      <ele>421.6</ele>
    </trkpt>
    <trkpt lat="42.450048" lon="-2.494701">
      <ele>421</ele>
    </trkpt>
    <trkpt lat="42.450167" lon="-2.494529">
      <ele>420.6</ele>
    </trkpt>
    <trkpt lat="42.450542" lon="-2.494207">
      <ele>419.6</ele>
    </trkpt>
    <trkpt lat="42.450826" lon="-2.493305">
      <ele>418.1</ele>
    </trkpt>
    <trkpt lat="42.451014" lon="-2.49252">
      <ele>417</ele>
    </trkpt>
    <trkpt lat="42.451279" lon="-2.49159">
      <ele>416</ele>
    </trkpt>
    <trkpt lat="42.451384" lon="-2.491222">
      <ele>415.6</ele>
    </trkpt>
    <trkpt lat="42.451635" lon="-2.490167">
      <ele>414.7</ele>
    </trkpt>
    <trkpt lat="42.452304" lon="-2.488426">
      <ele>413.1</ele>
    </trkpt>
    <trkpt lat="42.452921" lon="-2.486931">
      <ele>411.7</ele>
    </trkpt>
    <trkpt lat="42.452965" lon="-2.486745">
      <ele>411.6</ele>
    </trkpt>
    <trkpt lat="42.453092" lon="-2.485402">
      <ele>410.7</ele>
    </trkpt>
    <trkpt lat="42.453446" lon="-2.48316">
      <ele>409.7</ele>
    </trkpt>
    <trkpt lat="42.453822" lon="-2.481997">
      <ele>409.3</ele>
    </trkpt>
    <trkpt lat="42.454155" lon="-2.481156">
      <ele>409</ele>
    </trkpt>
    <trkpt lat="42.45477" lon="-2.47988">
      <ele>408.6</ele>
    </trkpt>
    <trkpt lat="42.454909" lon="-2.47961">
      <ele>408.4</ele>
    </trkpt>
    <trkpt lat="42.454941" lon="-2.479493">
      <ele>408.3</ele>
    </trkpt>
    <trkpt lat="42.454978" lon="-2.479085">
      <ele>408.1</ele>
    </trkpt>
    <trkpt lat="42.455224" lon="-2.477703">
      <ele>408.1</ele>
    </trkpt>
    <trkpt lat="42.455307" lon="-2.477501">
      <ele>408.2</ele>
    </trkpt>
    <trkpt lat="42.455333" lon="-2.477447">
      <ele>408.2</ele>
    </trkpt>
    <trkpt lat="42.455419" lon="-2.477405">
      <ele>408.2</ele>
    </trkpt>
    <trkpt lat="42.455675" lon="-2.477453">
      <ele>408.4</ele>
    </trkpt>
    <trkpt lat="42.45574" lon="-2.477445">
      <ele>408.4</ele>
    </trkpt>
    <trkpt lat="42.455792" lon="-2.477308">
      <ele>408.5</ele>
    </trkpt>
    <trkpt lat="42.455797" lon="-2.477291">
      <ele>408.5</ele>
    </trkpt>
    <trkpt lat="42.455919" lon="-2.476813">
      <ele>408.7</ele>
    </trkpt>
    <trkpt lat="42.456049" lon="-2.475999">
      <ele>409.1</ele>
    </trkpt>
    <trkpt lat="42.456106" lon="-2.475512">
      <ele>409</ele>
    </trkpt>
    <trkpt lat="42.456235" lon="-2.475211">
      <ele>408.9</ele>
    </trkpt>
    <trkpt lat="42.456361" lon="-2.474858">
      <ele>408.8</ele>
    </trkpt>
    <trkpt lat="42.456395" lon="-2.474703">
      <ele>408.8</ele>
    </trkpt>
    <trkpt lat="42.456429" lon="-2.474112">
      <ele>408.9</ele>
    </trkpt>
    <trkpt lat="42.456475" lon="-2.473699">
      <ele>408.7</ele>
    </trkpt>
    <trkpt lat="42.456511" lon="-2.473542">
      <ele>408.6</ele>
    </trkpt>
    <trkpt lat="42.456614" lon="-2.473245">
      <ele>408.4</ele>
    </trkpt>
    <trkpt lat="42.456767" lon="-2.473004">
      <ele>408.4</ele>
    </trkpt>
    <trkpt lat="42.456837" lon="-2.472969">
      <ele>408.3</ele>
    </trkpt>
    <trkpt lat="42.456809" lon="-2.472851">
      <ele>408.3</ele>
    </trkpt>
    <trkpt lat="42.45686" lon="-2.472636">
      <ele>408.2</ele>
    </trkpt>
    <trkpt lat="42.456885" lon="-2.472551">
      <ele>408.2</ele>
    </trkpt>
    <trkpt lat="42.456914" lon="-2.472568">
      <ele>408.2</ele>
    </trkpt>
    <trkpt lat="42.457046" lon="-2.472649">
      <ele>408</ele>
    </trkpt>
    <trkpt lat="42.457141" lon="-2.472548">
      <ele>407.9</ele>
    </trkpt>
    <trkpt lat="42.457222" lon="-2.47256">
      <ele>407.9</ele>
    </trkpt>
    <trkpt lat="42.457299" lon="-2.472692">
      <ele>407.7</ele>
    </trkpt>
    <trkpt lat="42.457288" lon="-2.472805">
      <ele>407.7</ele>
    </trkpt>
    <trkpt lat="42.457255" lon="-2.472854">
      <ele>407.6</ele>
    </trkpt>
    <trkpt lat="42.457237" lon="-2.472881">
      <ele>407.5</ele>
    </trkpt>
    <trkpt lat="42.457126" lon="-2.472898">
      <ele>407.4</ele>
    </trkpt>
    <trkpt lat="42.457055" lon="-2.472825">
      <ele>407.3</ele>
    </trkpt>
    <trkpt lat="42.457034" lon="-2.472708">
      <ele>407.3</ele>
    </trkpt>
    <trkpt lat="42.457046" lon="-2.472649">
      <ele>407.2</ele>
    </trkpt>
    <trkpt lat="42.457141" lon="-2.472548">
      <ele>407.2</ele>
    </trkpt>
    <trkpt lat="42.457222" lon="-2.47256">
      <ele>407.3</ele>
    </trkpt>
    <trkpt lat="42.457279" lon="-2.472346">
      <ele>407.4</ele>
    </trkpt>
    <trkpt lat="42.457295" lon="-2.472288">
      <ele>407.4</ele>
    </trkpt>
    <trkpt lat="42.45736" lon="-2.472318">
      <ele>407.4</ele>
    </trkpt>
    <trkpt lat="42.457436" lon="-2.472039">
      <ele>407.5</ele>
    </trkpt>
    <trkpt lat="42.457479" lon="-2.47202">
      <ele>407.5</ele>
    </trkpt>
    <trkpt lat="42.457517" lon="-2.472032">
      <ele>407.5</ele>
    </trkpt>
    <trkpt lat="42.457623" lon="-2.47185">
      <ele>407.5</ele>
    </trkpt>
    <trkpt lat="42.457785" lon="-2.471363">
      <ele>407.6</ele>
    </trkpt>
    <trkpt lat="42.457942" lon="-2.470973">
      <ele>407.9</ele>
    </trkpt>
    <trkpt lat="42.458132" lon="-2.47066">
      <ele>408.1</ele>
    </trkpt>
    <trkpt lat="42.458215" lon="-2.470472">
      <ele>408.2</ele>
    </trkpt>
    <trkpt lat="42.458281" lon="-2.470244">
      <ele>408.2</ele>
    </trkpt>
    <trkpt lat="42.458319" lon="-2.470042">
      <ele>408.3</ele>
    </trkpt>
    <trkpt lat="42.458326" lon="-2.469403">
      <ele>408.3</ele>
    </trkpt>
    <trkpt lat="42.458244" lon="-2.468421">
      <ele>408.3</ele>
    </trkpt>
    <trkpt lat="42.458226" lon="-2.468201">
      <ele>408.2</ele>
    </trkpt>
    <trkpt lat="42.45824" lon="-2.468121">
      <ele>408.1</ele>
    </trkpt>
    <trkpt lat="42.45858" lon="-2.468286">
      <ele>407.7</ele>
    </trkpt>
    <trkpt lat="42.458751" lon="-2.468304">
      <ele>407.5</ele>
    </trkpt>
    <trkpt lat="42.458931" lon="-2.468273">
      <ele>407.1</ele>
    </trkpt>
    <trkpt lat="42.4591" lon="-2.468151">
      <ele>406.6</ele>
    </trkpt>
    <trkpt lat="42.459583" lon="-2.467332">
      <ele>404.2</ele>
    </trkpt>
    <trkpt lat="42.459625" lon="-2.467159">
      <ele>403.7</ele>
    </trkpt>
    <trkpt lat="42.459846" lon="-2.466241">
      <ele>401.3</ele>
    </trkpt>
    <trkpt lat="42.459889" lon="-2.466261">
      <ele>401.1</ele>
    </trkpt>
    <trkpt lat="42.459983" lon="-2.466307">
      <ele>400.7</ele>
    </trkpt>
    <trkpt lat="42.460056" lon="-2.466305">
      <ele>400.5</ele>
    </trkpt>
    <trkpt lat="42.460078" lon="-2.466221">
      <ele>400.3</ele>
    </trkpt>
    <trkpt lat="42.4601" lon="-2.466131">
      <ele>400</ele>
    </trkpt>
    <trkpt lat="42.460128" lon="-2.466143">
      <ele>399.9</ele>
    </trkpt>
    <trkpt lat="42.460522" lon="-2.466318">
      <ele>398.7</ele>
    </trkpt>
    <trkpt lat="42.460853" lon="-2.466467">
      <ele>397.9</ele>
    </trkpt>
    <trkpt lat="42.460943" lon="-2.466507">
      <ele>397.8</ele>
    </trkpt>
    <trkpt lat="42.461014" lon="-2.466537">
      <ele>397.6</ele>
    </trkpt>
    <trkpt lat="42.461977" lon="-2.466946">
      <ele>397</ele>
    </trkpt>
    <trkpt lat="42.462081" lon="-2.46698">
      <ele>397.1</ele>
    </trkpt>
    <trkpt lat="42.462171" lon="-2.466938">
      <ele>397.2</ele>
    </trkpt>
    <trkpt lat="42.462216" lon="-2.466908">
      <ele>397.2</ele>
    </trkpt>
    <trkpt lat="42.462276" lon="-2.466848">
      <ele>397.3</ele>
    </trkpt>
    <trkpt lat="42.462322" lon="-2.466707">
      <ele>397.4</ele>
    </trkpt>
    <trkpt lat="42.462556" lon="-2.465738">
      <ele>397.7</ele>
    </trkpt>
    <trkpt lat="42.462809" lon="-2.464665">
      <ele>396.3</ele>
    </trkpt>
    <trkpt lat="42.462876" lon="-2.464386">
      <ele>395.9</ele>
    </trkpt>
    <trkpt lat="42.462924" lon="-2.464185">
      <ele>395.5</ele>
    </trkpt>
    <trkpt lat="42.46297" lon="-2.463992">
      <ele>395.2</ele>
    </trkpt>
    <trkpt lat="42.463053" lon="-2.463723">
      <ele>394.8</ele>
    </trkpt>
    <trkpt lat="42.463142" lon="-2.463325">
      <ele>394.3</ele>
    </trkpt>
    <trkpt lat="42.463296" lon="-2.462622">
      <ele>393.6</ele>
    </trkpt>
    <trkpt lat="42.463332" lon="-2.462461">
      <ele>393.4</ele>
    </trkpt>
    <trkpt lat="42.463334" lon="-2.462295">
      <ele>393.3</ele>
    </trkpt>
    <trkpt lat="42.463306" lon="-2.462197">
      <ele>393.3</ele>
    </trkpt>
    <trkpt lat="42.463308" lon="-2.462162">
      <ele>393.2</ele>
    </trkpt>
    <trkpt lat="42.463365" lon="-2.462049">
      <ele>393.1</ele>
    </trkpt>
    <trkpt lat="42.463397" lon="-2.462031">
      <ele>393.1</ele>
    </trkpt>
    <trkpt lat="42.463498" lon="-2.461856">
      <ele>393</ele>
    </trkpt>
    <trkpt lat="42.463546" lon="-2.461698">
      <ele>392.9</ele>
    </trkpt>
    <trkpt lat="42.463579" lon="-2.461568">
      <ele>392.8</ele>
    </trkpt>
    <trkpt lat="42.46367" lon="-2.461197">
      <ele>393.1</ele>
    </trkpt>
    <trkpt lat="42.463777" lon="-2.460765">
      <ele>393.4</ele>
    </trkpt>
    <trkpt lat="42.463802" lon="-2.460661">
      <ele>393.4</ele>
    </trkpt>
    <trkpt lat="42.463882" lon="-2.460332">
      <ele>393.4</ele>
    </trkpt>
    <trkpt lat="42.463923" lon="-2.460161">
      <ele>393.4</ele>
    </trkpt>
    <trkpt lat="42.463957" lon="-2.460025">
      <ele>393.5</ele>
    </trkpt>
    <trkpt lat="42.46401" lon="-2.459807">
      <ele>393.5</ele>
    </trkpt>
    <trkpt lat="42.464045" lon="-2.459662">
      <ele>393.6</ele>
    </trkpt>
    <trkpt lat="42.464134" lon="-2.459291">
      <ele>393.9</ele>
    </trkpt>
    <trkpt lat="42.464263" lon="-2.458752">
      <ele>394.6</ele>
    </trkpt>
    <trkpt lat="42.46446" lon="-2.457926">
      <ele>395.3</ele>
    </trkpt>
    <trkpt lat="42.464494" lon="-2.457781">
      <ele>395.6</ele>
    </trkpt>
    <trkpt lat="42.464543" lon="-2.457582">
      <ele>395.9</ele>
    </trkpt>
    <trkpt lat="42.464598" lon="-2.457356">
      <ele>396.3</ele>
    </trkpt>
    <trkpt lat="42.464612" lon="-2.457299">
      <ele>396.3</ele>
    </trkpt>
    <trkpt lat="42.464828" lon="-2.456424">
      <ele>397.7</ele>
    </trkpt>
    <trkpt lat="42.464919" lon="-2.456063">
      <ele>398.2</ele>
    </trkpt>
    <trkpt lat="42.465006" lon="-2.455675">
      <ele>398.3</ele>
    </trkpt>
    <trkpt lat="42.465139" lon="-2.455128">
      <ele>398.5</ele>
    </trkpt>
    <trkpt lat="42.465168" lon="-2.455017">
      <ele>398.6</ele>
    </trkpt>
    <trkpt lat="42.465181" lon="-2.454843">
      <ele>398.8</ele>
    </trkpt>
    <trkpt lat="42.465164" lon="-2.454699">
      <ele>398.8</ele>
    </trkpt>
    <trkpt lat="42.465125" lon="-2.454529">
      <ele>398.7</ele>
    </trkpt>
    <trkpt lat="42.465045" lon="-2.454148">
      <ele>398.7</ele>
    </trkpt>
    <trkpt lat="42.464976" lon="-2.453878">
      <ele>398.5</ele>
    </trkpt>
    <trkpt lat="42.464945" lon="-2.45376">
      <ele>398.3</ele>
    </trkpt>
    <trkpt lat="42.464867" lon="-2.453454">
      <ele>397.9</ele>
    </trkpt>
    <trkpt lat="42.464797" lon="-2.453188">
      <ele>397.6</ele>
    </trkpt>
    <trkpt lat="42.464732" lon="-2.452955">
      <ele>397.4</ele>
    </trkpt>
    <trkpt lat="42.46465" lon="-2.452854">
      <ele>397.3</ele>
    </trkpt>
    <trkpt lat="42.464643" lon="-2.45277">
      <ele>397.3</ele>
    </trkpt>
    <trkpt lat="42.46469" lon="-2.452661">
      <ele>397.2</ele>
    </trkpt>
    <trkpt lat="42.464667" lon="-2.452436">
      <ele>397</ele>
    </trkpt>
    <trkpt lat="42.464609" lon="-2.452254">
      <ele>396.7</ele>
    </trkpt>
    <trkpt lat="42.464238" lon="-2.45102">
      <ele>394.8</ele>
    </trkpt>
    <trkpt lat="42.464182" lon="-2.450805">
      <ele>394.7</ele>
    </trkpt>
    <trkpt lat="42.463938" lon="-2.449847">
      <ele>394.2</ele>
    </trkpt>
    <trkpt lat="42.46387" lon="-2.449559">
      <ele>393.7</ele>
    </trkpt>
    <trkpt lat="42.463707" lon="-2.448828">
      <ele>392.9</ele>
    </trkpt>
    <trkpt lat="42.463634" lon="-2.448486">
      <ele>393</ele>
    </trkpt>
    <trkpt lat="42.46361" lon="-2.448368">
      <ele>393</ele>
    </trkpt>
    <trkpt lat="42.463601" lon="-2.448322">
      <ele>393.1</ele>
    </trkpt>
    <trkpt lat="42.463678" lon="-2.448299">
      <ele>393.1</ele>
    </trkpt>
    <trkpt lat="42.463705" lon="-2.448252">
      <ele>393.1</ele>
    </trkpt>
    <trkpt lat="42.463703" lon="-2.448108">
      <ele>393.2</ele>
    </trkpt>
    <trkpt lat="42.463765" lon="-2.447996">
      <ele>393.3</ele>
    </trkpt>
    <trkpt lat="42.463803" lon="-2.447947">
      <ele>393.3</ele>
    </trkpt>
    <trkpt lat="42.464278" lon="-2.447771">
      <ele>393.6</ele>
    </trkpt>
    <trkpt lat="42.464263" lon="-2.447674">
      <ele>393.6</ele>
    </trkpt>
    <trkpt lat="42.464413" lon="-2.447631">
      <ele>393.6</ele>
    </trkpt>
    <trkpt lat="42.465135" lon="-2.447576">
      <ele>395.3</ele>
    </trkpt>
    <trkpt lat="42.465238" lon="-2.447568">
      <ele>395.5</ele>
    </trkpt>
    <trkpt lat="42.465232" lon="-2.447648">
      <ele>395.7</ele>
    </trkpt>
    <trkpt lat="42.46512" lon="-2.449105">
      <ele>397.4</ele>
    </trkpt>
    <trkpt lat="42.46515" lon="-2.449239">
      <ele>397.5</ele>
    </trkpt>
    <trkpt lat="42.465669" lon="-2.449962">
      <ele>396.4</ele>
    </trkpt>
    <trkpt lat="42.465741" lon="-2.450079">
      <ele>396</ele>
    </trkpt>
    <trkpt lat="42.465829" lon="-2.450123">
      <ele>395.6</ele>
    </trkpt>
    <trkpt lat="42.46623" lon="-2.450115">
      <ele>394.1</ele>
    </trkpt>
    <trkpt lat="42.46663" lon="-2.450119">
      <ele>392.7</ele>
    </trkpt>
    <trkpt lat="42.466641" lon="-2.449917">
      <ele>392.4</ele>
    </trkpt>
    <trkpt lat="42.466644" lon="-2.449836">
      <ele>392.4</ele>
    </trkpt>
    <trkpt lat="42.466656" lon="-2.449711">
      <ele>392.2</ele>
    </trkpt>
    <trkpt lat="42.466668" lon="-2.449625">
      <ele>392.2</ele>
    </trkpt>
    <trkpt lat="42.46667" lon="-2.449607">
      <ele>392.2</ele>
    </trkpt>
    <trkpt lat="42.466668" lon="-2.449625">
      <ele>392.2</ele>
    </trkpt>
    <trkpt lat="42.466656" lon="-2.449711">
      <ele>392.1</ele>
    </trkpt>
    <trkpt lat="42.466644" lon="-2.449836">
      <ele>392.2</ele>
    </trkpt>
    <trkpt lat="42.466641" lon="-2.449917">
      <ele>392.1</ele>
    </trkpt>
    <trkpt lat="42.46663" lon="-2.450119">
      <ele>392</ele>
    </trkpt>
    <trkpt lat="42.46623" lon="-2.450115">
      <ele>392.2</ele>
    </trkpt>
    <trkpt lat="42.466189" lon="-2.450795">
      <ele>393.7</ele>
    </trkpt>
    <trkpt lat="42.46619" lon="-2.450834">
      <ele>393.8</ele>
    </trkpt>
    <trkpt lat="42.466289" lon="-2.450874">
      <ele>394.2</ele>
    </trkpt>
    <trkpt lat="42.466346" lon="-2.450937">
      <ele>394.5</ele>
    </trkpt>
    <trkpt lat="42.466402" lon="-2.451083">
      <ele>395.1</ele>
    </trkpt>
    <trkpt lat="42.466409" lon="-2.451133">
      <ele>395.2</ele>
    </trkpt>
    <trkpt lat="42.466378" lon="-2.451307">
      <ele>395.7</ele>
    </trkpt>
    <trkpt lat="42.46639" lon="-2.451349">
      <ele>395.8</ele>
    </trkpt>
    <trkpt lat="42.466353" lon="-2.4514">
      <ele>396</ele>
    </trkpt>
    <trkpt lat="42.466222" lon="-2.451473">
      <ele>396.4</ele>
    </trkpt>
    <trkpt lat="42.46608" lon="-2.451503">
      <ele>396.7</ele>
    </trkpt>
    <trkpt lat="42.466063" lon="-2.451548">
      <ele>396.8</ele>
    </trkpt>
    <trkpt lat="42.465783" lon="-2.452656">
      <ele>397.3</ele>
    </trkpt>
    <trkpt lat="42.465573" lon="-2.453533">
      <ele>396.1</ele>
    </trkpt>
    <trkpt lat="42.465498" lon="-2.453789">
      <ele>396</ele>
    </trkpt>
    <trkpt lat="42.465439" lon="-2.453907">
      <ele>395.9</ele>
    </trkpt>
    <trkpt lat="42.465376" lon="-2.454178">
      <ele>395.7</ele>
    </trkpt>
    <trkpt lat="42.465336" lon="-2.454412">
      <ele>395.6</ele>
    </trkpt>
    <trkpt lat="42.465387" lon="-2.45471">
      <ele>395.7</ele>
    </trkpt>
    <trkpt lat="42.465358" lon="-2.454785">
      <ele>395.7</ele>
    </trkpt>
    <trkpt lat="42.465307" lon="-2.454824">
      <ele>395.9</ele>
    </trkpt>
    <trkpt lat="42.465272" lon="-2.454832">
      <ele>395.9</ele>
    </trkpt>
    <trkpt lat="42.465168" lon="-2.455017">
      <ele>396.3</ele>
    </trkpt>
    <trkpt lat="42.465139" lon="-2.455128">
      <ele>396.5</ele>
    </trkpt>
    <trkpt lat="42.465006" lon="-2.455675">
      <ele>397.5</ele>
    </trkpt>
    <trkpt lat="42.464919" lon="-2.456063">
      <ele>397.9</ele>
    </trkpt>
    <trkpt lat="42.464828" lon="-2.456424">
      <ele>397.7</ele>
    </trkpt>
    <trkpt lat="42.464612" lon="-2.457299">
      <ele>396.3</ele>
    </trkpt>
    <trkpt lat="42.464598" lon="-2.457356">
      <ele>396.3</ele>
    </trkpt>
    <trkpt lat="42.464543" lon="-2.457582">
      <ele>395.9</ele>
    </trkpt>
    <trkpt lat="42.464494" lon="-2.457781">
      <ele>395.6</ele>
    </trkpt>
    <trkpt lat="42.46446" lon="-2.457926">
      <ele>395.3</ele>
    </trkpt>
    <trkpt lat="42.464263" lon="-2.458752">
      <ele>394.6</ele>
    </trkpt>
    <trkpt lat="42.464134" lon="-2.459291">
      <ele>393.9</ele>
    </trkpt>
    <trkpt lat="42.464045" lon="-2.459662">
      <ele>393.6</ele>
    </trkpt>
    <trkpt lat="42.46401" lon="-2.459807">
      <ele>393.5</ele>
    </trkpt>
    <trkpt lat="42.463957" lon="-2.460025">
      <ele>393.5</ele>
    </trkpt>
    <trkpt lat="42.463923" lon="-2.460161">
      <ele>393.4</ele>
    </trkpt>
    <trkpt lat="42.463882" lon="-2.460332">
      <ele>393.4</ele>
    </trkpt>
    <trkpt lat="42.463802" lon="-2.460661">
      <ele>393.5</ele>
    </trkpt>
    <trkpt lat="42.463777" lon="-2.460765">
      <ele>393.5</ele>
    </trkpt>
    <trkpt lat="42.46367" lon="-2.461197">
      <ele>393.3</ele>
    </trkpt>
    <trkpt lat="42.463579" lon="-2.461568">
      <ele>393</ele>
    </trkpt>
    <trkpt lat="42.463546" lon="-2.461698">
      <ele>392.9</ele>
    </trkpt>
    <trkpt lat="42.463498" lon="-2.461856">
      <ele>392.9</ele>
    </trkpt>
    <trkpt lat="42.463508" lon="-2.462067">
      <ele>393</ele>
    </trkpt>
    <trkpt lat="42.463544" lon="-2.462141">
      <ele>393</ele>
    </trkpt>
    <trkpt lat="42.46354" lon="-2.462257">
      <ele>393.1</ele>
    </trkpt>
    <trkpt lat="42.463481" lon="-2.46234">
      <ele>393.1</ele>
    </trkpt>
    <trkpt lat="42.463424" lon="-2.462356">
      <ele>393.1</ele>
    </trkpt>
    <trkpt lat="42.463334" lon="-2.462295">
      <ele>393.2</ele>
    </trkpt>
    <trkpt lat="42.463306" lon="-2.462197">
      <ele>393.2</ele>
    </trkpt>
    <trkpt lat="42.463093" lon="-2.462112">
      <ele>393.2</ele>
    </trkpt>
    <trkpt lat="42.46305" lon="-2.462093">
      <ele>393.2</ele>
    </trkpt>
    <trkpt lat="42.463038" lon="-2.462144">
      <ele>393.1</ele>
    </trkpt>
    <trkpt lat="42.462604" lon="-2.461945">
      <ele>392.8</ele>
    </trkpt>
    <trkpt lat="42.462545" lon="-2.461951">
      <ele>392.7</ele>
    </trkpt>
    <trkpt lat="42.462527" lon="-2.461985">
      <ele>392.7</ele>
    </trkpt>
    <trkpt lat="42.462488" lon="-2.46197">
      <ele>392.7</ele>
    </trkpt>
    <trkpt lat="42.462442" lon="-2.461952">
      <ele>392.7</ele>
    </trkpt>
    <trkpt lat="42.462422" lon="-2.46187">
      <ele>392.6</ele>
    </trkpt>
    <trkpt lat="42.462069" lon="-2.46172">
      <ele>392.8</ele>
    </trkpt>
    <trkpt lat="42.461499" lon="-2.461473">
      <ele>393.5</ele>
    </trkpt>
    <trkpt lat="42.461154" lon="-2.461271">
      <ele>394.1</ele>
    </trkpt>
    <trkpt lat="42.461122" lon="-2.461295">
      <ele>394.1</ele>
    </trkpt>
    <trkpt lat="42.461" lon="-2.461415">
      <ele>394.4</ele>
    </trkpt>
    <trkpt lat="42.460829" lon="-2.461742">
      <ele>395</ele>
    </trkpt>
    <trkpt lat="42.460453" lon="-2.461926">
      <ele>396</ele>
    </trkpt>
    <trkpt lat="42.460458" lon="-2.462017">
      <ele>396.2</ele>
    </trkpt>
    <trkpt lat="42.460579" lon="-2.46212">
      <ele>396.6</ele>
    </trkpt>
    <trkpt lat="42.460558" lon="-2.462182">
      <ele>396.7</ele>
    </trkpt>
    <trkpt lat="42.4604" lon="-2.461999">
      <ele>397.1</ele>
    </trkpt>
    <trkpt lat="42.460287" lon="-2.462136">
      <ele>397.5</ele>
    </trkpt>
    <trkpt lat="42.460194" lon="-2.462315">
      <ele>397.8</ele>
    </trkpt>
    <trkpt lat="42.460209" lon="-2.462439">
      <ele>398</ele>
    </trkpt>
    <trkpt lat="42.460674" lon="-2.463585">
      <ele>400.1</ele>
    </trkpt>
    <trkpt lat="42.460658" lon="-2.463672">
      <ele>400.1</ele>
    </trkpt>
    <trkpt lat="42.460495" lon="-2.464349">
      <ele>400.9</ele>
    </trkpt>
    <trkpt lat="42.460449" lon="-2.464533">
      <ele>401.1</ele>
    </trkpt>
    <trkpt lat="42.460285" lon="-2.465211">
      <ele>402</ele>
    </trkpt>
    <trkpt lat="42.460272" lon="-2.465206">
      <ele>402</ele>
    </trkpt>
    <trkpt lat="42.460253" lon="-2.46528">
      <ele>402.1</ele>
    </trkpt>
    <trkpt lat="42.459471" lon="-2.465597">
      <ele>403.6</ele>
    </trkpt>
    <trkpt lat="42.459419" lon="-2.465519">
      <ele>403.8</ele>
    </trkpt>
    <trkpt lat="42.459398" lon="-2.46565">
      <ele>404</ele>
    </trkpt>
    <trkpt lat="42.459324" lon="-2.466042">
      <ele>404.8</ele>
    </trkpt>
    <trkpt lat="42.459298" lon="-2.466175">
      <ele>405.1</ele>
    </trkpt>
    <trkpt lat="42.459288" lon="-2.466207">
      <ele>405.1</ele>
    </trkpt>
    <trkpt lat="42.459229" lon="-2.466466">
      <ele>405.6</ele>
    </trkpt>
    <trkpt lat="42.45914" lon="-2.466788">
      <ele>406.2</ele>
    </trkpt>
    <trkpt lat="42.459131" lon="-2.467122">
      <ele>406.8</ele>
    </trkpt>
    <trkpt lat="42.459118" lon="-2.467641">
      <ele>407.6</ele>
    </trkpt>
    <trkpt lat="42.459093" lon="-2.467778">
      <ele>407.7</ele>
    </trkpt>
    <trkpt lat="42.45903" lon="-2.467877">
      <ele>407.9</ele>
    </trkpt>
    <trkpt lat="42.458773" lon="-2.467985">
      <ele>408.2</ele>
    </trkpt>
    <trkpt lat="42.458407" lon="-2.46801">
      <ele>408.3</ele>
    </trkpt>
    <trkpt lat="42.458276" lon="-2.468061">
      <ele>408.4</ele>
    </trkpt>
    <trkpt lat="42.45824" lon="-2.468121">
      <ele>408.4</ele>
    </trkpt>
    <trkpt lat="42.458226" lon="-2.468201">
      <ele>408.4</ele>
    </trkpt>
    <trkpt lat="42.458326" lon="-2.469403">
      <ele>408.3</ele>
    </trkpt>
    <trkpt lat="42.458319" lon="-2.470042">
      <ele>408.3</ele>
    </trkpt>
    <trkpt lat="42.458281" lon="-2.470244">
      <ele>408.2</ele>
    </trkpt>
    <trkpt lat="42.458215" lon="-2.470472">
      <ele>408.2</ele>
    </trkpt>
    <trkpt lat="42.458132" lon="-2.47066">
      <ele>408.1</ele>
    </trkpt>
    <trkpt lat="42.457942" lon="-2.470973">
      <ele>407.9</ele>
    </trkpt>
    <trkpt lat="42.457785" lon="-2.471363">
      <ele>407.6</ele>
    </trkpt>
    <trkpt lat="42.457623" lon="-2.47185">
      <ele>407.3</ele>
    </trkpt>
    <trkpt lat="42.457517" lon="-2.472032">
      <ele>407.2</ele>
    </trkpt>
    <trkpt lat="42.457479" lon="-2.47202">
      <ele>407.3</ele>
    </trkpt>
    <trkpt lat="42.457436" lon="-2.472039">
      <ele>407.3</ele>
    </trkpt>
    <trkpt lat="42.45736" lon="-2.472318">
      <ele>407.4</ele>
    </trkpt>
    <trkpt lat="42.457295" lon="-2.472288">
      <ele>407.4</ele>
    </trkpt>
    <trkpt lat="42.457238" lon="-2.472262">
      <ele>407.4</ele>
    </trkpt>
    <trkpt lat="42.457065" lon="-2.472352">
      <ele>407.4</ele>
    </trkpt>
    <trkpt lat="42.456993" lon="-2.472322">
      <ele>407.4</ele>
    </trkpt>
    <trkpt lat="42.45696" lon="-2.472308">
      <ele>407.5</ele>
    </trkpt>
    <trkpt lat="42.456885" lon="-2.472551">
      <ele>407.6</ele>
    </trkpt>
    <trkpt lat="42.45686" lon="-2.472636">
      <ele>407.6</ele>
    </trkpt>
    <trkpt lat="42.456809" lon="-2.472851">
      <ele>407.8</ele>
    </trkpt>
    <trkpt lat="42.456837" lon="-2.472969">
      <ele>407.9</ele>
    </trkpt>
    <trkpt lat="42.456767" lon="-2.473004">
      <ele>408</ele>
    </trkpt>
    <trkpt lat="42.456614" lon="-2.473245">
      <ele>408.2</ele>
    </trkpt>
    <trkpt lat="42.456511" lon="-2.473542">
      <ele>408.5</ele>
    </trkpt>
    <trkpt lat="42.456475" lon="-2.473699">
      <ele>408.7</ele>
    </trkpt>
    <trkpt lat="42.456429" lon="-2.474112">
      <ele>408.9</ele>
    </trkpt>
    <trkpt lat="42.456395" lon="-2.474703">
      <ele>408.8</ele>
    </trkpt>
    <trkpt lat="42.456361" lon="-2.474858">
      <ele>408.8</ele>
    </trkpt>
    <trkpt lat="42.456235" lon="-2.475211">
      <ele>408.9</ele>
    </trkpt>
    <trkpt lat="42.456106" lon="-2.475512">
      <ele>409</ele>
    </trkpt>
    <trkpt lat="42.456049" lon="-2.475999">
      <ele>409.1</ele>
    </trkpt>
    <trkpt lat="42.455919" lon="-2.476813">
      <ele>408.7</ele>
    </trkpt>
    <trkpt lat="42.455792" lon="-2.477308">
      <ele>408.5</ele>
    </trkpt>
    <trkpt lat="42.45574" lon="-2.477445">
      <ele>408.4</ele>
    </trkpt>
    <trkpt lat="42.455675" lon="-2.477453">
      <ele>408.4</ele>
    </trkpt>
    <trkpt lat="42.455419" lon="-2.477405">
      <ele>408.2</ele>
    </trkpt>
    <trkpt lat="42.455333" lon="-2.477447">
      <ele>408.2</ele>
    </trkpt>
    <trkpt lat="42.455307" lon="-2.477501">
      <ele>408.2</ele>
    </trkpt>
    <trkpt lat="42.455224" lon="-2.477703">
      <ele>408.1</ele>
    </trkpt>
    <trkpt lat="42.454978" lon="-2.479085">
      <ele>408.1</ele>
    </trkpt>
    <trkpt lat="42.454941" lon="-2.479493">
      <ele>408.3</ele>
    </trkpt>
    <trkpt lat="42.454909" lon="-2.47961">
      <ele>408.4</ele>
    </trkpt>
    <trkpt lat="42.45477" lon="-2.47988">
      <ele>408.6</ele>
    </trkpt>
    <trkpt lat="42.454155" lon="-2.481156">
      <ele>409</ele>
    </trkpt>
    <trkpt lat="42.453822" lon="-2.481997">
      <ele>409.3</ele>
    </trkpt>
    <trkpt lat="42.453446" lon="-2.48316">
      <ele>409.7</ele>
    </trkpt>
    <trkpt lat="42.453092" lon="-2.485402">
      <ele>410.7</ele>
    </trkpt>
    <trkpt lat="42.452965" lon="-2.486745">
      <ele>411.6</ele>
    </trkpt>
    <trkpt lat="42.452921" lon="-2.486931">
      <ele>411.7</ele>
    </trkpt>
    <trkpt lat="42.452304" lon="-2.488426">
      <ele>413.1</ele>
    </trkpt>
    <trkpt lat="42.451635" lon="-2.490167">
      <ele>414.7</ele>
    </trkpt>
    <trkpt lat="42.451384" lon="-2.491222">
      <ele>415.6</ele>
    </trkpt>
    <trkpt lat="42.451279" lon="-2.49159">
      <ele>416</ele>
    </trkpt>
    <trkpt lat="42.451014" lon="-2.49252">
      <ele>417</ele>
    </trkpt>
    <trkpt lat="42.450826" lon="-2.493305">
      <ele>418.1</ele>
    </trkpt>
    <trkpt lat="42.450542" lon="-2.494207">
      <ele>419.6</ele>
    </trkpt>
    <trkpt lat="42.450167" lon="-2.494529">
      <ele>420.6</ele>
    </trkpt>
    <trkpt lat="42.450048" lon="-2.494701">
      <ele>421</ele>
    </trkpt>
    <trkpt lat="42.449925" lon="-2.494995">
      <ele>421.6</ele>
    </trkpt>
    <trkpt lat="42.449894" lon="-2.495143">
      <ele>421.9</ele>
    </trkpt>
    <trkpt lat="42.449917" lon="-2.496197">
      <ele>423.9</ele>
    </trkpt>
    <trkpt lat="42.44986" lon="-2.496608">
      <ele>424.7</ele>
    </trkpt>
    <trkpt lat="42.449838" lon="-2.4974">
      <ele>426.4</ele>
    </trkpt>
    <trkpt lat="42.449814" lon="-2.497578">
      <ele>426.7</ele>
    </trkpt>
    <trkpt lat="42.449719" lon="-2.497763">
      <ele>427.1</ele>
    </trkpt>
    <trkpt lat="42.449714" lon="-2.497844">
      <ele>427.3</ele>
    </trkpt>
    <trkpt lat="42.449445" lon="-2.498053">
      <ele>427.9</ele>
    </trkpt>
    <trkpt lat="42.449238" lon="-2.49823">
      <ele>428.3</ele>
    </trkpt>
    <trkpt lat="42.448886" lon="-2.498211">
      <ele>428.7</ele>
    </trkpt>
    <trkpt lat="42.448788" lon="-2.498272">
      <ele>428.8</ele>
    </trkpt>
    <trkpt lat="42.448769" lon="-2.498333">
      <ele>428.8</ele>
    </trkpt>
    <trkpt lat="42.448766" lon="-2.498604">
      <ele>428.8</ele>
    </trkpt>
    <trkpt lat="42.448676" lon="-2.498807">
      <ele>428.8</ele>
    </trkpt>
    <trkpt lat="42.44858" lon="-2.498969">
      <ele>428.9</ele>
    </trkpt>
    <trkpt lat="42.448378" lon="-2.499116">
      <ele>429.2</ele>
    </trkpt>
    <trkpt lat="42.448303" lon="-2.499213">
      <ele>429.3</ele>
    </trkpt>
    <trkpt lat="42.448184" lon="-2.499628">
      <ele>429.9</ele>
    </trkpt>
    <trkpt lat="42.448104" lon="-2.499777">
      <ele>430.2</ele>
    </trkpt>
    <trkpt lat="42.447988" lon="-2.499875">
      <ele>430.5</ele>
    </trkpt>
    <trkpt lat="42.447872" lon="-2.499914">
      <ele>430.8</ele>
    </trkpt>
    <trkpt lat="42.447865" lon="-2.499917">
      <ele>430.8</ele>
    </trkpt>
    <trkpt lat="42.447796" lon="-2.499897">
      <ele>431</ele>
    </trkpt>
    <trkpt lat="42.447687" lon="-2.499853">
      <ele>431.3</ele>
    </trkpt>
    <trkpt lat="42.447636" lon="-2.499896">
      <ele>431.4</ele>
    </trkpt>
    <trkpt lat="42.447411" lon="-2.500304">
      <ele>432.4</ele>
    </trkpt>
    <trkpt lat="42.447283" lon="-2.500396">
      <ele>432.8</ele>
    </trkpt>
    <trkpt lat="42.447186" lon="-2.500387">
      <ele>433.1</ele>
    </trkpt>
    <trkpt lat="42.447045" lon="-2.500293">
      <ele>433.6</ele>
    </trkpt>
    <trkpt lat="42.446781" lon="-2.499876">
      <ele>434.6</ele>
    </trkpt>
    <trkpt lat="42.446414" lon="-2.499517">
      <ele>435.3</ele>
    </trkpt>
    <trkpt lat="42.446199" lon="-2.499182">
      <ele>435.8</ele>
    </trkpt>
    <trkpt lat="42.446064" lon="-2.499103">
      <ele>436</ele>
    </trkpt>
    <trkpt lat="42.44584" lon="-2.499109">
      <ele>436.2</ele>
    </trkpt>
    <trkpt lat="42.445349" lon="-2.499236">
      <ele>436.6</ele>
    </trkpt>
    <trkpt lat="42.44514" lon="-2.499321">
      <ele>437</ele>
    </trkpt>
    <trkpt lat="42.444959" lon="-2.499435">
      <ele>437.4</ele>
    </trkpt>
    <trkpt lat="42.444823" lon="-2.499562">
      <ele>437.7</ele>
    </trkpt>
    <trkpt lat="42.444639" lon="-2.499631">
      <ele>438.2</ele>
    </trkpt>
    <trkpt lat="42.444665" lon="-2.499574">
      <ele>438.3</ele>
    </trkpt>
    <trkpt lat="42.444626" lon="-2.499548">
      <ele>438.5</ele>
    </trkpt>
    <trkpt lat="42.444609" lon="-2.499478">
      <ele>438.6</ele>
    </trkpt>
    <trkpt lat="42.444541" lon="-2.49946">
      <ele>438.8</ele>
    </trkpt>
    <trkpt lat="42.444386" lon="-2.499291">
      <ele>439.4</ele>
    </trkpt>
    <trkpt lat="42.444136" lon="-2.498885">
      <ele>440.6</ele>
    </trkpt>
    <trkpt lat="42.443961" lon="-2.498745">
      <ele>441.3</ele>
    </trkpt>
    <trkpt lat="42.443753" lon="-2.498647">
      <ele>442.1</ele>
    </trkpt>
    <trkpt lat="42.443583" lon="-2.498641">
      <ele>442.9</ele>
    </trkpt>
    <trkpt lat="42.443496" lon="-2.498687">
      <ele>443.2</ele>
    </trkpt>
    <trkpt lat="42.443318" lon="-2.498937">
      <ele>444.1</ele>
    </trkpt>
    <trkpt lat="42.443229" lon="-2.499003">
      <ele>444.5</ele>
    </trkpt>
    <trkpt lat="42.443139" lon="-2.498996">
      <ele>444.8</ele>
    </trkpt>
    <trkpt lat="42.442865" lon="-2.498792">
      <ele>445.7</ele>
    </trkpt>
    <trkpt lat="42.442717" lon="-2.498737">
      <ele>446.1</ele>
    </trkpt>
    <trkpt lat="42.442506" lon="-2.498659">
      <ele>446.6</ele>
    </trkpt>
    <trkpt lat="42.442306" lon="-2.498585">
      <ele>446.9</ele>
    </trkpt>
    <trkpt lat="42.442089" lon="-2.498551">
      <ele>447.1</ele>
    </trkpt>
    <trkpt lat="42.44178" lon="-2.498567">
      <ele>447.4</ele>
    </trkpt>
    <trkpt lat="42.44184" lon="-2.499159">
      <ele>447.8</ele>
    </trkpt>
    <trkpt lat="42.441856" lon="-2.499352">
      <ele>448</ele>
    </trkpt>
    <trkpt lat="42.441836" lon="-2.499556">
      <ele>448.1</ele>
    </trkpt>
    <trkpt lat="42.441769" lon="-2.499668">
      <ele>448.1</ele>
    </trkpt>
    <trkpt lat="42.441651" lon="-2.499763">
      <ele>448.1</ele>
    </trkpt>
    <trkpt lat="42.44142" lon="-2.499948">
      <ele>448.1</ele>
    </trkpt>
    <trkpt lat="42.44129" lon="-2.500098">
      <ele>448</ele>
    </trkpt>
    <trkpt lat="42.441064" lon="-2.500613">
      <ele>448.2</ele>
    </trkpt>
    <trkpt lat="42.44064" lon="-2.501278">
      <ele>448.2</ele>
    </trkpt>
    <trkpt lat="42.440454" lon="-2.501519">
      <ele>448</ele>
    </trkpt>
    <trkpt lat="42.440221" lon="-2.502447">
      <ele>447.5</ele>
    </trkpt>
    <trkpt lat="42.440169" lon="-2.502893">
      <ele>447.3</ele>
    </trkpt>
    <trkpt lat="42.439983" lon="-2.503542">
      <ele>447.1</ele>
    </trkpt>
    <trkpt lat="42.439761" lon="-2.504792">
      <ele>447.5</ele>
    </trkpt>
    <trkpt lat="42.439662" lon="-2.50509">
      <ele>447.8</ele>
    </trkpt>
    <trkpt lat="42.439579" lon="-2.505212">
      <ele>448.1</ele>
    </trkpt>
    <trkpt lat="42.439569" lon="-2.505283">
      <ele>448.2</ele>
    </trkpt>
    <trkpt lat="42.439416" lon="-2.505429">
      <ele>448.6</ele>
    </trkpt>
    <trkpt lat="42.439183" lon="-2.505742">
      <ele>449.5</ele>
    </trkpt>
    <trkpt lat="42.438551" lon="-2.507078">
      <ele>452.3</ele>
    </trkpt>
    <trkpt lat="42.438378" lon="-2.50761">
      <ele>452.3</ele>
    </trkpt>
    <trkpt lat="42.438019" lon="-2.509632">
      <ele>449</ele>
    </trkpt>
    <trkpt lat="42.437979" lon="-2.510024">
      <ele>448.8</ele>
    </trkpt>
    <trkpt lat="42.437982" lon="-2.510258">
      <ele>448.8</ele>
    </trkpt>
    <trkpt lat="42.437591" lon="-2.510362">
      <ele>449.1</ele>
    </trkpt>
    <trkpt lat="42.436498" lon="-2.510818">
      <ele>452.5</ele>
    </trkpt>
    <trkpt lat="42.435979" lon="-2.510972">
      <ele>453.8</ele>
    </trkpt>
    <trkpt lat="42.436017" lon="-2.511117">
      <ele>454</ele>
    </trkpt>
    <trkpt lat="42.436481" lon="-2.513146">
      <ele>454.8</ele>
    </trkpt>
    <trkpt lat="42.437079" lon="-2.514651">
      <ele>455.1</ele>
    </trkpt>
    <trkpt lat="42.437166" lon="-2.514734">
      <ele>455.2</ele>
    </trkpt>
    <trkpt lat="42.437293" lon="-2.514755">
      <ele>455.4</ele>
    </trkpt>
    <trkpt lat="42.437347" lon="-2.514728">
      <ele>455.5</ele>
    </trkpt>
    <trkpt lat="42.437554" lon="-2.514589">
      <ele>456.1</ele>
    </trkpt>
    <trkpt lat="42.437649" lon="-2.514444">
      <ele>456.5</ele>
    </trkpt>
    <trkpt lat="42.437763" lon="-2.514358">
      <ele>457</ele>
    </trkpt>
    <trkpt lat="42.437808" lon="-2.514372">
      <ele>457.2</ele>
    </trkpt>
    <trkpt lat="42.437744" lon="-2.514417">
      <ele>457.5</ele>
    </trkpt>
    <trkpt lat="42.4375" lon="-2.514922">
      <ele>460.2</ele>
    </trkpt>
    <trkpt lat="42.437329" lon="-2.515307">
      <ele>463</ele>
    </trkpt>
    <trkpt lat="42.437194" lon="-2.515489">
      <ele>465</ele>
    </trkpt>
    <trkpt lat="42.436789" lon="-2.515825">
      <ele>470.5</ele>
    </trkpt>
    <trkpt lat="42.436584" lon="-2.51615">
      <ele>473.8</ele>
    </trkpt>
    <trkpt lat="42.436542" lon="-2.516265">
      <ele>474.7</ele>
    </trkpt>
    <trkpt lat="42.436547" lon="-2.516337">
      <ele>475.2</ele>
    </trkpt>
    <trkpt lat="42.436749" lon="-2.516617">
      <ele>477.7</ele>
    </trkpt>
    <trkpt lat="42.436815" lon="-2.516746">
      <ele>478.5</ele>
    </trkpt>
    <trkpt lat="42.437261" lon="-2.517339">
      <ele>482.2</ele>
    </trkpt>
    <trkpt lat="42.437613" lon="-2.517876">
      <ele>484.3</ele>
    </trkpt>
    <trkpt lat="42.437815" lon="-2.518434">
      <ele>486</ele>
    </trkpt>
    <trkpt lat="42.438001" lon="-2.519042">
      <ele>488.4</ele>
    </trkpt>
    <trkpt lat="42.438297" lon="-2.519639">
      <ele>491.4</ele>
    </trkpt>
    <trkpt lat="42.438481" lon="-2.519887">
      <ele>493</ele>
    </trkpt>
    <trkpt lat="42.438583" lon="-2.520075">
      <ele>494.1</ele>
    </trkpt>
    <trkpt lat="42.438882" lon="-2.520851">
      <ele>498.6</ele>
    </trkpt>
    <trkpt lat="42.439141" lon="-2.52127">
      <ele>501.3</ele>
    </trkpt>
    <trkpt lat="42.439299" lon="-2.52182">
      <ele>504.1</ele>
    </trkpt>
    <trkpt lat="42.43949" lon="-2.522483">
      <ele>507.6</ele>
    </trkpt>
    <trkpt lat="42.439638" lon="-2.522829">
      <ele>509.5</ele>
    </trkpt>
    <trkpt lat="42.439739" lon="-2.522981">
      <ele>510.4</ele>
    </trkpt>
    <trkpt lat="42.439864" lon="-2.523168">
      <ele>511.4</ele>
    </trkpt>
    <trkpt lat="42.440035" lon="-2.523585">
      <ele>513</ele>
    </trkpt>
    <trkpt lat="42.440094" lon="-2.523912">
      <ele>514</ele>
    </trkpt>
    <trkpt lat="42.44007" lon="-2.524029">
      <ele>514.4</ele>
    </trkpt>
    <trkpt lat="42.439937" lon="-2.524755">
      <ele>516.3</ele>
    </trkpt>
    <trkpt lat="42.439907" lon="-2.524977">
      <ele>516.8</ele>
    </trkpt>
    <trkpt lat="42.439791" lon="-2.526616">
      <ele>516.5</ele>
    </trkpt>
    <trkpt lat="42.439783" lon="-2.526741">
      <ele>516.3</ele>
    </trkpt>
    <trkpt lat="42.439772" lon="-2.527191">
      <ele>515.4</ele>
    </trkpt>
    <trkpt lat="42.439712" lon="-2.527795">
      <ele>513.7</ele>
    </trkpt>
    <trkpt lat="42.439572" lon="-2.528731">
      <ele>510.8</ele>
    </trkpt>
    <trkpt lat="42.439566" lon="-2.528964">
      <ele>510.2</ele>
    </trkpt>
    <trkpt lat="42.43955" lon="-2.529125">
      <ele>509.9</ele>
    </trkpt>
    <trkpt lat="42.43936" lon="-2.530056">
      <ele>508.2</ele>
    </trkpt>
    <trkpt lat="42.439217" lon="-2.530874">
      <ele>506.6</ele>
    </trkpt>
    <trkpt lat="42.439094" lon="-2.531366">
      <ele>505.6</ele>
    </trkpt>
    <trkpt lat="42.438916" lon="-2.531922">
      <ele>504.3</ele>
    </trkpt>
    <trkpt lat="42.438861" lon="-2.532231">
      <ele>503.7</ele>
    </trkpt>
    <trkpt lat="42.43878" lon="-2.533424">
      <ele>501.7</ele>
    </trkpt>
    <trkpt lat="42.438626" lon="-2.534338">
      <ele>500.8</ele>
    </trkpt>
    <trkpt lat="42.438605" lon="-2.534661">
      <ele>500.4</ele>
    </trkpt>
    <trkpt lat="42.438518" lon="-2.535305">
      <ele>499.3</ele>
    </trkpt>
    <trkpt lat="42.438463" lon="-2.535587">
      <ele>498.7</ele>
    </trkpt>
    <trkpt lat="42.438251" lon="-2.536171">
      <ele>497.5</ele>
    </trkpt>
    <trkpt lat="42.438044" lon="-2.536833">
      <ele>496.6</ele>
    </trkpt>
    <trkpt lat="42.437945" lon="-2.537153">
      <ele>496.3</ele>
    </trkpt>
    <trkpt lat="42.437836" lon="-2.537602">
      <ele>495.9</ele>
    </trkpt>
    <trkpt lat="42.437796" lon="-2.537796">
      <ele>495.8</ele>
    </trkpt>
    <trkpt lat="42.437638" lon="-2.538825">
      <ele>494.9</ele>
    </trkpt>
    <trkpt lat="42.437596" lon="-2.538996">
      <ele>494.7</ele>
    </trkpt>
    <trkpt lat="42.437415" lon="-2.539459">
      <ele>494.3</ele>
    </trkpt>
    <trkpt lat="42.437336" lon="-2.539613">
      <ele>494.3</ele>
    </trkpt>
    <trkpt lat="42.437118" lon="-2.540024">
      <ele>494.2</ele>
    </trkpt>
    <trkpt lat="42.437336" lon="-2.539613">
      <ele>494.3</ele>
    </trkpt>
    <trkpt lat="42.437415" lon="-2.539459">
      <ele>494.3</ele>
    </trkpt>
    <trkpt lat="42.437596" lon="-2.538996">
      <ele>494.7</ele>
    </trkpt>
    <trkpt lat="42.437638" lon="-2.538825">
      <ele>494.9</ele>
    </trkpt>
    <trkpt lat="42.437796" lon="-2.537796">
      <ele>495.8</ele>
    </trkpt>
    <trkpt lat="42.437836" lon="-2.537602">
      <ele>496</ele>
    </trkpt>
    <trkpt lat="42.437945" lon="-2.537153">
      <ele>497.1</ele>
    </trkpt>
    <trkpt lat="42.438044" lon="-2.536833">
      <ele>497.5</ele>
    </trkpt>
    <trkpt lat="42.43776" lon="-2.53674">
      <ele>498.2</ele>
    </trkpt>
    <trkpt lat="42.43761" lon="-2.536758">
      <ele>498.7</ele>
    </trkpt>
    <trkpt lat="42.437523" lon="-2.536818">
      <ele>499.2</ele>
    </trkpt>
    <trkpt lat="42.437423" lon="-2.536958">
      <ele>499.8</ele>
    </trkpt>
    <trkpt lat="42.437369" lon="-2.537137">
      <ele>500.4</ele>
    </trkpt>
    <trkpt lat="42.437444" lon="-2.537187">
      <ele>500.7</ele>
    </trkpt>
    <trkpt lat="42.437521" lon="-2.537322">
      <ele>501.1</ele>
    </trkpt>
    <trkpt lat="42.437537" lon="-2.537436">
      <ele>501.4</ele>
    </trkpt>
    <trkpt lat="42.437503" lon="-2.537603">
      <ele>501.7</ele>
    </trkpt>
    <trkpt lat="42.437408" lon="-2.537719">
      <ele>501.8</ele>
    </trkpt>
    <trkpt lat="42.437326" lon="-2.53775">
      <ele>501.9</ele>
    </trkpt>
    <trkpt lat="42.437197" lon="-2.537938">
      <ele>501.8</ele>
    </trkpt>
    <trkpt lat="42.437122" lon="-2.538147">
      <ele>501.4</ele>
    </trkpt>
    <trkpt lat="42.436799" lon="-2.539041">
      <ele>498.1</ele>
    </trkpt>
    <trkpt lat="42.436528" lon="-2.539791">
      <ele>493.2</ele>
    </trkpt>
    <trkpt lat="42.436141" lon="-2.540902">
      <ele>487</ele>
    </trkpt>
    <trkpt lat="42.436155" lon="-2.54118">
      <ele>486</ele>
    </trkpt>
    <trkpt lat="42.436205" lon="-2.541269">
      <ele>485.7</ele>
    </trkpt>
    <trkpt lat="42.436229" lon="-2.541375">
      <ele>485.3</ele>
    </trkpt>
    <trkpt lat="42.43621" lon="-2.54154">
      <ele>484.9</ele>
    </trkpt>
    <trkpt lat="42.436132" lon="-2.541668">
      <ele>484.4</ele>
    </trkpt>
    <trkpt lat="42.43606" lon="-2.541714">
      <ele>484.2</ele>
    </trkpt>
    <trkpt lat="42.435981" lon="-2.541724">
      <ele>483.9</ele>
    </trkpt>
    <trkpt lat="42.435866" lon="-2.541668">
      <ele>483.6</ele>
    </trkpt>
    <trkpt lat="42.435806" lon="-2.541582">
      <ele>483.4</ele>
    </trkpt>
    <trkpt lat="42.435773" lon="-2.541472">
      <ele>483.2</ele>
    </trkpt>
    <trkpt lat="42.435586" lon="-2.541542">
      <ele>482.7</ele>
    </trkpt>
    <trkpt lat="42.435507" lon="-2.541627">
      <ele>482.5</ele>
    </trkpt>
    <trkpt lat="42.435401" lon="-2.541821">
      <ele>482.1</ele>
    </trkpt>
    <trkpt lat="42.435382" lon="-2.541854">
      <ele>482</ele>
    </trkpt>
    <trkpt lat="42.435277" lon="-2.541912">
      <ele>481.7</ele>
    </trkpt>
    <trkpt lat="42.435129" lon="-2.541875">
      <ele>481.4</ele>
    </trkpt>
    <trkpt lat="42.434987" lon="-2.54172">
      <ele>481</ele>
    </trkpt>
    <trkpt lat="42.434722" lon="-2.542294">
      <ele>479.6</ele>
    </trkpt>
    <trkpt lat="42.434615" lon="-2.54245">
      <ele>479.1</ele>
    </trkpt>
    <trkpt lat="42.433676" lon="-2.54363">
      <ele>475.8</ele>
    </trkpt>
    <trkpt lat="42.433493" lon="-2.54393">
      <ele>475.4</ele>
    </trkpt>
    <trkpt lat="42.433405" lon="-2.544175">
      <ele>475.2</ele>
    </trkpt>
    <trkpt lat="42.433359" lon="-2.544439">
      <ele>475</ele>
    </trkpt>
    <trkpt lat="42.433434" lon="-2.545046">
      <ele>474.6</ele>
    </trkpt>
    <trkpt lat="42.432817" lon="-2.545485">
      <ele>473.8</ele>
    </trkpt>
    <trkpt lat="42.432518" lon="-2.545672">
      <ele>473.3</ele>
    </trkpt>
    <trkpt lat="42.432079" lon="-2.545999">
      <ele>472.6</ele>
    </trkpt>
    <trkpt lat="42.431948" lon="-2.546336">
      <ele>472.2</ele>
    </trkpt>
    <trkpt lat="42.431886" lon="-2.546643">
      <ele>472</ele>
    </trkpt>
    <trkpt lat="42.431845" lon="-2.54685">
      <ele>471.8</ele>
    </trkpt>
    <trkpt lat="42.431392" lon="-2.547666">
      <ele>471.4</ele>
    </trkpt>
    <trkpt lat="42.431032" lon="-2.548589">
      <ele>471.4</ele>
    </trkpt>
    <trkpt lat="42.43074" lon="-2.549412">
      <ele>471.3</ele>
    </trkpt>
    <trkpt lat="42.430498" lon="-2.550237">
      <ele>471.3</ele>
    </trkpt>
    <trkpt lat="42.430442" lon="-2.550479">
      <ele>471.4</ele>
    </trkpt>
    <trkpt lat="42.43041" lon="-2.550843">
      <ele>471.4</ele>
    </trkpt>
    <trkpt lat="42.430125" lon="-2.551691">
      <ele>471.5</ele>
    </trkpt>
    <trkpt lat="42.430003" lon="-2.551911">
      <ele>471.6</ele>
    </trkpt>
    <trkpt lat="42.429899" lon="-2.552012">
      <ele>471.7</ele>
    </trkpt>
    <trkpt lat="42.429718" lon="-2.552104">
      <ele>471.8</ele>
    </trkpt>
    <trkpt lat="42.429637" lon="-2.552179">
      <ele>471.9</ele>
    </trkpt>
    <trkpt lat="42.429623" lon="-2.552301">
      <ele>472</ele>
    </trkpt>
    <trkpt lat="42.42965" lon="-2.552442">
      <ele>472</ele>
    </trkpt>
    <trkpt lat="42.429725" lon="-2.552599">
      <ele>472.2</ele>
    </trkpt>
    <trkpt lat="42.429872" lon="-2.55325">
      <ele>472.9</ele>
    </trkpt>
    <trkpt lat="42.429895" lon="-2.553735">
      <ele>473.6</ele>
    </trkpt>
    <trkpt lat="42.429786" lon="-2.554741">
      <ele>476.2</ele>
    </trkpt>
    <trkpt lat="42.429696" lon="-2.555187">
      <ele>477.8</ele>
    </trkpt>
    <trkpt lat="42.42969" lon="-2.555233">
      <ele>478</ele>
    </trkpt>
    <trkpt lat="42.429542" lon="-2.556693">
      <ele>483.7</ele>
    </trkpt>
    <trkpt lat="42.429567" lon="-2.556857">
      <ele>484.4</ele>
    </trkpt>
    <trkpt lat="42.429494" lon="-2.556882">
      <ele>484.7</ele>
    </trkpt>
    <trkpt lat="42.429254" lon="-2.557009">
      <ele>486</ele>
    </trkpt>
    <trkpt lat="42.429161" lon="-2.557135">
      <ele>486.6</ele>
    </trkpt>
    <trkpt lat="42.429113" lon="-2.557289">
      <ele>487.1</ele>
    </trkpt>
    <trkpt lat="42.429077" lon="-2.557557">
      <ele>488</ele>
    </trkpt>
    <trkpt lat="42.429069" lon="-2.557636">
      <ele>488.2</ele>
    </trkpt>
    <trkpt lat="42.428981" lon="-2.558502">
      <ele>490.8</ele>
    </trkpt>
    <trkpt lat="42.428805" lon="-2.560258">
      <ele>496</ele>
    </trkpt>
    <trkpt lat="42.4288" lon="-2.560313">
      <ele>496.2</ele>
    </trkpt>
    <trkpt lat="42.428761" lon="-2.560952">
      <ele>497.5</ele>
    </trkpt>
    </trkseg>
  </trk>
</gpx>
