<?xml version="1.0" encoding="UTF-8"?>
<gpx version="1.1" creator="fitAI Komoot downloader" xmlns="http://www.topografix.com/GPX/1/1">
  <metadata>
    <name>Embalse de La Grajera y Parque de La Grajera - Recorrido circular desde Lapuebla de Labarca</name>
    <desc>66 visitas · Dificultad: moderate · Distancia: 35.5 km · Desnivel +: 335 m</desc>
    <link href="https://www.komoot.com/smarttour/e33843557"><text>Komoot</text></link>
  </metadata>
  <trk>
    <name>Embalse de La Grajera y Parque de La Grajera - Recorrido circular desde Lapuebla de Labarca</name>
    <type>touringbicycle</type>
    <trkseg>
    <trkpt lat="42.491595" lon="-2.5755">
      <ele>410.1</ele>
    </trkpt>
    <trkpt lat="42.491563" lon="-2.575514">
      <ele>409.9</ele>
    </trkpt>
    <trkpt lat="42.49141" lon="-2.575531">
      <ele>409</ele>
    </trkpt>
    <trkpt lat="42.49146" lon="-2.5755">
      <ele>408.7</ele>
    </trkpt>
    <trkpt lat="42.491511" lon="-2.575405">
      <ele>408.1</ele>
    </trkpt>
    <trkpt lat="42.491515" lon="-2.575272">
      <ele>407.5</ele>
    </trkpt>
    <trkpt lat="42.49148" lon="-2.575128">
      <ele>406.7</ele>
    </trkpt>
    <trkpt lat="42.491481" lon="-2.575039">
      <ele>406.2</ele>
    </trkpt>
    <trkpt lat="42.491555" lon="-2.574832">
      <ele>404.9</ele>
    </trkpt>
    <trkpt lat="42.491765" lon="-2.574623">
      <ele>402.8</ele>
    </trkpt>
    <trkpt lat="42.492301" lon="-2.574195">
      <ele>397</ele>
    </trkpt>
    <trkpt lat="42.492661" lon="-2.573711">
      <ele>394.4</ele>
    </trkpt>
    <trkpt lat="42.492693" lon="-2.573574">
      <ele>393.9</ele>
    </trkpt>
    <trkpt lat="42.492646" lon="-2.573448">
      <ele>393.5</ele>
    </trkpt>
    <trkpt lat="42.492444" lon="-2.573095">
      <ele>392.5</ele>
    </trkpt>
    <trkpt lat="42.492071" lon="-2.572444">
      <ele>391.6</ele>
    </trkpt>
    <trkpt lat="42.491636" lon="-2.571715">
      <ele>392.5</ele>
    </trkpt>
    <trkpt lat="42.49143" lon="-2.571466">
      <ele>392.9</ele>
    </trkpt>
    <trkpt lat="42.491199" lon="-2.571276">
      <ele>393.3</ele>
    </trkpt>
    <trkpt lat="42.490974" lon="-2.571168">
      <ele>393.6</ele>
    </trkpt>
    <trkpt lat="42.490763" lon="-2.57111">
      <ele>393.8</ele>
    </trkpt>
    <trkpt lat="42.490018" lon="-2.57107">
      <ele>395.3</ele>
    </trkpt>
    <trkpt lat="42.48962" lon="-2.571033">
      <ele>396.7</ele>
    </trkpt>
    <trkpt lat="42.489409" lon="-2.570949">
      <ele>397.8</ele>
    </trkpt>
    <trkpt lat="42.489229" lon="-2.5708">
      <ele>398.9</ele>
    </trkpt>
    <trkpt lat="42.488793" lon="-2.570276">
      <ele>402.8</ele>
    </trkpt>
    <trkpt lat="42.488625" lon="-2.570151">
      <ele>404.2</ele>
    </trkpt>
    <trkpt lat="42.488354" lon="-2.570061">
      <ele>406.4</ele>
    </trkpt>
    <trkpt lat="42.488282" lon="-2.570045">
      <ele>406.9</ele>
    </trkpt>
    <trkpt lat="42.488105" lon="-2.570018">
      <ele>408.1</ele>
    </trkpt>
    <trkpt lat="42.488019" lon="-2.570006">
      <ele>408.7</ele>
    </trkpt>
    <trkpt lat="42.487948" lon="-2.569989">
      <ele>409.1</ele>
    </trkpt>
    <trkpt lat="42.487693" lon="-2.569916">
      <ele>410.6</ele>
    </trkpt>
    <trkpt lat="42.487466" lon="-2.569807">
      <ele>411.8</ele>
    </trkpt>
    <trkpt lat="42.487418" lon="-2.569784">
      <ele>412</ele>
    </trkpt>
    <trkpt lat="42.486541" lon="-2.569367">
      <ele>414</ele>
    </trkpt>
    <trkpt lat="42.486182" lon="-2.569267">
      <ele>414.2</ele>
    </trkpt>
    <trkpt lat="42.485992" lon="-2.569304">
      <ele>414.3</ele>
    </trkpt>
    <trkpt lat="42.485863" lon="-2.569376">
      <ele>414.4</ele>
    </trkpt>
    <trkpt lat="42.485728" lon="-2.569335">
      <ele>414.5</ele>
    </trkpt>
    <trkpt lat="42.485646" lon="-2.569224">
      <ele>414.6</ele>
    </trkpt>
    <trkpt lat="42.485529" lon="-2.569122">
      <ele>414.7</ele>
    </trkpt>
    <trkpt lat="42.485412" lon="-2.569061">
      <ele>414.7</ele>
    </trkpt>
    <trkpt lat="42.484956" lon="-2.568946">
      <ele>415.2</ele>
    </trkpt>
    <trkpt lat="42.48343" lon="-2.568749">
      <ele>417.2</ele>
    </trkpt>
    <trkpt lat="42.482992" lon="-2.56864">
      <ele>417.7</ele>
    </trkpt>
    <trkpt lat="42.482616" lon="-2.568502">
      <ele>418.1</ele>
    </trkpt>
    <trkpt lat="42.481783" lon="-2.568178">
      <ele>418.7</ele>
    </trkpt>
    <trkpt lat="42.480936" lon="-2.567759">
      <ele>419.3</ele>
    </trkpt>
    <trkpt lat="42.480275" lon="-2.567386">
      <ele>419.7</ele>
    </trkpt>
    <trkpt lat="42.479171" lon="-2.566629">
      <ele>420.4</ele>
    </trkpt>
    <trkpt lat="42.477856" lon="-2.565586">
      <ele>420.8</ele>
    </trkpt>
    <trkpt lat="42.47796" lon="-2.565561">
      <ele>420.7</ele>
    </trkpt>
    <trkpt lat="42.478435" lon="-2.565772">
      <ele>420.2</ele>
    </trkpt>
    <trkpt lat="42.478778" lon="-2.565796">
      <ele>419.6</ele>
    </trkpt>
    <trkpt lat="42.478904" lon="-2.565733">
      <ele>419.3</ele>
    </trkpt>
    <trkpt lat="42.478972" lon="-2.565572">
      <ele>418.9</ele>
    </trkpt>
    <trkpt lat="42.479058" lon="-2.564592">
      <ele>416.7</ele>
    </trkpt>
    <trkpt lat="42.479096" lon="-2.564363">
      <ele>416.1</ele>
    </trkpt>
    <trkpt lat="42.479151" lon="-2.564188">
      <ele>415.7</ele>
    </trkpt>
    <trkpt lat="42.479386" lon="-2.564096">
      <ele>414.9</ele>
    </trkpt>
    <trkpt lat="42.479679" lon="-2.564039">
      <ele>414</ele>
    </trkpt>
    <trkpt lat="42.479917" lon="-2.564069">
      <ele>413.2</ele>
    </trkpt>
    <trkpt lat="42.480478" lon="-2.56406">
      <ele>411.6</ele>
    </trkpt>
    <trkpt lat="42.480619" lon="-2.563992">
      <ele>411.2</ele>
    </trkpt>
    <trkpt lat="42.480924" lon="-2.563721">
      <ele>410.5</ele>
    </trkpt>
    <trkpt lat="42.481189" lon="-2.563421">
      <ele>409.8</ele>
    </trkpt>
    <trkpt lat="42.482556" lon="-2.562728">
      <ele>407.4</ele>
    </trkpt>
    <trkpt lat="42.48314" lon="-2.562241">
      <ele>405.7</ele>
    </trkpt>
    <trkpt lat="42.483427" lon="-2.561861">
      <ele>404.4</ele>
    </trkpt>
    <trkpt lat="42.483572" lon="-2.561612">
      <ele>403.6</ele>
    </trkpt>
    <trkpt lat="42.483675" lon="-2.561371">
      <ele>402.8</ele>
    </trkpt>
    <trkpt lat="42.48372" lon="-2.561121">
      <ele>402</ele>
    </trkpt>
    <trkpt lat="42.483688" lon="-2.560858">
      <ele>401.2</ele>
    </trkpt>
    <trkpt lat="42.483582" lon="-2.560278">
      <ele>399.5</ele>
    </trkpt>
    <trkpt lat="42.483465" lon="-2.559907">
      <ele>398.3</ele>
    </trkpt>
    <trkpt lat="42.483468" lon="-2.559792">
      <ele>398</ele>
    </trkpt>
    <trkpt lat="42.483659" lon="-2.559498">
      <ele>396.9</ele>
    </trkpt>
    <trkpt lat="42.483773" lon="-2.559191">
      <ele>396.2</ele>
    </trkpt>
    <trkpt lat="42.484006" lon="-2.558335">
      <ele>395.4</ele>
    </trkpt>
    <trkpt lat="42.484181" lon="-2.557926">
      <ele>395.9</ele>
    </trkpt>
    <trkpt lat="42.484183" lon="-2.557798">
      <ele>396.2</ele>
    </trkpt>
    <trkpt lat="42.484094" lon="-2.557588">
      <ele>396.5</ele>
    </trkpt>
    <trkpt lat="42.483678" lon="-2.55701">
      <ele>396.7</ele>
    </trkpt>
    <trkpt lat="42.483601" lon="-2.556976">
      <ele>396.7</ele>
    </trkpt>
    <trkpt lat="42.483527" lon="-2.55702">
      <ele>396.7</ele>
    </trkpt>
    <trkpt lat="42.483459" lon="-2.557138">
      <ele>396.7</ele>
    </trkpt>
    <trkpt lat="42.483571" lon="-2.557457">
      <ele>396.7</ele>
    </trkpt>
    <trkpt lat="42.483631" lon="-2.557514">
      <ele>396.6</ele>
    </trkpt>
    <trkpt lat="42.483801" lon="-2.557555">
      <ele>396.3</ele>
    </trkpt>
    <trkpt lat="42.483913" lon="-2.557564">
      <ele>396.1</ele>
    </trkpt>
    <trkpt lat="42.483969" lon="-2.557514">
      <ele>395.9</ele>
    </trkpt>
    <trkpt lat="42.484316" lon="-2.557109">
      <ele>394.4</ele>
    </trkpt>
    <trkpt lat="42.484352" lon="-2.556943">
      <ele>394</ele>
    </trkpt>
    <trkpt lat="42.484338" lon="-2.556704">
      <ele>393.6</ele>
    </trkpt>
    <trkpt lat="42.484292" lon="-2.556538">
      <ele>393.5</ele>
    </trkpt>
    <trkpt lat="42.484095" lon="-2.556133">
      <ele>394</ele>
    </trkpt>
    <trkpt lat="42.4838" lon="-2.55563">
      <ele>395.3</ele>
    </trkpt>
    <trkpt lat="42.483435" lon="-2.554859">
      <ele>397.4</ele>
    </trkpt>
    <trkpt lat="42.483296" lon="-2.554327">
      <ele>398.3</ele>
    </trkpt>
    <trkpt lat="42.483269" lon="-2.554244">
      <ele>398.5</ele>
    </trkpt>
    <trkpt lat="42.483095" lon="-2.553709">
      <ele>398.8</ele>
    </trkpt>
    <trkpt lat="42.482912" lon="-2.553329">
      <ele>398.5</ele>
    </trkpt>
    <trkpt lat="42.482717" lon="-2.552669">
      <ele>397.2</ele>
    </trkpt>
    <trkpt lat="42.482662" lon="-2.552392">
      <ele>396.6</ele>
    </trkpt>
    <trkpt lat="42.482681" lon="-2.551968">
      <ele>395.6</ele>
    </trkpt>
    <trkpt lat="42.482675" lon="-2.55101">
      <ele>393.4</ele>
    </trkpt>
    <trkpt lat="42.482722" lon="-2.550374">
      <ele>391.8</ele>
    </trkpt>
    <trkpt lat="42.482972" lon="-2.549295">
      <ele>389.8</ele>
    </trkpt>
    <trkpt lat="42.483007" lon="-2.548772">
      <ele>389.3</ele>
    </trkpt>
    <trkpt lat="42.48334" lon="-2.545382">
      <ele>388.5</ele>
    </trkpt>
    <trkpt lat="42.48334" lon="-2.544674">
      <ele>388.5</ele>
    </trkpt>
    <trkpt lat="42.483215" lon="-2.543426">
      <ele>388.6</ele>
    </trkpt>
    <trkpt lat="42.483037" lon="-2.542025">
      <ele>388.7</ele>
    </trkpt>
    <trkpt lat="42.482942" lon="-2.541643">
      <ele>388.8</ele>
    </trkpt>
    <trkpt lat="42.482942" lon="-2.541131">
      <ele>388.9</ele>
    </trkpt>
    <trkpt lat="42.482906" lon="-2.540604">
      <ele>389.4</ele>
    </trkpt>
    <trkpt lat="42.482823" lon="-2.540358">
      <ele>389.6</ele>
    </trkpt>
    <trkpt lat="42.482703" lon="-2.540292">
      <ele>389.9</ele>
    </trkpt>
    <trkpt lat="42.482543" lon="-2.540278">
      <ele>390.2</ele>
    </trkpt>
    <trkpt lat="42.482396" lon="-2.540173">
      <ele>390.7</ele>
    </trkpt>
    <trkpt lat="42.481645" lon="-2.540213">
      <ele>392.6</ele>
    </trkpt>
    <trkpt lat="42.481506" lon="-2.540203">
      <ele>392.8</ele>
    </trkpt>
    <trkpt lat="42.481426" lon="-2.540064">
      <ele>393.1</ele>
    </trkpt>
    <trkpt lat="42.481415" lon="-2.539161">
      <ele>393.7</ele>
    </trkpt>
    <trkpt lat="42.481319" lon="-2.538524">
      <ele>393.6</ele>
    </trkpt>
    <trkpt lat="42.481252" lon="-2.538031">
      <ele>393.3</ele>
    </trkpt>
    <trkpt lat="42.481451" lon="-2.535197">
      <ele>391.9</ele>
    </trkpt>
    <trkpt lat="42.481543" lon="-2.534609">
      <ele>391.7</ele>
    </trkpt>
    <trkpt lat="42.481698" lon="-2.532748">
      <ele>391.2</ele>
    </trkpt>
    <trkpt lat="42.481799" lon="-2.531928">
      <ele>391.1</ele>
    </trkpt>
    <trkpt lat="42.4822" lon="-2.530777">
      <ele>391.1</ele>
    </trkpt>
    <trkpt lat="42.482421" lon="-2.530517">
      <ele>391.2</ele>
    </trkpt>
    <trkpt lat="42.48259" lon="-2.530149">
      <ele>391.3</ele>
    </trkpt>
    <trkpt lat="42.483399" lon="-2.528152">
      <ele>394</ele>
    </trkpt>
    <trkpt lat="42.48382" lon="-2.526984">
      <ele>398.3</ele>
    </trkpt>
    <trkpt lat="42.483861" lon="-2.526876">
      <ele>398.6</ele>
    </trkpt>
    <trkpt lat="42.483946" lon="-2.526565">
      <ele>399.2</ele>
    </trkpt>
    <trkpt lat="42.483986" lon="-2.526335">
      <ele>399.5</ele>
    </trkpt>
    <trkpt lat="42.483997" lon="-2.525982">
      <ele>399.8</ele>
    </trkpt>
    <trkpt lat="42.484152" lon="-2.526132">
      <ele>399.9</ele>
    </trkpt>
    <trkpt lat="42.484351" lon="-2.526645">
      <ele>399.9</ele>
    </trkpt>
    <trkpt lat="42.484251" lon="-2.526818">
      <ele>399.7</ele>
    </trkpt>
    <trkpt lat="42.484171" lon="-2.5269">
      <ele>399.5</ele>
    </trkpt>
    <trkpt lat="42.484654" lon="-2.527314">
      <ele>398.2</ele>
    </trkpt>
    <trkpt lat="42.485731" lon="-2.528418">
      <ele>397.6</ele>
    </trkpt>
    <trkpt lat="42.485945" lon="-2.528582">
      <ele>397.5</ele>
    </trkpt>
    <trkpt lat="42.486413" lon="-2.52894">
      <ele>397.3</ele>
    </trkpt>
    <trkpt lat="42.487312" lon="-2.529533">
      <ele>397.7</ele>
    </trkpt>
    <trkpt lat="42.4877" lon="-2.529715">
      <ele>398</ele>
    </trkpt>
    <trkpt lat="42.488083" lon="-2.52981">
      <ele>398.4</ele>
    </trkpt>
    <trkpt lat="42.488544" lon="-2.529874">
      <ele>398.7</ele>
    </trkpt>
    <trkpt lat="42.49429" lon="-2.530203">
      <ele>399.9</ele>
    </trkpt>
    <trkpt lat="42.495426" lon="-2.529771">
      <ele>401.9</ele>
    </trkpt>
    <trkpt lat="42.495908" lon="-2.529385">
      <ele>402.6</ele>
    </trkpt>
    <trkpt lat="42.496512" lon="-2.52872">
      <ele>402.8</ele>
    </trkpt>
    <trkpt lat="42.496953" lon="-2.528011">
      <ele>402.8</ele>
    </trkpt>
    <trkpt lat="42.49737" lon="-2.526881">
      <ele>403</ele>
    </trkpt>
    <trkpt lat="42.497525" lon="-2.525651">
      <ele>403.6</ele>
    </trkpt>
    <trkpt lat="42.497533" lon="-2.524677">
      <ele>404.1</ele>
    </trkpt>
    <trkpt lat="42.497272" lon="-2.523314">
      <ele>406</ele>
    </trkpt>
    <trkpt lat="42.496766" lon="-2.522173">
      <ele>408.3</ele>
    </trkpt>
    <trkpt lat="42.496226" lon="-2.521342">
      <ele>409</ele>
    </trkpt>
    <trkpt lat="42.495459" lon="-2.5205">
      <ele>406.7</ele>
    </trkpt>
    <trkpt lat="42.494552" lon="-2.51988">
      <ele>403.1</ele>
    </trkpt>
    <trkpt lat="42.493359" lon="-2.519381">
      <ele>401.7</ele>
    </trkpt>
    <trkpt lat="42.492551" lon="-2.519171">
      <ele>403.7</ele>
    </trkpt>
    <trkpt lat="42.491906" lon="-2.518883">
      <ele>406.2</ele>
    </trkpt>
    <trkpt lat="42.491415" lon="-2.518506">
      <ele>407.9</ele>
    </trkpt>
    <trkpt lat="42.490977" lon="-2.518085">
      <ele>409.6</ele>
    </trkpt>
    <trkpt lat="42.490888" lon="-2.517999">
      <ele>409.9</ele>
    </trkpt>
    <trkpt lat="42.490775" lon="-2.51787">
      <ele>410.3</ele>
    </trkpt>
    <trkpt lat="42.490859" lon="-2.518135">
      <ele>410.6</ele>
    </trkpt>
    <trkpt lat="42.490924" lon="-2.51824">
      <ele>410.7</ele>
    </trkpt>
    <trkpt lat="42.491447" lon="-2.518754">
      <ele>412</ele>
    </trkpt>
    <trkpt lat="42.491842" lon="-2.519082">
      <ele>414.7</ele>
    </trkpt>
    <trkpt lat="42.492206" lon="-2.519262">
      <ele>416.8</ele>
    </trkpt>
    <trkpt lat="42.492164" lon="-2.519785">
      <ele>418.6</ele>
    </trkpt>
    <trkpt lat="42.492111" lon="-2.519773">
      <ele>418.8</ele>
    </trkpt>
    <trkpt lat="42.492116" lon="-2.51974">
      <ele>418.9</ele>
    </trkpt>
    <trkpt lat="42.492041" lon="-2.519729">
      <ele>419.3</ele>
    </trkpt>
    <trkpt lat="42.49165" lon="-2.519716">
      <ele>421.2</ele>
    </trkpt>
    <trkpt lat="42.491614" lon="-2.519578">
      <ele>421.9</ele>
    </trkpt>
    <trkpt lat="42.491481" lon="-2.519371">
      <ele>423.2</ele>
    </trkpt>
    <trkpt lat="42.491417" lon="-2.519271">
      <ele>423.8</ele>
    </trkpt>
    <trkpt lat="42.491379" lon="-2.519251">
      <ele>424</ele>
    </trkpt>
    <trkpt lat="42.491332" lon="-2.519226">
      <ele>424.2</ele>
    </trkpt>
    <trkpt lat="42.491197" lon="-2.51906">
      <ele>424.8</ele>
    </trkpt>
    <trkpt lat="42.491088" lon="-2.519022">
      <ele>425.2</ele>
    </trkpt>
    <trkpt lat="42.490493" lon="-2.518654">
      <ele>428</ele>
    </trkpt>
    <trkpt lat="42.490296" lon="-2.518454">
      <ele>429.5</ele>
    </trkpt>
    <trkpt lat="42.490191" lon="-2.51839">
      <ele>430.2</ele>
    </trkpt>
    <trkpt lat="42.489996" lon="-2.518351">
      <ele>431.6</ele>
    </trkpt>
    <trkpt lat="42.489093" lon="-2.518305">
      <ele>437.7</ele>
    </trkpt>
    <trkpt lat="42.488109" lon="-2.518092">
      <ele>443.6</ele>
    </trkpt>
    <trkpt lat="42.487974" lon="-2.518017">
      <ele>444.4</ele>
    </trkpt>
    <trkpt lat="42.48751" lon="-2.517568">
      <ele>447.5</ele>
    </trkpt>
    <trkpt lat="42.487309" lon="-2.51721">
      <ele>449.1</ele>
    </trkpt>
    <trkpt lat="42.487141" lon="-2.51689">
      <ele>450.6</ele>
    </trkpt>
    <trkpt lat="42.486922" lon="-2.516354">
      <ele>452.8</ele>
    </trkpt>
    <trkpt lat="42.486812" lon="-2.515982">
      <ele>454.4</ele>
    </trkpt>
    <trkpt lat="42.486684" lon="-2.515257">
      <ele>457.8</ele>
    </trkpt>
    <trkpt lat="42.486657" lon="-2.515105">
      <ele>458.6</ele>
    </trkpt>
    <trkpt lat="42.486669" lon="-2.514391">
      <ele>462.3</ele>
    </trkpt>
    <trkpt lat="42.486778" lon="-2.513984">
      <ele>464.8</ele>
    </trkpt>
    <trkpt lat="42.486812" lon="-2.513555">
      <ele>467.5</ele>
    </trkpt>
    <trkpt lat="42.486804" lon="-2.513387">
      <ele>468.6</ele>
    </trkpt>
    <trkpt lat="42.486796" lon="-2.513212">
      <ele>469.7</ele>
    </trkpt>
    <trkpt lat="42.486619" lon="-2.512719">
      <ele>473.3</ele>
    </trkpt>
    <trkpt lat="42.486585" lon="-2.512394">
      <ele>475.5</ele>
    </trkpt>
    <trkpt lat="42.486616" lon="-2.511958">
      <ele>478.6</ele>
    </trkpt>
    <trkpt lat="42.486585" lon="-2.511814">
      <ele>479.7</ele>
    </trkpt>
    <trkpt lat="42.486527" lon="-2.511633">
      <ele>481.1</ele>
    </trkpt>
    <trkpt lat="42.486044" lon="-2.510792">
      <ele>487.5</ele>
    </trkpt>
    <trkpt lat="42.486035" lon="-2.510776">
      <ele>487.6</ele>
    </trkpt>
    <trkpt lat="42.486051" lon="-2.51042">
      <ele>489.3</ele>
    </trkpt>
    <trkpt lat="42.486034" lon="-2.5101">
      <ele>490.7</ele>
    </trkpt>
    <trkpt lat="42.486153" lon="-2.509439">
      <ele>493.3</ele>
    </trkpt>
    <trkpt lat="42.485945" lon="-2.509133">
      <ele>494.5</ele>
    </trkpt>
    <trkpt lat="42.485851" lon="-2.508897">
      <ele>495.3</ele>
    </trkpt>
    <trkpt lat="42.485744" lon="-2.508525">
      <ele>496.4</ele>
    </trkpt>
    <trkpt lat="42.485677" lon="-2.508387">
      <ele>496.8</ele>
    </trkpt>
    <trkpt lat="42.485529" lon="-2.508189">
      <ele>497.5</ele>
    </trkpt>
    <trkpt lat="42.485293" lon="-2.507512">
      <ele>498.9</ele>
    </trkpt>
    <trkpt lat="42.485259" lon="-2.507374">
      <ele>499.1</ele>
    </trkpt>
    <trkpt lat="42.485065" lon="-2.505093">
      <ele>499.7</ele>
    </trkpt>
    <trkpt lat="42.484938" lon="-2.504849">
      <ele>499.6</ele>
    </trkpt>
    <trkpt lat="42.484755" lon="-2.504606">
      <ele>499.4</ele>
    </trkpt>
    <trkpt lat="42.484628" lon="-2.504286">
      <ele>499.3</ele>
    </trkpt>
    <trkpt lat="42.484588" lon="-2.50408">
      <ele>499.2</ele>
    </trkpt>
    <trkpt lat="42.484568" lon="-2.503938">
      <ele>499.2</ele>
    </trkpt>
    <trkpt lat="42.484594" lon="-2.503449">
      <ele>499.4</ele>
    </trkpt>
    <trkpt lat="42.484585" lon="-2.503134">
      <ele>499.5</ele>
    </trkpt>
    <trkpt lat="42.48455" lon="-2.502948">
      <ele>499.5</ele>
    </trkpt>
    <trkpt lat="42.484478" lon="-2.502845">
      <ele>499.4</ele>
    </trkpt>
    <trkpt lat="42.483891" lon="-2.502257">
      <ele>498.3</ele>
    </trkpt>
    <trkpt lat="42.483656" lon="-2.50212">
      <ele>497.9</ele>
    </trkpt>
    <trkpt lat="42.483424" lon="-2.501985">
      <ele>497.3</ele>
    </trkpt>
    <trkpt lat="42.483199" lon="-2.501887">
      <ele>496.6</ele>
    </trkpt>
    <trkpt lat="42.483025" lon="-2.501721">
      <ele>495.8</ele>
    </trkpt>
    <trkpt lat="42.482945" lon="-2.501692">
      <ele>495.5</ele>
    </trkpt>
    <trkpt lat="42.482422" lon="-2.501765">
      <ele>493.1</ele>
    </trkpt>
    <trkpt lat="42.482236" lon="-2.501775">
      <ele>492.1</ele>
    </trkpt>
    <trkpt lat="42.482109" lon="-2.501747">
      <ele>491.4</ele>
    </trkpt>
    <trkpt lat="42.481882" lon="-2.501563">
      <ele>489.7</ele>
    </trkpt>
    <trkpt lat="42.481363" lon="-2.501315">
      <ele>486.5</ele>
    </trkpt>
    <trkpt lat="42.48122" lon="-2.501171">
      <ele>485.5</ele>
    </trkpt>
    <trkpt lat="42.481082" lon="-2.500878">
      <ele>484.2</ele>
    </trkpt>
    <trkpt lat="42.481048" lon="-2.500842">
      <ele>483.9</ele>
    </trkpt>
    <trkpt lat="42.480984" lon="-2.500834">
      <ele>483.5</ele>
    </trkpt>
    <trkpt lat="42.480902" lon="-2.500874">
      <ele>483</ele>
    </trkpt>
    <trkpt lat="42.480788" lon="-2.501026">
      <ele>482</ele>
    </trkpt>
    <trkpt lat="42.480725" lon="-2.501069">
      <ele>481.6</ele>
    </trkpt>
    <trkpt lat="42.480295" lon="-2.50115">
      <ele>478.6</ele>
    </trkpt>
    <trkpt lat="42.480131" lon="-2.501095">
      <ele>477.6</ele>
    </trkpt>
    <trkpt lat="42.479976" lon="-2.50088">
      <ele>476.4</ele>
    </trkpt>
    <trkpt lat="42.479751" lon="-2.500451">
      <ele>474.4</ele>
    </trkpt>
    <trkpt lat="42.479661" lon="-2.500308">
      <ele>473.7</ele>
    </trkpt>
    <trkpt lat="42.479567" lon="-2.500226">
      <ele>473</ele>
    </trkpt>
    <trkpt lat="42.479454" lon="-2.500187">
      <ele>472.3</ele>
    </trkpt>
    <trkpt lat="42.47899" lon="-2.50014">
      <ele>469.8</ele>
    </trkpt>
    <trkpt lat="42.47845" lon="-2.500156">
      <ele>467.4</ele>
    </trkpt>
    <trkpt lat="42.478254" lon="-2.500129">
      <ele>466.7</ele>
    </trkpt>
    <trkpt lat="42.478057" lon="-2.500048">
      <ele>466</ele>
    </trkpt>
    <trkpt lat="42.477871" lon="-2.499931">
      <ele>465.4</ele>
    </trkpt>
    <trkpt lat="42.477643" lon="-2.49971">
      <ele>464.6</ele>
    </trkpt>
    <trkpt lat="42.477264" lon="-2.49921">
      <ele>463.1</ele>
    </trkpt>
    <trkpt lat="42.47716" lon="-2.499124">
      <ele>462.7</ele>
    </trkpt>
    <trkpt lat="42.475565" lon="-2.498416">
      <ele>457.1</ele>
    </trkpt>
    <trkpt lat="42.475273" lon="-2.49826">
      <ele>456</ele>
    </trkpt>
    <trkpt lat="42.474619" lon="-2.497602">
      <ele>453.4</ele>
    </trkpt>
    <trkpt lat="42.474466" lon="-2.497497">
      <ele>452.9</ele>
    </trkpt>
    <trkpt lat="42.474369" lon="-2.497369">
      <ele>452.5</ele>
    </trkpt>
    <trkpt lat="42.474155" lon="-2.49691">
      <ele>451.5</ele>
    </trkpt>
    <trkpt lat="42.47401" lon="-2.496409">
      <ele>450.7</ele>
    </trkpt>
    <trkpt lat="42.473974" lon="-2.496207">
      <ele>450.4</ele>
    </trkpt>
    <trkpt lat="42.473995" lon="-2.495432">
      <ele>449.5</ele>
    </trkpt>
    <trkpt lat="42.47414" lon="-2.494648">
      <ele>448.5</ele>
    </trkpt>
    <trkpt lat="42.474237" lon="-2.494344">
      <ele>448</ele>
    </trkpt>
    <trkpt lat="42.474349" lon="-2.493995">
      <ele>447.4</ele>
    </trkpt>
    <trkpt lat="42.474458" lon="-2.493819">
      <ele>447</ele>
    </trkpt>
    <trkpt lat="42.474703" lon="-2.49329">
      <ele>445.7</ele>
    </trkpt>
    <trkpt lat="42.474856" lon="-2.492783">
      <ele>444.5</ele>
    </trkpt>
    <trkpt lat="42.474851" lon="-2.492068">
      <ele>442.8</ele>
    </trkpt>
    <trkpt lat="42.474667" lon="-2.490696">
      <ele>439.7</ele>
    </trkpt>
    <trkpt lat="42.474565" lon="-2.489325">
      <ele>437.5</ele>
    </trkpt>
    <trkpt lat="42.474489" lon="-2.488835">
      <ele>436.9</ele>
    </trkpt>
    <trkpt lat="42.474421" lon="-2.488577">
      <ele>436.6</ele>
    </trkpt>
    <trkpt lat="42.473952" lon="-2.487788">
      <ele>435.4</ele>
    </trkpt>
    <trkpt lat="42.473828" lon="-2.487409">
      <ele>434.7</ele>
    </trkpt>
    <trkpt lat="42.473371" lon="-2.485078">
      <ele>429.5</ele>
    </trkpt>
    <trkpt lat="42.473293" lon="-2.484678">
      <ele>428.6</ele>
    </trkpt>
    <trkpt lat="42.473212" lon="-2.484391">
      <ele>428</ele>
    </trkpt>
    <trkpt lat="42.473026" lon="-2.483732">
      <ele>426.6</ele>
    </trkpt>
    <trkpt lat="42.472806" lon="-2.483171">
      <ele>425.5</ele>
    </trkpt>
    <trkpt lat="42.472009" lon="-2.481594">
      <ele>421.4</ele>
    </trkpt>
    <trkpt lat="42.471567" lon="-2.480997">
      <ele>418.9</ele>
    </trkpt>
    <trkpt lat="42.471489" lon="-2.480797">
      <ele>418.2</ele>
    </trkpt>
    <trkpt lat="42.471338" lon="-2.480279">
      <ele>416.6</ele>
    </trkpt>
    <trkpt lat="42.471326" lon="-2.479837">
      <ele>415.5</ele>
    </trkpt>
    <trkpt lat="42.47126" lon="-2.479454">
      <ele>414.8</ele>
    </trkpt>
    <trkpt lat="42.471211" lon="-2.479335">
      <ele>414.7</ele>
    </trkpt>
    <trkpt lat="42.471168" lon="-2.47923">
      <ele>414.6</ele>
    </trkpt>
    <trkpt lat="42.470928" lon="-2.478838">
      <ele>414.4</ele>
    </trkpt>
    <trkpt lat="42.470824" lon="-2.478534">
      <ele>414.6</ele>
    </trkpt>
    <trkpt lat="42.470698" lon="-2.477938">
      <ele>415.3</ele>
    </trkpt>
    <trkpt lat="42.470654" lon="-2.477188">
      <ele>416.7</ele>
    </trkpt>
    <trkpt lat="42.470586" lon="-2.476799">
      <ele>417.4</ele>
    </trkpt>
    <trkpt lat="42.470139" lon="-2.475727">
      <ele>419.2</ele>
    </trkpt>
    <trkpt lat="42.470106" lon="-2.475634">
      <ele>419.3</ele>
    </trkpt>
    <trkpt lat="42.47004" lon="-2.475332">
      <ele>419.7</ele>
    </trkpt>
    <trkpt lat="42.470024" lon="-2.474285">
      <ele>420.7</ele>
    </trkpt>
    <trkpt lat="42.470016" lon="-2.473136">
      <ele>421.1</ele>
    </trkpt>
    <trkpt lat="42.469963" lon="-2.472978">
      <ele>421.1</ele>
    </trkpt>
    <trkpt lat="42.469875" lon="-2.472934">
      <ele>421.1</ele>
    </trkpt>
    <trkpt lat="42.469601" lon="-2.472943">
      <ele>421.1</ele>
    </trkpt>
    <trkpt lat="42.469053" lon="-2.472961">
      <ele>421.1</ele>
    </trkpt>
    <trkpt lat="42.469075" lon="-2.472841">
      <ele>421</ele>
    </trkpt>
    <trkpt lat="42.469283" lon="-2.47265">
      <ele>420.9</ele>
    </trkpt>
    <trkpt lat="42.469379" lon="-2.472613">
      <ele>420.8</ele>
    </trkpt>
    <trkpt lat="42.469908" lon="-2.472765">
      <ele>420.2</ele>
    </trkpt>
    <trkpt lat="42.46995" lon="-2.472625">
      <ele>420</ele>
    </trkpt>
    <trkpt lat="42.469853" lon="-2.471456">
      <ele>417.9</ele>
    </trkpt>
    <trkpt lat="42.469742" lon="-2.470656">
      <ele>415.3</ele>
    </trkpt>
    <trkpt lat="42.469484" lon="-2.469502">
      <ele>410.7</ele>
    </trkpt>
    <trkpt lat="42.469409" lon="-2.469114">
      <ele>408.9</ele>
    </trkpt>
    <trkpt lat="42.469322" lon="-2.468867">
      <ele>407.7</ele>
    </trkpt>
    <trkpt lat="42.469279" lon="-2.46856">
      <ele>406.4</ele>
    </trkpt>
    <trkpt lat="42.469056" lon="-2.467463">
      <ele>402.1</ele>
    </trkpt>
    <trkpt lat="42.468931" lon="-2.467109">
      <ele>401</ele>
    </trkpt>
    <trkpt lat="42.468724" lon="-2.466809">
      <ele>400.1</ele>
    </trkpt>
    <trkpt lat="42.468388" lon="-2.466019">
      <ele>398.7</ele>
    </trkpt>
    <trkpt lat="42.468311" lon="-2.465924">
      <ele>398.5</ele>
    </trkpt>
    <trkpt lat="42.467707" lon="-2.465703">
      <ele>397.4</ele>
    </trkpt>
    <trkpt lat="42.467679" lon="-2.465231">
      <ele>396.7</ele>
    </trkpt>
    <trkpt lat="42.467596" lon="-2.463517">
      <ele>393.1</ele>
    </trkpt>
    <trkpt lat="42.466962" lon="-2.463395">
      <ele>392.2</ele>
    </trkpt>
    <trkpt lat="42.466966" lon="-2.463317">
      <ele>392.2</ele>
    </trkpt>
    <trkpt lat="42.467659" lon="-2.463451">
      <ele>391.9</ele>
    </trkpt>
    <trkpt lat="42.467679" lon="-2.463311">
      <ele>391.9</ele>
    </trkpt>
    <trkpt lat="42.467249" lon="-2.463186">
      <ele>391.9</ele>
    </trkpt>
    <trkpt lat="42.467258" lon="-2.463134">
      <ele>391.9</ele>
    </trkpt>
    <trkpt lat="42.467661" lon="-2.463191">
      <ele>391.9</ele>
    </trkpt>
    <trkpt lat="42.467655" lon="-2.463145">
      <ele>391.9</ele>
    </trkpt>
    <trkpt lat="42.467256" lon="-2.463109">
      <ele>392.1</ele>
    </trkpt>
    <trkpt lat="42.467117" lon="-2.463136">
      <ele>392.2</ele>
    </trkpt>
    <trkpt lat="42.466861" lon="-2.463091">
      <ele>392.3</ele>
    </trkpt>
    <trkpt lat="42.46625" lon="-2.462868">
      <ele>393.6</ele>
    </trkpt>
    <trkpt lat="42.466009" lon="-2.462726">
      <ele>394.4</ele>
    </trkpt>
    <trkpt lat="42.465168" lon="-2.462826">
      <ele>396.5</ele>
    </trkpt>
    <trkpt lat="42.464851" lon="-2.462822">
      <ele>397.1</ele>
    </trkpt>
    <trkpt lat="42.464674" lon="-2.46279">
      <ele>397.4</ele>
    </trkpt>
    <trkpt lat="42.464488" lon="-2.462735">
      <ele>397.4</ele>
    </trkpt>
    <trkpt lat="42.464042" lon="-2.462534">
      <ele>396.8</ele>
    </trkpt>
    <trkpt lat="42.463878" lon="-2.462459">
      <ele>396.5</ele>
    </trkpt>
    <trkpt lat="42.463712" lon="-2.462384">
      <ele>396.1</ele>
    </trkpt>
    <trkpt lat="42.463594" lon="-2.462338">
      <ele>395.9</ele>
    </trkpt>
    <trkpt lat="42.463481" lon="-2.46234">
      <ele>395.6</ele>
    </trkpt>
    <trkpt lat="42.463424" lon="-2.462356">
      <ele>395.4</ele>
    </trkpt>
    <trkpt lat="42.463334" lon="-2.462295">
      <ele>395.2</ele>
    </trkpt>
    <trkpt lat="42.463306" lon="-2.462197">
      <ele>395</ele>
    </trkpt>
    <trkpt lat="42.463308" lon="-2.462162">
      <ele>394.9</ele>
    </trkpt>
    <trkpt lat="42.463365" lon="-2.462049">
      <ele>394.5</ele>
    </trkpt>
    <trkpt lat="42.463397" lon="-2.462031">
      <ele>394.5</ele>
    </trkpt>
    <trkpt lat="42.463498" lon="-2.461856">
      <ele>393.9</ele>
    </trkpt>
    <trkpt lat="42.463546" lon="-2.461698">
      <ele>393.6</ele>
    </trkpt>
    <trkpt lat="42.463579" lon="-2.461568">
      <ele>393.3</ele>
    </trkpt>
    <trkpt lat="42.46367" lon="-2.461197">
      <ele>393.2</ele>
    </trkpt>
    <trkpt lat="42.463777" lon="-2.460765">
      <ele>393.4</ele>
    </trkpt>
    <trkpt lat="42.463802" lon="-2.460661">
      <ele>393.4</ele>
    </trkpt>
    <trkpt lat="42.463882" lon="-2.460332">
      <ele>393.4</ele>
    </trkpt>
    <trkpt lat="42.463923" lon="-2.460161">
      <ele>393.4</ele>
    </trkpt>
    <trkpt lat="42.463957" lon="-2.460025">
      <ele>393.5</ele>
    </trkpt>
    <trkpt lat="42.46401" lon="-2.459807">
      <ele>393.5</ele>
    </trkpt>
    <trkpt lat="42.464045" lon="-2.459662">
      <ele>393.6</ele>
    </trkpt>
    <trkpt lat="42.464134" lon="-2.459291">
      <ele>393.9</ele>
    </trkpt>
    <trkpt lat="42.464263" lon="-2.458752">
      <ele>394.6</ele>
    </trkpt>
    <trkpt lat="42.46446" lon="-2.457926">
      <ele>395.3</ele>
    </trkpt>
    <trkpt lat="42.464494" lon="-2.457781">
      <ele>395.6</ele>
    </trkpt>
    <trkpt lat="42.464543" lon="-2.457582">
      <ele>395.9</ele>
    </trkpt>
    <trkpt lat="42.464598" lon="-2.457356">
      <ele>396.3</ele>
    </trkpt>
    <trkpt lat="42.464612" lon="-2.457299">
      <ele>396.3</ele>
    </trkpt>
    <trkpt lat="42.464828" lon="-2.456424">
      <ele>397.7</ele>
    </trkpt>
    <trkpt lat="42.464919" lon="-2.456063">
      <ele>398.2</ele>
    </trkpt>
    <trkpt lat="42.465006" lon="-2.455675">
      <ele>398.1</ele>
    </trkpt>
    <trkpt lat="42.465139" lon="-2.455128">
      <ele>397.1</ele>
    </trkpt>
    <trkpt lat="42.465168" lon="-2.455017">
      <ele>396.9</ele>
    </trkpt>
    <trkpt lat="42.465181" lon="-2.454843">
      <ele>396.6</ele>
    </trkpt>
    <trkpt lat="42.465164" lon="-2.454699">
      <ele>396.4</ele>
    </trkpt>
    <trkpt lat="42.465125" lon="-2.454529">
      <ele>396.2</ele>
    </trkpt>
    <trkpt lat="42.465138" lon="-2.454414">
      <ele>396.1</ele>
    </trkpt>
    <trkpt lat="42.465212" lon="-2.45434">
      <ele>396.1</ele>
    </trkpt>
    <trkpt lat="42.465247" lon="-2.454341">
      <ele>396.1</ele>
    </trkpt>
    <trkpt lat="42.465376" lon="-2.454178">
      <ele>396.2</ele>
    </trkpt>
    <trkpt lat="42.465439" lon="-2.453907">
      <ele>396.7</ele>
    </trkpt>
    <trkpt lat="42.465429" lon="-2.453733">
      <ele>396.8</ele>
    </trkpt>
    <trkpt lat="42.465476" lon="-2.453494">
      <ele>397.1</ele>
    </trkpt>
    <trkpt lat="42.465681" lon="-2.452617">
      <ele>398.5</ele>
    </trkpt>
    <trkpt lat="42.465706" lon="-2.452513">
      <ele>398.8</ele>
    </trkpt>
    <trkpt lat="42.465954" lon="-2.451492">
      <ele>398.9</ele>
    </trkpt>
    <trkpt lat="42.465972" lon="-2.451448">
      <ele>398.8</ele>
    </trkpt>
    <trkpt lat="42.465944" lon="-2.451145">
      <ele>398.1</ele>
    </trkpt>
    <trkpt lat="42.465996" lon="-2.450899">
      <ele>397.1</ele>
    </trkpt>
    <trkpt lat="42.46619" lon="-2.450834">
      <ele>396</ele>
    </trkpt>
    <trkpt lat="42.466189" lon="-2.450795">
      <ele>395.9</ele>
    </trkpt>
    <trkpt lat="42.46623" lon="-2.450115">
      <ele>393.6</ele>
    </trkpt>
    <trkpt lat="42.46663" lon="-2.450119">
      <ele>392.3</ele>
    </trkpt>
    <trkpt lat="42.466641" lon="-2.449917">
      <ele>392.1</ele>
    </trkpt>
    <trkpt lat="42.466644" lon="-2.449836">
      <ele>392.1</ele>
    </trkpt>
    <trkpt lat="42.466656" lon="-2.449711">
      <ele>392</ele>
    </trkpt>
    <trkpt lat="42.46667" lon="-2.449607">
      <ele>392.1</ele>
    </trkpt>
    <trkpt lat="42.466656" lon="-2.449711">
      <ele>392</ele>
    </trkpt>
    <trkpt lat="42.466644" lon="-2.449836">
      <ele>392.1</ele>
    </trkpt>
    <trkpt lat="42.466641" lon="-2.449917">
      <ele>392.1</ele>
    </trkpt>
    <trkpt lat="42.46663" lon="-2.450119">
      <ele>392</ele>
    </trkpt>
    <trkpt lat="42.46623" lon="-2.450115">
      <ele>392.2</ele>
    </trkpt>
    <trkpt lat="42.466189" lon="-2.450795">
      <ele>393.7</ele>
    </trkpt>
    <trkpt lat="42.46619" lon="-2.450834">
      <ele>393.8</ele>
    </trkpt>
    <trkpt lat="42.466289" lon="-2.450874">
      <ele>394.2</ele>
    </trkpt>
    <trkpt lat="42.466346" lon="-2.450937">
      <ele>394.5</ele>
    </trkpt>
    <trkpt lat="42.466402" lon="-2.451083">
      <ele>395.1</ele>
    </trkpt>
    <trkpt lat="42.466409" lon="-2.451133">
      <ele>395.2</ele>
    </trkpt>
    <trkpt lat="42.466378" lon="-2.451307">
      <ele>395.7</ele>
    </trkpt>
    <trkpt lat="42.46639" lon="-2.451349">
      <ele>395.8</ele>
    </trkpt>
    <trkpt lat="42.466353" lon="-2.4514">
      <ele>396</ele>
    </trkpt>
    <trkpt lat="42.466222" lon="-2.451473">
      <ele>396.4</ele>
    </trkpt>
    <trkpt lat="42.46608" lon="-2.451503">
      <ele>396.7</ele>
    </trkpt>
    <trkpt lat="42.466063" lon="-2.451548">
      <ele>396.8</ele>
    </trkpt>
    <trkpt lat="42.465783" lon="-2.452656">
      <ele>397.3</ele>
    </trkpt>
    <trkpt lat="42.465573" lon="-2.453533">
      <ele>396.1</ele>
    </trkpt>
    <trkpt lat="42.465498" lon="-2.453789">
      <ele>396</ele>
    </trkpt>
    <trkpt lat="42.465439" lon="-2.453907">
      <ele>395.9</ele>
    </trkpt>
    <trkpt lat="42.465376" lon="-2.454178">
      <ele>395.7</ele>
    </trkpt>
    <trkpt lat="42.465336" lon="-2.454412">
      <ele>395.6</ele>
    </trkpt>
    <trkpt lat="42.465387" lon="-2.45471">
      <ele>395.7</ele>
    </trkpt>
    <trkpt lat="42.465358" lon="-2.454785">
      <ele>395.7</ele>
    </trkpt>
    <trkpt lat="42.465307" lon="-2.454824">
      <ele>395.9</ele>
    </trkpt>
    <trkpt lat="42.465272" lon="-2.454832">
      <ele>395.9</ele>
    </trkpt>
    <trkpt lat="42.465168" lon="-2.455017">
      <ele>396.3</ele>
    </trkpt>
    <trkpt lat="42.465139" lon="-2.455128">
      <ele>396.5</ele>
    </trkpt>
    <trkpt lat="42.465006" lon="-2.455675">
      <ele>397.5</ele>
    </trkpt>
    <trkpt lat="42.464919" lon="-2.456063">
      <ele>397.9</ele>
    </trkpt>
    <trkpt lat="42.464828" lon="-2.456424">
      <ele>397.7</ele>
    </trkpt>
    <trkpt lat="42.464612" lon="-2.457299">
      <ele>396.3</ele>
    </trkpt>
    <trkpt lat="42.464598" lon="-2.457356">
      <ele>396.3</ele>
    </trkpt>
    <trkpt lat="42.464543" lon="-2.457582">
      <ele>395.9</ele>
    </trkpt>
    <trkpt lat="42.464494" lon="-2.457781">
      <ele>395.6</ele>
    </trkpt>
    <trkpt lat="42.46446" lon="-2.457926">
      <ele>395.3</ele>
    </trkpt>
    <trkpt lat="42.464263" lon="-2.458752">
      <ele>394.6</ele>
    </trkpt>
    <trkpt lat="42.464134" lon="-2.459291">
      <ele>393.9</ele>
    </trkpt>
    <trkpt lat="42.464045" lon="-2.459662">
      <ele>393.6</ele>
    </trkpt>
    <trkpt lat="42.46401" lon="-2.459807">
      <ele>393.5</ele>
    </trkpt>
    <trkpt lat="42.463957" lon="-2.460025">
      <ele>393.5</ele>
    </trkpt>
    <trkpt lat="42.463923" lon="-2.460161">
      <ele>393.4</ele>
    </trkpt>
    <trkpt lat="42.463882" lon="-2.460332">
      <ele>393.4</ele>
    </trkpt>
    <trkpt lat="42.463802" lon="-2.460661">
      <ele>393.5</ele>
    </trkpt>
    <trkpt lat="42.463777" lon="-2.460765">
      <ele>393.5</ele>
    </trkpt>
    <trkpt lat="42.46367" lon="-2.461197">
      <ele>393.3</ele>
    </trkpt>
    <trkpt lat="42.463579" lon="-2.461568">
      <ele>393</ele>
    </trkpt>
    <trkpt lat="42.463546" lon="-2.461698">
      <ele>392.9</ele>
    </trkpt>
    <trkpt lat="42.463498" lon="-2.461856">
      <ele>392.9</ele>
    </trkpt>
    <trkpt lat="42.463508" lon="-2.462067">
      <ele>393</ele>
    </trkpt>
    <trkpt lat="42.463544" lon="-2.462141">
      <ele>393</ele>
    </trkpt>
    <trkpt lat="42.46354" lon="-2.462257">
      <ele>393.1</ele>
    </trkpt>
    <trkpt lat="42.463481" lon="-2.46234">
      <ele>393.1</ele>
    </trkpt>
    <trkpt lat="42.463424" lon="-2.462356">
      <ele>393.1</ele>
    </trkpt>
    <trkpt lat="42.463334" lon="-2.462295">
      <ele>393.2</ele>
    </trkpt>
    <trkpt lat="42.463306" lon="-2.462197">
      <ele>393.2</ele>
    </trkpt>
    <trkpt lat="42.463093" lon="-2.462112">
      <ele>393.2</ele>
    </trkpt>
    <trkpt lat="42.46305" lon="-2.462093">
      <ele>393.2</ele>
    </trkpt>
    <trkpt lat="42.463038" lon="-2.462144">
      <ele>393.1</ele>
    </trkpt>
    <trkpt lat="42.462604" lon="-2.461945">
      <ele>392.8</ele>
    </trkpt>
    <trkpt lat="42.462545" lon="-2.461951">
      <ele>392.7</ele>
    </trkpt>
    <trkpt lat="42.462527" lon="-2.461985">
      <ele>392.7</ele>
    </trkpt>
    <trkpt lat="42.462488" lon="-2.46197">
      <ele>392.7</ele>
    </trkpt>
    <trkpt lat="42.462442" lon="-2.461952">
      <ele>392.7</ele>
    </trkpt>
    <trkpt lat="42.462422" lon="-2.46187">
      <ele>392.6</ele>
    </trkpt>
    <trkpt lat="42.462069" lon="-2.46172">
      <ele>392.8</ele>
    </trkpt>
    <trkpt lat="42.461499" lon="-2.461473">
      <ele>393.5</ele>
    </trkpt>
    <trkpt lat="42.461154" lon="-2.461271">
      <ele>394.1</ele>
    </trkpt>
    <trkpt lat="42.461122" lon="-2.461295">
      <ele>394.1</ele>
    </trkpt>
    <trkpt lat="42.461" lon="-2.461415">
      <ele>394.4</ele>
    </trkpt>
    <trkpt lat="42.460829" lon="-2.461742">
      <ele>395</ele>
    </trkpt>
    <trkpt lat="42.460453" lon="-2.461926">
      <ele>396</ele>
    </trkpt>
    <trkpt lat="42.460458" lon="-2.462017">
      <ele>396.2</ele>
    </trkpt>
    <trkpt lat="42.460579" lon="-2.46212">
      <ele>396.6</ele>
    </trkpt>
    <trkpt lat="42.460558" lon="-2.462182">
      <ele>396.7</ele>
    </trkpt>
    <trkpt lat="42.4604" lon="-2.461999">
      <ele>397.1</ele>
    </trkpt>
    <trkpt lat="42.460287" lon="-2.462136">
      <ele>397.5</ele>
    </trkpt>
    <trkpt lat="42.460194" lon="-2.462315">
      <ele>397.8</ele>
    </trkpt>
    <trkpt lat="42.460209" lon="-2.462439">
      <ele>398</ele>
    </trkpt>
    <trkpt lat="42.460674" lon="-2.463585">
      <ele>400.1</ele>
    </trkpt>
    <trkpt lat="42.460658" lon="-2.463672">
      <ele>400.1</ele>
    </trkpt>
    <trkpt lat="42.460495" lon="-2.464349">
      <ele>400.7</ele>
    </trkpt>
    <trkpt lat="42.460449" lon="-2.464533">
      <ele>400.8</ele>
    </trkpt>
    <trkpt lat="42.460285" lon="-2.465211">
      <ele>401.1</ele>
    </trkpt>
    <trkpt lat="42.460245" lon="-2.465377">
      <ele>401.2</ele>
    </trkpt>
    <trkpt lat="42.460084" lon="-2.466043">
      <ele>401.5</ele>
    </trkpt>
    <trkpt lat="42.460115" lon="-2.46606">
      <ele>401.6</ele>
    </trkpt>
    <trkpt lat="42.4601" lon="-2.466131">
      <ele>401.6</ele>
    </trkpt>
    <trkpt lat="42.460078" lon="-2.466221">
      <ele>401.7</ele>
    </trkpt>
    <trkpt lat="42.460056" lon="-2.466305">
      <ele>401.8</ele>
    </trkpt>
    <trkpt lat="42.459983" lon="-2.466307">
      <ele>401.9</ele>
    </trkpt>
    <trkpt lat="42.459889" lon="-2.466261">
      <ele>402</ele>
    </trkpt>
    <trkpt lat="42.459846" lon="-2.466241">
      <ele>402.1</ele>
    </trkpt>
    <trkpt lat="42.459625" lon="-2.467159">
      <ele>403.7</ele>
    </trkpt>
    <trkpt lat="42.459583" lon="-2.467332">
      <ele>404.2</ele>
    </trkpt>
    <trkpt lat="42.4591" lon="-2.468151">
      <ele>406.6</ele>
    </trkpt>
    <trkpt lat="42.458931" lon="-2.468273">
      <ele>407.1</ele>
    </trkpt>
    <trkpt lat="42.458751" lon="-2.468304">
      <ele>407.5</ele>
    </trkpt>
    <trkpt lat="42.45858" lon="-2.468286">
      <ele>407.7</ele>
    </trkpt>
    <trkpt lat="42.458305" lon="-2.468153">
      <ele>408.1</ele>
    </trkpt>
    <trkpt lat="42.45824" lon="-2.468121">
      <ele>408.1</ele>
    </trkpt>
    <trkpt lat="42.458226" lon="-2.468201">
      <ele>408.2</ele>
    </trkpt>
    <trkpt lat="42.458326" lon="-2.469403">
      <ele>408.3</ele>
    </trkpt>
    <trkpt lat="42.458319" lon="-2.470042">
      <ele>408.3</ele>
    </trkpt>
    <trkpt lat="42.458281" lon="-2.470244">
      <ele>408.2</ele>
    </trkpt>
    <trkpt lat="42.458215" lon="-2.470472">
      <ele>408.2</ele>
    </trkpt>
    <trkpt lat="42.458132" lon="-2.47066">
      <ele>408.1</ele>
    </trkpt>
    <trkpt lat="42.457942" lon="-2.470973">
      <ele>407.9</ele>
    </trkpt>
    <trkpt lat="42.457785" lon="-2.471363">
      <ele>407.6</ele>
    </trkpt>
    <trkpt lat="42.457623" lon="-2.47185">
      <ele>407.6</ele>
    </trkpt>
    <trkpt lat="42.457517" lon="-2.472032">
      <ele>407.6</ele>
    </trkpt>
    <trkpt lat="42.457479" lon="-2.47202">
      <ele>407.7</ele>
    </trkpt>
    <trkpt lat="42.457436" lon="-2.472039">
      <ele>407.7</ele>
    </trkpt>
    <trkpt lat="42.45736" lon="-2.472318">
      <ele>407.8</ele>
    </trkpt>
    <trkpt lat="42.457295" lon="-2.472288">
      <ele>407.8</ele>
    </trkpt>
    <trkpt lat="42.457279" lon="-2.472346">
      <ele>407.8</ele>
    </trkpt>
    <trkpt lat="42.457222" lon="-2.47256">
      <ele>407.9</ele>
    </trkpt>
    <trkpt lat="42.457299" lon="-2.472692">
      <ele>407.9</ele>
    </trkpt>
    <trkpt lat="42.457288" lon="-2.472805">
      <ele>407.9</ele>
    </trkpt>
    <trkpt lat="42.457237" lon="-2.472881">
      <ele>408</ele>
    </trkpt>
    <trkpt lat="42.457172" lon="-2.472891">
      <ele>408</ele>
    </trkpt>
    <trkpt lat="42.457126" lon="-2.472898">
      <ele>408</ele>
    </trkpt>
    <trkpt lat="42.457092" lon="-2.473064">
      <ele>408.1</ele>
    </trkpt>
    <trkpt lat="42.457057" lon="-2.473046">
      <ele>408.2</ele>
    </trkpt>
    <trkpt lat="42.45703" lon="-2.473034">
      <ele>408.2</ele>
    </trkpt>
    <trkpt lat="42.456837" lon="-2.472969">
      <ele>408.4</ele>
    </trkpt>
    <trkpt lat="42.456767" lon="-2.473004">
      <ele>408.5</ele>
    </trkpt>
    <trkpt lat="42.456614" lon="-2.473245">
      <ele>408.8</ele>
    </trkpt>
    <trkpt lat="42.456511" lon="-2.473542">
      <ele>408.9</ele>
    </trkpt>
    <trkpt lat="42.456475" lon="-2.473699">
      <ele>408.9</ele>
    </trkpt>
    <trkpt lat="42.456429" lon="-2.474112">
      <ele>408.9</ele>
    </trkpt>
    <trkpt lat="42.456395" lon="-2.474703">
      <ele>408.8</ele>
    </trkpt>
    <trkpt lat="42.456361" lon="-2.474858">
      <ele>408.8</ele>
    </trkpt>
    <trkpt lat="42.456235" lon="-2.475211">
      <ele>408.9</ele>
    </trkpt>
    <trkpt lat="42.456106" lon="-2.475512">
      <ele>409</ele>
    </trkpt>
    <trkpt lat="42.456049" lon="-2.475999">
      <ele>409.1</ele>
    </trkpt>
    <trkpt lat="42.455919" lon="-2.476813">
      <ele>408.7</ele>
    </trkpt>
    <trkpt lat="42.455797" lon="-2.477291">
      <ele>408.5</ele>
    </trkpt>
    <trkpt lat="42.455792" lon="-2.477308">
      <ele>408.5</ele>
    </trkpt>
    <trkpt lat="42.45574" lon="-2.477445">
      <ele>408.4</ele>
    </trkpt>
    <trkpt lat="42.455675" lon="-2.477453">
      <ele>408.4</ele>
    </trkpt>
    <trkpt lat="42.455419" lon="-2.477405">
      <ele>408.2</ele>
    </trkpt>
    <trkpt lat="42.455333" lon="-2.477447">
      <ele>408.2</ele>
    </trkpt>
    <trkpt lat="42.455307" lon="-2.477501">
      <ele>408.2</ele>
    </trkpt>
    <trkpt lat="42.455224" lon="-2.477703">
      <ele>408.1</ele>
    </trkpt>
    <trkpt lat="42.454978" lon="-2.479085">
      <ele>408.1</ele>
    </trkpt>
    <trkpt lat="42.454941" lon="-2.479493">
      <ele>408.3</ele>
    </trkpt>
    <trkpt lat="42.454909" lon="-2.47961">
      <ele>408.4</ele>
    </trkpt>
    <trkpt lat="42.45477" lon="-2.47988">
      <ele>408.6</ele>
    </trkpt>
    <trkpt lat="42.454155" lon="-2.481156">
      <ele>409</ele>
    </trkpt>
    <trkpt lat="42.453822" lon="-2.481997">
      <ele>409.3</ele>
    </trkpt>
    <trkpt lat="42.453446" lon="-2.48316">
      <ele>409.7</ele>
    </trkpt>
    <trkpt lat="42.453092" lon="-2.485402">
      <ele>410.7</ele>
    </trkpt>
    <trkpt lat="42.452965" lon="-2.486745">
      <ele>411.6</ele>
    </trkpt>
    <trkpt lat="42.452921" lon="-2.486931">
      <ele>411.7</ele>
    </trkpt>
    <trkpt lat="42.452304" lon="-2.488426">
      <ele>413.1</ele>
    </trkpt>
    <trkpt lat="42.451635" lon="-2.490167">
      <ele>414.7</ele>
    </trkpt>
    <trkpt lat="42.451384" lon="-2.491222">
      <ele>415.6</ele>
    </trkpt>
    <trkpt lat="42.451279" lon="-2.49159">
      <ele>416</ele>
    </trkpt>
    <trkpt lat="42.451014" lon="-2.49252">
      <ele>417</ele>
    </trkpt>
    <trkpt lat="42.450826" lon="-2.493305">
      <ele>418.1</ele>
    </trkpt>
    <trkpt lat="42.450542" lon="-2.494207">
      <ele>419.6</ele>
    </trkpt>
    <trkpt lat="42.450167" lon="-2.494529">
      <ele>420.6</ele>
    </trkpt>
    <trkpt lat="42.450048" lon="-2.494701">
      <ele>421</ele>
    </trkpt>
    <trkpt lat="42.449925" lon="-2.494995">
      <ele>421.6</ele>
    </trkpt>
    <trkpt lat="42.449894" lon="-2.495143">
      <ele>421.9</ele>
    </trkpt>
    <trkpt lat="42.449917" lon="-2.496197">
      <ele>423.9</ele>
    </trkpt>
    <trkpt lat="42.44986" lon="-2.496608">
      <ele>424.7</ele>
    </trkpt>
    <trkpt lat="42.449838" lon="-2.4974">
      <ele>426.4</ele>
    </trkpt>
    <trkpt lat="42.449814" lon="-2.497578">
      <ele>426.7</ele>
    </trkpt>
    <trkpt lat="42.449719" lon="-2.497763">
      <ele>427.1</ele>
    </trkpt>
    <trkpt lat="42.449714" lon="-2.497844">
      <ele>427.3</ele>
    </trkpt>
    <trkpt lat="42.449445" lon="-2.498053">
      <ele>427.9</ele>
    </trkpt>
    <trkpt lat="42.449238" lon="-2.49823">
      <ele>428.3</ele>
    </trkpt>
    <trkpt lat="42.448886" lon="-2.498211">
      <ele>428.7</ele>
    </trkpt>
    <trkpt lat="42.448788" lon="-2.498272">
      <ele>428.8</ele>
    </trkpt>
    <trkpt lat="42.448769" lon="-2.498333">
      <ele>428.8</ele>
    </trkpt>
    <trkpt lat="42.448766" lon="-2.498604">
      <ele>428.8</ele>
    </trkpt>
    <trkpt lat="42.448676" lon="-2.498807">
      <ele>428.8</ele>
    </trkpt>
    <trkpt lat="42.44858" lon="-2.498969">
      <ele>428.9</ele>
    </trkpt>
    <trkpt lat="42.448378" lon="-2.499116">
      <ele>428.7</ele>
    </trkpt>
    <trkpt lat="42.448303" lon="-2.499213">
      <ele>428.7</ele>
    </trkpt>
    <trkpt lat="42.44824" lon="-2.499432">
      <ele>428.6</ele>
    </trkpt>
    <trkpt lat="42.448184" lon="-2.499628">
      <ele>428.5</ele>
    </trkpt>
    <trkpt lat="42.448104" lon="-2.499777">
      <ele>428.4</ele>
    </trkpt>
    <trkpt lat="42.447988" lon="-2.499875">
      <ele>428.4</ele>
    </trkpt>
    <trkpt lat="42.447872" lon="-2.499914">
      <ele>428.4</ele>
    </trkpt>
    <trkpt lat="42.447988" lon="-2.499875">
      <ele>428.4</ele>
    </trkpt>
    <trkpt lat="42.448104" lon="-2.499777">
      <ele>428.6</ele>
    </trkpt>
    <trkpt lat="42.448184" lon="-2.499628">
      <ele>428.9</ele>
    </trkpt>
    <trkpt lat="42.44824" lon="-2.499432">
      <ele>429.2</ele>
    </trkpt>
    <trkpt lat="42.448184" lon="-2.499628">
      <ele>429.6</ele>
    </trkpt>
    <trkpt lat="42.448104" lon="-2.499777">
      <ele>429.9</ele>
    </trkpt>
    <trkpt lat="42.447988" lon="-2.499875">
      <ele>430.3</ele>
    </trkpt>
    <trkpt lat="42.447872" lon="-2.499914">
      <ele>430.6</ele>
    </trkpt>
    <trkpt lat="42.447865" lon="-2.499917">
      <ele>430.7</ele>
    </trkpt>
    <trkpt lat="42.447796" lon="-2.499897">
      <ele>430.8</ele>
    </trkpt>
    <trkpt lat="42.447687" lon="-2.499853">
      <ele>431.1</ele>
    </trkpt>
    <trkpt lat="42.447636" lon="-2.499896">
      <ele>431.3</ele>
    </trkpt>
    <trkpt lat="42.447411" lon="-2.500304">
      <ele>432.3</ele>
    </trkpt>
    <trkpt lat="42.447283" lon="-2.500396">
      <ele>432.7</ele>
    </trkpt>
    <trkpt lat="42.44716" lon="-2.500534">
      <ele>433.2</ele>
    </trkpt>
    <trkpt lat="42.447125" lon="-2.500631">
      <ele>433.4</ele>
    </trkpt>
    <trkpt lat="42.448146" lon="-2.503498">
      <ele>435.4</ele>
    </trkpt>
    <trkpt lat="42.448142" lon="-2.503713">
      <ele>435.7</ele>
    </trkpt>
    <trkpt lat="42.448077" lon="-2.503825">
      <ele>436</ele>
    </trkpt>
    <trkpt lat="42.447966" lon="-2.5039">
      <ele>436.3</ele>
    </trkpt>
    <trkpt lat="42.447763" lon="-2.5038">
      <ele>436.9</ele>
    </trkpt>
    <trkpt lat="42.447599" lon="-2.503778">
      <ele>437.3</ele>
    </trkpt>
    <trkpt lat="42.447523" lon="-2.503797">
      <ele>437.5</ele>
    </trkpt>
    <trkpt lat="42.447415" lon="-2.503882">
      <ele>437.8</ele>
    </trkpt>
    <trkpt lat="42.447302" lon="-2.503901">
      <ele>438</ele>
    </trkpt>
    <trkpt lat="42.447282" lon="-2.503916">
      <ele>438</ele>
    </trkpt>
    <trkpt lat="42.44729" lon="-2.504004">
      <ele>438.1</ele>
    </trkpt>
    <trkpt lat="42.447259" lon="-2.504147">
      <ele>438.3</ele>
    </trkpt>
    <trkpt lat="42.447268" lon="-2.50427">
      <ele>438.3</ele>
    </trkpt>
    <trkpt lat="42.447204" lon="-2.504371">
      <ele>438.4</ele>
    </trkpt>
    <trkpt lat="42.447206" lon="-2.50451">
      <ele>438.4</ele>
    </trkpt>
    <trkpt lat="42.447154" lon="-2.504823">
      <ele>438.4</ele>
    </trkpt>
    <trkpt lat="42.447034" lon="-2.505041">
      <ele>438.5</ele>
    </trkpt>
    <trkpt lat="42.446873" lon="-2.505143">
      <ele>438.4</ele>
    </trkpt>
    <trkpt lat="42.446756" lon="-2.505277">
      <ele>438.3</ele>
    </trkpt>
    <trkpt lat="42.446694" lon="-2.505808">
      <ele>437.8</ele>
    </trkpt>
    <trkpt lat="42.446729" lon="-2.506413">
      <ele>437.2</ele>
    </trkpt>
    <trkpt lat="42.446724" lon="-2.506577">
      <ele>437.1</ele>
    </trkpt>
    <trkpt lat="42.447098" lon="-2.507778">
      <ele>437.7</ele>
    </trkpt>
    <trkpt lat="42.447121" lon="-2.508043">
      <ele>437.9</ele>
    </trkpt>
    <trkpt lat="42.447033" lon="-2.508516">
      <ele>438.3</ele>
    </trkpt>
    <trkpt lat="42.446985" lon="-2.508644">
      <ele>438.4</ele>
    </trkpt>
    <trkpt lat="42.446755" lon="-2.509108">
      <ele>439</ele>
    </trkpt>
    <trkpt lat="42.44656" lon="-2.509428">
      <ele>439.4</ele>
    </trkpt>
    <trkpt lat="42.44636" lon="-2.509972">
      <ele>440</ele>
    </trkpt>
    <trkpt lat="42.44616" lon="-2.510373">
      <ele>440.4</ele>
    </trkpt>
    <trkpt lat="42.446001" lon="-2.510851">
      <ele>440.8</ele>
    </trkpt>
    <trkpt lat="42.445661" lon="-2.511304">
      <ele>441.1</ele>
    </trkpt>
    <trkpt lat="42.445328" lon="-2.512125">
      <ele>441.3</ele>
    </trkpt>
    <trkpt lat="42.445027" lon="-2.512702">
      <ele>441.6</ele>
    </trkpt>
    <trkpt lat="42.444965" lon="-2.512863">
      <ele>441.6</ele>
    </trkpt>
    <trkpt lat="42.444913" lon="-2.513108">
      <ele>441.7</ele>
    </trkpt>
    <trkpt lat="42.444792" lon="-2.513285">
      <ele>441.7</ele>
    </trkpt>
    <trkpt lat="42.444612" lon="-2.513377">
      <ele>441.7</ele>
    </trkpt>
    <trkpt lat="42.444512" lon="-2.513383">
      <ele>441.7</ele>
    </trkpt>
    <trkpt lat="42.444459" lon="-2.513331">
      <ele>441.7</ele>
    </trkpt>
    <trkpt lat="42.444408" lon="-2.513228">
      <ele>441.7</ele>
    </trkpt>
    <trkpt lat="42.444309" lon="-2.512803">
      <ele>441.6</ele>
    </trkpt>
    <trkpt lat="42.444122" lon="-2.512186">
      <ele>441.4</ele>
    </trkpt>
    <trkpt lat="42.444008" lon="-2.512099">
      <ele>441.3</ele>
    </trkpt>
    <trkpt lat="42.443929" lon="-2.512093">
      <ele>441.3</ele>
    </trkpt>
    <trkpt lat="42.443657" lon="-2.512514">
      <ele>441.3</ele>
    </trkpt>
    <trkpt lat="42.443322" lon="-2.513149">
      <ele>441.8</ele>
    </trkpt>
    <trkpt lat="42.443246" lon="-2.513202">
      <ele>441.9</ele>
    </trkpt>
    <trkpt lat="42.442768" lon="-2.513283">
      <ele>442.5</ele>
    </trkpt>
    <trkpt lat="42.442328" lon="-2.513208">
      <ele>442.9</ele>
    </trkpt>
    <trkpt lat="42.442166" lon="-2.513206">
      <ele>443.1</ele>
    </trkpt>
    <trkpt lat="42.442008" lon="-2.513247">
      <ele>443.2</ele>
    </trkpt>
    <trkpt lat="42.441751" lon="-2.513387">
      <ele>443.5</ele>
    </trkpt>
    <trkpt lat="42.441523" lon="-2.513389">
      <ele>443.7</ele>
    </trkpt>
    <trkpt lat="42.441369" lon="-2.513366">
      <ele>443.8</ele>
    </trkpt>
    <trkpt lat="42.441315" lon="-2.513735">
      <ele>444.3</ele>
    </trkpt>
    <trkpt lat="42.441408" lon="-2.51398">
      <ele>444.7</ele>
    </trkpt>
    <trkpt lat="42.44156" lon="-2.514623">
      <ele>446.2</ele>
    </trkpt>
    <trkpt lat="42.441559" lon="-2.514646">
      <ele>446.3</ele>
    </trkpt>
    <trkpt lat="42.441556" lon="-2.51473">
      <ele>446.5</ele>
    </trkpt>
    <trkpt lat="42.44153" lon="-2.514796">
      <ele>446.7</ele>
    </trkpt>
    <trkpt lat="42.441529" lon="-2.514898">
      <ele>447</ele>
    </trkpt>
    <trkpt lat="42.441667" lon="-2.515031">
      <ele>447.7</ele>
    </trkpt>
    <trkpt lat="42.441856" lon="-2.515904">
      <ele>451.1</ele>
    </trkpt>
    <trkpt lat="42.44187" lon="-2.516397">
      <ele>453.3</ele>
    </trkpt>
    <trkpt lat="42.441702" lon="-2.516876">
      <ele>456</ele>
    </trkpt>
    <trkpt lat="42.441677" lon="-2.517226">
      <ele>457.9</ele>
    </trkpt>
    <trkpt lat="42.441588" lon="-2.517644">
      <ele>460.5</ele>
    </trkpt>
    <trkpt lat="42.441586" lon="-2.517757">
      <ele>461.3</ele>
    </trkpt>
    <trkpt lat="42.441583" lon="-2.517873">
      <ele>462</ele>
    </trkpt>
    <trkpt lat="42.441426" lon="-2.518009">
      <ele>463.7</ele>
    </trkpt>
    <trkpt lat="42.441082" lon="-2.518203">
      <ele>467.3</ele>
    </trkpt>
    <trkpt lat="42.441004" lon="-2.518275">
      <ele>468.3</ele>
    </trkpt>
    <trkpt lat="42.440895" lon="-2.518664">
      <ele>471.5</ele>
    </trkpt>
    <trkpt lat="42.440836" lon="-2.519045">
      <ele>474.5</ele>
    </trkpt>
    <trkpt lat="42.44064" lon="-2.519678">
      <ele>480</ele>
    </trkpt>
    <trkpt lat="42.440325" lon="-2.520241">
      <ele>485.6</ele>
    </trkpt>
    <trkpt lat="42.440255" lon="-2.520722">
      <ele>489.6</ele>
    </trkpt>
    <trkpt lat="42.440183" lon="-2.521019">
      <ele>492.2</ele>
    </trkpt>
    <trkpt lat="42.44018" lon="-2.521031">
      <ele>492.3</ele>
    </trkpt>
    <trkpt lat="42.440124" lon="-2.521138">
      <ele>493.4</ele>
    </trkpt>
    <trkpt lat="42.43986" lon="-2.521299">
      <ele>496.5</ele>
    </trkpt>
    <trkpt lat="42.439568" lon="-2.521621">
      <ele>500.2</ele>
    </trkpt>
    <trkpt lat="42.439299" lon="-2.52182">
      <ele>502.9</ele>
    </trkpt>
    <trkpt lat="42.43949" lon="-2.522483">
      <ele>507.3</ele>
    </trkpt>
    <trkpt lat="42.439638" lon="-2.522829">
      <ele>509.4</ele>
    </trkpt>
    <trkpt lat="42.439739" lon="-2.522981">
      <ele>510.4</ele>
    </trkpt>
    <trkpt lat="42.439864" lon="-2.523168">
      <ele>511.4</ele>
    </trkpt>
    <trkpt lat="42.440035" lon="-2.523585">
      <ele>513</ele>
    </trkpt>
    <trkpt lat="42.440094" lon="-2.523912">
      <ele>514</ele>
    </trkpt>
    <trkpt lat="42.44007" lon="-2.524029">
      <ele>514.4</ele>
    </trkpt>
    <trkpt lat="42.439937" lon="-2.524755">
      <ele>516.3</ele>
    </trkpt>
    <trkpt lat="42.439907" lon="-2.524977">
      <ele>516.8</ele>
    </trkpt>
    <trkpt lat="42.439791" lon="-2.526616">
      <ele>516.5</ele>
    </trkpt>
    <trkpt lat="42.439783" lon="-2.526741">
      <ele>516.3</ele>
    </trkpt>
    <trkpt lat="42.439772" lon="-2.527191">
      <ele>515.4</ele>
    </trkpt>
    <trkpt lat="42.439712" lon="-2.527795">
      <ele>513.7</ele>
    </trkpt>
    <trkpt lat="42.439572" lon="-2.528731">
      <ele>510.8</ele>
    </trkpt>
    <trkpt lat="42.439566" lon="-2.528964">
      <ele>510.2</ele>
    </trkpt>
    <trkpt lat="42.43955" lon="-2.529125">
      <ele>509.9</ele>
    </trkpt>
    <trkpt lat="42.43936" lon="-2.530056">
      <ele>508.2</ele>
    </trkpt>
    <trkpt lat="42.439217" lon="-2.530874">
      <ele>506.6</ele>
    </trkpt>
    <trkpt lat="42.439094" lon="-2.531366">
      <ele>505.6</ele>
    </trkpt>
    <trkpt lat="42.438916" lon="-2.531922">
      <ele>504.3</ele>
    </trkpt>
    <trkpt lat="42.438861" lon="-2.532231">
      <ele>503.7</ele>
    </trkpt>
    <trkpt lat="42.43878" lon="-2.533424">
      <ele>501.7</ele>
    </trkpt>
    <trkpt lat="42.438626" lon="-2.534338">
      <ele>500.8</ele>
    </trkpt>
    <trkpt lat="42.438605" lon="-2.534661">
      <ele>500.4</ele>
    </trkpt>
    <trkpt lat="42.438518" lon="-2.535305">
      <ele>499.3</ele>
    </trkpt>
    <trkpt lat="42.438463" lon="-2.535587">
      <ele>498.7</ele>
    </trkpt>
    <trkpt lat="42.438251" lon="-2.536171">
      <ele>497.5</ele>
    </trkpt>
    <trkpt lat="42.438044" lon="-2.536833">
      <ele>496.6</ele>
    </trkpt>
    <trkpt lat="42.437945" lon="-2.537153">
      <ele>496.3</ele>
    </trkpt>
    <trkpt lat="42.437836" lon="-2.537602">
      <ele>495.9</ele>
    </trkpt>
    <trkpt lat="42.437796" lon="-2.537796">
      <ele>495.8</ele>
    </trkpt>
    <trkpt lat="42.437638" lon="-2.538825">
      <ele>494.8</ele>
    </trkpt>
    <trkpt lat="42.437596" lon="-2.538996">
      <ele>494.5</ele>
    </trkpt>
    <trkpt lat="42.437415" lon="-2.539459">
      <ele>493.3</ele>
    </trkpt>
    <trkpt lat="42.437336" lon="-2.539613">
      <ele>492.8</ele>
    </trkpt>
    <trkpt lat="42.436941" lon="-2.540358">
      <ele>489.2</ele>
    </trkpt>
    <trkpt lat="42.436733" lon="-2.540827">
      <ele>486.7</ele>
    </trkpt>
    <trkpt lat="42.436668" lon="-2.541092">
      <ele>485.3</ele>
    </trkpt>
    <trkpt lat="42.436623" lon="-2.541557">
      <ele>483</ele>
    </trkpt>
    <trkpt lat="42.436602" lon="-2.541774">
      <ele>481.9</ele>
    </trkpt>
    <trkpt lat="42.436427" lon="-2.542481">
      <ele>478.6</ele>
    </trkpt>
    <trkpt lat="42.436326" lon="-2.542873">
      <ele>477</ele>
    </trkpt>
    <trkpt lat="42.436052" lon="-2.545206">
      <ele>471.3</ele>
    </trkpt>
    <trkpt lat="42.435832" lon="-2.546416">
      <ele>469.6</ele>
    </trkpt>
    <trkpt lat="42.435682" lon="-2.547529">
      <ele>468.4</ele>
    </trkpt>
    <trkpt lat="42.435587" lon="-2.547928">
      <ele>467.9</ele>
    </trkpt>
    <trkpt lat="42.435547" lon="-2.548093">
      <ele>467.7</ele>
    </trkpt>
    <trkpt lat="42.43555" lon="-2.548354">
      <ele>467.5</ele>
    </trkpt>
    <trkpt lat="42.435585" lon="-2.548559">
      <ele>467.3</ele>
    </trkpt>
    <trkpt lat="42.435764" lon="-2.548935">
      <ele>466.8</ele>
    </trkpt>
    <trkpt lat="42.435995" lon="-2.549284">
      <ele>466.3</ele>
    </trkpt>
    <trkpt lat="42.43607" lon="-2.549506">
      <ele>466.1</ele>
    </trkpt>
    <trkpt lat="42.436823" lon="-2.549814">
      <ele>465.1</ele>
    </trkpt>
    <trkpt lat="42.437252" lon="-2.550044">
      <ele>464.5</ele>
    </trkpt>
    <trkpt lat="42.437858" lon="-2.550178">
      <ele>463.8</ele>
    </trkpt>
    <trkpt lat="42.438366" lon="-2.550443">
      <ele>463.2</ele>
    </trkpt>
    <trkpt lat="42.439096" lon="-2.550682">
      <ele>462.3</ele>
    </trkpt>
    <trkpt lat="42.439294" lon="-2.550714">
      <ele>462.1</ele>
    </trkpt>
    <trkpt lat="42.439381" lon="-2.550639">
      <ele>462</ele>
    </trkpt>
    <trkpt lat="42.439421" lon="-2.550446">
      <ele>461.8</ele>
    </trkpt>
    <trkpt lat="42.439484" lon="-2.550371">
      <ele>461.8</ele>
    </trkpt>
    <trkpt lat="42.439746" lon="-2.550403">
      <ele>461.5</ele>
    </trkpt>
    <trkpt lat="42.440221" lon="-2.550381">
      <ele>461</ele>
    </trkpt>
    <trkpt lat="42.440458" lon="-2.550435">
      <ele>460.8</ele>
    </trkpt>
    <trkpt lat="42.440878" lon="-2.550435">
      <ele>460.5</ele>
    </trkpt>
    <trkpt lat="42.441345" lon="-2.550478">
      <ele>460.5</ele>
    </trkpt>
    <trkpt lat="42.441584" lon="-2.550466">
      <ele>460.4</ele>
    </trkpt>
    <trkpt lat="42.441823" lon="-2.550452">
      <ele>460.4</ele>
    </trkpt>
    <trkpt lat="42.442362" lon="-2.550437">
      <ele>460</ele>
    </trkpt>
    <trkpt lat="42.442524" lon="-2.550428">
      <ele>459.9</ele>
    </trkpt>
    <trkpt lat="42.443063" lon="-2.550403">
      <ele>459.5</ele>
    </trkpt>
    <trkpt lat="42.443578" lon="-2.550306">
      <ele>458.8</ele>
    </trkpt>
    <trkpt lat="42.443934" lon="-2.550306">
      <ele>458.2</ele>
    </trkpt>
    <trkpt lat="42.44452" lon="-2.550403">
      <ele>457.5</ele>
    </trkpt>
    <trkpt lat="42.445169" lon="-2.550596">
      <ele>456.8</ele>
    </trkpt>
    <trkpt lat="42.445414" lon="-2.55081">
      <ele>456.4</ele>
    </trkpt>
    <trkpt lat="42.44566" lon="-2.550896">
      <ele>456.1</ele>
    </trkpt>
    <trkpt lat="42.445739" lon="-2.551014">
      <ele>455.9</ele>
    </trkpt>
    <trkpt lat="42.446388" lon="-2.551207">
      <ele>455.1</ele>
    </trkpt>
    <trkpt lat="42.446634" lon="-2.551358">
      <ele>454.8</ele>
    </trkpt>
    <trkpt lat="42.447061" lon="-2.551304">
      <ele>454.4</ele>
    </trkpt>
    <trkpt lat="42.447821" lon="-2.551304">
      <ele>453.6</ele>
    </trkpt>
    <trkpt lat="42.448437" lon="-2.55144">
      <ele>452.9</ele>
    </trkpt>
    <trkpt lat="42.448684" lon="-2.551486">
      <ele>452.6</ele>
    </trkpt>
    <trkpt lat="42.44942" lon="-2.551712">
      <ele>451.8</ele>
    </trkpt>
    <trkpt lat="42.450054" lon="-2.551765">
      <ele>451.2</ele>
    </trkpt>
    <trkpt lat="42.450426" lon="-2.551733">
      <ele>450.8</ele>
    </trkpt>
    <trkpt lat="42.451241" lon="-2.551722">
      <ele>450</ele>
    </trkpt>
    <trkpt lat="42.452804" lon="-2.552031">
      <ele>448.2</ele>
    </trkpt>
    <trkpt lat="42.453204" lon="-2.552162">
      <ele>447.7</ele>
    </trkpt>
    <trkpt lat="42.453545" lon="-2.552388">
      <ele>447.2</ele>
    </trkpt>
    <trkpt lat="42.453711" lon="-2.552441">
      <ele>447.1</ele>
    </trkpt>
    <trkpt lat="42.453814" lon="-2.55242">
      <ele>446.9</ele>
    </trkpt>
    <trkpt lat="42.453906" lon="-2.552352">
      <ele>446.8</ele>
    </trkpt>
    <trkpt lat="42.455819" lon="-2.553734">
      <ele>444.3</ele>
    </trkpt>
    <trkpt lat="42.460035" lon="-2.556782">
      <ele>439.5</ele>
    </trkpt>
    <trkpt lat="42.460448" lon="-2.557081">
      <ele>439.2</ele>
    </trkpt>
    <trkpt lat="42.460721" lon="-2.557271">
      <ele>439</ele>
    </trkpt>
    <trkpt lat="42.461111" lon="-2.557558">
      <ele>438.7</ele>
    </trkpt>
    <trkpt lat="42.461731" lon="-2.558022">
      <ele>438</ele>
    </trkpt>
    <trkpt lat="42.462016" lon="-2.558196">
      <ele>437.7</ele>
    </trkpt>
    <trkpt lat="42.462339" lon="-2.558438">
      <ele>437.3</ele>
    </trkpt>
    <trkpt lat="42.462547" lon="-2.558624">
      <ele>437.2</ele>
    </trkpt>
    <trkpt lat="42.462656" lon="-2.558756">
      <ele>437.1</ele>
    </trkpt>
    <trkpt lat="42.463026" lon="-2.559041">
      <ele>437</ele>
    </trkpt>
    <trkpt lat="42.463244" lon="-2.559119">
      <ele>437</ele>
    </trkpt>
    <trkpt lat="42.46342" lon="-2.559257">
      <ele>437</ele>
    </trkpt>
    <trkpt lat="42.463524" lon="-2.559333">
      <ele>437</ele>
    </trkpt>
    <trkpt lat="42.463905" lon="-2.559612">
      <ele>436.9</ele>
    </trkpt>
    <trkpt lat="42.464653" lon="-2.560157">
      <ele>436.2</ele>
    </trkpt>
    <trkpt lat="42.464667" lon="-2.56017">
      <ele>436.1</ele>
    </trkpt>
    <trkpt lat="42.464784" lon="-2.560255">
      <ele>436</ele>
    </trkpt>
    <trkpt lat="42.465456" lon="-2.56074">
      <ele>434.9</ele>
    </trkpt>
    <trkpt lat="42.465952" lon="-2.561098">
      <ele>434.3</ele>
    </trkpt>
    <trkpt lat="42.466081" lon="-2.561191">
      <ele>434.2</ele>
    </trkpt>
    <trkpt lat="42.466409" lon="-2.561081">
      <ele>434.2</ele>
    </trkpt>
    <trkpt lat="42.466719" lon="-2.560869">
      <ele>434.2</ele>
    </trkpt>
    <trkpt lat="42.466977" lon="-2.56068">
      <ele>434.2</ele>
    </trkpt>
    <trkpt lat="42.467295" lon="-2.560553">
      <ele>434</ele>
    </trkpt>
    <trkpt lat="42.467584" lon="-2.560368">
      <ele>433.9</ele>
    </trkpt>
    <trkpt lat="42.467762" lon="-2.560338">
      <ele>433.7</ele>
    </trkpt>
    <trkpt lat="42.467913" lon="-2.560449">
      <ele>433.6</ele>
    </trkpt>
    <trkpt lat="42.468446" lon="-2.560957">
      <ele>433.2</ele>
    </trkpt>
    <trkpt lat="42.468538" lon="-2.560915">
      <ele>433.1</ele>
    </trkpt>
    <trkpt lat="42.468611" lon="-2.560918">
      <ele>433</ele>
    </trkpt>
    <trkpt lat="42.469482" lon="-2.56137">
      <ele>431.8</ele>
    </trkpt>
    <trkpt lat="42.470861" lon="-2.562103">
      <ele>429.2</ele>
    </trkpt>
    <trkpt lat="42.471411" lon="-2.562385">
      <ele>428.1</ele>
    </trkpt>
    <trkpt lat="42.472436" lon="-2.56283">
      <ele>426.6</ele>
    </trkpt>
    <trkpt lat="42.475552" lon="-2.563946">
      <ele>422.6</ele>
    </trkpt>
    <trkpt lat="42.475878" lon="-2.564087">
      <ele>422.2</ele>
    </trkpt>
    <trkpt lat="42.476409" lon="-2.56441">
      <ele>421.8</ele>
    </trkpt>
    <trkpt lat="42.477856" lon="-2.565586">
      <ele>421.2</ele>
    </trkpt>
    <trkpt lat="42.479171" lon="-2.566629">
      <ele>420.4</ele>
    </trkpt>
    <trkpt lat="42.480275" lon="-2.567386">
      <ele>419.7</ele>
    </trkpt>
    <trkpt lat="42.480936" lon="-2.567759">
      <ele>419.3</ele>
    </trkpt>
    <trkpt lat="42.481783" lon="-2.568178">
      <ele>418.7</ele>
    </trkpt>
    <trkpt lat="42.482616" lon="-2.568502">
      <ele>418.1</ele>
    </trkpt>
    <trkpt lat="42.482992" lon="-2.56864">
      <ele>417.7</ele>
    </trkpt>
    <trkpt lat="42.48343" lon="-2.568749">
      <ele>417.2</ele>
    </trkpt>
    <trkpt lat="42.484956" lon="-2.568946">
      <ele>415.5</ele>
    </trkpt>
    <trkpt lat="42.485521" lon="-2.568928">
      <ele>414.9</ele>
    </trkpt>
    <trkpt lat="42.485688" lon="-2.568837">
      <ele>414.9</ele>
    </trkpt>
    <trkpt lat="42.48583" lon="-2.568755">
      <ele>414.8</ele>
    </trkpt>
    <trkpt lat="42.485906" lon="-2.568766">
      <ele>414.7</ele>
    </trkpt>
    <trkpt lat="42.485996" lon="-2.568832">
      <ele>414.7</ele>
    </trkpt>
    <trkpt lat="42.486048" lon="-2.568923">
      <ele>414.6</ele>
    </trkpt>
    <trkpt lat="42.486072" lon="-2.569034">
      <ele>414.6</ele>
    </trkpt>
    <trkpt lat="42.4862" lon="-2.569157">
      <ele>414.5</ele>
    </trkpt>
    <trkpt lat="42.486541" lon="-2.569367">
      <ele>414.3</ele>
    </trkpt>
    <trkpt lat="42.487418" lon="-2.569784">
      <ele>412</ele>
    </trkpt>
    <trkpt lat="42.487466" lon="-2.569807">
      <ele>411.8</ele>
    </trkpt>
    <trkpt lat="42.487693" lon="-2.569916">
      <ele>410.6</ele>
    </trkpt>
    <trkpt lat="42.487948" lon="-2.569989">
      <ele>409.1</ele>
    </trkpt>
    <trkpt lat="42.488019" lon="-2.570006">
      <ele>408.7</ele>
    </trkpt>
    <trkpt lat="42.488105" lon="-2.570018">
      <ele>408.1</ele>
    </trkpt>
    <trkpt lat="42.488282" lon="-2.570045">
      <ele>406.9</ele>
    </trkpt>
    <trkpt lat="42.488354" lon="-2.570061">
      <ele>406.4</ele>
    </trkpt>
    <trkpt lat="42.488625" lon="-2.570151">
      <ele>404.2</ele>
    </trkpt>
    <trkpt lat="42.488793" lon="-2.570276">
      <ele>402.8</ele>
    </trkpt>
    <trkpt lat="42.489229" lon="-2.5708">
      <ele>398.9</ele>
    </trkpt>
    <trkpt lat="42.489409" lon="-2.570949">
      <ele>397.8</ele>
    </trkpt>
    <trkpt lat="42.48962" lon="-2.571033">
      <ele>396.7</ele>
    </trkpt>
    <trkpt lat="42.490018" lon="-2.57107">
      <ele>395.3</ele>
    </trkpt>
    <trkpt lat="42.490763" lon="-2.57111">
      <ele>393.8</ele>
    </trkpt>
    <trkpt lat="42.490974" lon="-2.571168">
      <ele>393.6</ele>
    </trkpt>
    <trkpt lat="42.491199" lon="-2.571276">
      <ele>393.3</ele>
    </trkpt>
    <trkpt lat="42.49143" lon="-2.571466">
      <ele>392.9</ele>
    </trkpt>
    <trkpt lat="42.491636" lon="-2.571715">
      <ele>392.5</ele>
    </trkpt>
    <trkpt lat="42.492071" lon="-2.572444">
      <ele>391.6</ele>
    </trkpt>
    <trkpt lat="42.492444" lon="-2.573095">
      <ele>392.5</ele>
    </trkpt>
    <trkpt lat="42.492646" lon="-2.573448">
      <ele>393.5</ele>
    </trkpt>
    <trkpt lat="42.492693" lon="-2.573574">
      <ele>393.9</ele>
    </trkpt>
    <trkpt lat="42.492661" lon="-2.573711">
      <ele>394.4</ele>
    </trkpt>
    <trkpt lat="42.492301" lon="-2.574195">
      <ele>397</ele>
    </trkpt>
    <trkpt lat="42.491765" lon="-2.574623">
      <ele>402.9</ele>
    </trkpt>
    <trkpt lat="42.491555" lon="-2.574832">
      <ele>405</ele>
    </trkpt>
    <trkpt lat="42.491481" lon="-2.575039">
      <ele>406.3</ele>
    </trkpt>
    <trkpt lat="42.49148" lon="-2.575128">
      <ele>406.8</ele>
    </trkpt>
    <trkpt lat="42.491515" lon="-2.575272">
      <ele>407.5</ele>
    </trkpt>
    <trkpt lat="42.491577" lon="-2.575365">
      <ele>408.1</ele>
    </trkpt>
    <trkpt lat="42.491666" lon="-2.575431">
      <ele>408.8</ele>
    </trkpt>
    <trkpt lat="42.491734" lon="-2.575442">
      <ele>409.2</ele>
    </trkpt>
    <trkpt lat="42.491595" lon="-2.5755">
      <ele>410</ele>
    </trkpt>
    </trkseg>
  </trk>
</gpx>
