<?xml version="1.0" encoding="UTF-8"?>
<gpx version="1.1" creator="fitAI Komoot downloader" xmlns="http://www.topografix.com/GPX/1/1">
  <metadata>
    <name>Ermita de San Marcos y Cueva de Vico - Recorrido circular desde Arnedo</name>
    <desc>47 visitas · Dificultad: difficult · Distancia: 18.2 km · Desnivel +: 438 m</desc>
    <link href="https://www.komoot.com/smarttour/e24551222"><text>Komoot</text></link>
  </metadata>
  <trk>
    <name>Ermita de San Marcos y Cueva de Vico - Recorrido circular desde Arnedo</name>
    <type>jogging</type>
    <trkseg>
    <trkpt lat="42.22389" lon="-2.102245">
      <ele>516.6</ele>
    </trkpt>
    <trkpt lat="42.223772" lon="-2.102505">
      <ele>516.8</ele>
    </trkpt>
    <trkpt lat="42.223356" lon="-2.103444">
      <ele>517.3</ele>
    </trkpt>
    <trkpt lat="42.223244" lon="-2.103703">
      <ele>517.3</ele>
    </trkpt>
    <trkpt lat="42.223227" lon="-2.103745">
      <ele>517.3</ele>
    </trkpt>
    <trkpt lat="42.222914" lon="-2.104574">
      <ele>517</ele>
    </trkpt>
    <trkpt lat="42.222546" lon="-2.104492">
      <ele>516.5</ele>
    </trkpt>
    <trkpt lat="42.221705" lon="-2.103928">
      <ele>515.7</ele>
    </trkpt>
    <trkpt lat="42.221699" lon="-2.103861">
      <ele>515.7</ele>
    </trkpt>
    <trkpt lat="42.221663" lon="-2.103817">
      <ele>515.7</ele>
    </trkpt>
    <trkpt lat="42.221644" lon="-2.103811">
      <ele>515.6</ele>
    </trkpt>
    <trkpt lat="42.221585" lon="-2.103838">
      <ele>515.6</ele>
    </trkpt>
    <trkpt lat="42.221531" lon="-2.103766">
      <ele>515.6</ele>
    </trkpt>
    <trkpt lat="42.221309" lon="-2.103672">
      <ele>515.5</ele>
    </trkpt>
    <trkpt lat="42.22112" lon="-2.103711">
      <ele>515.5</ele>
    </trkpt>
    <trkpt lat="42.220875" lon="-2.103663">
      <ele>515.5</ele>
    </trkpt>
    <trkpt lat="42.220436" lon="-2.103495">
      <ele>515.7</ele>
    </trkpt>
    <trkpt lat="42.22025" lon="-2.103782">
      <ele>515.9</ele>
    </trkpt>
    <trkpt lat="42.220156" lon="-2.104157">
      <ele>515.9</ele>
    </trkpt>
    <trkpt lat="42.220186" lon="-2.104176">
      <ele>516</ele>
    </trkpt>
    <trkpt lat="42.22016" lon="-2.104443">
      <ele>516</ele>
    </trkpt>
    <trkpt lat="42.220018" lon="-2.104858">
      <ele>516.3</ele>
    </trkpt>
    <trkpt lat="42.21986" lon="-2.105547">
      <ele>516.6</ele>
    </trkpt>
    <trkpt lat="42.219715" lon="-2.106794">
      <ele>517.6</ele>
    </trkpt>
    <trkpt lat="42.219611" lon="-2.107167">
      <ele>518.3</ele>
    </trkpt>
    <trkpt lat="42.21957" lon="-2.107207">
      <ele>518.5</ele>
    </trkpt>
    <trkpt lat="42.219537" lon="-2.107188">
      <ele>518.6</ele>
    </trkpt>
    <trkpt lat="42.219531" lon="-2.107181">
      <ele>518.6</ele>
    </trkpt>
    <trkpt lat="42.219449" lon="-2.107115">
      <ele>518.8</ele>
    </trkpt>
    <trkpt lat="42.219366" lon="-2.107095">
      <ele>519</ele>
    </trkpt>
    <trkpt lat="42.219112" lon="-2.107935">
      <ele>520.9</ele>
    </trkpt>
    <trkpt lat="42.218462" lon="-2.109157">
      <ele>524.4</ele>
    </trkpt>
    <trkpt lat="42.217962" lon="-2.110583">
      <ele>526.4</ele>
    </trkpt>
    <trkpt lat="42.217667" lon="-2.111589">
      <ele>527.1</ele>
    </trkpt>
    <trkpt lat="42.21695" lon="-2.112988">
      <ele>527.2</ele>
    </trkpt>
    <trkpt lat="42.216489" lon="-2.113633">
      <ele>526</ele>
    </trkpt>
    <trkpt lat="42.217109" lon="-2.114139">
      <ele>524.3</ele>
    </trkpt>
    <trkpt lat="42.218118" lon="-2.114922">
      <ele>523.2</ele>
    </trkpt>
    <trkpt lat="42.219004" lon="-2.115328">
      <ele>525.2</ele>
    </trkpt>
    <trkpt lat="42.219046" lon="-2.115197">
      <ele>525.5</ele>
    </trkpt>
    <trkpt lat="42.219169" lon="-2.115125">
      <ele>525.8</ele>
    </trkpt>
    <trkpt lat="42.219596" lon="-2.11556">
      <ele>527.2</ele>
    </trkpt>
    <trkpt lat="42.219527" lon="-2.115805">
      <ele>527.7</ele>
    </trkpt>
    <trkpt lat="42.219236" lon="-2.116391">
      <ele>529.3</ele>
    </trkpt>
    <trkpt lat="42.21899" lon="-2.117385">
      <ele>530.9</ele>
    </trkpt>
    <trkpt lat="42.218899" lon="-2.11772">
      <ele>531.4</ele>
    </trkpt>
    <trkpt lat="42.218754" lon="-2.118112">
      <ele>531.9</ele>
    </trkpt>
    <trkpt lat="42.218628" lon="-2.118362">
      <ele>532.2</ele>
    </trkpt>
    <trkpt lat="42.21766" lon="-2.119375">
      <ele>533.3</ele>
    </trkpt>
    <trkpt lat="42.217345" lon="-2.119882">
      <ele>533.6</ele>
    </trkpt>
    <trkpt lat="42.217058" lon="-2.120566">
      <ele>533.9</ele>
    </trkpt>
    <trkpt lat="42.216771" lon="-2.12125">
      <ele>534.2</ele>
    </trkpt>
    <trkpt lat="42.215398" lon="-2.124761">
      <ele>534.3</ele>
    </trkpt>
    <trkpt lat="42.214959" lon="-2.125617">
      <ele>535.4</ele>
    </trkpt>
    <trkpt lat="42.213355" lon="-2.128386">
      <ele>539.4</ele>
    </trkpt>
    <trkpt lat="42.212912" lon="-2.129206">
      <ele>539.5</ele>
    </trkpt>
    <trkpt lat="42.212637" lon="-2.129768">
      <ele>539.4</ele>
    </trkpt>
    <trkpt lat="42.212429" lon="-2.130325">
      <ele>539.5</ele>
    </trkpt>
    <trkpt lat="42.212314" lon="-2.131033">
      <ele>539.6</ele>
    </trkpt>
    <trkpt lat="42.212193" lon="-2.131209">
      <ele>539.7</ele>
    </trkpt>
    <trkpt lat="42.212185" lon="-2.131312">
      <ele>539.8</ele>
    </trkpt>
    <trkpt lat="42.21184" lon="-2.131174">
      <ele>540</ele>
    </trkpt>
    <trkpt lat="42.211693" lon="-2.131186">
      <ele>540.1</ele>
    </trkpt>
    <trkpt lat="42.21145" lon="-2.131389">
      <ele>540.3</ele>
    </trkpt>
    <trkpt lat="42.211419" lon="-2.131695">
      <ele>540.5</ele>
    </trkpt>
    <trkpt lat="42.211184" lon="-2.132442">
      <ele>541.2</ele>
    </trkpt>
    <trkpt lat="42.211038" lon="-2.132795">
      <ele>542.3</ele>
    </trkpt>
    <trkpt lat="42.210825" lon="-2.132861">
      <ele>543.6</ele>
    </trkpt>
    <trkpt lat="42.210541" lon="-2.132765">
      <ele>545</ele>
    </trkpt>
    <trkpt lat="42.210389" lon="-2.13289">
      <ele>545.7</ele>
    </trkpt>
    <trkpt lat="42.210364" lon="-2.133146">
      <ele>546.5</ele>
    </trkpt>
    <trkpt lat="42.210327" lon="-2.133147">
      <ele>546.7</ele>
    </trkpt>
    <trkpt lat="42.210011" lon="-2.133139">
      <ele>548.7</ele>
    </trkpt>
    <trkpt lat="42.209996" lon="-2.133133">
      <ele>548.9</ele>
    </trkpt>
    <trkpt lat="42.210047" lon="-2.132939">
      <ele>550.1</ele>
    </trkpt>
    <trkpt lat="42.210006" lon="-2.132607">
      <ele>552.3</ele>
    </trkpt>
    <trkpt lat="42.209938" lon="-2.132516">
      <ele>553.2</ele>
    </trkpt>
    <trkpt lat="42.209788" lon="-2.132475">
      <ele>554.7</ele>
    </trkpt>
    <trkpt lat="42.20966" lon="-2.132569">
      <ele>556.2</ele>
    </trkpt>
    <trkpt lat="42.209367" lon="-2.132487">
      <ele>558.6</ele>
    </trkpt>
    <trkpt lat="42.209221" lon="-2.13251">
      <ele>559.6</ele>
    </trkpt>
    <trkpt lat="42.209102" lon="-2.132722">
      <ele>561.2</ele>
    </trkpt>
    <trkpt lat="42.209049" lon="-2.133097">
      <ele>563.9</ele>
    </trkpt>
    <trkpt lat="42.208817" lon="-2.13344">
      <ele>567.2</ele>
    </trkpt>
    <trkpt lat="42.208806" lon="-2.13379">
      <ele>569.2</ele>
    </trkpt>
    <trkpt lat="42.208678" lon="-2.133974">
      <ele>570.5</ele>
    </trkpt>
    <trkpt lat="42.208404" lon="-2.134101">
      <ele>572.2</ele>
    </trkpt>
    <trkpt lat="42.208145" lon="-2.13408">
      <ele>573.6</ele>
    </trkpt>
    <trkpt lat="42.207893" lon="-2.133851">
      <ele>575.1</ele>
    </trkpt>
    <trkpt lat="42.207576" lon="-2.133716">
      <ele>576.6</ele>
    </trkpt>
    <trkpt lat="42.2071" lon="-2.133206">
      <ele>578.4</ele>
    </trkpt>
    <trkpt lat="42.206761" lon="-2.133071">
      <ele>579.7</ele>
    </trkpt>
    <trkpt lat="42.20663" lon="-2.132936">
      <ele>580.4</ele>
    </trkpt>
    <trkpt lat="42.206612" lon="-2.132839">
      <ele>580.6</ele>
    </trkpt>
    <trkpt lat="42.206513" lon="-2.13232">
      <ele>582.6</ele>
    </trkpt>
    <trkpt lat="42.206109" lon="-2.131636">
      <ele>586.6</ele>
    </trkpt>
    <trkpt lat="42.205946" lon="-2.131463">
      <ele>588.4</ele>
    </trkpt>
    <trkpt lat="42.205837" lon="-2.131392">
      <ele>589.4</ele>
    </trkpt>
    <trkpt lat="42.20562" lon="-2.131351">
      <ele>591.3</ele>
    </trkpt>
    <trkpt lat="42.205313" lon="-2.131425">
      <ele>593.8</ele>
    </trkpt>
    <trkpt lat="42.205106" lon="-2.131595">
      <ele>595.5</ele>
    </trkpt>
    <trkpt lat="42.20494" lon="-2.131604">
      <ele>596.6</ele>
    </trkpt>
    <trkpt lat="42.204472" lon="-2.131325">
      <ele>599.6</ele>
    </trkpt>
    <trkpt lat="42.204453" lon="-2.131178">
      <ele>600.3</ele>
    </trkpt>
    <trkpt lat="42.204466" lon="-2.131032">
      <ele>600.9</ele>
    </trkpt>
    <trkpt lat="42.203779" lon="-2.130767">
      <ele>605.8</ele>
    </trkpt>
    <trkpt lat="42.20364" lon="-2.130847">
      <ele>607</ele>
    </trkpt>
    <trkpt lat="42.203111" lon="-2.130715">
      <ele>611.6</ele>
    </trkpt>
    <trkpt lat="42.202954" lon="-2.13083">
      <ele>613.3</ele>
    </trkpt>
    <trkpt lat="42.202704" lon="-2.131133">
      <ele>616.5</ele>
    </trkpt>
    <trkpt lat="42.20257" lon="-2.131252">
      <ele>617.9</ele>
    </trkpt>
    <trkpt lat="42.202476" lon="-2.131263">
      <ele>618.7</ele>
    </trkpt>
    <trkpt lat="42.202319" lon="-2.131368">
      <ele>620.1</ele>
    </trkpt>
    <trkpt lat="42.201943" lon="-2.131702">
      <ele>622.8</ele>
    </trkpt>
    <trkpt lat="42.20173" lon="-2.131841">
      <ele>623.8</ele>
    </trkpt>
    <trkpt lat="42.201358" lon="-2.131883">
      <ele>625.2</ele>
    </trkpt>
    <trkpt lat="42.201197" lon="-2.131808">
      <ele>625.8</ele>
    </trkpt>
    <trkpt lat="42.201052" lon="-2.131643">
      <ele>626.6</ele>
    </trkpt>
    <trkpt lat="42.200931" lon="-2.131569">
      <ele>627.2</ele>
    </trkpt>
    <trkpt lat="42.200822" lon="-2.131558">
      <ele>627.7</ele>
    </trkpt>
    <trkpt lat="42.200655" lon="-2.131629">
      <ele>628.5</ele>
    </trkpt>
    <trkpt lat="42.200557" lon="-2.131637">
      <ele>629</ele>
    </trkpt>
    <trkpt lat="42.200362" lon="-2.131755">
      <ele>630.1</ele>
    </trkpt>
    <trkpt lat="42.200287" lon="-2.131763">
      <ele>630.6</ele>
    </trkpt>
    <trkpt lat="42.200104" lon="-2.131714">
      <ele>631.7</ele>
    </trkpt>
    <trkpt lat="42.200023" lon="-2.131671">
      <ele>632.2</ele>
    </trkpt>
    <trkpt lat="42.199974" lon="-2.131597">
      <ele>632.7</ele>
    </trkpt>
    <trkpt lat="42.199792" lon="-2.131607">
      <ele>634</ele>
    </trkpt>
    <trkpt lat="42.199594" lon="-2.131715">
      <ele>635.7</ele>
    </trkpt>
    <trkpt lat="42.199063" lon="-2.131674">
      <ele>640.1</ele>
    </trkpt>
    <trkpt lat="42.199002" lon="-2.131659">
      <ele>640.6</ele>
    </trkpt>
    <trkpt lat="42.198959" lon="-2.131603">
      <ele>641</ele>
    </trkpt>
    <trkpt lat="42.198854" lon="-2.131577">
      <ele>641.9</ele>
    </trkpt>
    <trkpt lat="42.198731" lon="-2.131695">
      <ele>643.1</ele>
    </trkpt>
    <trkpt lat="42.198642" lon="-2.131718">
      <ele>643.8</ele>
    </trkpt>
    <trkpt lat="42.198575" lon="-2.131773">
      <ele>644.4</ele>
    </trkpt>
    <trkpt lat="42.198124" lon="-2.131775">
      <ele>648</ele>
    </trkpt>
    <trkpt lat="42.198009" lon="-2.1317">
      <ele>648.9</ele>
    </trkpt>
    <trkpt lat="42.197794" lon="-2.131674">
      <ele>650.5</ele>
    </trkpt>
    <trkpt lat="42.197685" lon="-2.131792">
      <ele>651.5</ele>
    </trkpt>
    <trkpt lat="42.197598" lon="-2.131837">
      <ele>652.2</ele>
    </trkpt>
    <trkpt lat="42.197418" lon="-2.131824">
      <ele>653.4</ele>
    </trkpt>
    <trkpt lat="42.19736" lon="-2.131851">
      <ele>653.8</ele>
    </trkpt>
    <trkpt lat="42.197318" lon="-2.131829">
      <ele>654.1</ele>
    </trkpt>
    <trkpt lat="42.197108" lon="-2.131888">
      <ele>655.5</ele>
    </trkpt>
    <trkpt lat="42.197074" lon="-2.131857">
      <ele>655.7</ele>
    </trkpt>
    <trkpt lat="42.197088" lon="-2.131247">
      <ele>658.3</ele>
    </trkpt>
    <trkpt lat="42.197077" lon="-2.131075">
      <ele>659</ele>
    </trkpt>
    <trkpt lat="42.197048" lon="-2.13102">
      <ele>659.3</ele>
    </trkpt>
    <trkpt lat="42.196895" lon="-2.130913">
      <ele>660.2</ele>
    </trkpt>
    <trkpt lat="42.196708" lon="-2.130876">
      <ele>661.1</ele>
    </trkpt>
    <trkpt lat="42.196658" lon="-2.130746">
      <ele>661.7</ele>
    </trkpt>
    <trkpt lat="42.196592" lon="-2.130678">
      <ele>662.1</ele>
    </trkpt>
    <trkpt lat="42.196459" lon="-2.130637">
      <ele>662.8</ele>
    </trkpt>
    <trkpt lat="42.196412" lon="-2.130567">
      <ele>663.1</ele>
    </trkpt>
    <trkpt lat="42.196302" lon="-2.130496">
      <ele>663.8</ele>
    </trkpt>
    <trkpt lat="42.196279" lon="-2.130514">
      <ele>663.9</ele>
    </trkpt>
    <trkpt lat="42.19627" lon="-2.130638">
      <ele>664.4</ele>
    </trkpt>
    <trkpt lat="42.196158" lon="-2.130904">
      <ele>665.6</ele>
    </trkpt>
    <trkpt lat="42.196044" lon="-2.130839">
      <ele>666.2</ele>
    </trkpt>
    <trkpt lat="42.195913" lon="-2.130847">
      <ele>666.8</ele>
    </trkpt>
    <trkpt lat="42.195896" lon="-2.130735">
      <ele>667.2</ele>
    </trkpt>
    <trkpt lat="42.195838" lon="-2.130684">
      <ele>667.5</ele>
    </trkpt>
    <trkpt lat="42.195713" lon="-2.130742">
      <ele>668.1</ele>
    </trkpt>
    <trkpt lat="42.195688" lon="-2.130834">
      <ele>668.5</ele>
    </trkpt>
    <trkpt lat="42.195726" lon="-2.130974">
      <ele>669</ele>
    </trkpt>
    <trkpt lat="42.195783" lon="-2.131022">
      <ele>669.3</ele>
    </trkpt>
    <trkpt lat="42.195832" lon="-2.131189">
      <ele>670</ele>
    </trkpt>
    <trkpt lat="42.195815" lon="-2.131254">
      <ele>670.2</ele>
    </trkpt>
    <trkpt lat="42.195758" lon="-2.131354">
      <ele>670.7</ele>
    </trkpt>
    <trkpt lat="42.195619" lon="-2.131511">
      <ele>671.5</ele>
    </trkpt>
    <trkpt lat="42.195569" lon="-2.131624">
      <ele>672</ele>
    </trkpt>
    <trkpt lat="42.195428" lon="-2.131754">
      <ele>672.9</ele>
    </trkpt>
    <trkpt lat="42.195347" lon="-2.131829">
      <ele>673.4</ele>
    </trkpt>
    <trkpt lat="42.19528" lon="-2.131845">
      <ele>673.8</ele>
    </trkpt>
    <trkpt lat="42.195234" lon="-2.131895">
      <ele>674.1</ele>
    </trkpt>
    <trkpt lat="42.195201" lon="-2.131987">
      <ele>674.5</ele>
    </trkpt>
    <trkpt lat="42.195115" lon="-2.132077">
      <ele>675.1</ele>
    </trkpt>
    <trkpt lat="42.195034" lon="-2.132112">
      <ele>675.6</ele>
    </trkpt>
    <trkpt lat="42.19496" lon="-2.132091">
      <ele>676</ele>
    </trkpt>
    <trkpt lat="42.194854" lon="-2.13188">
      <ele>677.2</ele>
    </trkpt>
    <trkpt lat="42.194767" lon="-2.131826">
      <ele>677.8</ele>
    </trkpt>
    <trkpt lat="42.194716" lon="-2.131835">
      <ele>678.2</ele>
    </trkpt>
    <trkpt lat="42.194668" lon="-2.131898">
      <ele>678.7</ele>
    </trkpt>
    <trkpt lat="42.19454" lon="-2.131977">
      <ele>679.7</ele>
    </trkpt>
    <trkpt lat="42.194468" lon="-2.13208">
      <ele>680.4</ele>
    </trkpt>
    <trkpt lat="42.19415" lon="-2.132345">
      <ele>682.7</ele>
    </trkpt>
    <trkpt lat="42.194101" lon="-2.132425">
      <ele>683.2</ele>
    </trkpt>
    <trkpt lat="42.194059" lon="-2.132457">
      <ele>683.4</ele>
    </trkpt>
    <trkpt lat="42.193968" lon="-2.132466">
      <ele>683.9</ele>
    </trkpt>
    <trkpt lat="42.193824" lon="-2.132584">
      <ele>684.8</ele>
    </trkpt>
    <trkpt lat="42.193768" lon="-2.132666">
      <ele>685.2</ele>
    </trkpt>
    <trkpt lat="42.193725" lon="-2.132828">
      <ele>685.8</ele>
    </trkpt>
    <trkpt lat="42.193425" lon="-2.133156">
      <ele>687.6</ele>
    </trkpt>
    <trkpt lat="42.193454" lon="-2.133485">
      <ele>688.6</ele>
    </trkpt>
    <trkpt lat="42.193379" lon="-2.133688">
      <ele>689.4</ele>
    </trkpt>
    <trkpt lat="42.193048" lon="-2.133963">
      <ele>690.8</ele>
    </trkpt>
    <trkpt lat="42.192968" lon="-2.133999">
      <ele>691.2</ele>
    </trkpt>
    <trkpt lat="42.192912" lon="-2.134156">
      <ele>691.7</ele>
    </trkpt>
    <trkpt lat="42.192852" lon="-2.134361">
      <ele>692.5</ele>
    </trkpt>
    <trkpt lat="42.192843" lon="-2.134537">
      <ele>693.3</ele>
    </trkpt>
    <trkpt lat="42.192773" lon="-2.13479">
      <ele>694.6</ele>
    </trkpt>
    <trkpt lat="42.1927" lon="-2.134887">
      <ele>695.3</ele>
    </trkpt>
    <trkpt lat="42.192571" lon="-2.13497">
      <ele>696.3</ele>
    </trkpt>
    <trkpt lat="42.192408" lon="-2.13523">
      <ele>698.3</ele>
    </trkpt>
    <trkpt lat="42.192338" lon="-2.13528">
      <ele>698.9</ele>
    </trkpt>
    <trkpt lat="42.192206" lon="-2.135502">
      <ele>700.7</ele>
    </trkpt>
    <trkpt lat="42.192204" lon="-2.135603">
      <ele>701.3</ele>
    </trkpt>
    <trkpt lat="42.191763" lon="-2.136606">
      <ele>710.3</ele>
    </trkpt>
    <trkpt lat="42.191712" lon="-2.136806">
      <ele>712</ele>
    </trkpt>
    <trkpt lat="42.191702" lon="-2.136943">
      <ele>713.1</ele>
    </trkpt>
    <trkpt lat="42.191602" lon="-2.136829">
      <ele>714.6</ele>
    </trkpt>
    <trkpt lat="42.191544" lon="-2.136801">
      <ele>715.4</ele>
    </trkpt>
    <trkpt lat="42.191343" lon="-2.136553">
      <ele>718.7</ele>
    </trkpt>
    <trkpt lat="42.191244" lon="-2.136456">
      <ele>720.3</ele>
    </trkpt>
    <trkpt lat="42.1911" lon="-2.136393">
      <ele>722.2</ele>
    </trkpt>
    <trkpt lat="42.191093" lon="-2.136205">
      <ele>724</ele>
    </trkpt>
    <trkpt lat="42.190988" lon="-2.136122">
      <ele>725.6</ele>
    </trkpt>
    <trkpt lat="42.190915" lon="-2.136207">
      <ele>727</ele>
    </trkpt>
    <trkpt lat="42.190841" lon="-2.13621">
      <ele>728.1</ele>
    </trkpt>
    <trkpt lat="42.190557" lon="-2.136691">
      <ele>735.2</ele>
    </trkpt>
    <trkpt lat="42.190551" lon="-2.136739">
      <ele>735.8</ele>
    </trkpt>
    <trkpt lat="42.190428" lon="-2.136801">
      <ele>737.9</ele>
    </trkpt>
    <trkpt lat="42.190405" lon="-2.137135">
      <ele>741.7</ele>
    </trkpt>
    <trkpt lat="42.190119" lon="-2.137306">
      <ele>746.6</ele>
    </trkpt>
    <trkpt lat="42.189929" lon="-2.137455">
      <ele>749.8</ele>
    </trkpt>
    <trkpt lat="42.189769" lon="-2.137496">
      <ele>752.1</ele>
    </trkpt>
    <trkpt lat="42.18974" lon="-2.137472">
      <ele>752.5</ele>
    </trkpt>
    <trkpt lat="42.18972" lon="-2.137507">
      <ele>752.9</ele>
    </trkpt>
    <trkpt lat="42.189384" lon="-2.137506">
      <ele>757.1</ele>
    </trkpt>
    <trkpt lat="42.189304" lon="-2.137605">
      <ele>758.4</ele>
    </trkpt>
    <trkpt lat="42.189234" lon="-2.13778">
      <ele>760</ele>
    </trkpt>
    <trkpt lat="42.189106" lon="-2.137867">
      <ele>761.4</ele>
    </trkpt>
    <trkpt lat="42.188882" lon="-2.13782">
      <ele>763.3</ele>
    </trkpt>
    <trkpt lat="42.188743" lon="-2.137734">
      <ele>764.5</ele>
    </trkpt>
    <trkpt lat="42.188646" lon="-2.137747">
      <ele>765.3</ele>
    </trkpt>
    <trkpt lat="42.188472" lon="-2.137863">
      <ele>767</ele>
    </trkpt>
    <trkpt lat="42.187933" lon="-2.138571">
      <ele>773.8</ele>
    </trkpt>
    <trkpt lat="42.187655" lon="-2.139263">
      <ele>781</ele>
    </trkpt>
    <trkpt lat="42.18755" lon="-2.139413">
      <ele>783</ele>
    </trkpt>
    <trkpt lat="42.187497" lon="-2.139436">
      <ele>783.7</ele>
    </trkpt>
    <trkpt lat="42.18725" lon="-2.139531">
      <ele>787</ele>
    </trkpt>
    <trkpt lat="42.187018" lon="-2.13957">
      <ele>790.1</ele>
    </trkpt>
    <trkpt lat="42.186695" lon="-2.139697">
      <ele>794.7</ele>
    </trkpt>
    <trkpt lat="42.186389" lon="-2.139815">
      <ele>799.1</ele>
    </trkpt>
    <trkpt lat="42.186384" lon="-2.13988">
      <ele>799.7</ele>
    </trkpt>
    <trkpt lat="42.186261" lon="-2.139802">
      <ele>801.6</ele>
    </trkpt>
    <trkpt lat="42.186093" lon="-2.139694">
      <ele>804.3</ele>
    </trkpt>
    <trkpt lat="42.1859" lon="-2.139662">
      <ele>806.9</ele>
    </trkpt>
    <trkpt lat="42.185533" lon="-2.13949">
      <ele>811.9</ele>
    </trkpt>
    <trkpt lat="42.183991" lon="-2.139279">
      <ele>832.1</ele>
    </trkpt>
    <trkpt lat="42.183804" lon="-2.138946">
      <ele>835.5</ele>
    </trkpt>
    <trkpt lat="42.183705" lon="-2.138889">
      <ele>836.6</ele>
    </trkpt>
    <trkpt lat="42.18346" lon="-2.138963">
      <ele>839.1</ele>
    </trkpt>
    <trkpt lat="42.183062" lon="-2.138963">
      <ele>843</ele>
    </trkpt>
    <trkpt lat="42.182695" lon="-2.138907">
      <ele>846.7</ele>
    </trkpt>
    <trkpt lat="42.182343" lon="-2.138724">
      <ele>850.8</ele>
    </trkpt>
    <trkpt lat="42.18213" lon="-2.138763">
      <ele>853.4</ele>
    </trkpt>
    <trkpt lat="42.181833" lon="-2.139051">
      <ele>858.1</ele>
    </trkpt>
    <trkpt lat="42.181521" lon="-2.139199">
      <ele>862.7</ele>
    </trkpt>
    <trkpt lat="42.181096" lon="-2.139153">
      <ele>869.1</ele>
    </trkpt>
    <trkpt lat="42.18056" lon="-2.13929">
      <ele>877.3</ele>
    </trkpt>
    <trkpt lat="42.180333" lon="-2.139406">
      <ele>880.7</ele>
    </trkpt>
    <trkpt lat="42.180036" lon="-2.13949">
      <ele>884.6</ele>
    </trkpt>
    <trkpt lat="42.179771" lon="-2.139466">
      <ele>887.8</ele>
    </trkpt>
    <trkpt lat="42.179341" lon="-2.139149">
      <ele>893.3</ele>
    </trkpt>
    <trkpt lat="42.178922" lon="-2.138935">
      <ele>898.5</ele>
    </trkpt>
    <trkpt lat="42.178683" lon="-2.1389">
      <ele>901.5</ele>
    </trkpt>
    <trkpt lat="42.17845" lon="-2.138971">
      <ele>904.7</ele>
    </trkpt>
    <trkpt lat="42.178127" lon="-2.139148">
      <ele>910</ele>
    </trkpt>
    <trkpt lat="42.177105" lon="-2.139213">
      <ele>929.1</ele>
    </trkpt>
    <trkpt lat="42.177017" lon="-2.139192">
      <ele>930.6</ele>
    </trkpt>
    <trkpt lat="42.176992" lon="-2.139255">
      <ele>931.4</ele>
    </trkpt>
    <trkpt lat="42.17692" lon="-2.139269">
      <ele>932.4</ele>
    </trkpt>
    <trkpt lat="42.176934" lon="-2.139343">
      <ele>933.1</ele>
    </trkpt>
    <trkpt lat="42.176847" lon="-2.139468">
      <ele>934.5</ele>
    </trkpt>
    <trkpt lat="42.176481" lon="-2.139672">
      <ele>937.1</ele>
    </trkpt>
    <trkpt lat="42.176403" lon="-2.13977">
      <ele>937.5</ele>
    </trkpt>
    <trkpt lat="42.176427" lon="-2.139888">
      <ele>937.7</ele>
    </trkpt>
    <trkpt lat="42.176484" lon="-2.139936">
      <ele>937.7</ele>
    </trkpt>
    <trkpt lat="42.176781" lon="-2.140184">
      <ele>936.8</ele>
    </trkpt>
    <trkpt lat="42.176915" lon="-2.140242">
      <ele>935.8</ele>
    </trkpt>
    <trkpt lat="42.17708" lon="-2.140325">
      <ele>934.3</ele>
    </trkpt>
    <trkpt lat="42.177587" lon="-2.140315">
      <ele>927.8</ele>
    </trkpt>
    <trkpt lat="42.178071" lon="-2.140382">
      <ele>921.1</ele>
    </trkpt>
    <trkpt lat="42.178479" lon="-2.140307">
      <ele>915.6</ele>
    </trkpt>
    <trkpt lat="42.178994" lon="-2.140164">
      <ele>908.1</ele>
    </trkpt>
    <trkpt lat="42.180253" lon="-2.139987">
      <ele>889.1</ele>
    </trkpt>
    <trkpt lat="42.180512" lon="-2.139987">
      <ele>885.4</ele>
    </trkpt>
    <trkpt lat="42.181186" lon="-2.140185">
      <ele>875.8</ele>
    </trkpt>
    <trkpt lat="42.181688" lon="-2.14029">
      <ele>869.1</ele>
    </trkpt>
    <trkpt lat="42.181941" lon="-2.140274">
      <ele>865.8</ele>
    </trkpt>
    <trkpt lat="42.182218" lon="-2.140265">
      <ele>862.2</ele>
    </trkpt>
    <trkpt lat="42.182654" lon="-2.140374">
      <ele>856.4</ele>
    </trkpt>
    <trkpt lat="42.183671" lon="-2.140795">
      <ele>842.2</ele>
    </trkpt>
    <trkpt lat="42.184076" lon="-2.140963">
      <ele>836.5</ele>
    </trkpt>
    <trkpt lat="42.184612" lon="-2.141249">
      <ele>828.7</ele>
    </trkpt>
    <trkpt lat="42.185039" lon="-2.141582">
      <ele>822.3</ele>
    </trkpt>
    <trkpt lat="42.185142" lon="-2.141826">
      <ele>819.7</ele>
    </trkpt>
    <trkpt lat="42.185956" lon="-2.142865">
      <ele>806.1</ele>
    </trkpt>
    <trkpt lat="42.186424" lon="-2.143113">
      <ele>802</ele>
    </trkpt>
    <trkpt lat="42.186199" lon="-2.14236">
      <ele>799</ele>
    </trkpt>
    <trkpt lat="42.185894" lon="-2.141472">
      <ele>798.1</ele>
    </trkpt>
    <trkpt lat="42.185922" lon="-2.141144">
      <ele>798.1</ele>
    </trkpt>
    <trkpt lat="42.18604" lon="-2.140774">
      <ele>798.3</ele>
    </trkpt>
    <trkpt lat="42.186252" lon="-2.140559">
      <ele>797.9</ele>
    </trkpt>
    <trkpt lat="42.186371" lon="-2.140096">
      <ele>796.3</ele>
    </trkpt>
    <trkpt lat="42.186378" lon="-2.139972">
      <ele>795.7</ele>
    </trkpt>
    <trkpt lat="42.186384" lon="-2.13988">
      <ele>795.2</ele>
    </trkpt>
    <trkpt lat="42.186389" lon="-2.139815">
      <ele>794.9</ele>
    </trkpt>
    <trkpt lat="42.186695" lon="-2.139697">
      <ele>792.4</ele>
    </trkpt>
    <trkpt lat="42.187018" lon="-2.13957">
      <ele>789.2</ele>
    </trkpt>
    <trkpt lat="42.18725" lon="-2.139531">
      <ele>786.8</ele>
    </trkpt>
    <trkpt lat="42.187497" lon="-2.139436">
      <ele>783.7</ele>
    </trkpt>
    <trkpt lat="42.18755" lon="-2.139413">
      <ele>783</ele>
    </trkpt>
    <trkpt lat="42.187655" lon="-2.139263">
      <ele>781</ele>
    </trkpt>
    <trkpt lat="42.187933" lon="-2.138571">
      <ele>773.8</ele>
    </trkpt>
    <trkpt lat="42.188472" lon="-2.137863">
      <ele>767.1</ele>
    </trkpt>
    <trkpt lat="42.188646" lon="-2.137747">
      <ele>765.6</ele>
    </trkpt>
    <trkpt lat="42.188743" lon="-2.137734">
      <ele>764.9</ele>
    </trkpt>
    <trkpt lat="42.188882" lon="-2.13782">
      <ele>764</ele>
    </trkpt>
    <trkpt lat="42.189106" lon="-2.137867">
      <ele>762.7</ele>
    </trkpt>
    <trkpt lat="42.189234" lon="-2.13778">
      <ele>761.9</ele>
    </trkpt>
    <trkpt lat="42.189304" lon="-2.137605">
      <ele>761</ele>
    </trkpt>
    <trkpt lat="42.188978" lon="-2.137453">
      <ele>759.3</ele>
    </trkpt>
    <trkpt lat="42.188837" lon="-2.137388">
      <ele>758.7</ele>
    </trkpt>
    <trkpt lat="42.18884" lon="-2.137329">
      <ele>758.5</ele>
    </trkpt>
    <trkpt lat="42.188926" lon="-2.137302">
      <ele>758.1</ele>
    </trkpt>
    <trkpt lat="42.188945" lon="-2.137265">
      <ele>758</ele>
    </trkpt>
    <trkpt lat="42.188532" lon="-2.136971">
      <ele>755.9</ele>
    </trkpt>
    <trkpt lat="42.188414" lon="-2.136509">
      <ele>754.4</ele>
    </trkpt>
    <trkpt lat="42.188352" lon="-2.13603">
      <ele>752.2</ele>
    </trkpt>
    <trkpt lat="42.18853" lon="-2.135497">
      <ele>748.8</ele>
    </trkpt>
    <trkpt lat="42.188838" lon="-2.135377">
      <ele>745.6</ele>
    </trkpt>
    <trkpt lat="42.18909" lon="-2.135497">
      <ele>742.4</ele>
    </trkpt>
    <trkpt lat="42.189611" lon="-2.135502">
      <ele>735.6</ele>
    </trkpt>
    <trkpt lat="42.189968" lon="-2.135473">
      <ele>730.8</ele>
    </trkpt>
    <trkpt lat="42.190376" lon="-2.135306">
      <ele>725.4</ele>
    </trkpt>
    <trkpt lat="42.190676" lon="-2.135122">
      <ele>721.7</ele>
    </trkpt>
    <trkpt lat="42.191512" lon="-2.134416">
      <ele>711.4</ele>
    </trkpt>
    <trkpt lat="42.192214" lon="-2.133905">
      <ele>703.2</ele>
    </trkpt>
    <trkpt lat="42.19226" lon="-2.133898">
      <ele>702.7</ele>
    </trkpt>
    <trkpt lat="42.192422" lon="-2.13387">
      <ele>700.9</ele>
    </trkpt>
    <trkpt lat="42.192642" lon="-2.133802">
      <ele>698.4</ele>
    </trkpt>
    <trkpt lat="42.193425" lon="-2.133156">
      <ele>691.9</ele>
    </trkpt>
    <trkpt lat="42.193454" lon="-2.133485">
      <ele>691.1</ele>
    </trkpt>
    <trkpt lat="42.193379" lon="-2.133688">
      <ele>690.7</ele>
    </trkpt>
    <trkpt lat="42.193048" lon="-2.133963">
      <ele>690.6</ele>
    </trkpt>
    <trkpt lat="42.19297" lon="-2.134235">
      <ele>691.1</ele>
    </trkpt>
    <trkpt lat="42.192974" lon="-2.13456">
      <ele>691.9</ele>
    </trkpt>
    <trkpt lat="42.193035" lon="-2.134802">
      <ele>692.7</ele>
    </trkpt>
    <trkpt lat="42.193039" lon="-2.134991">
      <ele>693.2</ele>
    </trkpt>
    <trkpt lat="42.192847" lon="-2.135136">
      <ele>694.1</ele>
    </trkpt>
    <trkpt lat="42.192866" lon="-2.135395">
      <ele>694.6</ele>
    </trkpt>
    <trkpt lat="42.193064" lon="-2.135449">
      <ele>694.9</ele>
    </trkpt>
    <trkpt lat="42.193192" lon="-2.135596">
      <ele>695</ele>
    </trkpt>
    <trkpt lat="42.193253" lon="-2.135855">
      <ele>695</ele>
    </trkpt>
    <trkpt lat="42.193571" lon="-2.136082">
      <ele>694.9</ele>
    </trkpt>
    <trkpt lat="42.193809" lon="-2.136016">
      <ele>694.3</ele>
    </trkpt>
    <trkpt lat="42.193971" lon="-2.13597">
      <ele>693.9</ele>
    </trkpt>
    <trkpt lat="42.194439" lon="-2.135615">
      <ele>691.7</ele>
    </trkpt>
    <trkpt lat="42.19488" lon="-2.135524">
      <ele>689.2</ele>
    </trkpt>
    <trkpt lat="42.195289" lon="-2.135269">
      <ele>686.5</ele>
    </trkpt>
    <trkpt lat="42.195661" lon="-2.13528">
      <ele>683.7</ele>
    </trkpt>
    <trkpt lat="42.195883" lon="-2.135349">
      <ele>681.8</ele>
    </trkpt>
    <trkpt lat="42.196136" lon="-2.135518">
      <ele>679.6</ele>
    </trkpt>
    <trkpt lat="42.196325" lon="-2.135787">
      <ele>677.5</ele>
    </trkpt>
    <trkpt lat="42.19641" lon="-2.135797">
      <ele>676.9</ele>
    </trkpt>
    <trkpt lat="42.196575" lon="-2.135942">
      <ele>675.7</ele>
    </trkpt>
    <trkpt lat="42.196714" lon="-2.135878">
      <ele>674.8</ele>
    </trkpt>
    <trkpt lat="42.197058" lon="-2.135301">
      <ele>671.2</ele>
    </trkpt>
    <trkpt lat="42.197111" lon="-2.134931">
      <ele>669.5</ele>
    </trkpt>
    <trkpt lat="42.19716" lon="-2.134744">
      <ele>668.7</ele>
    </trkpt>
    <trkpt lat="42.197307" lon="-2.134765">
      <ele>668.1</ele>
    </trkpt>
    <trkpt lat="42.197775" lon="-2.134664">
      <ele>666.3</ele>
    </trkpt>
    <trkpt lat="42.197898" lon="-2.134366">
      <ele>665.3</ele>
    </trkpt>
    <trkpt lat="42.197877" lon="-2.134004">
      <ele>664.3</ele>
    </trkpt>
    <trkpt lat="42.197602" lon="-2.133499">
      <ele>662.7</ele>
    </trkpt>
    <trkpt lat="42.197307" lon="-2.133206">
      <ele>662</ele>
    </trkpt>
    <trkpt lat="42.197172" lon="-2.1332">
      <ele>661.8</ele>
    </trkpt>
    <trkpt lat="42.197307" lon="-2.133206">
      <ele>661.5</ele>
    </trkpt>
    <trkpt lat="42.19728" lon="-2.133078">
      <ele>661.1</ele>
    </trkpt>
    <trkpt lat="42.197452" lon="-2.133209">
      <ele>660.5</ele>
    </trkpt>
    <trkpt lat="42.197622" lon="-2.133339">
      <ele>659.7</ele>
    </trkpt>
    <trkpt lat="42.19786" lon="-2.133516">
      <ele>658.6</ele>
    </trkpt>
    <trkpt lat="42.198185" lon="-2.133703">
      <ele>656.7</ele>
    </trkpt>
    <trkpt lat="42.199346" lon="-2.13386">
      <ele>649.4</ele>
    </trkpt>
    <trkpt lat="42.199508" lon="-2.133763">
      <ele>648.3</ele>
    </trkpt>
    <trkpt lat="42.199719" lon="-2.133444">
      <ele>646.1</ele>
    </trkpt>
    <trkpt lat="42.199792" lon="-2.133278">
      <ele>645.1</ele>
    </trkpt>
    <trkpt lat="42.200203" lon="-2.132927">
      <ele>641.8</ele>
    </trkpt>
    <trkpt lat="42.20096" lon="-2.132569">
      <ele>637</ele>
    </trkpt>
    <trkpt lat="42.201949" lon="-2.132337">
      <ele>631.2</ele>
    </trkpt>
    <trkpt lat="42.202421" lon="-2.131982">
      <ele>628</ele>
    </trkpt>
    <trkpt lat="42.202928" lon="-2.131648">
      <ele>624.4</ele>
    </trkpt>
    <trkpt lat="42.203074" lon="-2.131616">
      <ele>623.3</ele>
    </trkpt>
    <trkpt lat="42.203506" lon="-2.131701">
      <ele>620.1</ele>
    </trkpt>
    <trkpt lat="42.204223" lon="-2.132375">
      <ele>613.4</ele>
    </trkpt>
    <trkpt lat="42.204312" lon="-2.132433">
      <ele>612.7</ele>
    </trkpt>
    <trkpt lat="42.204763" lon="-2.132526">
      <ele>609.3</ele>
    </trkpt>
    <trkpt lat="42.204971" lon="-2.132649">
      <ele>607.6</ele>
    </trkpt>
    <trkpt lat="42.205088" lon="-2.13279">
      <ele>606.3</ele>
    </trkpt>
    <trkpt lat="42.204913" lon="-2.133136">
      <ele>603.8</ele>
    </trkpt>
    <trkpt lat="42.204745" lon="-2.133391">
      <ele>601.6</ele>
    </trkpt>
    <trkpt lat="42.205523" lon="-2.133556">
      <ele>594.3</ele>
    </trkpt>
    <trkpt lat="42.205551" lon="-2.133488">
      <ele>593.7</ele>
    </trkpt>
    <trkpt lat="42.205728" lon="-2.134109">
      <ele>589</ele>
    </trkpt>
    <trkpt lat="42.205977" lon="-2.134594">
      <ele>585.4</ele>
    </trkpt>
    <trkpt lat="42.206455" lon="-2.135044">
      <ele>581.6</ele>
    </trkpt>
    <trkpt lat="42.206904" lon="-2.135242">
      <ele>579.3</ele>
    </trkpt>
    <trkpt lat="42.208014" lon="-2.135338">
      <ele>575.2</ele>
    </trkpt>
    <trkpt lat="42.208611" lon="-2.135344">
      <ele>572.9</ele>
    </trkpt>
    <trkpt lat="42.208616" lon="-2.135344">
      <ele>572.9</ele>
    </trkpt>
    <trkpt lat="42.208732" lon="-2.135239">
      <ele>572.3</ele>
    </trkpt>
    <trkpt lat="42.208856" lon="-2.134833">
      <ele>571</ele>
    </trkpt>
    <trkpt lat="42.209153" lon="-2.135015">
      <ele>569.8</ele>
    </trkpt>
    <trkpt lat="42.209196" lon="-2.135042">
      <ele>569.6</ele>
    </trkpt>
    <trkpt lat="42.209264" lon="-2.13503">
      <ele>569.3</ele>
    </trkpt>
    <trkpt lat="42.20933" lon="-2.134951">
      <ele>568.9</ele>
    </trkpt>
    <trkpt lat="42.209485" lon="-2.134236">
      <ele>566.7</ele>
    </trkpt>
    <trkpt lat="42.209598" lon="-2.133887">
      <ele>565.1</ele>
    </trkpt>
    <trkpt lat="42.209599" lon="-2.133872">
      <ele>565.1</ele>
    </trkpt>
    <trkpt lat="42.209611" lon="-2.133564">
      <ele>563.8</ele>
    </trkpt>
    <trkpt lat="42.209586" lon="-2.133284">
      <ele>562.7</ele>
    </trkpt>
    <trkpt lat="42.209491" lon="-2.133191">
      <ele>562.1</ele>
    </trkpt>
    <trkpt lat="42.209276" lon="-2.133181">
      <ele>560.7</ele>
    </trkpt>
    <trkpt lat="42.209278" lon="-2.133098">
      <ele>560.2</ele>
    </trkpt>
    <trkpt lat="42.209454" lon="-2.132903">
      <ele>558.1</ele>
    </trkpt>
    <trkpt lat="42.209706" lon="-2.132854">
      <ele>555.6</ele>
    </trkpt>
    <trkpt lat="42.209768" lon="-2.132872">
      <ele>555</ele>
    </trkpt>
    <trkpt lat="42.209833" lon="-2.133013">
      <ele>553.8</ele>
    </trkpt>
    <trkpt lat="42.209996" lon="-2.133133">
      <ele>552.1</ele>
    </trkpt>
    <trkpt lat="42.210011" lon="-2.133139">
      <ele>551.9</ele>
    </trkpt>
    <trkpt lat="42.210327" lon="-2.133147">
      <ele>549</ele>
    </trkpt>
    <trkpt lat="42.210364" lon="-2.133146">
      <ele>548.6</ele>
    </trkpt>
    <trkpt lat="42.210389" lon="-2.13289">
      <ele>547</ele>
    </trkpt>
    <trkpt lat="42.210541" lon="-2.132765">
      <ele>545.6</ele>
    </trkpt>
    <trkpt lat="42.210825" lon="-2.132861">
      <ele>543.6</ele>
    </trkpt>
    <trkpt lat="42.211038" lon="-2.132795">
      <ele>542.3</ele>
    </trkpt>
    <trkpt lat="42.211184" lon="-2.132442">
      <ele>541.2</ele>
    </trkpt>
    <trkpt lat="42.211419" lon="-2.131695">
      <ele>540.5</ele>
    </trkpt>
    <trkpt lat="42.21145" lon="-2.131389">
      <ele>540.3</ele>
    </trkpt>
    <trkpt lat="42.211693" lon="-2.131186">
      <ele>540.1</ele>
    </trkpt>
    <trkpt lat="42.21184" lon="-2.131174">
      <ele>540</ele>
    </trkpt>
    <trkpt lat="42.212185" lon="-2.131312">
      <ele>539.8</ele>
    </trkpt>
    <trkpt lat="42.212193" lon="-2.131209">
      <ele>539.7</ele>
    </trkpt>
    <trkpt lat="42.212314" lon="-2.131033">
      <ele>539.6</ele>
    </trkpt>
    <trkpt lat="42.212429" lon="-2.130325">
      <ele>539.5</ele>
    </trkpt>
    <trkpt lat="42.212637" lon="-2.129768">
      <ele>539.4</ele>
    </trkpt>
    <trkpt lat="42.212912" lon="-2.129206">
      <ele>539.5</ele>
    </trkpt>
    <trkpt lat="42.213355" lon="-2.128386">
      <ele>539.4</ele>
    </trkpt>
    <trkpt lat="42.214959" lon="-2.125617">
      <ele>535.4</ele>
    </trkpt>
    <trkpt lat="42.215398" lon="-2.124761">
      <ele>534.3</ele>
    </trkpt>
    <trkpt lat="42.216085" lon="-2.123006">
      <ele>534</ele>
    </trkpt>
    <trkpt lat="42.216771" lon="-2.12125">
      <ele>534.2</ele>
    </trkpt>
    <trkpt lat="42.217345" lon="-2.119882">
      <ele>533.6</ele>
    </trkpt>
    <trkpt lat="42.21766" lon="-2.119375">
      <ele>533.3</ele>
    </trkpt>
    <trkpt lat="42.218628" lon="-2.118362">
      <ele>532.2</ele>
    </trkpt>
    <trkpt lat="42.218754" lon="-2.118112">
      <ele>531.9</ele>
    </trkpt>
    <trkpt lat="42.218899" lon="-2.11772">
      <ele>531.4</ele>
    </trkpt>
    <trkpt lat="42.21899" lon="-2.117385">
      <ele>530.9</ele>
    </trkpt>
    <trkpt lat="42.219236" lon="-2.116391">
      <ele>529.3</ele>
    </trkpt>
    <trkpt lat="42.219527" lon="-2.115805">
      <ele>527.7</ele>
    </trkpt>
    <trkpt lat="42.219596" lon="-2.11556">
      <ele>527.2</ele>
    </trkpt>
    <trkpt lat="42.219169" lon="-2.115125">
      <ele>525.8</ele>
    </trkpt>
    <trkpt lat="42.219046" lon="-2.115197">
      <ele>525.5</ele>
    </trkpt>
    <trkpt lat="42.219004" lon="-2.115328">
      <ele>525.2</ele>
    </trkpt>
    <trkpt lat="42.218118" lon="-2.114922">
      <ele>523.2</ele>
    </trkpt>
    <trkpt lat="42.217109" lon="-2.114139">
      <ele>524.3</ele>
    </trkpt>
    <trkpt lat="42.216489" lon="-2.113633">
      <ele>526</ele>
    </trkpt>
    <trkpt lat="42.21695" lon="-2.112988">
      <ele>527.2</ele>
    </trkpt>
    <trkpt lat="42.217667" lon="-2.111589">
      <ele>527.1</ele>
    </trkpt>
    <trkpt lat="42.217962" lon="-2.110583">
      <ele>526.4</ele>
    </trkpt>
    <trkpt lat="42.218462" lon="-2.109157">
      <ele>524.4</ele>
    </trkpt>
    <trkpt lat="42.219112" lon="-2.107935">
      <ele>520.9</ele>
    </trkpt>
    <trkpt lat="42.219366" lon="-2.107095">
      <ele>519</ele>
    </trkpt>
    <trkpt lat="42.219449" lon="-2.107115">
      <ele>518.8</ele>
    </trkpt>
    <trkpt lat="42.219531" lon="-2.107181">
      <ele>518.6</ele>
    </trkpt>
    <trkpt lat="42.219537" lon="-2.107188">
      <ele>518.6</ele>
    </trkpt>
    <trkpt lat="42.21957" lon="-2.107207">
      <ele>518.5</ele>
    </trkpt>
    <trkpt lat="42.219611" lon="-2.107167">
      <ele>518.3</ele>
    </trkpt>
    <trkpt lat="42.219715" lon="-2.106794">
      <ele>517.6</ele>
    </trkpt>
    <trkpt lat="42.21986" lon="-2.105547">
      <ele>516.6</ele>
    </trkpt>
    <trkpt lat="42.220018" lon="-2.104858">
      <ele>516.3</ele>
    </trkpt>
    <trkpt lat="42.22016" lon="-2.104443">
      <ele>516</ele>
    </trkpt>
    <trkpt lat="42.220186" lon="-2.104176">
      <ele>516</ele>
    </trkpt>
    <trkpt lat="42.220156" lon="-2.104157">
      <ele>515.9</ele>
    </trkpt>
    <trkpt lat="42.22025" lon="-2.103782">
      <ele>515.9</ele>
    </trkpt>
    <trkpt lat="42.220436" lon="-2.103495">
      <ele>515.7</ele>
    </trkpt>
    <trkpt lat="42.220875" lon="-2.103663">
      <ele>515.5</ele>
    </trkpt>
    <trkpt lat="42.22112" lon="-2.103711">
      <ele>515.5</ele>
    </trkpt>
    <trkpt lat="42.221309" lon="-2.103672">
      <ele>515.5</ele>
    </trkpt>
    <trkpt lat="42.221531" lon="-2.103766">
      <ele>515.6</ele>
    </trkpt>
    <trkpt lat="42.221585" lon="-2.103838">
      <ele>515.6</ele>
    </trkpt>
    <trkpt lat="42.221644" lon="-2.103811">
      <ele>515.6</ele>
    </trkpt>
    <trkpt lat="42.221663" lon="-2.103817">
      <ele>515.7</ele>
    </trkpt>
    <trkpt lat="42.221699" lon="-2.103861">
      <ele>515.7</ele>
    </trkpt>
    <trkpt lat="42.221705" lon="-2.103928">
      <ele>515.7</ele>
    </trkpt>
    <trkpt lat="42.222546" lon="-2.104492">
      <ele>516.5</ele>
    </trkpt>
    <trkpt lat="42.222914" lon="-2.104574">
      <ele>517</ele>
    </trkpt>
    <trkpt lat="42.223227" lon="-2.103745">
      <ele>517.3</ele>
    </trkpt>
    <trkpt lat="42.223244" lon="-2.103703">
      <ele>517.3</ele>
    </trkpt>
    <trkpt lat="42.223356" lon="-2.103444">
      <ele>517.3</ele>
    </trkpt>
    <trkpt lat="42.223772" lon="-2.102505">
      <ele>516.8</ele>
    </trkpt>
    <trkpt lat="42.22389" lon="-2.102245">
      <ele>516.6</ele>
    </trkpt>
    </trkseg>
  </trk>
</gpx>
