<?xml version="1.0" encoding="UTF-8"?>
<gpx version="1.1" creator="fitAI Komoot downloader" xmlns="http://www.topografix.com/GPX/1/1">
  <metadata>
    <name>Ezcaray y Plaza del Quiosco de Ezcaray - Recorrido circular desde Zorraquín</name>
    <desc>26 visitas · Dificultad: moderate · Distancia: 13.7 km · Desnivel +: 176 m</desc>
    <link href="https://www.komoot.com/smarttour/e44690369"><text>Komoot</text></link>
  </metadata>
  <trk>
    <name>Ezcaray y Plaza del Quiosco de Ezcaray - Recorrido circular desde Zorraquín</name>
    <type>jogging</type>
    <trkseg>
    <trkpt lat="42.328675" lon="-3.014101">
      <ele>808</ele>
    </trkpt>
    <trkpt lat="42.328688" lon="-3.014441">
      <ele>808.1</ele>
    </trkpt>
    <trkpt lat="42.328326" lon="-3.014539">
      <ele>808.2</ele>
    </trkpt>
    <trkpt lat="42.328248" lon="-3.013957">
      <ele>808.4</ele>
    </trkpt>
    <trkpt lat="42.328187" lon="-3.013183">
      <ele>808.7</ele>
    </trkpt>
    <trkpt lat="42.328122" lon="-3.012318">
      <ele>809.1</ele>
    </trkpt>
    <trkpt lat="42.327318" lon="-3.012349">
      <ele>809.6</ele>
    </trkpt>
    <trkpt lat="42.326813" lon="-3.012366">
      <ele>809.8</ele>
    </trkpt>
    <trkpt lat="42.326809" lon="-3.012782">
      <ele>810.2</ele>
    </trkpt>
    <trkpt lat="42.326807" lon="-3.013333">
      <ele>810.9</ele>
    </trkpt>
    <trkpt lat="42.326575" lon="-3.013227">
      <ele>811.3</ele>
    </trkpt>
    <trkpt lat="42.326513" lon="-3.013159">
      <ele>811.5</ele>
    </trkpt>
    <trkpt lat="42.326285" lon="-3.013343">
      <ele>811.8</ele>
    </trkpt>
    <trkpt lat="42.326208" lon="-3.013465">
      <ele>812</ele>
    </trkpt>
    <trkpt lat="42.326143" lon="-3.013636">
      <ele>812.1</ele>
    </trkpt>
    <trkpt lat="42.326116" lon="-3.013764">
      <ele>812.2</ele>
    </trkpt>
    <trkpt lat="42.326093" lon="-3.014103">
      <ele>812.6</ele>
    </trkpt>
    <trkpt lat="42.326115" lon="-3.014283">
      <ele>812.8</ele>
    </trkpt>
    <trkpt lat="42.326073" lon="-3.014296">
      <ele>812.9</ele>
    </trkpt>
    <trkpt lat="42.326115" lon="-3.014283">
      <ele>813</ele>
    </trkpt>
    <trkpt lat="42.326093" lon="-3.014103">
      <ele>813.1</ele>
    </trkpt>
    <trkpt lat="42.326116" lon="-3.013764">
      <ele>813.4</ele>
    </trkpt>
    <trkpt lat="42.326143" lon="-3.013636">
      <ele>813.5</ele>
    </trkpt>
    <trkpt lat="42.326035" lon="-3.013589">
      <ele>813.7</ele>
    </trkpt>
    <trkpt lat="42.325324" lon="-3.013537">
      <ele>814.6</ele>
    </trkpt>
    <trkpt lat="42.325114" lon="-3.013747">
      <ele>815.2</ele>
    </trkpt>
    <trkpt lat="42.325123" lon="-3.013866">
      <ele>815.4</ele>
    </trkpt>
    <trkpt lat="42.325088" lon="-3.014242">
      <ele>816.2</ele>
    </trkpt>
    <trkpt lat="42.325098" lon="-3.01441">
      <ele>816.6</ele>
    </trkpt>
    <trkpt lat="42.32511" lon="-3.014751">
      <ele>817.3</ele>
    </trkpt>
    <trkpt lat="42.325108" lon="-3.014891">
      <ele>817.6</ele>
    </trkpt>
    <trkpt lat="42.324953" lon="-3.014897">
      <ele>818</ele>
    </trkpt>
    <trkpt lat="42.324921" lon="-3.015148">
      <ele>818.5</ele>
    </trkpt>
    <trkpt lat="42.324891" lon="-3.015335">
      <ele>818.7</ele>
    </trkpt>
    <trkpt lat="42.324723" lon="-3.015261">
      <ele>819.1</ele>
    </trkpt>
    <trkpt lat="42.324585" lon="-3.015655">
      <ele>819.6</ele>
    </trkpt>
    <trkpt lat="42.324177" lon="-3.015552">
      <ele>820.2</ele>
    </trkpt>
    <trkpt lat="42.324132" lon="-3.015826">
      <ele>820.6</ele>
    </trkpt>
    <trkpt lat="42.323946" lon="-3.015738">
      <ele>820.9</ele>
    </trkpt>
    <trkpt lat="42.323869" lon="-3.015704">
      <ele>821</ele>
    </trkpt>
    <trkpt lat="42.323743" lon="-3.015648">
      <ele>821.2</ele>
    </trkpt>
    <trkpt lat="42.323617" lon="-3.015928">
      <ele>821.4</ele>
    </trkpt>
    <trkpt lat="42.323697" lon="-3.016573">
      <ele>821.7</ele>
    </trkpt>
    <trkpt lat="42.323741" lon="-3.016704">
      <ele>821.7</ele>
    </trkpt>
    <trkpt lat="42.32383" lon="-3.01676">
      <ele>821.7</ele>
    </trkpt>
    <trkpt lat="42.324083" lon="-3.016902">
      <ele>821.6</ele>
    </trkpt>
    <trkpt lat="42.324281" lon="-3.017169">
      <ele>821.4</ele>
    </trkpt>
    <trkpt lat="42.324304" lon="-3.017362">
      <ele>821.2</ele>
    </trkpt>
    <trkpt lat="42.324576" lon="-3.017769">
      <ele>820.5</ele>
    </trkpt>
    <trkpt lat="42.32508" lon="-3.018644">
      <ele>819.8</ele>
    </trkpt>
    <trkpt lat="42.325183" lon="-3.018747">
      <ele>819.9</ele>
    </trkpt>
    <trkpt lat="42.325313" lon="-3.018812">
      <ele>819.9</ele>
    </trkpt>
    <trkpt lat="42.325393" lon="-3.018961">
      <ele>820.1</ele>
    </trkpt>
    <trkpt lat="42.325532" lon="-3.019502">
      <ele>820.8</ele>
    </trkpt>
    <trkpt lat="42.325608" lon="-3.019978">
      <ele>821.7</ele>
    </trkpt>
    <trkpt lat="42.325676" lon="-3.020131">
      <ele>822.1</ele>
    </trkpt>
    <trkpt lat="42.325664" lon="-3.020552">
      <ele>823.1</ele>
    </trkpt>
    <trkpt lat="42.325711" lon="-3.02083">
      <ele>823.7</ele>
    </trkpt>
    <trkpt lat="42.325585" lon="-3.024637">
      <ele>831.2</ele>
    </trkpt>
    <trkpt lat="42.325623" lon="-3.025089">
      <ele>831.7</ele>
    </trkpt>
    <trkpt lat="42.32561" lon="-3.025214">
      <ele>831.8</ele>
    </trkpt>
    <trkpt lat="42.325498" lon="-3.026534">
      <ele>832.9</ele>
    </trkpt>
    <trkpt lat="42.325326" lon="-3.027375">
      <ele>833.9</ele>
    </trkpt>
    <trkpt lat="42.324753" lon="-3.030757">
      <ele>841.1</ele>
    </trkpt>
    <trkpt lat="42.324644" lon="-3.031333">
      <ele>842.4</ele>
    </trkpt>
    <trkpt lat="42.324534" lon="-3.031909">
      <ele>843.4</ele>
    </trkpt>
    <trkpt lat="42.324533" lon="-3.03204">
      <ele>843.6</ele>
    </trkpt>
    <trkpt lat="42.324532" lon="-3.03225">
      <ele>843.8</ele>
    </trkpt>
    <trkpt lat="42.32459" lon="-3.032981">
      <ele>844.4</ele>
    </trkpt>
    <trkpt lat="42.324626" lon="-3.033151">
      <ele>844.6</ele>
    </trkpt>
    <trkpt lat="42.324675" lon="-3.033245">
      <ele>844.6</ele>
    </trkpt>
    <trkpt lat="42.324754" lon="-3.033396">
      <ele>844.7</ele>
    </trkpt>
    <trkpt lat="42.324874" lon="-3.033511">
      <ele>844.8</ele>
    </trkpt>
    <trkpt lat="42.325122" lon="-3.03382">
      <ele>845</ele>
    </trkpt>
    <trkpt lat="42.32526" lon="-3.033991">
      <ele>845.3</ele>
    </trkpt>
    <trkpt lat="42.325404" lon="-3.034178">
      <ele>845.6</ele>
    </trkpt>
    <trkpt lat="42.325528" lon="-3.034495">
      <ele>846.2</ele>
    </trkpt>
    <trkpt lat="42.325522" lon="-3.034788">
      <ele>846.9</ele>
    </trkpt>
    <trkpt lat="42.325468" lon="-3.035046">
      <ele>847.7</ele>
    </trkpt>
    <trkpt lat="42.325472" lon="-3.035206">
      <ele>848.3</ele>
    </trkpt>
    <trkpt lat="42.325613" lon="-3.035605">
      <ele>850</ele>
    </trkpt>
    <trkpt lat="42.325739" lon="-3.036112">
      <ele>851.8</ele>
    </trkpt>
    <trkpt lat="42.325818" lon="-3.036303">
      <ele>852.6</ele>
    </trkpt>
    <trkpt lat="42.325903" lon="-3.036707">
      <ele>853.9</ele>
    </trkpt>
    <trkpt lat="42.325947" lon="-3.036815">
      <ele>854.2</ele>
    </trkpt>
    <trkpt lat="42.325947" lon="-3.036867">
      <ele>854.4</ele>
    </trkpt>
    <trkpt lat="42.325942" lon="-3.03701">
      <ele>854.9</ele>
    </trkpt>
    <trkpt lat="42.325919" lon="-3.037422">
      <ele>856.2</ele>
    </trkpt>
    <trkpt lat="42.325958" lon="-3.037675">
      <ele>857</ele>
    </trkpt>
    <trkpt lat="42.325944" lon="-3.037895">
      <ele>857.4</ele>
    </trkpt>
    <trkpt lat="42.325971" lon="-3.038061">
      <ele>857.6</ele>
    </trkpt>
    <trkpt lat="42.325964" lon="-3.0382">
      <ele>857.7</ele>
    </trkpt>
    <trkpt lat="42.325962" lon="-3.038257">
      <ele>857.8</ele>
    </trkpt>
    <trkpt lat="42.325959" lon="-3.038384">
      <ele>857.9</ele>
    </trkpt>
    <trkpt lat="42.325979" lon="-3.038451">
      <ele>857.9</ele>
    </trkpt>
    <trkpt lat="42.325949" lon="-3.03885">
      <ele>858.1</ele>
    </trkpt>
    <trkpt lat="42.325943" lon="-3.039048">
      <ele>858.1</ele>
    </trkpt>
    <trkpt lat="42.325916" lon="-3.039033">
      <ele>858.1</ele>
    </trkpt>
    <trkpt lat="42.325792" lon="-3.039255">
      <ele>858.3</ele>
    </trkpt>
    <trkpt lat="42.325609" lon="-3.039387">
      <ele>858.5</ele>
    </trkpt>
    <trkpt lat="42.325558" lon="-3.03954">
      <ele>858.8</ele>
    </trkpt>
    <trkpt lat="42.325291" lon="-3.039468">
      <ele>859.4</ele>
    </trkpt>
    <trkpt lat="42.325261" lon="-3.039563">
      <ele>859.5</ele>
    </trkpt>
    <trkpt lat="42.325082" lon="-3.04036">
      <ele>860.7</ele>
    </trkpt>
    <trkpt lat="42.325147" lon="-3.040489">
      <ele>861</ele>
    </trkpt>
    <trkpt lat="42.325147" lon="-3.040582">
      <ele>861.2</ele>
    </trkpt>
    <trkpt lat="42.324878" lon="-3.041932">
      <ele>864.6</ele>
    </trkpt>
    <trkpt lat="42.324857" lon="-3.042144">
      <ele>864.9</ele>
    </trkpt>
    <trkpt lat="42.324885" lon="-3.042572">
      <ele>865.4</ele>
    </trkpt>
    <trkpt lat="42.324861" lon="-3.042983">
      <ele>865.8</ele>
    </trkpt>
    <trkpt lat="42.324885" lon="-3.04323">
      <ele>866.1</ele>
    </trkpt>
    <trkpt lat="42.324883" lon="-3.043662">
      <ele>866.6</ele>
    </trkpt>
    <trkpt lat="42.324804" lon="-3.044372">
      <ele>867.4</ele>
    </trkpt>
    <trkpt lat="42.324788" lon="-3.044942">
      <ele>868.1</ele>
    </trkpt>
    <trkpt lat="42.324752" lon="-3.045138">
      <ele>868.4</ele>
    </trkpt>
    <trkpt lat="42.324689" lon="-3.04594">
      <ele>869.5</ele>
    </trkpt>
    <trkpt lat="42.324683" lon="-3.046784">
      <ele>870.9</ele>
    </trkpt>
    <trkpt lat="42.324652" lon="-3.047377">
      <ele>871.8</ele>
    </trkpt>
    <trkpt lat="42.324336" lon="-3.048536">
      <ele>873.8</ele>
    </trkpt>
    <trkpt lat="42.324211" lon="-3.048957">
      <ele>874.7</ele>
    </trkpt>
    <trkpt lat="42.324184" lon="-3.049044">
      <ele>874.9</ele>
    </trkpt>
    <trkpt lat="42.321575" lon="-3.057695">
      <ele>899.4</ele>
    </trkpt>
    <trkpt lat="42.321531" lon="-3.057742">
      <ele>899.6</ele>
    </trkpt>
    <trkpt lat="42.321534" lon="-3.057824">
      <ele>899.8</ele>
    </trkpt>
    <trkpt lat="42.321548" lon="-3.058146">
      <ele>900.5</ele>
    </trkpt>
    <trkpt lat="42.321469" lon="-3.059182">
      <ele>902.2</ele>
    </trkpt>
    <trkpt lat="42.321508" lon="-3.059827">
      <ele>902.7</ele>
    </trkpt>
    <trkpt lat="42.321506" lon="-3.060056">
      <ele>902.9</ele>
    </trkpt>
    <trkpt lat="42.321468" lon="-3.06035">
      <ele>903.1</ele>
    </trkpt>
    <trkpt lat="42.321477" lon="-3.060679">
      <ele>903.4</ele>
    </trkpt>
    <trkpt lat="42.321418" lon="-3.060855">
      <ele>903.6</ele>
    </trkpt>
    <trkpt lat="42.321365" lon="-3.060922">
      <ele>903.7</ele>
    </trkpt>
    <trkpt lat="42.321206" lon="-3.061004">
      <ele>904</ele>
    </trkpt>
    <trkpt lat="42.321161" lon="-3.061378">
      <ele>904.5</ele>
    </trkpt>
    <trkpt lat="42.321059" lon="-3.061515">
      <ele>904.9</ele>
    </trkpt>
    <trkpt lat="42.321056" lon="-3.061679">
      <ele>905.2</ele>
    </trkpt>
    <trkpt lat="42.320975" lon="-3.061975">
      <ele>905.8</ele>
    </trkpt>
    <trkpt lat="42.320724" lon="-3.06262">
      <ele>907.6</ele>
    </trkpt>
    <trkpt lat="42.320709" lon="-3.0628">
      <ele>908</ele>
    </trkpt>
    <trkpt lat="42.320667" lon="-3.062907">
      <ele>908.3</ele>
    </trkpt>
    <trkpt lat="42.320576" lon="-3.06304">
      <ele>908.8</ele>
    </trkpt>
    <trkpt lat="42.320548" lon="-3.063232">
      <ele>909.3</ele>
    </trkpt>
    <trkpt lat="42.320652" lon="-3.063444">
      <ele>909.9</ele>
    </trkpt>
    <trkpt lat="42.320659" lon="-3.063547">
      <ele>910.1</ele>
    </trkpt>
    <trkpt lat="42.320538" lon="-3.063965">
      <ele>911.2</ele>
    </trkpt>
    <trkpt lat="42.320346" lon="-3.064418">
      <ele>912.6</ele>
    </trkpt>
    <trkpt lat="42.31983" lon="-3.065464">
      <ele>917</ele>
    </trkpt>
    <trkpt lat="42.319768" lon="-3.065541">
      <ele>917.5</ele>
    </trkpt>
    <trkpt lat="42.319502" lon="-3.065436">
      <ele>919</ele>
    </trkpt>
    <trkpt lat="42.31913" lon="-3.065435">
      <ele>921.1</ele>
    </trkpt>
    <trkpt lat="42.319113" lon="-3.06549">
      <ele>921.3</ele>
    </trkpt>
    <trkpt lat="42.318799" lon="-3.066539">
      <ele>926</ele>
    </trkpt>
    <trkpt lat="42.318631" lon="-3.067099">
      <ele>928</ele>
    </trkpt>
    <trkpt lat="42.318592" lon="-3.067238">
      <ele>928.4</ele>
    </trkpt>
    <trkpt lat="42.318421" lon="-3.067171">
      <ele>929.1</ele>
    </trkpt>
    <trkpt lat="42.318402" lon="-3.066985">
      <ele>929.7</ele>
    </trkpt>
    <trkpt lat="42.318307" lon="-3.066763">
      <ele>930.3</ele>
    </trkpt>
    <trkpt lat="42.318247" lon="-3.066762">
      <ele>930.5</ele>
    </trkpt>
    <trkpt lat="42.318181" lon="-3.066942">
      <ele>930.8</ele>
    </trkpt>
    <trkpt lat="42.318161" lon="-3.06735">
      <ele>931.2</ele>
    </trkpt>
    <trkpt lat="42.318153" lon="-3.067511">
      <ele>931.2</ele>
    </trkpt>
    <trkpt lat="42.317909" lon="-3.067461">
      <ele>931.1</ele>
    </trkpt>
    <trkpt lat="42.317963" lon="-3.067678">
      <ele>930.9</ele>
    </trkpt>
    <trkpt lat="42.317997" lon="-3.067732">
      <ele>930.8</ele>
    </trkpt>
    <trkpt lat="42.318014" lon="-3.06776">
      <ele>930.8</ele>
    </trkpt>
    <trkpt lat="42.318031" lon="-3.06803">
      <ele>930.5</ele>
    </trkpt>
    <trkpt lat="42.318056" lon="-3.068055">
      <ele>930.4</ele>
    </trkpt>
    <trkpt lat="42.318279" lon="-3.06827">
      <ele>930</ele>
    </trkpt>
    <trkpt lat="42.318248" lon="-3.068385">
      <ele>929.9</ele>
    </trkpt>
    <trkpt lat="42.318384" lon="-3.068649">
      <ele>929.6</ele>
    </trkpt>
    <trkpt lat="42.318747" lon="-3.069097">
      <ele>929.1</ele>
    </trkpt>
    <trkpt lat="42.318591" lon="-3.06959">
      <ele>929.3</ele>
    </trkpt>
    <trkpt lat="42.318505" lon="-3.06975">
      <ele>929.4</ele>
    </trkpt>
    <trkpt lat="42.31825" lon="-3.070094">
      <ele>930.1</ele>
    </trkpt>
    <trkpt lat="42.318214" lon="-3.070191">
      <ele>930.2</ele>
    </trkpt>
    <trkpt lat="42.318163" lon="-3.070676">
      <ele>931.2</ele>
    </trkpt>
    <trkpt lat="42.318086" lon="-3.071109">
      <ele>932.2</ele>
    </trkpt>
    <trkpt lat="42.318114" lon="-3.071159">
      <ele>932.3</ele>
    </trkpt>
    <trkpt lat="42.318337" lon="-3.071514">
      <ele>933.7</ele>
    </trkpt>
    <trkpt lat="42.3186" lon="-3.07195">
      <ele>935.6</ele>
    </trkpt>
    <trkpt lat="42.318774" lon="-3.072405">
      <ele>937.7</ele>
    </trkpt>
    <trkpt lat="42.31888" lon="-3.07268">
      <ele>939.2</ele>
    </trkpt>
    <trkpt lat="42.318895" lon="-3.072768">
      <ele>939.6</ele>
    </trkpt>
    <trkpt lat="42.319014" lon="-3.073478">
      <ele>943.3</ele>
    </trkpt>
    <trkpt lat="42.319034" lon="-3.074246">
      <ele>947.2</ele>
    </trkpt>
    <trkpt lat="42.319016" lon="-3.074509">
      <ele>948.5</ele>
    </trkpt>
    <trkpt lat="42.318985" lon="-3.07479">
      <ele>949.8</ele>
    </trkpt>
    <trkpt lat="42.319042" lon="-3.074869">
      <ele>950.3</ele>
    </trkpt>
    <trkpt lat="42.318957" lon="-3.075476">
      <ele>952.8</ele>
    </trkpt>
    <trkpt lat="42.318835" lon="-3.076081">
      <ele>955.3</ele>
    </trkpt>
    <trkpt lat="42.318608" lon="-3.076964">
      <ele>959.3</ele>
    </trkpt>
    <trkpt lat="42.318442" lon="-3.077511">
      <ele>961.8</ele>
    </trkpt>
    <trkpt lat="42.318495" lon="-3.077517">
      <ele>962</ele>
    </trkpt>
    <trkpt lat="42.318489" lon="-3.077626">
      <ele>962.3</ele>
    </trkpt>
    <trkpt lat="42.318399" lon="-3.078006">
      <ele>963.1</ele>
    </trkpt>
    <trkpt lat="42.318435" lon="-3.078167">
      <ele>963.4</ele>
    </trkpt>
    <trkpt lat="42.318438" lon="-3.078313">
      <ele>963.7</ele>
    </trkpt>
    <trkpt lat="42.318411" lon="-3.078444">
      <ele>963.9</ele>
    </trkpt>
    <trkpt lat="42.318306" lon="-3.078661">
      <ele>964.1</ele>
    </trkpt>
    <trkpt lat="42.318225" lon="-3.078718">
      <ele>964.2</ele>
    </trkpt>
    <trkpt lat="42.318126" lon="-3.078683">
      <ele>964.2</ele>
    </trkpt>
    <trkpt lat="42.318046" lon="-3.078567">
      <ele>964.1</ele>
    </trkpt>
    <trkpt lat="42.318069" lon="-3.078412">
      <ele>963.9</ele>
    </trkpt>
    <trkpt lat="42.318108" lon="-3.078282">
      <ele>963.7</ele>
    </trkpt>
    <trkpt lat="42.318149" lon="-3.078146">
      <ele>963.3</ele>
    </trkpt>
    <trkpt lat="42.318196" lon="-3.078169">
      <ele>963.2</ele>
    </trkpt>
    <trkpt lat="42.318216" lon="-3.078176">
      <ele>963.1</ele>
    </trkpt>
    <trkpt lat="42.318277" lon="-3.078066">
      <ele>962.7</ele>
    </trkpt>
    <trkpt lat="42.318442" lon="-3.077511">
      <ele>960.6</ele>
    </trkpt>
    <trkpt lat="42.318608" lon="-3.076964">
      <ele>958.8</ele>
    </trkpt>
    <trkpt lat="42.318835" lon="-3.076081">
      <ele>955.3</ele>
    </trkpt>
    <trkpt lat="42.318957" lon="-3.075476">
      <ele>952.8</ele>
    </trkpt>
    <trkpt lat="42.319042" lon="-3.074869">
      <ele>950.3</ele>
    </trkpt>
    <trkpt lat="42.318985" lon="-3.07479">
      <ele>949.8</ele>
    </trkpt>
    <trkpt lat="42.319016" lon="-3.074509">
      <ele>948.5</ele>
    </trkpt>
    <trkpt lat="42.319034" lon="-3.074246">
      <ele>947.2</ele>
    </trkpt>
    <trkpt lat="42.319014" lon="-3.073478">
      <ele>943.3</ele>
    </trkpt>
    <trkpt lat="42.318895" lon="-3.072768">
      <ele>939.6</ele>
    </trkpt>
    <trkpt lat="42.31888" lon="-3.07268">
      <ele>939.2</ele>
    </trkpt>
    <trkpt lat="42.318774" lon="-3.072405">
      <ele>937.7</ele>
    </trkpt>
    <trkpt lat="42.3186" lon="-3.07195">
      <ele>935.7</ele>
    </trkpt>
    <trkpt lat="42.318337" lon="-3.071514">
      <ele>934.3</ele>
    </trkpt>
    <trkpt lat="42.318114" lon="-3.071159">
      <ele>933.6</ele>
    </trkpt>
    <trkpt lat="42.318086" lon="-3.071109">
      <ele>933.5</ele>
    </trkpt>
    <trkpt lat="42.317952" lon="-3.070873">
      <ele>933.1</ele>
    </trkpt>
    <trkpt lat="42.317869" lon="-3.070855">
      <ele>933.1</ele>
    </trkpt>
    <trkpt lat="42.317772" lon="-3.0707">
      <ele>932.9</ele>
    </trkpt>
    <trkpt lat="42.317715" lon="-3.07052">
      <ele>932.8</ele>
    </trkpt>
    <trkpt lat="42.317714" lon="-3.070177">
      <ele>932.5</ele>
    </trkpt>
    <trkpt lat="42.317805" lon="-3.069993">
      <ele>932.4</ele>
    </trkpt>
    <trkpt lat="42.31783" lon="-3.06983">
      <ele>932.2</ele>
    </trkpt>
    <trkpt lat="42.318005" lon="-3.069226">
      <ele>931.8</ele>
    </trkpt>
    <trkpt lat="42.318248" lon="-3.068385">
      <ele>931.7</ele>
    </trkpt>
    <trkpt lat="42.318279" lon="-3.06827">
      <ele>931.8</ele>
    </trkpt>
    <trkpt lat="42.318056" lon="-3.068055">
      <ele>932.2</ele>
    </trkpt>
    <trkpt lat="42.318031" lon="-3.06803">
      <ele>932.2</ele>
    </trkpt>
    <trkpt lat="42.318014" lon="-3.06776">
      <ele>932.6</ele>
    </trkpt>
    <trkpt lat="42.317997" lon="-3.067732">
      <ele>932.6</ele>
    </trkpt>
    <trkpt lat="42.317963" lon="-3.067678">
      <ele>932.8</ele>
    </trkpt>
    <trkpt lat="42.317909" lon="-3.067461">
      <ele>933.1</ele>
    </trkpt>
    <trkpt lat="42.317844" lon="-3.067396">
      <ele>933.3</ele>
    </trkpt>
    <trkpt lat="42.317687" lon="-3.067282">
      <ele>933.7</ele>
    </trkpt>
    <trkpt lat="42.317644" lon="-3.067261">
      <ele>933.8</ele>
    </trkpt>
    <trkpt lat="42.317729" lon="-3.066893">
      <ele>934.3</ele>
    </trkpt>
    <trkpt lat="42.317661" lon="-3.066083">
      <ele>933.8</ele>
    </trkpt>
    <trkpt lat="42.317668" lon="-3.065984">
      <ele>933.5</ele>
    </trkpt>
    <trkpt lat="42.317799" lon="-3.065416">
      <ele>931.6</ele>
    </trkpt>
    <trkpt lat="42.317881" lon="-3.065417">
      <ele>931.1</ele>
    </trkpt>
    <trkpt lat="42.318547" lon="-3.065365">
      <ele>926.6</ele>
    </trkpt>
    <trkpt lat="42.319113" lon="-3.06549">
      <ele>922.3</ele>
    </trkpt>
    <trkpt lat="42.31913" lon="-3.065435">
      <ele>922</ele>
    </trkpt>
    <trkpt lat="42.319502" lon="-3.065436">
      <ele>919.4</ele>
    </trkpt>
    <trkpt lat="42.319768" lon="-3.065541">
      <ele>917.6</ele>
    </trkpt>
    <trkpt lat="42.31983" lon="-3.065464">
      <ele>917.1</ele>
    </trkpt>
    <trkpt lat="42.320346" lon="-3.064418">
      <ele>912.6</ele>
    </trkpt>
    <trkpt lat="42.320538" lon="-3.063965">
      <ele>911.2</ele>
    </trkpt>
    <trkpt lat="42.320659" lon="-3.063547">
      <ele>910.1</ele>
    </trkpt>
    <trkpt lat="42.320652" lon="-3.063444">
      <ele>909.9</ele>
    </trkpt>
    <trkpt lat="42.320548" lon="-3.063232">
      <ele>909.3</ele>
    </trkpt>
    <trkpt lat="42.320576" lon="-3.06304">
      <ele>908.8</ele>
    </trkpt>
    <trkpt lat="42.320667" lon="-3.062907">
      <ele>908.3</ele>
    </trkpt>
    <trkpt lat="42.320709" lon="-3.0628">
      <ele>908</ele>
    </trkpt>
    <trkpt lat="42.320724" lon="-3.06262">
      <ele>907.6</ele>
    </trkpt>
    <trkpt lat="42.320975" lon="-3.061975">
      <ele>905.8</ele>
    </trkpt>
    <trkpt lat="42.321056" lon="-3.061679">
      <ele>905.2</ele>
    </trkpt>
    <trkpt lat="42.321059" lon="-3.061515">
      <ele>904.9</ele>
    </trkpt>
    <trkpt lat="42.321161" lon="-3.061378">
      <ele>904.5</ele>
    </trkpt>
    <trkpt lat="42.321206" lon="-3.061004">
      <ele>904</ele>
    </trkpt>
    <trkpt lat="42.321365" lon="-3.060922">
      <ele>903.7</ele>
    </trkpt>
    <trkpt lat="42.321418" lon="-3.060855">
      <ele>903.6</ele>
    </trkpt>
    <trkpt lat="42.321477" lon="-3.060679">
      <ele>903.4</ele>
    </trkpt>
    <trkpt lat="42.321468" lon="-3.06035">
      <ele>903.1</ele>
    </trkpt>
    <trkpt lat="42.321506" lon="-3.060056">
      <ele>902.8</ele>
    </trkpt>
    <trkpt lat="42.321508" lon="-3.059827">
      <ele>902.6</ele>
    </trkpt>
    <trkpt lat="42.321469" lon="-3.059182">
      <ele>901.9</ele>
    </trkpt>
    <trkpt lat="42.321616" lon="-3.059184">
      <ele>901.6</ele>
    </trkpt>
    <trkpt lat="42.321888" lon="-3.059253">
      <ele>900.9</ele>
    </trkpt>
    <trkpt lat="42.321982" lon="-3.059191">
      <ele>900.6</ele>
    </trkpt>
    <trkpt lat="42.322069" lon="-3.059061">
      <ele>900.2</ele>
    </trkpt>
    <trkpt lat="42.322229" lon="-3.058437">
      <ele>898.5</ele>
    </trkpt>
    <trkpt lat="42.322267" lon="-3.058412">
      <ele>898.3</ele>
    </trkpt>
    <trkpt lat="42.322352" lon="-3.058432">
      <ele>898</ele>
    </trkpt>
    <trkpt lat="42.322675" lon="-3.058667">
      <ele>896.7</ele>
    </trkpt>
    <trkpt lat="42.322729" lon="-3.058524">
      <ele>896.3</ele>
    </trkpt>
    <trkpt lat="42.32297" lon="-3.058275">
      <ele>895.4</ele>
    </trkpt>
    <trkpt lat="42.323497" lon="-3.058037">
      <ele>893.7</ele>
    </trkpt>
    <trkpt lat="42.323645" lon="-3.057553">
      <ele>892.7</ele>
    </trkpt>
    <trkpt lat="42.323675" lon="-3.057228">
      <ele>892.2</ele>
    </trkpt>
    <trkpt lat="42.323565" lon="-3.056823">
      <ele>891.4</ele>
    </trkpt>
    <trkpt lat="42.32359" lon="-3.05651">
      <ele>890.9</ele>
    </trkpt>
    <trkpt lat="42.323632" lon="-3.056329">
      <ele>890.5</ele>
    </trkpt>
    <trkpt lat="42.32373" lon="-3.056091">
      <ele>890</ele>
    </trkpt>
    <trkpt lat="42.323873" lon="-3.055937">
      <ele>889.5</ele>
    </trkpt>
    <trkpt lat="42.323929" lon="-3.055788">
      <ele>889.1</ele>
    </trkpt>
    <trkpt lat="42.324014" lon="-3.054911">
      <ele>887.2</ele>
    </trkpt>
    <trkpt lat="42.32407" lon="-3.054614">
      <ele>886.5</ele>
    </trkpt>
    <trkpt lat="42.324077" lon="-3.054266">
      <ele>885.7</ele>
    </trkpt>
    <trkpt lat="42.32422" lon="-3.053779">
      <ele>884.4</ele>
    </trkpt>
    <trkpt lat="42.32427" lon="-3.053167">
      <ele>882.9</ele>
    </trkpt>
    <trkpt lat="42.324263" lon="-3.05306">
      <ele>882.6</ele>
    </trkpt>
    <trkpt lat="42.324219" lon="-3.052934">
      <ele>882.3</ele>
    </trkpt>
    <trkpt lat="42.32438" lon="-3.051982">
      <ele>880.2</ele>
    </trkpt>
    <trkpt lat="42.324441" lon="-3.051735">
      <ele>879.7</ele>
    </trkpt>
    <trkpt lat="42.324443" lon="-3.051277">
      <ele>878.8</ele>
    </trkpt>
    <trkpt lat="42.324385" lon="-3.050599">
      <ele>877.6</ele>
    </trkpt>
    <trkpt lat="42.324389" lon="-3.050432">
      <ele>877.3</ele>
    </trkpt>
    <trkpt lat="42.324456" lon="-3.050277">
      <ele>877</ele>
    </trkpt>
    <trkpt lat="42.324478" lon="-3.050134">
      <ele>876.7</ele>
    </trkpt>
    <trkpt lat="42.324476" lon="-3.049957">
      <ele>876.3</ele>
    </trkpt>
    <trkpt lat="42.324412" lon="-3.049587">
      <ele>875.6</ele>
    </trkpt>
    <trkpt lat="42.324315" lon="-3.049194">
      <ele>874.9</ele>
    </trkpt>
    <trkpt lat="42.324352" lon="-3.048684">
      <ele>874</ele>
    </trkpt>
    <trkpt lat="42.324336" lon="-3.048536">
      <ele>873.8</ele>
    </trkpt>
    <trkpt lat="42.324652" lon="-3.047377">
      <ele>871.8</ele>
    </trkpt>
    <trkpt lat="42.324683" lon="-3.046784">
      <ele>870.9</ele>
    </trkpt>
    <trkpt lat="42.324689" lon="-3.04594">
      <ele>869.5</ele>
    </trkpt>
    <trkpt lat="42.324752" lon="-3.045138">
      <ele>868.4</ele>
    </trkpt>
    <trkpt lat="42.324788" lon="-3.044942">
      <ele>868.1</ele>
    </trkpt>
    <trkpt lat="42.324804" lon="-3.044372">
      <ele>867.4</ele>
    </trkpt>
    <trkpt lat="42.324883" lon="-3.043662">
      <ele>866.6</ele>
    </trkpt>
    <trkpt lat="42.324885" lon="-3.04323">
      <ele>866.1</ele>
    </trkpt>
    <trkpt lat="42.324861" lon="-3.042983">
      <ele>865.8</ele>
    </trkpt>
    <trkpt lat="42.324885" lon="-3.042572">
      <ele>865.4</ele>
    </trkpt>
    <trkpt lat="42.324857" lon="-3.042144">
      <ele>864.9</ele>
    </trkpt>
    <trkpt lat="42.324878" lon="-3.041932">
      <ele>864.6</ele>
    </trkpt>
    <trkpt lat="42.325147" lon="-3.040582">
      <ele>861.2</ele>
    </trkpt>
    <trkpt lat="42.325147" lon="-3.040489">
      <ele>861</ele>
    </trkpt>
    <trkpt lat="42.325082" lon="-3.04036">
      <ele>860.7</ele>
    </trkpt>
    <trkpt lat="42.325261" lon="-3.039563">
      <ele>859.5</ele>
    </trkpt>
    <trkpt lat="42.325291" lon="-3.039468">
      <ele>859.4</ele>
    </trkpt>
    <trkpt lat="42.325558" lon="-3.03954">
      <ele>858.8</ele>
    </trkpt>
    <trkpt lat="42.325609" lon="-3.039387">
      <ele>858.5</ele>
    </trkpt>
    <trkpt lat="42.325792" lon="-3.039255">
      <ele>858.3</ele>
    </trkpt>
    <trkpt lat="42.325916" lon="-3.039033">
      <ele>858.1</ele>
    </trkpt>
    <trkpt lat="42.325943" lon="-3.039048">
      <ele>858.1</ele>
    </trkpt>
    <trkpt lat="42.325949" lon="-3.03885">
      <ele>858.1</ele>
    </trkpt>
    <trkpt lat="42.325979" lon="-3.038451">
      <ele>857.9</ele>
    </trkpt>
    <trkpt lat="42.325959" lon="-3.038384">
      <ele>857.9</ele>
    </trkpt>
    <trkpt lat="42.325962" lon="-3.038257">
      <ele>857.8</ele>
    </trkpt>
    <trkpt lat="42.325964" lon="-3.0382">
      <ele>857.7</ele>
    </trkpt>
    <trkpt lat="42.325971" lon="-3.038061">
      <ele>857.6</ele>
    </trkpt>
    <trkpt lat="42.325944" lon="-3.037895">
      <ele>857.4</ele>
    </trkpt>
    <trkpt lat="42.325958" lon="-3.037675">
      <ele>857</ele>
    </trkpt>
    <trkpt lat="42.325919" lon="-3.037422">
      <ele>856.2</ele>
    </trkpt>
    <trkpt lat="42.325942" lon="-3.03701">
      <ele>854.9</ele>
    </trkpt>
    <trkpt lat="42.325947" lon="-3.036867">
      <ele>854.4</ele>
    </trkpt>
    <trkpt lat="42.325947" lon="-3.036815">
      <ele>854.2</ele>
    </trkpt>
    <trkpt lat="42.325903" lon="-3.036707">
      <ele>853.9</ele>
    </trkpt>
    <trkpt lat="42.325818" lon="-3.036303">
      <ele>852.6</ele>
    </trkpt>
    <trkpt lat="42.325739" lon="-3.036112">
      <ele>851.8</ele>
    </trkpt>
    <trkpt lat="42.325613" lon="-3.035605">
      <ele>850</ele>
    </trkpt>
    <trkpt lat="42.325472" lon="-3.035206">
      <ele>848.3</ele>
    </trkpt>
    <trkpt lat="42.325468" lon="-3.035046">
      <ele>847.7</ele>
    </trkpt>
    <trkpt lat="42.325522" lon="-3.034788">
      <ele>846.9</ele>
    </trkpt>
    <trkpt lat="42.325528" lon="-3.034495">
      <ele>846.2</ele>
    </trkpt>
    <trkpt lat="42.325404" lon="-3.034178">
      <ele>845.6</ele>
    </trkpt>
    <trkpt lat="42.32526" lon="-3.033991">
      <ele>845.3</ele>
    </trkpt>
    <trkpt lat="42.325122" lon="-3.03382">
      <ele>845</ele>
    </trkpt>
    <trkpt lat="42.324874" lon="-3.033511">
      <ele>844.8</ele>
    </trkpt>
    <trkpt lat="42.324754" lon="-3.033396">
      <ele>844.7</ele>
    </trkpt>
    <trkpt lat="42.324675" lon="-3.033245">
      <ele>844.6</ele>
    </trkpt>
    <trkpt lat="42.324626" lon="-3.033151">
      <ele>844.6</ele>
    </trkpt>
    <trkpt lat="42.32459" lon="-3.032981">
      <ele>844.4</ele>
    </trkpt>
    <trkpt lat="42.324532" lon="-3.03225">
      <ele>843.8</ele>
    </trkpt>
    <trkpt lat="42.324533" lon="-3.03204">
      <ele>843.6</ele>
    </trkpt>
    <trkpt lat="42.324534" lon="-3.031909">
      <ele>843.4</ele>
    </trkpt>
    <trkpt lat="42.324644" lon="-3.031333">
      <ele>842.4</ele>
    </trkpt>
    <trkpt lat="42.324753" lon="-3.030757">
      <ele>841.1</ele>
    </trkpt>
    <trkpt lat="42.325326" lon="-3.027375">
      <ele>833.9</ele>
    </trkpt>
    <trkpt lat="42.325498" lon="-3.026534">
      <ele>832.9</ele>
    </trkpt>
    <trkpt lat="42.32561" lon="-3.025214">
      <ele>831.8</ele>
    </trkpt>
    <trkpt lat="42.325623" lon="-3.025089">
      <ele>831.7</ele>
    </trkpt>
    <trkpt lat="42.325585" lon="-3.024637">
      <ele>831.2</ele>
    </trkpt>
    <trkpt lat="42.325711" lon="-3.02083">
      <ele>823.7</ele>
    </trkpt>
    <trkpt lat="42.325664" lon="-3.020552">
      <ele>823.1</ele>
    </trkpt>
    <trkpt lat="42.325676" lon="-3.020131">
      <ele>822.1</ele>
    </trkpt>
    <trkpt lat="42.325608" lon="-3.019978">
      <ele>821.7</ele>
    </trkpt>
    <trkpt lat="42.325532" lon="-3.019502">
      <ele>820.8</ele>
    </trkpt>
    <trkpt lat="42.325393" lon="-3.018961">
      <ele>820.1</ele>
    </trkpt>
    <trkpt lat="42.325313" lon="-3.018812">
      <ele>819.9</ele>
    </trkpt>
    <trkpt lat="42.325183" lon="-3.018747">
      <ele>819.9</ele>
    </trkpt>
    <trkpt lat="42.32508" lon="-3.018644">
      <ele>819.8</ele>
    </trkpt>
    <trkpt lat="42.324576" lon="-3.017769">
      <ele>820.3</ele>
    </trkpt>
    <trkpt lat="42.324304" lon="-3.017362">
      <ele>820.2</ele>
    </trkpt>
    <trkpt lat="42.324281" lon="-3.017169">
      <ele>820.2</ele>
    </trkpt>
    <trkpt lat="42.324083" lon="-3.016902">
      <ele>820.1</ele>
    </trkpt>
    <trkpt lat="42.324317" lon="-3.016764">
      <ele>819.9</ele>
    </trkpt>
    <trkpt lat="42.3246" lon="-3.016475">
      <ele>819.6</ele>
    </trkpt>
    <trkpt lat="42.324689" lon="-3.016371">
      <ele>819.5</ele>
    </trkpt>
    <trkpt lat="42.324786" lon="-3.016163">
      <ele>819.2</ele>
    </trkpt>
    <trkpt lat="42.324891" lon="-3.015335">
      <ele>818.1</ele>
    </trkpt>
    <trkpt lat="42.324921" lon="-3.015148">
      <ele>817.9</ele>
    </trkpt>
    <trkpt lat="42.325603" lon="-3.015255">
      <ele>816.8</ele>
    </trkpt>
    <trkpt lat="42.326024" lon="-3.015287">
      <ele>815.7</ele>
    </trkpt>
    <trkpt lat="42.326051" lon="-3.014985">
      <ele>815</ele>
    </trkpt>
    <trkpt lat="42.326439" lon="-3.015105">
      <ele>813.6</ele>
    </trkpt>
    <trkpt lat="42.326431" lon="-3.015051">
      <ele>813.5</ele>
    </trkpt>
    <trkpt lat="42.326934" lon="-3.014907">
      <ele>811.7</ele>
    </trkpt>
    <trkpt lat="42.327457" lon="-3.014758">
      <ele>810.1</ele>
    </trkpt>
    <trkpt lat="42.328326" lon="-3.014539">
      <ele>808.4</ele>
    </trkpt>
    <trkpt lat="42.328688" lon="-3.014441">
      <ele>808.2</ele>
    </trkpt>
    <trkpt lat="42.328675" lon="-3.014101">
      <ele>808.1</ele>
    </trkpt>
    </trkseg>
  </trk>
</gpx>
