<?xml version="1.0" encoding="UTF-8"?>
<gpx version="1.1" creator="fitAI Komoot downloader" xmlns="http://www.topografix.com/GPX/1/1">
  <metadata>
    <name>Fuente en Navarrete y Paisajes típicos de La Rioja - Recorrido circular desde Lardero</name>
    <desc>177 visitas · Dificultad: moderate · Distancia: 57.8 km · Desnivel +: 642 m</desc>
    <link href="https://www.komoot.com/smarttour/e31916888"><text>Komoot</text></link>
  </metadata>
  <trk>
    <name>Fuente en Navarrete y Paisajes típicos de La Rioja - Recorrido circular desde Lardero</name>
    <type>racebike</type>
    <trkseg>
    <trkpt lat="42.422899" lon="-2.458347">
      <ele>437.8</ele>
    </trkpt>
    <trkpt lat="42.422694" lon="-2.458141">
      <ele>437.4</ele>
    </trkpt>
    <trkpt lat="42.422449" lon="-2.457993">
      <ele>436.9</ele>
    </trkpt>
    <trkpt lat="42.422349" lon="-2.457955">
      <ele>436.7</ele>
    </trkpt>
    <trkpt lat="42.422324" lon="-2.457832">
      <ele>436.6</ele>
    </trkpt>
    <trkpt lat="42.422337" lon="-2.45779">
      <ele>436.5</ele>
    </trkpt>
    <trkpt lat="42.422259" lon="-2.457704">
      <ele>436.3</ele>
    </trkpt>
    <trkpt lat="42.422142" lon="-2.457593">
      <ele>436</ele>
    </trkpt>
    <trkpt lat="42.421821" lon="-2.457244">
      <ele>435.3</ele>
    </trkpt>
    <trkpt lat="42.421205" lon="-2.456597">
      <ele>434.1</ele>
    </trkpt>
    <trkpt lat="42.420861" lon="-2.456239">
      <ele>433.9</ele>
    </trkpt>
    <trkpt lat="42.420544" lon="-2.4559">
      <ele>433.9</ele>
    </trkpt>
    <trkpt lat="42.418994" lon="-2.454257">
      <ele>434</ele>
    </trkpt>
    <trkpt lat="42.418194" lon="-2.453413">
      <ele>434.3</ele>
    </trkpt>
    <trkpt lat="42.417836" lon="-2.45303">
      <ele>434.5</ele>
    </trkpt>
    <trkpt lat="42.414959" lon="-2.450017">
      <ele>436.7</ele>
    </trkpt>
    <trkpt lat="42.414303" lon="-2.449541">
      <ele>437.4</ele>
    </trkpt>
    <trkpt lat="42.41307" lon="-2.448679">
      <ele>438.7</ele>
    </trkpt>
    <trkpt lat="42.412269" lon="-2.448191">
      <ele>439.2</ele>
    </trkpt>
    <trkpt lat="42.411341" lon="-2.447376">
      <ele>440</ele>
    </trkpt>
    <trkpt lat="42.41047" lon="-2.446612">
      <ele>440.9</ele>
    </trkpt>
    <trkpt lat="42.410049" lon="-2.446214">
      <ele>441</ele>
    </trkpt>
    <trkpt lat="42.409411" lon="-2.44539">
      <ele>440</ele>
    </trkpt>
    <trkpt lat="42.409088" lon="-2.444852">
      <ele>439.2</ele>
    </trkpt>
    <trkpt lat="42.408856" lon="-2.444398">
      <ele>438.6</ele>
    </trkpt>
    <trkpt lat="42.408726" lon="-2.444095">
      <ele>438.3</ele>
    </trkpt>
    <trkpt lat="42.408611" lon="-2.443662">
      <ele>438.1</ele>
    </trkpt>
    <trkpt lat="42.40852" lon="-2.443294">
      <ele>437.9</ele>
    </trkpt>
    <trkpt lat="42.40834" lon="-2.44245">
      <ele>437.7</ele>
    </trkpt>
    <trkpt lat="42.40818" lon="-2.441735">
      <ele>438</ele>
    </trkpt>
    <trkpt lat="42.40805" lon="-2.441153">
      <ele>438.6</ele>
    </trkpt>
    <trkpt lat="42.407963" lon="-2.440762">
      <ele>439.3</ele>
    </trkpt>
    <trkpt lat="42.407777" lon="-2.440058">
      <ele>440.7</ele>
    </trkpt>
    <trkpt lat="42.407699" lon="-2.439805">
      <ele>441.4</ele>
    </trkpt>
    <trkpt lat="42.407535" lon="-2.439371">
      <ele>442.8</ele>
    </trkpt>
    <trkpt lat="42.407429" lon="-2.439087">
      <ele>443.8</ele>
    </trkpt>
    <trkpt lat="42.407416" lon="-2.439096">
      <ele>443.9</ele>
    </trkpt>
    <trkpt lat="42.406988" lon="-2.439395">
      <ele>446.1</ele>
    </trkpt>
    <trkpt lat="42.406642" lon="-2.439604">
      <ele>447.7</ele>
    </trkpt>
    <trkpt lat="42.406356" lon="-2.439739">
      <ele>449</ele>
    </trkpt>
    <trkpt lat="42.406255" lon="-2.439788">
      <ele>449.4</ele>
    </trkpt>
    <trkpt lat="42.405759" lon="-2.439993">
      <ele>451</ele>
    </trkpt>
    <trkpt lat="42.40546" lon="-2.440134">
      <ele>452</ele>
    </trkpt>
    <trkpt lat="42.405125" lon="-2.440292">
      <ele>452.9</ele>
    </trkpt>
    <trkpt lat="42.404877" lon="-2.440569">
      <ele>453.7</ele>
    </trkpt>
    <trkpt lat="42.40479" lon="-2.440629">
      <ele>453.9</ele>
    </trkpt>
    <trkpt lat="42.404608" lon="-2.440651">
      <ele>454.3</ele>
    </trkpt>
    <trkpt lat="42.404483" lon="-2.440652">
      <ele>454.6</ele>
    </trkpt>
    <trkpt lat="42.404011" lon="-2.440721">
      <ele>456</ele>
    </trkpt>
    <trkpt lat="42.403754" lon="-2.440857">
      <ele>456.9</ele>
    </trkpt>
    <trkpt lat="42.402796" lon="-2.441866">
      <ele>462.1</ele>
    </trkpt>
    <trkpt lat="42.402281" lon="-2.442234">
      <ele>464.8</ele>
    </trkpt>
    <trkpt lat="42.402017" lon="-2.442461">
      <ele>466.1</ele>
    </trkpt>
    <trkpt lat="42.401645" lon="-2.442987">
      <ele>468</ele>
    </trkpt>
    <trkpt lat="42.400945" lon="-2.44394">
      <ele>470.6</ele>
    </trkpt>
    <trkpt lat="42.400552" lon="-2.444315">
      <ele>471.8</ele>
    </trkpt>
    <trkpt lat="42.399227" lon="-2.444992">
      <ele>476.1</ele>
    </trkpt>
    <trkpt lat="42.399026" lon="-2.445095">
      <ele>476.8</ele>
    </trkpt>
    <trkpt lat="42.39772" lon="-2.445762">
      <ele>480.1</ele>
    </trkpt>
    <trkpt lat="42.397557" lon="-2.445866">
      <ele>480.4</ele>
    </trkpt>
    <trkpt lat="42.397382" lon="-2.44605">
      <ele>480.7</ele>
    </trkpt>
    <trkpt lat="42.397229" lon="-2.446268">
      <ele>481</ele>
    </trkpt>
    <trkpt lat="42.396936" lon="-2.446774">
      <ele>481.5</ele>
    </trkpt>
    <trkpt lat="42.396089" lon="-2.448351">
      <ele>482.1</ele>
    </trkpt>
    <trkpt lat="42.395962" lon="-2.448542">
      <ele>482</ele>
    </trkpt>
    <trkpt lat="42.393864" lon="-2.450985">
      <ele>481.1</ele>
    </trkpt>
    <trkpt lat="42.392591" lon="-2.452467">
      <ele>481.9</ele>
    </trkpt>
    <trkpt lat="42.392399" lon="-2.452648">
      <ele>482.1</ele>
    </trkpt>
    <trkpt lat="42.390935" lon="-2.453689">
      <ele>483</ele>
    </trkpt>
    <trkpt lat="42.388403" lon="-2.455442">
      <ele>477.8</ele>
    </trkpt>
    <trkpt lat="42.387127" lon="-2.456096">
      <ele>476.7</ele>
    </trkpt>
    <trkpt lat="42.384691" lon="-2.457339">
      <ele>479.6</ele>
    </trkpt>
    <trkpt lat="42.384252" lon="-2.457568">
      <ele>480.7</ele>
    </trkpt>
    <trkpt lat="42.38406" lon="-2.457688">
      <ele>481.2</ele>
    </trkpt>
    <trkpt lat="42.383886" lon="-2.457838">
      <ele>481.7</ele>
    </trkpt>
    <trkpt lat="42.382519" lon="-2.45925">
      <ele>483.9</ele>
    </trkpt>
    <trkpt lat="42.382325" lon="-2.45945">
      <ele>484</ele>
    </trkpt>
    <trkpt lat="42.381805" lon="-2.459906">
      <ele>484.2</ele>
    </trkpt>
    <trkpt lat="42.381284" lon="-2.460361">
      <ele>485.1</ele>
    </trkpt>
    <trkpt lat="42.381105" lon="-2.460435">
      <ele>485.5</ele>
    </trkpt>
    <trkpt lat="42.378961" lon="-2.460959">
      <ele>494.1</ele>
    </trkpt>
    <trkpt lat="42.378117" lon="-2.461099">
      <ele>497.3</ele>
    </trkpt>
    <trkpt lat="42.377746" lon="-2.461199">
      <ele>498.2</ele>
    </trkpt>
    <trkpt lat="42.375926" lon="-2.462297">
      <ele>500.3</ele>
    </trkpt>
    <trkpt lat="42.375619" lon="-2.462553">
      <ele>500.2</ele>
    </trkpt>
    <trkpt lat="42.375137" lon="-2.463097">
      <ele>499.9</ele>
    </trkpt>
    <trkpt lat="42.374767" lon="-2.463452">
      <ele>499.8</ele>
    </trkpt>
    <trkpt lat="42.374385" lon="-2.463746">
      <ele>499.7</ele>
    </trkpt>
    <trkpt lat="42.373687" lon="-2.464076">
      <ele>499.6</ele>
    </trkpt>
    <trkpt lat="42.371486" lon="-2.465117">
      <ele>499.8</ele>
    </trkpt>
    <trkpt lat="42.369745" lon="-2.465976">
      <ele>502.4</ele>
    </trkpt>
    <trkpt lat="42.367456" lon="-2.467105">
      <ele>511.2</ele>
    </trkpt>
    <trkpt lat="42.367208" lon="-2.467139">
      <ele>511.9</ele>
    </trkpt>
    <trkpt lat="42.366673" lon="-2.467197">
      <ele>513.3</ele>
    </trkpt>
    <trkpt lat="42.365868" lon="-2.467547">
      <ele>514.6</ele>
    </trkpt>
    <trkpt lat="42.364881" lon="-2.467929">
      <ele>514.6</ele>
    </trkpt>
    <trkpt lat="42.363967" lon="-2.468113">
      <ele>513.6</ele>
    </trkpt>
    <trkpt lat="42.363751" lon="-2.468215">
      <ele>513.6</ele>
    </trkpt>
    <trkpt lat="42.363527" lon="-2.468375">
      <ele>513.8</ele>
    </trkpt>
    <trkpt lat="42.363329" lon="-2.468544">
      <ele>514</ele>
    </trkpt>
    <trkpt lat="42.36314" lon="-2.468779">
      <ele>514.2</ele>
    </trkpt>
    <trkpt lat="42.362791" lon="-2.469215">
      <ele>514.7</ele>
    </trkpt>
    <trkpt lat="42.362084" lon="-2.470101">
      <ele>515.9</ele>
    </trkpt>
    <trkpt lat="42.361221" lon="-2.471018">
      <ele>517.9</ele>
    </trkpt>
    <trkpt lat="42.359951" lon="-2.472072">
      <ele>522.9</ele>
    </trkpt>
    <trkpt lat="42.358968" lon="-2.473041">
      <ele>522.4</ele>
    </trkpt>
    <trkpt lat="42.358804" lon="-2.473125">
      <ele>521.6</ele>
    </trkpt>
    <trkpt lat="42.359069" lon="-2.473765">
      <ele>518.2</ele>
    </trkpt>
    <trkpt lat="42.359519" lon="-2.474478">
      <ele>512.4</ele>
    </trkpt>
    <trkpt lat="42.359736" lon="-2.47494">
      <ele>509.3</ele>
    </trkpt>
    <trkpt lat="42.360054" lon="-2.475539">
      <ele>506.1</ele>
    </trkpt>
    <trkpt lat="42.360378" lon="-2.47618">
      <ele>503.9</ele>
    </trkpt>
    <trkpt lat="42.360591" lon="-2.476712">
      <ele>502.8</ele>
    </trkpt>
    <trkpt lat="42.360959" lon="-2.477856">
      <ele>502.1</ele>
    </trkpt>
    <trkpt lat="42.361027" lon="-2.478029">
      <ele>502.1</ele>
    </trkpt>
    <trkpt lat="42.361126" lon="-2.478225">
      <ele>502.1</ele>
    </trkpt>
    <trkpt lat="42.361307" lon="-2.478478">
      <ele>502.1</ele>
    </trkpt>
    <trkpt lat="42.361525" lon="-2.478739">
      <ele>502.2</ele>
    </trkpt>
    <trkpt lat="42.361704" lon="-2.478879">
      <ele>502.2</ele>
    </trkpt>
    <trkpt lat="42.361876" lon="-2.478956">
      <ele>502.1</ele>
    </trkpt>
    <trkpt lat="42.362133" lon="-2.478947">
      <ele>502</ele>
    </trkpt>
    <trkpt lat="42.362698" lon="-2.478815">
      <ele>502.5</ele>
    </trkpt>
    <trkpt lat="42.36299" lon="-2.478719">
      <ele>503</ele>
    </trkpt>
    <trkpt lat="42.363116" lon="-2.478647">
      <ele>503.2</ele>
    </trkpt>
    <trkpt lat="42.36317" lon="-2.478598">
      <ele>503.3</ele>
    </trkpt>
    <trkpt lat="42.363258" lon="-2.478621">
      <ele>503.4</ele>
    </trkpt>
    <trkpt lat="42.363286" lon="-2.478673">
      <ele>503.5</ele>
    </trkpt>
    <trkpt lat="42.363289" lon="-2.47877">
      <ele>503.6</ele>
    </trkpt>
    <trkpt lat="42.363421" lon="-2.479049">
      <ele>504</ele>
    </trkpt>
    <trkpt lat="42.364328" lon="-2.481104">
      <ele>505.3</ele>
    </trkpt>
    <trkpt lat="42.364561" lon="-2.481546">
      <ele>505.4</ele>
    </trkpt>
    <trkpt lat="42.364706" lon="-2.481848">
      <ele>505.6</ele>
    </trkpt>
    <trkpt lat="42.364814" lon="-2.482105">
      <ele>505.7</ele>
    </trkpt>
    <trkpt lat="42.365128" lon="-2.482958">
      <ele>506.3</ele>
    </trkpt>
    <trkpt lat="42.365779" lon="-2.484468">
      <ele>507</ele>
    </trkpt>
    <trkpt lat="42.366084" lon="-2.485094">
      <ele>506.9</ele>
    </trkpt>
    <trkpt lat="42.3673" lon="-2.487585">
      <ele>506</ele>
    </trkpt>
    <trkpt lat="42.367426" lon="-2.487737">
      <ele>506</ele>
    </trkpt>
    <trkpt lat="42.367552" lon="-2.487828">
      <ele>506</ele>
    </trkpt>
    <trkpt lat="42.367654" lon="-2.487857">
      <ele>506.1</ele>
    </trkpt>
    <trkpt lat="42.367748" lon="-2.487968">
      <ele>506.2</ele>
    </trkpt>
    <trkpt lat="42.367783" lon="-2.488129">
      <ele>506.3</ele>
    </trkpt>
    <trkpt lat="42.367769" lon="-2.48824">
      <ele>506.4</ele>
    </trkpt>
    <trkpt lat="42.367696" lon="-2.488374">
      <ele>506.6</ele>
    </trkpt>
    <trkpt lat="42.367582" lon="-2.488437">
      <ele>506.8</ele>
    </trkpt>
    <trkpt lat="42.367596" lon="-2.488546">
      <ele>506.9</ele>
    </trkpt>
    <trkpt lat="42.367651" lon="-2.488684">
      <ele>507.2</ele>
    </trkpt>
    <trkpt lat="42.368226" lon="-2.489852">
      <ele>511.1</ele>
    </trkpt>
    <trkpt lat="42.368325" lon="-2.490099">
      <ele>512.4</ele>
    </trkpt>
    <trkpt lat="42.368404" lon="-2.490216">
      <ele>513.1</ele>
    </trkpt>
    <trkpt lat="42.369138" lon="-2.490356">
      <ele>519</ele>
    </trkpt>
    <trkpt lat="42.369193" lon="-2.490372">
      <ele>519.5</ele>
    </trkpt>
    <trkpt lat="42.369225" lon="-2.490415">
      <ele>520</ele>
    </trkpt>
    <trkpt lat="42.369253" lon="-2.490517">
      <ele>520.8</ele>
    </trkpt>
    <trkpt lat="42.369249" lon="-2.490946">
      <ele>524</ele>
    </trkpt>
    <trkpt lat="42.369193" lon="-2.491198">
      <ele>526.1</ele>
    </trkpt>
    <trkpt lat="42.368892" lon="-2.491745">
      <ele>531.5</ele>
    </trkpt>
    <trkpt lat="42.368432" lon="-2.492228">
      <ele>537.8</ele>
    </trkpt>
    <trkpt lat="42.368404" lon="-2.492309">
      <ele>538.5</ele>
    </trkpt>
    <trkpt lat="42.368436" lon="-2.492373">
      <ele>539</ele>
    </trkpt>
    <trkpt lat="42.368484" lon="-2.492384">
      <ele>539.5</ele>
    </trkpt>
    <trkpt lat="42.368876" lon="-2.492266">
      <ele>543.1</ele>
    </trkpt>
    <trkpt lat="42.368924" lon="-2.492335">
      <ele>543.7</ele>
    </trkpt>
    <trkpt lat="42.37003" lon="-2.492162">
      <ele>550.3</ele>
    </trkpt>
    <trkpt lat="42.370736" lon="-2.491874">
      <ele>552.1</ele>
    </trkpt>
    <trkpt lat="42.371683" lon="-2.491664">
      <ele>553.2</ele>
    </trkpt>
    <trkpt lat="42.371984" lon="-2.491702">
      <ele>553.4</ele>
    </trkpt>
    <trkpt lat="42.372218" lon="-2.491806">
      <ele>553.6</ele>
    </trkpt>
    <trkpt lat="42.372412" lon="-2.492013">
      <ele>553.7</ele>
    </trkpt>
    <trkpt lat="42.372717" lon="-2.492243">
      <ele>553.8</ele>
    </trkpt>
    <trkpt lat="42.37347" lon="-2.493129">
      <ele>553.3</ele>
    </trkpt>
    <trkpt lat="42.373741" lon="-2.493399">
      <ele>553</ele>
    </trkpt>
    <trkpt lat="42.374156" lon="-2.493756">
      <ele>552.4</ele>
    </trkpt>
    <trkpt lat="42.374623" lon="-2.494228">
      <ele>551.8</ele>
    </trkpt>
    <trkpt lat="42.374825" lon="-2.494534">
      <ele>551.5</ele>
    </trkpt>
    <trkpt lat="42.375408" lon="-2.495178">
      <ele>550.8</ele>
    </trkpt>
    <trkpt lat="42.376185" lon="-2.496481">
      <ele>549.9</ele>
    </trkpt>
    <trkpt lat="42.376593" lon="-2.497307">
      <ele>549.4</ele>
    </trkpt>
    <trkpt lat="42.377243" lon="-2.498745">
      <ele>548.6</ele>
    </trkpt>
    <trkpt lat="42.377948" lon="-2.500086">
      <ele>547.5</ele>
    </trkpt>
    <trkpt lat="42.378507" lon="-2.501089">
      <ele>546.7</ele>
    </trkpt>
    <trkpt lat="42.378649" lon="-2.501524">
      <ele>546.4</ele>
    </trkpt>
    <trkpt lat="42.378974" lon="-2.502205">
      <ele>546</ele>
    </trkpt>
    <trkpt lat="42.379137" lon="-2.502447">
      <ele>545.9</ele>
    </trkpt>
    <trkpt lat="42.379335" lon="-2.502661">
      <ele>545.8</ele>
    </trkpt>
    <trkpt lat="42.37989" lon="-2.503557">
      <ele>545.7</ele>
    </trkpt>
    <trkpt lat="42.380175" lon="-2.504104">
      <ele>545.9</ele>
    </trkpt>
    <trkpt lat="42.38029" lon="-2.50426">
      <ele>545.9</ele>
    </trkpt>
    <trkpt lat="42.380722" lon="-2.504641">
      <ele>546.1</ele>
    </trkpt>
    <trkpt lat="42.381348" lon="-2.505338">
      <ele>546.4</ele>
    </trkpt>
    <trkpt lat="42.381826" lon="-2.505826">
      <ele>546.5</ele>
    </trkpt>
    <trkpt lat="42.381985" lon="-2.505989">
      <ele>546.5</ele>
    </trkpt>
    <trkpt lat="42.382528" lon="-2.506809">
      <ele>546.3</ele>
    </trkpt>
    <trkpt lat="42.383179" lon="-2.507667">
      <ele>546</ele>
    </trkpt>
    <trkpt lat="42.383371" lon="-2.507961">
      <ele>545.9</ele>
    </trkpt>
    <trkpt lat="42.383409" lon="-2.508018">
      <ele>545.9</ele>
    </trkpt>
    <trkpt lat="42.383599" lon="-2.508322">
      <ele>545.7</ele>
    </trkpt>
    <trkpt lat="42.38366" lon="-2.508501">
      <ele>545.6</ele>
    </trkpt>
    <trkpt lat="42.384282" lon="-2.509431">
      <ele>544.7</ele>
    </trkpt>
    <trkpt lat="42.384508" lon="-2.509849">
      <ele>544.2</ele>
    </trkpt>
    <trkpt lat="42.385112" lon="-2.511131">
      <ele>543</ele>
    </trkpt>
    <trkpt lat="42.385422" lon="-2.511652">
      <ele>542.6</ele>
    </trkpt>
    <trkpt lat="42.385457" lon="-2.511746">
      <ele>542.6</ele>
    </trkpt>
    <trkpt lat="42.385612" lon="-2.512071">
      <ele>542.5</ele>
    </trkpt>
    <trkpt lat="42.385765" lon="-2.512386">
      <ele>542.5</ele>
    </trkpt>
    <trkpt lat="42.386011" lon="-2.512854">
      <ele>542.9</ele>
    </trkpt>
    <trkpt lat="42.386234" lon="-2.513185">
      <ele>543.3</ele>
    </trkpt>
    <trkpt lat="42.386352" lon="-2.513886">
      <ele>544.3</ele>
    </trkpt>
    <trkpt lat="42.386434" lon="-2.514136">
      <ele>544.7</ele>
    </trkpt>
    <trkpt lat="42.387079" lon="-2.515669">
      <ele>547.3</ele>
    </trkpt>
    <trkpt lat="42.387169" lon="-2.515897">
      <ele>547.6</ele>
    </trkpt>
    <trkpt lat="42.387259" lon="-2.516049">
      <ele>547.8</ele>
    </trkpt>
    <trkpt lat="42.387725" lon="-2.51655">
      <ele>548.7</ele>
    </trkpt>
    <trkpt lat="42.3878" lon="-2.516728">
      <ele>549</ele>
    </trkpt>
    <trkpt lat="42.387812" lon="-2.516837">
      <ele>549.1</ele>
    </trkpt>
    <trkpt lat="42.387808" lon="-2.516955">
      <ele>549.3</ele>
    </trkpt>
    <trkpt lat="42.387664" lon="-2.517173">
      <ele>549.7</ele>
    </trkpt>
    <trkpt lat="42.387314" lon="-2.517546">
      <ele>550.8</ele>
    </trkpt>
    <trkpt lat="42.386781" lon="-2.518407">
      <ele>553.7</ele>
    </trkpt>
    <trkpt lat="42.386322" lon="-2.519004">
      <ele>556.2</ele>
    </trkpt>
    <trkpt lat="42.385958" lon="-2.519257">
      <ele>557.5</ele>
    </trkpt>
    <trkpt lat="42.385797" lon="-2.519526">
      <ele>558.3</ele>
    </trkpt>
    <trkpt lat="42.385454" lon="-2.519992">
      <ele>559.4</ele>
    </trkpt>
    <trkpt lat="42.385362" lon="-2.520185">
      <ele>559.8</ele>
    </trkpt>
    <trkpt lat="42.385313" lon="-2.520336">
      <ele>560</ele>
    </trkpt>
    <trkpt lat="42.385277" lon="-2.520554">
      <ele>560.3</ele>
    </trkpt>
    <trkpt lat="42.384655" lon="-2.522257">
      <ele>561.8</ele>
    </trkpt>
    <trkpt lat="42.384612" lon="-2.522454">
      <ele>561.9</ele>
    </trkpt>
    <trkpt lat="42.384502" lon="-2.523261">
      <ele>562.4</ele>
    </trkpt>
    <trkpt lat="42.384461" lon="-2.523405">
      <ele>562.5</ele>
    </trkpt>
    <trkpt lat="42.384388" lon="-2.523543">
      <ele>562.5</ele>
    </trkpt>
    <trkpt lat="42.384167" lon="-2.523749">
      <ele>562.5</ele>
    </trkpt>
    <trkpt lat="42.3839" lon="-2.523932">
      <ele>562.2</ele>
    </trkpt>
    <trkpt lat="42.383522" lon="-2.524329">
      <ele>561.6</ele>
    </trkpt>
    <trkpt lat="42.383421" lon="-2.524548">
      <ele>561.3</ele>
    </trkpt>
    <trkpt lat="42.383432" lon="-2.524701">
      <ele>561.1</ele>
    </trkpt>
    <trkpt lat="42.383845" lon="-2.524976">
      <ele>560.1</ele>
    </trkpt>
    <trkpt lat="42.384306" lon="-2.525467">
      <ele>558.9</ele>
    </trkpt>
    <trkpt lat="42.384508" lon="-2.525758">
      <ele>558.6</ele>
    </trkpt>
    <trkpt lat="42.385003" lon="-2.526572">
      <ele>559.3</ele>
    </trkpt>
    <trkpt lat="42.384238" lon="-2.527186">
      <ele>561.3</ele>
    </trkpt>
    <trkpt lat="42.383471" lon="-2.527802">
      <ele>564.2</ele>
    </trkpt>
    <trkpt lat="42.382664" lon="-2.528465">
      <ele>568</ele>
    </trkpt>
    <trkpt lat="42.381632" lon="-2.529308">
      <ele>574.1</ele>
    </trkpt>
    <trkpt lat="42.381309" lon="-2.529574">
      <ele>575.9</ele>
    </trkpt>
    <trkpt lat="42.380932" lon="-2.530003">
      <ele>577.5</ele>
    </trkpt>
    <trkpt lat="42.38088" lon="-2.530126">
      <ele>577.8</ele>
    </trkpt>
    <trkpt lat="42.380864" lon="-2.530282">
      <ele>578</ele>
    </trkpt>
    <trkpt lat="42.380865" lon="-2.530364">
      <ele>578</ele>
    </trkpt>
    <trkpt lat="42.380865" lon="-2.53041">
      <ele>578.1</ele>
    </trkpt>
    <trkpt lat="42.380864" lon="-2.530598">
      <ele>578.2</ele>
    </trkpt>
    <trkpt lat="42.380904" lon="-2.530759">
      <ele>578.2</ele>
    </trkpt>
    <trkpt lat="42.381201" lon="-2.531258">
      <ele>577.2</ele>
    </trkpt>
    <trkpt lat="42.381586" lon="-2.531838">
      <ele>574.1</ele>
    </trkpt>
    <trkpt lat="42.382346" lon="-2.53283">
      <ele>563.7</ele>
    </trkpt>
    <trkpt lat="42.383385" lon="-2.533994">
      <ele>546.8</ele>
    </trkpt>
    <trkpt lat="42.383991" lon="-2.534595">
      <ele>539.4</ele>
    </trkpt>
    <trkpt lat="42.384839" lon="-2.53533">
      <ele>532.7</ele>
    </trkpt>
    <trkpt lat="42.385734" lon="-2.536">
      <ele>528.2</ele>
    </trkpt>
    <trkpt lat="42.386764" lon="-2.536655">
      <ele>524.9</ele>
    </trkpt>
    <trkpt lat="42.38745" lon="-2.537025">
      <ele>523.9</ele>
    </trkpt>
    <trkpt lat="42.388493" lon="-2.537496">
      <ele>523.7</ele>
    </trkpt>
    <trkpt lat="42.388662" lon="-2.537572">
      <ele>523.8</ele>
    </trkpt>
    <trkpt lat="42.389154" lon="-2.537765">
      <ele>524.3</ele>
    </trkpt>
    <trkpt lat="42.390342" lon="-2.538098">
      <ele>525.8</ele>
    </trkpt>
    <trkpt lat="42.390925" lon="-2.538221">
      <ele>526.3</ele>
    </trkpt>
    <trkpt lat="42.392291" lon="-2.538328">
      <ele>526.3</ele>
    </trkpt>
    <trkpt lat="42.393417" lon="-2.538355">
      <ele>525.2</ele>
    </trkpt>
    <trkpt lat="42.394134" lon="-2.538414">
      <ele>524.2</ele>
    </trkpt>
    <trkpt lat="42.394592" lon="-2.538492">
      <ele>523.4</ele>
    </trkpt>
    <trkpt lat="42.395017" lon="-2.538591">
      <ele>522.6</ele>
    </trkpt>
    <trkpt lat="42.395853" lon="-2.53887">
      <ele>520.8</ele>
    </trkpt>
    <trkpt lat="42.396689" lon="-2.539251">
      <ele>519</ele>
    </trkpt>
    <trkpt lat="42.39699" lon="-2.539428">
      <ele>518.4</ele>
    </trkpt>
    <trkpt lat="42.397141" lon="-2.539471">
      <ele>518.3</ele>
    </trkpt>
    <trkpt lat="42.397398" lon="-2.539643">
      <ele>518.1</ele>
    </trkpt>
    <trkpt lat="42.397575" lon="-2.539643">
      <ele>518.1</ele>
    </trkpt>
    <trkpt lat="42.397628" lon="-2.5396">
      <ele>518.1</ele>
    </trkpt>
    <trkpt lat="42.397826" lon="-2.539599">
      <ele>518.2</ele>
    </trkpt>
    <trkpt lat="42.397941" lon="-2.539712">
      <ele>518.3</ele>
    </trkpt>
    <trkpt lat="42.398" lon="-2.539857">
      <ele>518.4</ele>
    </trkpt>
    <trkpt lat="42.398048" lon="-2.540061">
      <ele>518.6</ele>
    </trkpt>
    <trkpt lat="42.398091" lon="-2.540126">
      <ele>518.6</ele>
    </trkpt>
    <trkpt lat="42.39827" lon="-2.540324">
      <ele>518.8</ele>
    </trkpt>
    <trkpt lat="42.398561" lon="-2.540586">
      <ele>519</ele>
    </trkpt>
    <trkpt lat="42.398868" lon="-2.540812">
      <ele>519</ele>
    </trkpt>
    <trkpt lat="42.399327" lon="-2.541091">
      <ele>518.6</ele>
    </trkpt>
    <trkpt lat="42.399818" lon="-2.541266">
      <ele>517.4</ele>
    </trkpt>
    <trkpt lat="42.40015" lon="-2.541327">
      <ele>516.3</ele>
    </trkpt>
    <trkpt lat="42.40046" lon="-2.541342">
      <ele>515</ele>
    </trkpt>
    <trkpt lat="42.40165" lon="-2.541277">
      <ele>509.7</ele>
    </trkpt>
    <trkpt lat="42.402143" lon="-2.541357">
      <ele>507.8</ele>
    </trkpt>
    <trkpt lat="42.402628" lon="-2.541495">
      <ele>506.3</ele>
    </trkpt>
    <trkpt lat="42.403167" lon="-2.541682">
      <ele>505</ele>
    </trkpt>
    <trkpt lat="42.404245" lon="-2.542055">
      <ele>502.6</ele>
    </trkpt>
    <trkpt lat="42.404502" lon="-2.542173">
      <ele>501.7</ele>
    </trkpt>
    <trkpt lat="42.405413" lon="-2.542879">
      <ele>498.3</ele>
    </trkpt>
    <trkpt lat="42.411041" lon="-2.547431">
      <ele>488.3</ele>
    </trkpt>
    <trkpt lat="42.422427" lon="-2.556624">
      <ele>482.1</ele>
    </trkpt>
    <trkpt lat="42.42314" lon="-2.557224">
      <ele>483.3</ele>
    </trkpt>
    <trkpt lat="42.423993" lon="-2.558004">
      <ele>486</ele>
    </trkpt>
    <trkpt lat="42.42448" lon="-2.558454">
      <ele>487.8</ele>
    </trkpt>
    <trkpt lat="42.425894" lon="-2.559894">
      <ele>492.1</ele>
    </trkpt>
    <trkpt lat="42.426694" lon="-2.560713">
      <ele>493.7</ele>
    </trkpt>
    <trkpt lat="42.427234" lon="-2.561287">
      <ele>494.7</ele>
    </trkpt>
    <trkpt lat="42.427453" lon="-2.561488">
      <ele>495.3</ele>
    </trkpt>
    <trkpt lat="42.42759" lon="-2.561578">
      <ele>495.6</ele>
    </trkpt>
    <trkpt lat="42.427773" lon="-2.561641">
      <ele>496.2</ele>
    </trkpt>
    <trkpt lat="42.4279" lon="-2.561645">
      <ele>496.6</ele>
    </trkpt>
    <trkpt lat="42.428102" lon="-2.561613">
      <ele>497.4</ele>
    </trkpt>
    <trkpt lat="42.428824" lon="-2.561461">
      <ele>500.8</ele>
    </trkpt>
    <trkpt lat="42.429094" lon="-2.561497">
      <ele>501.6</ele>
    </trkpt>
    <trkpt lat="42.429253" lon="-2.561521">
      <ele>502.2</ele>
    </trkpt>
    <trkpt lat="42.429416" lon="-2.561537">
      <ele>502.7</ele>
    </trkpt>
    <trkpt lat="42.429462" lon="-2.561542">
      <ele>502.9</ele>
    </trkpt>
    <trkpt lat="42.429416" lon="-2.561537">
      <ele>503</ele>
    </trkpt>
    <trkpt lat="42.429253" lon="-2.561521">
      <ele>503.5</ele>
    </trkpt>
    <trkpt lat="42.429245" lon="-2.561579">
      <ele>503.6</ele>
    </trkpt>
    <trkpt lat="42.429154" lon="-2.561592">
      <ele>503.9</ele>
    </trkpt>
    <trkpt lat="42.42915" lon="-2.561793">
      <ele>504.3</ele>
    </trkpt>
    <trkpt lat="42.42915" lon="-2.56184">
      <ele>504.4</ele>
    </trkpt>
    <trkpt lat="42.429168" lon="-2.562282">
      <ele>505.4</ele>
    </trkpt>
    <trkpt lat="42.429325" lon="-2.562695">
      <ele>505.7</ele>
    </trkpt>
    <trkpt lat="42.429298" lon="-2.562727">
      <ele>505.6</ele>
    </trkpt>
    <trkpt lat="42.42966" lon="-2.56316">
      <ele>506.2</ele>
    </trkpt>
    <trkpt lat="42.42969" lon="-2.563194">
      <ele>506.3</ele>
    </trkpt>
    <trkpt lat="42.429847" lon="-2.563321">
      <ele>506.3</ele>
    </trkpt>
    <trkpt lat="42.429798" lon="-2.563406">
      <ele>506.3</ele>
    </trkpt>
    <trkpt lat="42.429919" lon="-2.563639">
      <ele>506.4</ele>
    </trkpt>
    <trkpt lat="42.430174" lon="-2.563847">
      <ele>506.3</ele>
    </trkpt>
    <trkpt lat="42.429982" lon="-2.564216">
      <ele>505.9</ele>
    </trkpt>
    <trkpt lat="42.430171" lon="-2.564393">
      <ele>505.2</ele>
    </trkpt>
    <trkpt lat="42.430594" lon="-2.564633">
      <ele>504</ele>
    </trkpt>
    <trkpt lat="42.430655" lon="-2.5647">
      <ele>503.8</ele>
    </trkpt>
    <trkpt lat="42.430597" lon="-2.565144">
      <ele>503.3</ele>
    </trkpt>
    <trkpt lat="42.430555" lon="-2.565414">
      <ele>503.1</ele>
    </trkpt>
    <trkpt lat="42.430208" lon="-2.567457">
      <ele>502.9</ele>
    </trkpt>
    <trkpt lat="42.430185" lon="-2.567601">
      <ele>503</ele>
    </trkpt>
    <trkpt lat="42.430104" lon="-2.568085">
      <ele>503.3</ele>
    </trkpt>
    <trkpt lat="42.429833" lon="-2.568722">
      <ele>503.6</ele>
    </trkpt>
    <trkpt lat="42.429127" lon="-2.570235">
      <ele>504.6</ele>
    </trkpt>
    <trkpt lat="42.42768" lon="-2.573253">
      <ele>508.4</ele>
    </trkpt>
    <trkpt lat="42.427493" lon="-2.573642">
      <ele>509.1</ele>
    </trkpt>
    <trkpt lat="42.427473" lon="-2.573685">
      <ele>509.2</ele>
    </trkpt>
    <trkpt lat="42.427407" lon="-2.573822">
      <ele>509.5</ele>
    </trkpt>
    <trkpt lat="42.426549" lon="-2.575705">
      <ele>514</ele>
    </trkpt>
    <trkpt lat="42.42596" lon="-2.577085">
      <ele>517.5</ele>
    </trkpt>
    <trkpt lat="42.423327" lon="-2.583223">
      <ele>534.2</ele>
    </trkpt>
    <trkpt lat="42.420689" lon="-2.58944">
      <ele>552.7</ele>
    </trkpt>
    <trkpt lat="42.420701" lon="-2.589744">
      <ele>553.2</ele>
    </trkpt>
    <trkpt lat="42.420787" lon="-2.589893">
      <ele>553.5</ele>
    </trkpt>
    <trkpt lat="42.420805" lon="-2.590078">
      <ele>553.9</ele>
    </trkpt>
    <trkpt lat="42.420787" lon="-2.590168">
      <ele>554</ele>
    </trkpt>
    <trkpt lat="42.420753" lon="-2.59025">
      <ele>554.2</ele>
    </trkpt>
    <trkpt lat="42.420645" lon="-2.590363">
      <ele>554.5</ele>
    </trkpt>
    <trkpt lat="42.420526" lon="-2.590391">
      <ele>554.8</ele>
    </trkpt>
    <trkpt lat="42.42041" lon="-2.590344">
      <ele>555.1</ele>
    </trkpt>
    <trkpt lat="42.420306" lon="-2.590196">
      <ele>555.5</ele>
    </trkpt>
    <trkpt lat="42.420159" lon="-2.590139">
      <ele>555.9</ele>
    </trkpt>
    <trkpt lat="42.420014" lon="-2.59015">
      <ele>556.3</ele>
    </trkpt>
    <trkpt lat="42.419927" lon="-2.590216">
      <ele>556.6</ele>
    </trkpt>
    <trkpt lat="42.419456" lon="-2.590577">
      <ele>558.8</ele>
    </trkpt>
    <trkpt lat="42.417587" lon="-2.591761">
      <ele>566.4</ele>
    </trkpt>
    <trkpt lat="42.417183" lon="-2.591942">
      <ele>568.1</ele>
    </trkpt>
    <trkpt lat="42.415962" lon="-2.592331">
      <ele>573.7</ele>
    </trkpt>
    <trkpt lat="42.415707" lon="-2.592411">
      <ele>575</ele>
    </trkpt>
    <trkpt lat="42.415437" lon="-2.592451">
      <ele>576.2</ele>
    </trkpt>
    <trkpt lat="42.414812" lon="-2.59243">
      <ele>578.9</ele>
    </trkpt>
    <trkpt lat="42.413836" lon="-2.592336">
      <ele>582.3</ele>
    </trkpt>
    <trkpt lat="42.412508" lon="-2.592207">
      <ele>586</ele>
    </trkpt>
    <trkpt lat="42.411915" lon="-2.592216">
      <ele>588</ele>
    </trkpt>
    <trkpt lat="42.411453" lon="-2.592444">
      <ele>589.8</ele>
    </trkpt>
    <trkpt lat="42.411049" lon="-2.5927">
      <ele>591.4</ele>
    </trkpt>
    <trkpt lat="42.409819" lon="-2.593501">
      <ele>595.7</ele>
    </trkpt>
    <trkpt lat="42.409533" lon="-2.593686">
      <ele>596.5</ele>
    </trkpt>
    <trkpt lat="42.409262" lon="-2.593864">
      <ele>597.2</ele>
    </trkpt>
    <trkpt lat="42.409044" lon="-2.593972">
      <ele>597.6</ele>
    </trkpt>
    <trkpt lat="42.408145" lon="-2.594246">
      <ele>599</ele>
    </trkpt>
    <trkpt lat="42.407997" lon="-2.594328">
      <ele>599.2</ele>
    </trkpt>
    <trkpt lat="42.406584" lon="-2.595568">
      <ele>601.2</ele>
    </trkpt>
    <trkpt lat="42.406311" lon="-2.595837">
      <ele>601.8</ele>
    </trkpt>
    <trkpt lat="42.406171" lon="-2.596078">
      <ele>602.3</ele>
    </trkpt>
    <trkpt lat="42.406098" lon="-2.596331">
      <ele>602.9</ele>
    </trkpt>
    <trkpt lat="42.405884" lon="-2.597568">
      <ele>607</ele>
    </trkpt>
    <trkpt lat="42.405771" lon="-2.597904">
      <ele>608.7</ele>
    </trkpt>
    <trkpt lat="42.405509" lon="-2.598487">
      <ele>612.3</ele>
    </trkpt>
    <trkpt lat="42.405373" lon="-2.598685">
      <ele>613.9</ele>
    </trkpt>
    <trkpt lat="42.405215" lon="-2.598786">
      <ele>615.2</ele>
    </trkpt>
    <trkpt lat="42.404544" lon="-2.599062">
      <ele>621</ele>
    </trkpt>
    <trkpt lat="42.404016" lon="-2.599271">
      <ele>625.6</ele>
    </trkpt>
    <trkpt lat="42.402535" lon="-2.600311">
      <ele>640.3</ele>
    </trkpt>
    <trkpt lat="42.402347" lon="-2.600374">
      <ele>642.1</ele>
    </trkpt>
    <trkpt lat="42.401426" lon="-2.600551">
      <ele>651.4</ele>
    </trkpt>
    <trkpt lat="42.401175" lon="-2.600658">
      <ele>654.1</ele>
    </trkpt>
    <trkpt lat="42.401075" lon="-2.600737">
      <ele>655.3</ele>
    </trkpt>
    <trkpt lat="42.400893" lon="-2.601053">
      <ele>658.2</ele>
    </trkpt>
    <trkpt lat="42.400585" lon="-2.601574">
      <ele>661.7</ele>
    </trkpt>
    <trkpt lat="42.400489" lon="-2.601714">
      <ele>662.5</ele>
    </trkpt>
    <trkpt lat="42.400411" lon="-2.60178">
      <ele>662.9</ele>
    </trkpt>
    <trkpt lat="42.4005" lon="-2.602009">
      <ele>663.9</ele>
    </trkpt>
    <trkpt lat="42.400528" lon="-2.602119">
      <ele>664.2</ele>
    </trkpt>
    <trkpt lat="42.400542" lon="-2.602229">
      <ele>664.4</ele>
    </trkpt>
    <trkpt lat="42.400534" lon="-2.602468">
      <ele>664.8</ele>
    </trkpt>
    <trkpt lat="42.400483" lon="-2.60277">
      <ele>665</ele>
    </trkpt>
    <trkpt lat="42.400401" lon="-2.603037">
      <ele>664.9</ele>
    </trkpt>
    <trkpt lat="42.400291" lon="-2.603454">
      <ele>664.2</ele>
    </trkpt>
    <trkpt lat="42.400226" lon="-2.603722">
      <ele>663.7</ele>
    </trkpt>
    <trkpt lat="42.400167" lon="-2.604042">
      <ele>663</ele>
    </trkpt>
    <trkpt lat="42.399627" lon="-2.606983">
      <ele>658.7</ele>
    </trkpt>
    <trkpt lat="42.399582" lon="-2.607527">
      <ele>658.9</ele>
    </trkpt>
    <trkpt lat="42.399592" lon="-2.609541">
      <ele>660.8</ele>
    </trkpt>
    <trkpt lat="42.399691" lon="-2.611346">
      <ele>662.2</ele>
    </trkpt>
    <trkpt lat="42.399751" lon="-2.611731">
      <ele>662.5</ele>
    </trkpt>
    <trkpt lat="42.399996" lon="-2.612536">
      <ele>663</ele>
    </trkpt>
    <trkpt lat="42.400265" lon="-2.613431">
      <ele>662.8</ele>
    </trkpt>
    <trkpt lat="42.400672" lon="-2.615965">
      <ele>659.7</ele>
    </trkpt>
    <trkpt lat="42.400265" lon="-2.613431">
      <ele>662.8</ele>
    </trkpt>
    <trkpt lat="42.399996" lon="-2.612536">
      <ele>663</ele>
    </trkpt>
    <trkpt lat="42.399751" lon="-2.611731">
      <ele>662.5</ele>
    </trkpt>
    <trkpt lat="42.399691" lon="-2.611346">
      <ele>662.2</ele>
    </trkpt>
    <trkpt lat="42.399592" lon="-2.609541">
      <ele>660.8</ele>
    </trkpt>
    <trkpt lat="42.399582" lon="-2.607527">
      <ele>658.9</ele>
    </trkpt>
    <trkpt lat="42.399627" lon="-2.606983">
      <ele>658.7</ele>
    </trkpt>
    <trkpt lat="42.400167" lon="-2.604042">
      <ele>663</ele>
    </trkpt>
    <trkpt lat="42.400226" lon="-2.603722">
      <ele>663.7</ele>
    </trkpt>
    <trkpt lat="42.400291" lon="-2.603454">
      <ele>664.2</ele>
    </trkpt>
    <trkpt lat="42.400401" lon="-2.603037">
      <ele>664.9</ele>
    </trkpt>
    <trkpt lat="42.400483" lon="-2.60277">
      <ele>664.9</ele>
    </trkpt>
    <trkpt lat="42.400534" lon="-2.602468">
      <ele>664.5</ele>
    </trkpt>
    <trkpt lat="42.400542" lon="-2.602229">
      <ele>664.1</ele>
    </trkpt>
    <trkpt lat="42.400528" lon="-2.602119">
      <ele>663.8</ele>
    </trkpt>
    <trkpt lat="42.4005" lon="-2.602009">
      <ele>663.5</ele>
    </trkpt>
    <trkpt lat="42.400411" lon="-2.60178">
      <ele>662.7</ele>
    </trkpt>
    <trkpt lat="42.400314" lon="-2.601625">
      <ele>662</ele>
    </trkpt>
    <trkpt lat="42.400046" lon="-2.601459">
      <ele>660.5</ele>
    </trkpt>
    <trkpt lat="42.399451" lon="-2.601211">
      <ele>657</ele>
    </trkpt>
    <trkpt lat="42.39934" lon="-2.601176">
      <ele>656.4</ele>
    </trkpt>
    <trkpt lat="42.399007" lon="-2.601202">
      <ele>655</ele>
    </trkpt>
    <trkpt lat="42.398742" lon="-2.601307">
      <ele>654.2</ele>
    </trkpt>
    <trkpt lat="42.39829" lon="-2.601545">
      <ele>653.7</ele>
    </trkpt>
    <trkpt lat="42.398103" lon="-2.60158">
      <ele>653.7</ele>
    </trkpt>
    <trkpt lat="42.398051" lon="-2.601583">
      <ele>653.7</ele>
    </trkpt>
    <trkpt lat="42.397872" lon="-2.601508">
      <ele>653.7</ele>
    </trkpt>
    <trkpt lat="42.397098" lon="-2.601038">
      <ele>654</ele>
    </trkpt>
    <trkpt lat="42.396448" lon="-2.60061">
      <ele>656.4</ele>
    </trkpt>
    <trkpt lat="42.396262" lon="-2.600417">
      <ele>658</ele>
    </trkpt>
    <trkpt lat="42.396122" lon="-2.600182">
      <ele>659.8</ele>
    </trkpt>
    <trkpt lat="42.39605" lon="-2.599942">
      <ele>661.6</ele>
    </trkpt>
    <trkpt lat="42.395992" lon="-2.599646">
      <ele>663.9</ele>
    </trkpt>
    <trkpt lat="42.396023" lon="-2.599283">
      <ele>666.8</ele>
    </trkpt>
    <trkpt lat="42.396129" lon="-2.598914">
      <ele>670.1</ele>
    </trkpt>
    <trkpt lat="42.396276" lon="-2.598662">
      <ele>672.7</ele>
    </trkpt>
    <trkpt lat="42.396468" lon="-2.59847">
      <ele>675.2</ele>
    </trkpt>
    <trkpt lat="42.39724" lon="-2.597829">
      <ele>682.6</ele>
    </trkpt>
    <trkpt lat="42.397468" lon="-2.59755">
      <ele>684.4</ele>
    </trkpt>
    <trkpt lat="42.397585" lon="-2.597337">
      <ele>685.4</ele>
    </trkpt>
    <trkpt lat="42.397691" lon="-2.597066">
      <ele>686.5</ele>
    </trkpt>
    <trkpt lat="42.397764" lon="-2.596789">
      <ele>687.4</ele>
    </trkpt>
    <trkpt lat="42.397807" lon="-2.596503">
      <ele>688.1</ele>
    </trkpt>
    <trkpt lat="42.397802" lon="-2.595959">
      <ele>688.9</ele>
    </trkpt>
    <trkpt lat="42.397729" lon="-2.595602">
      <ele>689.1</ele>
    </trkpt>
    <trkpt lat="42.39762" lon="-2.595308">
      <ele>689.1</ele>
    </trkpt>
    <trkpt lat="42.397489" lon="-2.595039">
      <ele>688.8</ele>
    </trkpt>
    <trkpt lat="42.396216" lon="-2.593027">
      <ele>685.3</ele>
    </trkpt>
    <trkpt lat="42.392865" lon="-2.587805">
      <ele>683.6</ele>
    </trkpt>
    <trkpt lat="42.392527" lon="-2.587466">
      <ele>682.9</ele>
    </trkpt>
    <trkpt lat="42.390635" lon="-2.586343">
      <ele>679.5</ele>
    </trkpt>
    <trkpt lat="42.390296" lon="-2.586013">
      <ele>680</ele>
    </trkpt>
    <trkpt lat="42.38978" lon="-2.585154">
      <ele>682.7</ele>
    </trkpt>
    <trkpt lat="42.389638" lon="-2.584924">
      <ele>683.8</ele>
    </trkpt>
    <trkpt lat="42.389456" lon="-2.58483">
      <ele>684.9</ele>
    </trkpt>
    <trkpt lat="42.387993" lon="-2.58512">
      <ele>693.6</ele>
    </trkpt>
    <trkpt lat="42.387508" lon="-2.585172">
      <ele>696.4</ele>
    </trkpt>
    <trkpt lat="42.387362" lon="-2.58516">
      <ele>697.1</ele>
    </trkpt>
    <trkpt lat="42.383961" lon="-2.584887">
      <ele>711.3</ele>
    </trkpt>
    <trkpt lat="42.381548" lon="-2.584682">
      <ele>721.5</ele>
    </trkpt>
    <trkpt lat="42.381439" lon="-2.584674">
      <ele>721.9</ele>
    </trkpt>
    <trkpt lat="42.38073" lon="-2.58461">
      <ele>724.9</ele>
    </trkpt>
    <trkpt lat="42.380345" lon="-2.584533">
      <ele>726.5</ele>
    </trkpt>
    <trkpt lat="42.380148" lon="-2.58445">
      <ele>727.2</ele>
    </trkpt>
    <trkpt lat="42.379825" lon="-2.584233">
      <ele>728.4</ele>
    </trkpt>
    <trkpt lat="42.376655" lon="-2.581834">
      <ele>736.1</ele>
    </trkpt>
    <trkpt lat="42.376275" lon="-2.581605">
      <ele>734.5</ele>
    </trkpt>
    <trkpt lat="42.375995" lon="-2.581559">
      <ele>732.9</ele>
    </trkpt>
    <trkpt lat="42.375722" lon="-2.581614">
      <ele>731</ele>
    </trkpt>
    <trkpt lat="42.37527" lon="-2.581853">
      <ele>727.4</ele>
    </trkpt>
    <trkpt lat="42.37495" lon="-2.581979">
      <ele>725</ele>
    </trkpt>
    <trkpt lat="42.373222" lon="-2.582154">
      <ele>717.9</ele>
    </trkpt>
    <trkpt lat="42.372673" lon="-2.582185">
      <ele>716.7</ele>
    </trkpt>
    <trkpt lat="42.372428" lon="-2.582113">
      <ele>716.1</ele>
    </trkpt>
    <trkpt lat="42.372388" lon="-2.582092">
      <ele>716</ele>
    </trkpt>
    <trkpt lat="42.372205" lon="-2.581908">
      <ele>715.6</ele>
    </trkpt>
    <trkpt lat="42.371955" lon="-2.581523">
      <ele>714.9</ele>
    </trkpt>
    <trkpt lat="42.37172" lon="-2.581087">
      <ele>714.4</ele>
    </trkpt>
    <trkpt lat="42.371654" lon="-2.580858">
      <ele>714.1</ele>
    </trkpt>
    <trkpt lat="42.371632" lon="-2.580751">
      <ele>714</ele>
    </trkpt>
    <trkpt lat="42.371604" lon="-2.580545">
      <ele>713.8</ele>
    </trkpt>
    <trkpt lat="42.371581" lon="-2.580303">
      <ele>713.6</ele>
    </trkpt>
    <trkpt lat="42.371591" lon="-2.579938">
      <ele>713.2</ele>
    </trkpt>
    <trkpt lat="42.371679" lon="-2.579582">
      <ele>712.8</ele>
    </trkpt>
    <trkpt lat="42.372089" lon="-2.578752">
      <ele>710.7</ele>
    </trkpt>
    <trkpt lat="42.37217" lon="-2.578546">
      <ele>710.1</ele>
    </trkpt>
    <trkpt lat="42.3723" lon="-2.577983">
      <ele>708.4</ele>
    </trkpt>
    <trkpt lat="42.372337" lon="-2.577649">
      <ele>707.6</ele>
    </trkpt>
    <trkpt lat="42.372387" lon="-2.57704">
      <ele>706.2</ele>
    </trkpt>
    <trkpt lat="42.372439" lon="-2.57674">
      <ele>705.5</ele>
    </trkpt>
    <trkpt lat="42.372542" lon="-2.576404">
      <ele>704.6</ele>
    </trkpt>
    <trkpt lat="42.372685" lon="-2.576136">
      <ele>704</ele>
    </trkpt>
    <trkpt lat="42.372778" lon="-2.575995">
      <ele>703.6</ele>
    </trkpt>
    <trkpt lat="42.373116" lon="-2.575533">
      <ele>702.4</ele>
    </trkpt>
    <trkpt lat="42.373296" lon="-2.57522">
      <ele>701.5</ele>
    </trkpt>
    <trkpt lat="42.374218" lon="-2.573111">
      <ele>695.9</ele>
    </trkpt>
    <trkpt lat="42.374376" lon="-2.572618">
      <ele>694.5</ele>
    </trkpt>
    <trkpt lat="42.374419" lon="-2.572417">
      <ele>694</ele>
    </trkpt>
    <trkpt lat="42.374584" lon="-2.570916">
      <ele>687.5</ele>
    </trkpt>
    <trkpt lat="42.374634" lon="-2.570701">
      <ele>686.2</ele>
    </trkpt>
    <trkpt lat="42.374767" lon="-2.570361">
      <ele>683.9</ele>
    </trkpt>
    <trkpt lat="42.374907" lon="-2.570119">
      <ele>682</ele>
    </trkpt>
    <trkpt lat="42.375031" lon="-2.569962">
      <ele>680.6</ele>
    </trkpt>
    <trkpt lat="42.37556" lon="-2.569424">
      <ele>675.2</ele>
    </trkpt>
    <trkpt lat="42.375793" lon="-2.569057">
      <ele>672.4</ele>
    </trkpt>
    <trkpt lat="42.376285" lon="-2.56763">
      <ele>664.3</ele>
    </trkpt>
    <trkpt lat="42.376432" lon="-2.567308">
      <ele>662.4</ele>
    </trkpt>
    <trkpt lat="42.37676" lon="-2.56685">
      <ele>659.2</ele>
    </trkpt>
    <trkpt lat="42.378122" lon="-2.56512">
      <ele>646.3</ele>
    </trkpt>
    <trkpt lat="42.37828" lon="-2.56486">
      <ele>644.6</ele>
    </trkpt>
    <trkpt lat="42.378366" lon="-2.564611">
      <ele>643.1</ele>
    </trkpt>
    <trkpt lat="42.378425" lon="-2.564351">
      <ele>641.7</ele>
    </trkpt>
    <trkpt lat="42.378453" lon="-2.564071">
      <ele>640.3</ele>
    </trkpt>
    <trkpt lat="42.378391" lon="-2.563504">
      <ele>637.3</ele>
    </trkpt>
    <trkpt lat="42.378323" lon="-2.563136">
      <ele>635.4</ele>
    </trkpt>
    <trkpt lat="42.378298" lon="-2.56265">
      <ele>633.1</ele>
    </trkpt>
    <trkpt lat="42.378321" lon="-2.562427">
      <ele>632.2</ele>
    </trkpt>
    <trkpt lat="42.37838" lon="-2.562179">
      <ele>631.1</ele>
    </trkpt>
    <trkpt lat="42.378461" lon="-2.561925">
      <ele>630</ele>
    </trkpt>
    <trkpt lat="42.378569" lon="-2.561686">
      <ele>628.9</ele>
    </trkpt>
    <trkpt lat="42.380535" lon="-2.557301">
      <ele>616</ele>
    </trkpt>
    <trkpt lat="42.380617" lon="-2.557038">
      <ele>615.6</ele>
    </trkpt>
    <trkpt lat="42.380664" lon="-2.556653">
      <ele>615.2</ele>
    </trkpt>
    <trkpt lat="42.380644" lon="-2.556381">
      <ele>615</ele>
    </trkpt>
    <trkpt lat="42.380584" lon="-2.556148">
      <ele>614.8</ele>
    </trkpt>
    <trkpt lat="42.380292" lon="-2.555591">
      <ele>614.5</ele>
    </trkpt>
    <trkpt lat="42.379058" lon="-2.553628">
      <ele>613.9</ele>
    </trkpt>
    <trkpt lat="42.376451" lon="-2.54948">
      <ele>619.1</ele>
    </trkpt>
    <trkpt lat="42.37613" lon="-2.549061">
      <ele>620.9</ele>
    </trkpt>
    <trkpt lat="42.37577" lon="-2.548772">
      <ele>622.8</ele>
    </trkpt>
    <trkpt lat="42.375569" lon="-2.548665">
      <ele>623.7</ele>
    </trkpt>
    <trkpt lat="42.375177" lon="-2.548565">
      <ele>625.4</ele>
    </trkpt>
    <trkpt lat="42.37343" lon="-2.548419">
      <ele>630.6</ele>
    </trkpt>
    <trkpt lat="42.373186" lon="-2.548329">
      <ele>631.6</ele>
    </trkpt>
    <trkpt lat="42.372872" lon="-2.548103">
      <ele>633.5</ele>
    </trkpt>
    <trkpt lat="42.372439" lon="-2.547578">
      <ele>637.3</ele>
    </trkpt>
    <trkpt lat="42.37208" lon="-2.547204">
      <ele>640.6</ele>
    </trkpt>
    <trkpt lat="42.371897" lon="-2.547063">
      <ele>642.1</ele>
    </trkpt>
    <trkpt lat="42.37168" lon="-2.54695">
      <ele>643.8</ele>
    </trkpt>
    <trkpt lat="42.371209" lon="-2.546871">
      <ele>647.1</ele>
    </trkpt>
    <trkpt lat="42.371011" lon="-2.546897">
      <ele>648.4</ele>
    </trkpt>
    <trkpt lat="42.36976" lon="-2.54707">
      <ele>654</ele>
    </trkpt>
    <trkpt lat="42.369608" lon="-2.547057">
      <ele>654.7</ele>
    </trkpt>
    <trkpt lat="42.369427" lon="-2.546983">
      <ele>655.3</ele>
    </trkpt>
    <trkpt lat="42.369339" lon="-2.546935">
      <ele>655.6</ele>
    </trkpt>
    <trkpt lat="42.369068" lon="-2.546788">
      <ele>656.6</ele>
    </trkpt>
    <trkpt lat="42.369252" lon="-2.546539">
      <ele>657.4</ele>
    </trkpt>
    <trkpt lat="42.369277" lon="-2.546462">
      <ele>657.6</ele>
    </trkpt>
    <trkpt lat="42.369286" lon="-2.546241">
      <ele>657.9</ele>
    </trkpt>
    <trkpt lat="42.369265" lon="-2.546154">
      <ele>658</ele>
    </trkpt>
    <trkpt lat="42.369184" lon="-2.546101">
      <ele>658.1</ele>
    </trkpt>
    <trkpt lat="42.369277" lon="-2.545942">
      <ele>658.2</ele>
    </trkpt>
    <trkpt lat="42.369773" lon="-2.545432">
      <ele>658.3</ele>
    </trkpt>
    <trkpt lat="42.369454" lon="-2.545134">
      <ele>657.9</ele>
    </trkpt>
    <trkpt lat="42.369404" lon="-2.545087">
      <ele>657.8</ele>
    </trkpt>
    <trkpt lat="42.369064" lon="-2.545736">
      <ele>656.6</ele>
    </trkpt>
    <trkpt lat="42.368985" lon="-2.546036">
      <ele>655.9</ele>
    </trkpt>
    <trkpt lat="42.368976" lon="-2.546073">
      <ele>655.8</ele>
    </trkpt>
    <trkpt lat="42.368357" lon="-2.546147">
      <ele>655</ele>
    </trkpt>
    <trkpt lat="42.368304" lon="-2.546231">
      <ele>654.9</ele>
    </trkpt>
    <trkpt lat="42.368195" lon="-2.546272">
      <ele>654.7</ele>
    </trkpt>
    <trkpt lat="42.368153" lon="-2.546273">
      <ele>654.6</ele>
    </trkpt>
    <trkpt lat="42.368041" lon="-2.546153">
      <ele>654.4</ele>
    </trkpt>
    <trkpt lat="42.367746" lon="-2.545721">
      <ele>653.4</ele>
    </trkpt>
    <trkpt lat="42.367684" lon="-2.545613">
      <ele>653.2</ele>
    </trkpt>
    <trkpt lat="42.36743" lon="-2.545172">
      <ele>652.6</ele>
    </trkpt>
    <trkpt lat="42.367299" lon="-2.544767">
      <ele>652.3</ele>
    </trkpt>
    <trkpt lat="42.367256" lon="-2.544161">
      <ele>652.1</ele>
    </trkpt>
    <trkpt lat="42.367306" lon="-2.542579">
      <ele>653.8</ele>
    </trkpt>
    <trkpt lat="42.367255" lon="-2.542108">
      <ele>654.7</ele>
    </trkpt>
    <trkpt lat="42.366026" lon="-2.537117">
      <ele>668.2</ele>
    </trkpt>
    <trkpt lat="42.365861" lon="-2.536754">
      <ele>669.2</ele>
    </trkpt>
    <trkpt lat="42.365753" lon="-2.536572">
      <ele>669.8</ele>
    </trkpt>
    <trkpt lat="42.365329" lon="-2.53591">
      <ele>673</ele>
    </trkpt>
    <trkpt lat="42.365158" lon="-2.535486">
      <ele>674.9</ele>
    </trkpt>
    <trkpt lat="42.365091" lon="-2.535165">
      <ele>676.1</ele>
    </trkpt>
    <trkpt lat="42.365061" lon="-2.534764">
      <ele>677.7</ele>
    </trkpt>
    <trkpt lat="42.365035" lon="-2.533657">
      <ele>682.3</ele>
    </trkpt>
    <trkpt lat="42.365005" lon="-2.533096">
      <ele>683.7</ele>
    </trkpt>
    <trkpt lat="42.364928" lon="-2.532735">
      <ele>684.3</ele>
    </trkpt>
    <trkpt lat="42.364777" lon="-2.532398">
      <ele>684.8</ele>
    </trkpt>
    <trkpt lat="42.364599" lon="-2.532161">
      <ele>684.9</ele>
    </trkpt>
    <trkpt lat="42.364429" lon="-2.532015">
      <ele>685.1</ele>
    </trkpt>
    <trkpt lat="42.364222" lon="-2.531905">
      <ele>685.2</ele>
    </trkpt>
    <trkpt lat="42.363495" lon="-2.531819">
      <ele>685.6</ele>
    </trkpt>
    <trkpt lat="42.362776" lon="-2.531754">
      <ele>686.5</ele>
    </trkpt>
    <trkpt lat="42.362201" lon="-2.531697">
      <ele>687.4</ele>
    </trkpt>
    <trkpt lat="42.361687" lon="-2.531645">
      <ele>688.5</ele>
    </trkpt>
    <trkpt lat="42.36144" lon="-2.531588">
      <ele>689</ele>
    </trkpt>
    <trkpt lat="42.361333" lon="-2.531549">
      <ele>689.3</ele>
    </trkpt>
    <trkpt lat="42.361139" lon="-2.531413">
      <ele>689.8</ele>
    </trkpt>
    <trkpt lat="42.360833" lon="-2.531148">
      <ele>690.6</ele>
    </trkpt>
    <trkpt lat="42.36057" lon="-2.530829">
      <ele>691.3</ele>
    </trkpt>
    <trkpt lat="42.360138" lon="-2.530278">
      <ele>691.5</ele>
    </trkpt>
    <trkpt lat="42.359854" lon="-2.529958">
      <ele>690.6</ele>
    </trkpt>
    <trkpt lat="42.35961" lon="-2.529773">
      <ele>689.4</ele>
    </trkpt>
    <trkpt lat="42.359266" lon="-2.529655">
      <ele>687.3</ele>
    </trkpt>
    <trkpt lat="42.359019" lon="-2.529637">
      <ele>685.7</ele>
    </trkpt>
    <trkpt lat="42.35856" lon="-2.529645">
      <ele>683</ele>
    </trkpt>
    <trkpt lat="42.358243" lon="-2.529617">
      <ele>681.5</ele>
    </trkpt>
    <trkpt lat="42.358143" lon="-2.529594">
      <ele>681.1</ele>
    </trkpt>
    <trkpt lat="42.358068" lon="-2.529573">
      <ele>680.8</ele>
    </trkpt>
    <trkpt lat="42.357749" lon="-2.529439">
      <ele>680.3</ele>
    </trkpt>
    <trkpt lat="42.357027" lon="-2.529039">
      <ele>682.1</ele>
    </trkpt>
    <trkpt lat="42.356678" lon="-2.528782">
      <ele>683.6</ele>
    </trkpt>
    <trkpt lat="42.356358" lon="-2.52848">
      <ele>684.6</ele>
    </trkpt>
    <trkpt lat="42.35585" lon="-2.528001">
      <ele>685.3</ele>
    </trkpt>
    <trkpt lat="42.355445" lon="-2.527769">
      <ele>684.7</ele>
    </trkpt>
    <trkpt lat="42.355158" lon="-2.527704">
      <ele>684</ele>
    </trkpt>
    <trkpt lat="42.354797" lon="-2.527708">
      <ele>682.9</ele>
    </trkpt>
    <trkpt lat="42.353314" lon="-2.527999">
      <ele>678.9</ele>
    </trkpt>
    <trkpt lat="42.353274" lon="-2.528007">
      <ele>678.9</ele>
    </trkpt>
    <trkpt lat="42.352534" lon="-2.52816">
      <ele>679.3</ele>
    </trkpt>
    <trkpt lat="42.351805" lon="-2.528387">
      <ele>681.9</ele>
    </trkpt>
    <trkpt lat="42.350549" lon="-2.528879">
      <ele>689</ele>
    </trkpt>
    <trkpt lat="42.348052" lon="-2.529545">
      <ele>702.7</ele>
    </trkpt>
    <trkpt lat="42.348018" lon="-2.529554">
      <ele>702.8</ele>
    </trkpt>
    <trkpt lat="42.347971" lon="-2.529566">
      <ele>703</ele>
    </trkpt>
    <trkpt lat="42.347909" lon="-2.529583">
      <ele>703.3</ele>
    </trkpt>
    <trkpt lat="42.347586" lon="-2.529672">
      <ele>704.7</ele>
    </trkpt>
    <trkpt lat="42.34741" lon="-2.52972">
      <ele>705.4</ele>
    </trkpt>
    <trkpt lat="42.347375" lon="-2.52973">
      <ele>705.5</ele>
    </trkpt>
    <trkpt lat="42.34704" lon="-2.529819">
      <ele>706.6</ele>
    </trkpt>
    <trkpt lat="42.34671" lon="-2.529874">
      <ele>707.5</ele>
    </trkpt>
    <trkpt lat="42.346504" lon="-2.529883">
      <ele>708</ele>
    </trkpt>
    <trkpt lat="42.346167" lon="-2.529847">
      <ele>708.7</ele>
    </trkpt>
    <trkpt lat="42.344648" lon="-2.529596">
      <ele>711</ele>
    </trkpt>
    <trkpt lat="42.344357" lon="-2.529544">
      <ele>711.3</ele>
    </trkpt>
    <trkpt lat="42.344233" lon="-2.529489">
      <ele>711.3</ele>
    </trkpt>
    <trkpt lat="42.344114" lon="-2.529433">
      <ele>711.4</ele>
    </trkpt>
    <trkpt lat="42.344027" lon="-2.529334">
      <ele>711.4</ele>
    </trkpt>
    <trkpt lat="42.343986" lon="-2.529286">
      <ele>711.4</ele>
    </trkpt>
    <trkpt lat="42.34364" lon="-2.528192">
      <ele>710.8</ele>
    </trkpt>
    <trkpt lat="42.343605" lon="-2.528111">
      <ele>710.7</ele>
    </trkpt>
    <trkpt lat="42.343103" lon="-2.52703">
      <ele>708.4</ele>
    </trkpt>
    <trkpt lat="42.342914" lon="-2.526706">
      <ele>707</ele>
    </trkpt>
    <trkpt lat="42.342784" lon="-2.52655">
      <ele>706.1</ele>
    </trkpt>
    <trkpt lat="42.34272" lon="-2.526465">
      <ele>705.7</ele>
    </trkpt>
    <trkpt lat="42.342596" lon="-2.526242">
      <ele>704.5</ele>
    </trkpt>
    <trkpt lat="42.342508" lon="-2.525871">
      <ele>702.9</ele>
    </trkpt>
    <trkpt lat="42.342168" lon="-2.523811">
      <ele>693.4</ele>
    </trkpt>
    <trkpt lat="42.341812" lon="-2.521695">
      <ele>686.6</ele>
    </trkpt>
    <trkpt lat="42.341101" lon="-2.517148">
      <ele>666.6</ele>
    </trkpt>
    <trkpt lat="42.340708" lon="-2.514425">
      <ele>652.1</ele>
    </trkpt>
    <trkpt lat="42.340578" lon="-2.513438">
      <ele>646.8</ele>
    </trkpt>
    <trkpt lat="42.340575" lon="-2.512995">
      <ele>644.2</ele>
    </trkpt>
    <trkpt lat="42.340606" lon="-2.512678">
      <ele>642.2</ele>
    </trkpt>
    <trkpt lat="42.34068" lon="-2.512298">
      <ele>639.5</ele>
    </trkpt>
    <trkpt lat="42.340888" lon="-2.511523">
      <ele>633.2</ele>
    </trkpt>
    <trkpt lat="42.341298" lon="-2.509245">
      <ele>614.7</ele>
    </trkpt>
    <trkpt lat="42.341271" lon="-2.508888">
      <ele>612.3</ele>
    </trkpt>
    <trkpt lat="42.341202" lon="-2.508736">
      <ele>611.2</ele>
    </trkpt>
    <trkpt lat="42.341163" lon="-2.508674">
      <ele>610.6</ele>
    </trkpt>
    <trkpt lat="42.341137" lon="-2.508517">
      <ele>609.7</ele>
    </trkpt>
    <trkpt lat="42.341186" lon="-2.508371">
      <ele>608.8</ele>
    </trkpt>
    <trkpt lat="42.341248" lon="-2.508196">
      <ele>607.7</ele>
    </trkpt>
    <trkpt lat="42.341286" lon="-2.507942">
      <ele>606.4</ele>
    </trkpt>
    <trkpt lat="42.341308" lon="-2.507255">
      <ele>603.4</ele>
    </trkpt>
    <trkpt lat="42.341359" lon="-2.507019">
      <ele>602.5</ele>
    </trkpt>
    <trkpt lat="42.341504" lon="-2.506566">
      <ele>600.7</ele>
    </trkpt>
    <trkpt lat="42.341683" lon="-2.506221">
      <ele>599.1</ele>
    </trkpt>
    <trkpt lat="42.341891" lon="-2.505913">
      <ele>597.6</ele>
    </trkpt>
    <trkpt lat="42.342642" lon="-2.505041">
      <ele>593.1</ele>
    </trkpt>
    <trkpt lat="42.342886" lon="-2.504823">
      <ele>592</ele>
    </trkpt>
    <trkpt lat="42.343284" lon="-2.504541">
      <ele>590.4</ele>
    </trkpt>
    <trkpt lat="42.344282" lon="-2.503821">
      <ele>588</ele>
    </trkpt>
    <trkpt lat="42.344454" lon="-2.503723">
      <ele>587.5</ele>
    </trkpt>
    <trkpt lat="42.344755" lon="-2.503708">
      <ele>586.5</ele>
    </trkpt>
    <trkpt lat="42.344925" lon="-2.503631">
      <ele>585.9</ele>
    </trkpt>
    <trkpt lat="42.344962" lon="-2.50357">
      <ele>585.7</ele>
    </trkpt>
    <trkpt lat="42.344948" lon="-2.503466">
      <ele>585.5</ele>
    </trkpt>
    <trkpt lat="42.344888" lon="-2.503375">
      <ele>585.2</ele>
    </trkpt>
    <trkpt lat="42.344748" lon="-2.503352">
      <ele>584.7</ele>
    </trkpt>
    <trkpt lat="42.34413" lon="-2.503607">
      <ele>581.7</ele>
    </trkpt>
    <trkpt lat="42.343851" lon="-2.5037">
      <ele>579.8</ele>
    </trkpt>
    <trkpt lat="42.342306" lon="-2.503794">
      <ele>570.1</ele>
    </trkpt>
    <trkpt lat="42.34107" lon="-2.503996">
      <ele>564.9</ele>
    </trkpt>
    <trkpt lat="42.340848" lon="-2.503951">
      <ele>564.2</ele>
    </trkpt>
    <trkpt lat="42.340687" lon="-2.503793">
      <ele>563.5</ele>
    </trkpt>
    <trkpt lat="42.340619" lon="-2.503667">
      <ele>563.1</ele>
    </trkpt>
    <trkpt lat="42.340365" lon="-2.503103">
      <ele>561.3</ele>
    </trkpt>
    <trkpt lat="42.340278" lon="-2.502917">
      <ele>560.6</ele>
    </trkpt>
    <trkpt lat="42.340198" lon="-2.502692">
      <ele>559.8</ele>
    </trkpt>
    <trkpt lat="42.340187" lon="-2.502671">
      <ele>559.8</ele>
    </trkpt>
    <trkpt lat="42.340064" lon="-2.502549">
      <ele>559.1</ele>
    </trkpt>
    <trkpt lat="42.34002" lon="-2.502463">
      <ele>558.8</ele>
    </trkpt>
    <trkpt lat="42.339988" lon="-2.502259">
      <ele>558.1</ele>
    </trkpt>
    <trkpt lat="42.340025" lon="-2.502084">
      <ele>557.5</ele>
    </trkpt>
    <trkpt lat="42.340049" lon="-2.501766">
      <ele>556.3</ele>
    </trkpt>
    <trkpt lat="42.340001" lon="-2.501389">
      <ele>555</ele>
    </trkpt>
    <trkpt lat="42.339874" lon="-2.500614">
      <ele>552.5</ele>
    </trkpt>
    <trkpt lat="42.339748" lon="-2.500117">
      <ele>550.8</ele>
    </trkpt>
    <trkpt lat="42.339419" lon="-2.499425">
      <ele>548.1</ele>
    </trkpt>
    <trkpt lat="42.339215" lon="-2.499029">
      <ele>546.6</ele>
    </trkpt>
    <trkpt lat="42.338922" lon="-2.498406">
      <ele>544.3</ele>
    </trkpt>
    <trkpt lat="42.338645" lon="-2.497721">
      <ele>541.9</ele>
    </trkpt>
    <trkpt lat="42.338389" lon="-2.496959">
      <ele>540</ele>
    </trkpt>
    <trkpt lat="42.338075" lon="-2.495995">
      <ele>538.4</ele>
    </trkpt>
    <trkpt lat="42.337678" lon="-2.494747">
      <ele>538.8</ele>
    </trkpt>
    <trkpt lat="42.33736" lon="-2.493645">
      <ele>541.8</ele>
    </trkpt>
    <trkpt lat="42.337269" lon="-2.493449">
      <ele>542.8</ele>
    </trkpt>
    <trkpt lat="42.337144" lon="-2.493262">
      <ele>543.7</ele>
    </trkpt>
    <trkpt lat="42.336865" lon="-2.493128">
      <ele>545</ele>
    </trkpt>
    <trkpt lat="42.33676" lon="-2.49319">
      <ele>545.4</ele>
    </trkpt>
    <trkpt lat="42.336702" lon="-2.493191">
      <ele>545.7</ele>
    </trkpt>
    <trkpt lat="42.336646" lon="-2.49317">
      <ele>545.9</ele>
    </trkpt>
    <trkpt lat="42.336556" lon="-2.493073">
      <ele>546.3</ele>
    </trkpt>
    <trkpt lat="42.336516" lon="-2.492866">
      <ele>546.8</ele>
    </trkpt>
    <trkpt lat="42.33656" lon="-2.492724">
      <ele>547.1</ele>
    </trkpt>
    <trkpt lat="42.3366" lon="-2.492669">
      <ele>547.3</ele>
    </trkpt>
    <trkpt lat="42.33672" lon="-2.492611">
      <ele>547.7</ele>
    </trkpt>
    <trkpt lat="42.336784" lon="-2.49262">
      <ele>547.8</ele>
    </trkpt>
    <trkpt lat="42.337074" lon="-2.492387">
      <ele>548.5</ele>
    </trkpt>
    <trkpt lat="42.337995" lon="-2.490279">
      <ele>550.4</ele>
    </trkpt>
    <trkpt lat="42.338556" lon="-2.488868">
      <ele>549.8</ele>
    </trkpt>
    <trkpt lat="42.338864" lon="-2.488225">
      <ele>548.7</ele>
    </trkpt>
    <trkpt lat="42.33925" lon="-2.487539">
      <ele>547.1</ele>
    </trkpt>
    <trkpt lat="42.339797" lon="-2.486646">
      <ele>545.6</ele>
    </trkpt>
    <trkpt lat="42.339966" lon="-2.48639">
      <ele>545.3</ele>
    </trkpt>
    <trkpt lat="42.340343" lon="-2.485845">
      <ele>544.6</ele>
    </trkpt>
    <trkpt lat="42.340498" lon="-2.485669">
      <ele>544.3</ele>
    </trkpt>
    <trkpt lat="42.341331" lon="-2.484913">
      <ele>542.1</ele>
    </trkpt>
    <trkpt lat="42.341421" lon="-2.484832">
      <ele>541.8</ele>
    </trkpt>
    <trkpt lat="42.341963" lon="-2.484418">
      <ele>540.2</ele>
    </trkpt>
    <trkpt lat="42.343553" lon="-2.482994">
      <ele>538.5</ele>
    </trkpt>
    <trkpt lat="42.344348" lon="-2.482497">
      <ele>538.6</ele>
    </trkpt>
    <trkpt lat="42.344854" lon="-2.482245">
      <ele>538.9</ele>
    </trkpt>
    <trkpt lat="42.345063" lon="-2.482022">
      <ele>539</ele>
    </trkpt>
    <trkpt lat="42.3457" lon="-2.481244">
      <ele>539.5</ele>
    </trkpt>
    <trkpt lat="42.347843" lon="-2.478621">
      <ele>537.6</ele>
    </trkpt>
    <trkpt lat="42.348068" lon="-2.478422">
      <ele>537.4</ele>
    </trkpt>
    <trkpt lat="42.348574" lon="-2.478117">
      <ele>537.3</ele>
    </trkpt>
    <trkpt lat="42.348899" lon="-2.478009">
      <ele>537.5</ele>
    </trkpt>
    <trkpt lat="42.349729" lon="-2.477858">
      <ele>538.2</ele>
    </trkpt>
    <trkpt lat="42.351947" lon="-2.476827">
      <ele>537.6</ele>
    </trkpt>
    <trkpt lat="42.352443" lon="-2.476466">
      <ele>536.4</ele>
    </trkpt>
    <trkpt lat="42.352925" lon="-2.476079">
      <ele>535.2</ele>
    </trkpt>
    <trkpt lat="42.35306" lon="-2.476013">
      <ele>534.9</ele>
    </trkpt>
    <trkpt lat="42.3532" lon="-2.475986">
      <ele>534.7</ele>
    </trkpt>
    <trkpt lat="42.353579" lon="-2.475982">
      <ele>534.3</ele>
    </trkpt>
    <trkpt lat="42.353819" lon="-2.475868">
      <ele>534.1</ele>
    </trkpt>
    <trkpt lat="42.354915" lon="-2.475059">
      <ele>534.4</ele>
    </trkpt>
    <trkpt lat="42.355122" lon="-2.474951">
      <ele>534.6</ele>
    </trkpt>
    <trkpt lat="42.355345" lon="-2.474828">
      <ele>534.7</ele>
    </trkpt>
    <trkpt lat="42.355635" lon="-2.474494">
      <ele>534.4</ele>
    </trkpt>
    <trkpt lat="42.355921" lon="-2.473855">
      <ele>533.4</ele>
    </trkpt>
    <trkpt lat="42.355988" lon="-2.473774">
      <ele>533.2</ele>
    </trkpt>
    <trkpt lat="42.355981" lon="-2.473671">
      <ele>533.1</ele>
    </trkpt>
    <trkpt lat="42.35601" lon="-2.473575">
      <ele>533</ele>
    </trkpt>
    <trkpt lat="42.356043" lon="-2.473544">
      <ele>532.9</ele>
    </trkpt>
    <trkpt lat="42.356087" lon="-2.473544">
      <ele>532.8</ele>
    </trkpt>
    <trkpt lat="42.356125" lon="-2.473614">
      <ele>532.7</ele>
    </trkpt>
    <trkpt lat="42.356124" lon="-2.473676">
      <ele>532.6</ele>
    </trkpt>
    <trkpt lat="42.356543" lon="-2.473759">
      <ele>531.4</ele>
    </trkpt>
    <trkpt lat="42.356659" lon="-2.473723">
      <ele>531</ele>
    </trkpt>
    <trkpt lat="42.35714" lon="-2.473468">
      <ele>529.7</ele>
    </trkpt>
    <trkpt lat="42.357475" lon="-2.473383">
      <ele>529.1</ele>
    </trkpt>
    <trkpt lat="42.357602" lon="-2.473364">
      <ele>528.9</ele>
    </trkpt>
    <trkpt lat="42.357728" lon="-2.473344">
      <ele>528.7</ele>
    </trkpt>
    <trkpt lat="42.357808" lon="-2.473332">
      <ele>528.6</ele>
    </trkpt>
    <trkpt lat="42.358291" lon="-2.473228">
      <ele>527.5</ele>
    </trkpt>
    <trkpt lat="42.358327" lon="-2.47322">
      <ele>527.4</ele>
    </trkpt>
    <trkpt lat="42.358361" lon="-2.473215">
      <ele>527.3</ele>
    </trkpt>
    <trkpt lat="42.358804" lon="-2.473125">
      <ele>526.4</ele>
    </trkpt>
    <trkpt lat="42.358968" lon="-2.473041">
      <ele>526</ele>
    </trkpt>
    <trkpt lat="42.359951" lon="-2.472072">
      <ele>522.9</ele>
    </trkpt>
    <trkpt lat="42.361221" lon="-2.471018">
      <ele>517.9</ele>
    </trkpt>
    <trkpt lat="42.362084" lon="-2.470101">
      <ele>515.9</ele>
    </trkpt>
    <trkpt lat="42.362791" lon="-2.469215">
      <ele>514.7</ele>
    </trkpt>
    <trkpt lat="42.36314" lon="-2.468779">
      <ele>514.2</ele>
    </trkpt>
    <trkpt lat="42.363329" lon="-2.468544">
      <ele>514</ele>
    </trkpt>
    <trkpt lat="42.363527" lon="-2.468375">
      <ele>513.8</ele>
    </trkpt>
    <trkpt lat="42.363751" lon="-2.468215">
      <ele>513.6</ele>
    </trkpt>
    <trkpt lat="42.363967" lon="-2.468113">
      <ele>513.6</ele>
    </trkpt>
    <trkpt lat="42.364881" lon="-2.467929">
      <ele>514.6</ele>
    </trkpt>
    <trkpt lat="42.365868" lon="-2.467547">
      <ele>514.6</ele>
    </trkpt>
    <trkpt lat="42.366673" lon="-2.467197">
      <ele>513.3</ele>
    </trkpt>
    <trkpt lat="42.367208" lon="-2.467139">
      <ele>511.9</ele>
    </trkpt>
    <trkpt lat="42.367456" lon="-2.467105">
      <ele>511.2</ele>
    </trkpt>
    <trkpt lat="42.369745" lon="-2.465976">
      <ele>502.4</ele>
    </trkpt>
    <trkpt lat="42.371486" lon="-2.465117">
      <ele>499.8</ele>
    </trkpt>
    <trkpt lat="42.373687" lon="-2.464076">
      <ele>499.6</ele>
    </trkpt>
    <trkpt lat="42.374385" lon="-2.463746">
      <ele>499.7</ele>
    </trkpt>
    <trkpt lat="42.374767" lon="-2.463452">
      <ele>499.8</ele>
    </trkpt>
    <trkpt lat="42.375137" lon="-2.463097">
      <ele>499.9</ele>
    </trkpt>
    <trkpt lat="42.375619" lon="-2.462553">
      <ele>500.2</ele>
    </trkpt>
    <trkpt lat="42.375926" lon="-2.462297">
      <ele>500.3</ele>
    </trkpt>
    <trkpt lat="42.377746" lon="-2.461199">
      <ele>498.2</ele>
    </trkpt>
    <trkpt lat="42.378117" lon="-2.461099">
      <ele>497.3</ele>
    </trkpt>
    <trkpt lat="42.378961" lon="-2.460959">
      <ele>494.1</ele>
    </trkpt>
    <trkpt lat="42.381105" lon="-2.460435">
      <ele>485.5</ele>
    </trkpt>
    <trkpt lat="42.381284" lon="-2.460361">
      <ele>485.1</ele>
    </trkpt>
    <trkpt lat="42.382325" lon="-2.45945">
      <ele>484</ele>
    </trkpt>
    <trkpt lat="42.382519" lon="-2.45925">
      <ele>483.9</ele>
    </trkpt>
    <trkpt lat="42.383886" lon="-2.457838">
      <ele>481.7</ele>
    </trkpt>
    <trkpt lat="42.38406" lon="-2.457688">
      <ele>481.2</ele>
    </trkpt>
    <trkpt lat="42.384252" lon="-2.457568">
      <ele>480.7</ele>
    </trkpt>
    <trkpt lat="42.384691" lon="-2.457339">
      <ele>479.6</ele>
    </trkpt>
    <trkpt lat="42.387127" lon="-2.456096">
      <ele>476.7</ele>
    </trkpt>
    <trkpt lat="42.388403" lon="-2.455442">
      <ele>477.8</ele>
    </trkpt>
    <trkpt lat="42.390935" lon="-2.453689">
      <ele>483</ele>
    </trkpt>
    <trkpt lat="42.392399" lon="-2.452648">
      <ele>482.1</ele>
    </trkpt>
    <trkpt lat="42.392591" lon="-2.452467">
      <ele>481.9</ele>
    </trkpt>
    <trkpt lat="42.393864" lon="-2.450985">
      <ele>481.1</ele>
    </trkpt>
    <trkpt lat="42.395962" lon="-2.448542">
      <ele>482</ele>
    </trkpt>
    <trkpt lat="42.396089" lon="-2.448351">
      <ele>482.1</ele>
    </trkpt>
    <trkpt lat="42.396936" lon="-2.446774">
      <ele>481.5</ele>
    </trkpt>
    <trkpt lat="42.397229" lon="-2.446268">
      <ele>481</ele>
    </trkpt>
    <trkpt lat="42.397382" lon="-2.44605">
      <ele>480.7</ele>
    </trkpt>
    <trkpt lat="42.397557" lon="-2.445866">
      <ele>480.4</ele>
    </trkpt>
    <trkpt lat="42.39772" lon="-2.445762">
      <ele>480.1</ele>
    </trkpt>
    <trkpt lat="42.399026" lon="-2.445095">
      <ele>476.8</ele>
    </trkpt>
    <trkpt lat="42.399227" lon="-2.444992">
      <ele>476.1</ele>
    </trkpt>
    <trkpt lat="42.400552" lon="-2.444315">
      <ele>471.8</ele>
    </trkpt>
    <trkpt lat="42.400945" lon="-2.44394">
      <ele>470.6</ele>
    </trkpt>
    <trkpt lat="42.401645" lon="-2.442987">
      <ele>468</ele>
    </trkpt>
    <trkpt lat="42.402017" lon="-2.442461">
      <ele>466.1</ele>
    </trkpt>
    <trkpt lat="42.402281" lon="-2.442234">
      <ele>464.8</ele>
    </trkpt>
    <trkpt lat="42.402796" lon="-2.441866">
      <ele>462.1</ele>
    </trkpt>
    <trkpt lat="42.403754" lon="-2.440857">
      <ele>456.9</ele>
    </trkpt>
    <trkpt lat="42.404011" lon="-2.440721">
      <ele>456</ele>
    </trkpt>
    <trkpt lat="42.404483" lon="-2.440652">
      <ele>454.6</ele>
    </trkpt>
    <trkpt lat="42.404608" lon="-2.440651">
      <ele>454.3</ele>
    </trkpt>
    <trkpt lat="42.40479" lon="-2.440629">
      <ele>453.9</ele>
    </trkpt>
    <trkpt lat="42.404877" lon="-2.440569">
      <ele>453.7</ele>
    </trkpt>
    <trkpt lat="42.405125" lon="-2.440292">
      <ele>452.9</ele>
    </trkpt>
    <trkpt lat="42.40546" lon="-2.440134">
      <ele>452</ele>
    </trkpt>
    <trkpt lat="42.405759" lon="-2.439993">
      <ele>451</ele>
    </trkpt>
    <trkpt lat="42.406255" lon="-2.439788">
      <ele>449.4</ele>
    </trkpt>
    <trkpt lat="42.406356" lon="-2.439739">
      <ele>449</ele>
    </trkpt>
    <trkpt lat="42.406642" lon="-2.439604">
      <ele>447.7</ele>
    </trkpt>
    <trkpt lat="42.406988" lon="-2.439395">
      <ele>446.1</ele>
    </trkpt>
    <trkpt lat="42.407416" lon="-2.439096">
      <ele>443.9</ele>
    </trkpt>
    <trkpt lat="42.407429" lon="-2.439087">
      <ele>443.8</ele>
    </trkpt>
    <trkpt lat="42.407535" lon="-2.439371">
      <ele>442.8</ele>
    </trkpt>
    <trkpt lat="42.407699" lon="-2.439805">
      <ele>441.4</ele>
    </trkpt>
    <trkpt lat="42.407777" lon="-2.440058">
      <ele>440.7</ele>
    </trkpt>
    <trkpt lat="42.407963" lon="-2.440762">
      <ele>439.3</ele>
    </trkpt>
    <trkpt lat="42.40805" lon="-2.441153">
      <ele>438.6</ele>
    </trkpt>
    <trkpt lat="42.40818" lon="-2.441735">
      <ele>438</ele>
    </trkpt>
    <trkpt lat="42.40834" lon="-2.44245">
      <ele>437.7</ele>
    </trkpt>
    <trkpt lat="42.40852" lon="-2.443294">
      <ele>437.9</ele>
    </trkpt>
    <trkpt lat="42.408611" lon="-2.443662">
      <ele>438.1</ele>
    </trkpt>
    <trkpt lat="42.408726" lon="-2.444095">
      <ele>438.3</ele>
    </trkpt>
    <trkpt lat="42.408856" lon="-2.444398">
      <ele>438.6</ele>
    </trkpt>
    <trkpt lat="42.409088" lon="-2.444852">
      <ele>439.2</ele>
    </trkpt>
    <trkpt lat="42.409411" lon="-2.44539">
      <ele>440</ele>
    </trkpt>
    <trkpt lat="42.410049" lon="-2.446214">
      <ele>441</ele>
    </trkpt>
    <trkpt lat="42.41047" lon="-2.446612">
      <ele>440.9</ele>
    </trkpt>
    <trkpt lat="42.411341" lon="-2.447376">
      <ele>440</ele>
    </trkpt>
    <trkpt lat="42.412269" lon="-2.448191">
      <ele>439.2</ele>
    </trkpt>
    <trkpt lat="42.41307" lon="-2.448679">
      <ele>438.7</ele>
    </trkpt>
    <trkpt lat="42.414303" lon="-2.449541">
      <ele>437.4</ele>
    </trkpt>
    <trkpt lat="42.414959" lon="-2.450017">
      <ele>436.7</ele>
    </trkpt>
    <trkpt lat="42.417836" lon="-2.45303">
      <ele>434.5</ele>
    </trkpt>
    <trkpt lat="42.418194" lon="-2.453413">
      <ele>434.3</ele>
    </trkpt>
    <trkpt lat="42.418994" lon="-2.454257">
      <ele>434</ele>
    </trkpt>
    <trkpt lat="42.420544" lon="-2.4559">
      <ele>433.9</ele>
    </trkpt>
    <trkpt lat="42.420861" lon="-2.456239">
      <ele>433.9</ele>
    </trkpt>
    <trkpt lat="42.421205" lon="-2.456597">
      <ele>434.1</ele>
    </trkpt>
    <trkpt lat="42.421821" lon="-2.457244">
      <ele>435.2</ele>
    </trkpt>
    <trkpt lat="42.422142" lon="-2.457593">
      <ele>436</ele>
    </trkpt>
    <trkpt lat="42.422259" lon="-2.457704">
      <ele>436.2</ele>
    </trkpt>
    <trkpt lat="42.422413" lon="-2.45773">
      <ele>436.5</ele>
    </trkpt>
    <trkpt lat="42.422485" lon="-2.457762">
      <ele>436.7</ele>
    </trkpt>
    <trkpt lat="42.422514" lon="-2.457824">
      <ele>436.8</ele>
    </trkpt>
    <trkpt lat="42.422515" lon="-2.457898">
      <ele>436.9</ele>
    </trkpt>
    <trkpt lat="42.422512" lon="-2.457916">
      <ele>436.9</ele>
    </trkpt>
    <trkpt lat="42.422694" lon="-2.458141">
      <ele>437.3</ele>
    </trkpt>
    <trkpt lat="42.422899" lon="-2.458347">
      <ele>437.7</ele>
    </trkpt>
    </trkseg>
  </trk>
</gpx>
