<?xml version="1.0" encoding="UTF-8"?>
<gpx version="1.1" creator="fitAI Komoot downloader" xmlns="http://www.topografix.com/GPX/1/1">
  <metadata>
    <name>GR99 - San Adrián y El Ontinar - Recorrido circular desde Azagra</name>
    <desc>72 visitas · Dificultad: moderate · Distancia: 42.5 km · Desnivel +: 486 m</desc>
    <link href="https://www.komoot.com/smarttour/e24314629"><text>Komoot</text></link>
  </metadata>
  <trk>
    <name>GR99 - San Adrián y El Ontinar - Recorrido circular desde Azagra</name>
    <type>mtb</type>
    <trkseg>
    <trkpt lat="42.310257" lon="-1.898834">
      <ele>289.3</ele>
    </trkpt>
    <trkpt lat="42.310786" lon="-1.899056">
      <ele>289</ele>
    </trkpt>
    <trkpt lat="42.31094" lon="-1.89909">
      <ele>288.9</ele>
    </trkpt>
    <trkpt lat="42.310897" lon="-1.899534">
      <ele>288.8</ele>
    </trkpt>
    <trkpt lat="42.310918" lon="-1.900002">
      <ele>288.6</ele>
    </trkpt>
    <trkpt lat="42.310938" lon="-1.900913">
      <ele>288.4</ele>
    </trkpt>
    <trkpt lat="42.310987" lon="-1.901513">
      <ele>288.4</ele>
    </trkpt>
    <trkpt lat="42.310964" lon="-1.901706">
      <ele>288.5</ele>
    </trkpt>
    <trkpt lat="42.3105" lon="-1.902731">
      <ele>288.7</ele>
    </trkpt>
    <trkpt lat="42.310261" lon="-1.903085">
      <ele>288.8</ele>
    </trkpt>
    <trkpt lat="42.309962" lon="-1.903546">
      <ele>288.8</ele>
    </trkpt>
    <trkpt lat="42.309639" lon="-1.904265">
      <ele>288.6</ele>
    </trkpt>
    <trkpt lat="42.309709" lon="-1.904314">
      <ele>288.6</ele>
    </trkpt>
    <trkpt lat="42.309521" lon="-1.904762">
      <ele>288.4</ele>
    </trkpt>
    <trkpt lat="42.309213" lon="-1.905099">
      <ele>288.1</ele>
    </trkpt>
    <trkpt lat="42.309114" lon="-1.90511">
      <ele>288.1</ele>
    </trkpt>
    <trkpt lat="42.309068" lon="-1.905103">
      <ele>288</ele>
    </trkpt>
    <trkpt lat="42.308921" lon="-1.905239">
      <ele>287.9</ele>
    </trkpt>
    <trkpt lat="42.308642" lon="-1.905618">
      <ele>287.7</ele>
    </trkpt>
    <trkpt lat="42.308037" lon="-1.906118">
      <ele>287.6</ele>
    </trkpt>
    <trkpt lat="42.307938" lon="-1.906171">
      <ele>287.6</ele>
    </trkpt>
    <trkpt lat="42.307334" lon="-1.906305">
      <ele>287.4</ele>
    </trkpt>
    <trkpt lat="42.307084" lon="-1.906286">
      <ele>287.4</ele>
    </trkpt>
    <trkpt lat="42.306884" lon="-1.906309">
      <ele>287.4</ele>
    </trkpt>
    <trkpt lat="42.306701" lon="-1.906436">
      <ele>287.4</ele>
    </trkpt>
    <trkpt lat="42.306202" lon="-1.906626">
      <ele>287.6</ele>
    </trkpt>
    <trkpt lat="42.305889" lon="-1.906856">
      <ele>287.8</ele>
    </trkpt>
    <trkpt lat="42.305445" lon="-1.907132">
      <ele>288.1</ele>
    </trkpt>
    <trkpt lat="42.304634" lon="-1.907896">
      <ele>289.2</ele>
    </trkpt>
    <trkpt lat="42.304285" lon="-1.908301">
      <ele>289.5</ele>
    </trkpt>
    <trkpt lat="42.30353" lon="-1.909369">
      <ele>290.2</ele>
    </trkpt>
    <trkpt lat="42.302924" lon="-1.910587">
      <ele>290.1</ele>
    </trkpt>
    <trkpt lat="42.302668" lon="-1.911242">
      <ele>289.6</ele>
    </trkpt>
    <trkpt lat="42.302389" lon="-1.912064">
      <ele>289</ele>
    </trkpt>
    <trkpt lat="42.302134" lon="-1.912441">
      <ele>288.7</ele>
    </trkpt>
    <trkpt lat="42.301615" lon="-1.912808">
      <ele>288.6</ele>
    </trkpt>
    <trkpt lat="42.301395" lon="-1.912877">
      <ele>288.6</ele>
    </trkpt>
    <trkpt lat="42.300845" lon="-1.912957">
      <ele>288.9</ele>
    </trkpt>
    <trkpt lat="42.300698" lon="-1.912911">
      <ele>289</ele>
    </trkpt>
    <trkpt lat="42.300575" lon="-1.912798">
      <ele>289.1</ele>
    </trkpt>
    <trkpt lat="42.300174" lon="-1.912107">
      <ele>289.2</ele>
    </trkpt>
    <trkpt lat="42.300088" lon="-1.911898">
      <ele>289.2</ele>
    </trkpt>
    <trkpt lat="42.299995" lon="-1.91142">
      <ele>288.9</ele>
    </trkpt>
    <trkpt lat="42.29995" lon="-1.911346">
      <ele>288.9</ele>
    </trkpt>
    <trkpt lat="42.299748" lon="-1.91117">
      <ele>288.7</ele>
    </trkpt>
    <trkpt lat="42.299485" lon="-1.910827">
      <ele>288.3</ele>
    </trkpt>
    <trkpt lat="42.299162" lon="-1.910318">
      <ele>287.8</ele>
    </trkpt>
    <trkpt lat="42.298821" lon="-1.909708">
      <ele>287.5</ele>
    </trkpt>
    <trkpt lat="42.298147" lon="-1.908251">
      <ele>287.5</ele>
    </trkpt>
    <trkpt lat="42.298012" lon="-1.907723">
      <ele>287.5</ele>
    </trkpt>
    <trkpt lat="42.297788" lon="-1.90715">
      <ele>287.7</ele>
    </trkpt>
    <trkpt lat="42.297712" lon="-1.906992">
      <ele>287.7</ele>
    </trkpt>
    <trkpt lat="42.297253" lon="-1.906274">
      <ele>288</ele>
    </trkpt>
    <trkpt lat="42.297107" lon="-1.905962">
      <ele>288.1</ele>
    </trkpt>
    <trkpt lat="42.296727" lon="-1.905286">
      <ele>288.2</ele>
    </trkpt>
    <trkpt lat="42.296073" lon="-1.903782">
      <ele>287.5</ele>
    </trkpt>
    <trkpt lat="42.29591" lon="-1.903506">
      <ele>287.2</ele>
    </trkpt>
    <trkpt lat="42.2957" lon="-1.903002">
      <ele>286.8</ele>
    </trkpt>
    <trkpt lat="42.295577" lon="-1.902678">
      <ele>286.6</ele>
    </trkpt>
    <trkpt lat="42.295517" lon="-1.902414">
      <ele>286.4</ele>
    </trkpt>
    <trkpt lat="42.295518" lon="-1.902261">
      <ele>286.3</ele>
    </trkpt>
    <trkpt lat="42.295286" lon="-1.901886">
      <ele>286</ele>
    </trkpt>
    <trkpt lat="42.295105" lon="-1.901293">
      <ele>285.8</ele>
    </trkpt>
    <trkpt lat="42.295022" lon="-1.901089">
      <ele>285.8</ele>
    </trkpt>
    <trkpt lat="42.294837" lon="-1.900819">
      <ele>285.8</ele>
    </trkpt>
    <trkpt lat="42.294542" lon="-1.900211">
      <ele>285.9</ele>
    </trkpt>
    <trkpt lat="42.294249" lon="-1.899297">
      <ele>286.5</ele>
    </trkpt>
    <trkpt lat="42.294056" lon="-1.898333">
      <ele>287.2</ele>
    </trkpt>
    <trkpt lat="42.293849" lon="-1.896764">
      <ele>287.4</ele>
    </trkpt>
    <trkpt lat="42.293475" lon="-1.895862">
      <ele>286.8</ele>
    </trkpt>
    <trkpt lat="42.293289" lon="-1.895551">
      <ele>286.5</ele>
    </trkpt>
    <trkpt lat="42.293098" lon="-1.895305">
      <ele>286.3</ele>
    </trkpt>
    <trkpt lat="42.292869" lon="-1.895079">
      <ele>286.1</ele>
    </trkpt>
    <trkpt lat="42.292723" lon="-1.894868">
      <ele>286</ele>
    </trkpt>
    <trkpt lat="42.292549" lon="-1.894468">
      <ele>285.9</ele>
    </trkpt>
    <trkpt lat="42.292128" lon="-1.893853">
      <ele>286</ele>
    </trkpt>
    <trkpt lat="42.291812" lon="-1.893294">
      <ele>286.1</ele>
    </trkpt>
    <trkpt lat="42.291536" lon="-1.893027">
      <ele>286.2</ele>
    </trkpt>
    <trkpt lat="42.291105" lon="-1.892878">
      <ele>286.5</ele>
    </trkpt>
    <trkpt lat="42.291002" lon="-1.892806">
      <ele>286.6</ele>
    </trkpt>
    <trkpt lat="42.290915" lon="-1.892613">
      <ele>286.8</ele>
    </trkpt>
    <trkpt lat="42.290569" lon="-1.891412">
      <ele>287.5</ele>
    </trkpt>
    <trkpt lat="42.290275" lon="-1.890595">
      <ele>287.5</ele>
    </trkpt>
    <trkpt lat="42.289989" lon="-1.89018">
      <ele>287.1</ele>
    </trkpt>
    <trkpt lat="42.289531" lon="-1.888717">
      <ele>285.3</ele>
    </trkpt>
    <trkpt lat="42.289423" lon="-1.888218">
      <ele>284.9</ele>
    </trkpt>
    <trkpt lat="42.289065" lon="-1.887357">
      <ele>284.9</ele>
    </trkpt>
    <trkpt lat="42.289003" lon="-1.887091">
      <ele>285.1</ele>
    </trkpt>
    <trkpt lat="42.288998" lon="-1.886883">
      <ele>285.2</ele>
    </trkpt>
    <trkpt lat="42.289053" lon="-1.88679">
      <ele>285.4</ele>
    </trkpt>
    <trkpt lat="42.289133" lon="-1.886742">
      <ele>285.5</ele>
    </trkpt>
    <trkpt lat="42.289466" lon="-1.886977">
      <ele>286</ele>
    </trkpt>
    <trkpt lat="42.289392" lon="-1.886328">
      <ele>286.6</ele>
    </trkpt>
    <trkpt lat="42.289326" lon="-1.885949">
      <ele>286.9</ele>
    </trkpt>
    <trkpt lat="42.289315" lon="-1.885551">
      <ele>287.1</ele>
    </trkpt>
    <trkpt lat="42.289608" lon="-1.885022">
      <ele>287.2</ele>
    </trkpt>
    <trkpt lat="42.289735" lon="-1.884808">
      <ele>287.2</ele>
    </trkpt>
    <trkpt lat="42.289951" lon="-1.884464">
      <ele>287.2</ele>
    </trkpt>
    <trkpt lat="42.289961" lon="-1.884332">
      <ele>287.2</ele>
    </trkpt>
    <trkpt lat="42.289696" lon="-1.882958">
      <ele>287</ele>
    </trkpt>
    <trkpt lat="42.289676" lon="-1.882696">
      <ele>287</ele>
    </trkpt>
    <trkpt lat="42.289664" lon="-1.88252">
      <ele>287</ele>
    </trkpt>
    <trkpt lat="42.289707" lon="-1.882128">
      <ele>286.9</ele>
    </trkpt>
    <trkpt lat="42.289733" lon="-1.881264">
      <ele>286.9</ele>
    </trkpt>
    <trkpt lat="42.289768" lon="-1.881117">
      <ele>286.9</ele>
    </trkpt>
    <trkpt lat="42.28984" lon="-1.88097">
      <ele>286.9</ele>
    </trkpt>
    <trkpt lat="42.290076" lon="-1.880602">
      <ele>287</ele>
    </trkpt>
    <trkpt lat="42.290188" lon="-1.880406">
      <ele>286.9</ele>
    </trkpt>
    <trkpt lat="42.290272" lon="-1.880167">
      <ele>286.9</ele>
    </trkpt>
    <trkpt lat="42.290298" lon="-1.879979">
      <ele>286.9</ele>
    </trkpt>
    <trkpt lat="42.290304" lon="-1.879265">
      <ele>286.8</ele>
    </trkpt>
    <trkpt lat="42.290419" lon="-1.878395">
      <ele>286.6</ele>
    </trkpt>
    <trkpt lat="42.290479" lon="-1.878058">
      <ele>286.6</ele>
    </trkpt>
    <trkpt lat="42.290638" lon="-1.877459">
      <ele>286.5</ele>
    </trkpt>
    <trkpt lat="42.290658" lon="-1.877298">
      <ele>286.5</ele>
    </trkpt>
    <trkpt lat="42.290649" lon="-1.877165">
      <ele>286.5</ele>
    </trkpt>
    <trkpt lat="42.29054" lon="-1.876745">
      <ele>286.5</ele>
    </trkpt>
    <trkpt lat="42.290545" lon="-1.876627">
      <ele>286.5</ele>
    </trkpt>
    <trkpt lat="42.290603" lon="-1.876434">
      <ele>286.6</ele>
    </trkpt>
    <trkpt lat="42.290773" lon="-1.876005">
      <ele>286.6</ele>
    </trkpt>
    <trkpt lat="42.290849" lon="-1.875914">
      <ele>286.7</ele>
    </trkpt>
    <trkpt lat="42.290859" lon="-1.875901">
      <ele>286.7</ele>
    </trkpt>
    <trkpt lat="42.290946" lon="-1.875835">
      <ele>286.8</ele>
    </trkpt>
    <trkpt lat="42.291823" lon="-1.875435">
      <ele>288.2</ele>
    </trkpt>
    <trkpt lat="42.291902" lon="-1.8754">
      <ele>288.4</ele>
    </trkpt>
    <trkpt lat="42.292006" lon="-1.875261">
      <ele>288.7</ele>
    </trkpt>
    <trkpt lat="42.292098" lon="-1.875028">
      <ele>289.2</ele>
    </trkpt>
    <trkpt lat="42.292242" lon="-1.874809">
      <ele>289.6</ele>
    </trkpt>
    <trkpt lat="42.292353" lon="-1.874707">
      <ele>289.9</ele>
    </trkpt>
    <trkpt lat="42.291646" lon="-1.873907">
      <ele>291.9</ele>
    </trkpt>
    <trkpt lat="42.291461" lon="-1.873735">
      <ele>292</ele>
    </trkpt>
    <trkpt lat="42.291064" lon="-1.872929">
      <ele>291.3</ele>
    </trkpt>
    <trkpt lat="42.290873" lon="-1.872929">
      <ele>290.9</ele>
    </trkpt>
    <trkpt lat="42.29086" lon="-1.872939">
      <ele>290.8</ele>
    </trkpt>
    <trkpt lat="42.290199" lon="-1.873468">
      <ele>288.6</ele>
    </trkpt>
    <trkpt lat="42.289777" lon="-1.873749">
      <ele>287</ele>
    </trkpt>
    <trkpt lat="42.289666" lon="-1.873959">
      <ele>286.5</ele>
    </trkpt>
    <trkpt lat="42.289588" lon="-1.874207">
      <ele>286.1</ele>
    </trkpt>
    <trkpt lat="42.28952" lon="-1.874708">
      <ele>285.5</ele>
    </trkpt>
    <trkpt lat="42.289536" lon="-1.874838">
      <ele>285.4</ele>
    </trkpt>
    <trkpt lat="42.289104" lon="-1.874838">
      <ele>285.1</ele>
    </trkpt>
    <trkpt lat="42.288742" lon="-1.875209">
      <ele>285</ele>
    </trkpt>
    <trkpt lat="42.288593" lon="-1.87528">
      <ele>285</ele>
    </trkpt>
    <trkpt lat="42.288359" lon="-1.875271">
      <ele>284.9</ele>
    </trkpt>
    <trkpt lat="42.288263" lon="-1.875297">
      <ele>284.9</ele>
    </trkpt>
    <trkpt lat="42.288149" lon="-1.875438">
      <ele>284.9</ele>
    </trkpt>
    <trkpt lat="42.288024" lon="-1.875525">
      <ele>284.9</ele>
    </trkpt>
    <trkpt lat="42.287639" lon="-1.875619">
      <ele>285.1</ele>
    </trkpt>
    <trkpt lat="42.287317" lon="-1.875815">
      <ele>285.3</ele>
    </trkpt>
    <trkpt lat="42.287199" lon="-1.875933">
      <ele>285.4</ele>
    </trkpt>
    <trkpt lat="42.287106" lon="-1.876163">
      <ele>285.7</ele>
    </trkpt>
    <trkpt lat="42.286883" lon="-1.877254">
      <ele>287.2</ele>
    </trkpt>
    <trkpt lat="42.286744" lon="-1.877816">
      <ele>288</ele>
    </trkpt>
    <trkpt lat="42.286739" lon="-1.878045">
      <ele>288.3</ele>
    </trkpt>
    <trkpt lat="42.286804" lon="-1.878381">
      <ele>288.6</ele>
    </trkpt>
    <trkpt lat="42.286964" lon="-1.878561">
      <ele>288.8</ele>
    </trkpt>
    <trkpt lat="42.287159" lon="-1.878844">
      <ele>288.9</ele>
    </trkpt>
    <trkpt lat="42.287197" lon="-1.879032">
      <ele>289</ele>
    </trkpt>
    <trkpt lat="42.287205" lon="-1.87999">
      <ele>288.5</ele>
    </trkpt>
    <trkpt lat="42.287259" lon="-1.880933">
      <ele>287.8</ele>
    </trkpt>
    <trkpt lat="42.287305" lon="-1.88167">
      <ele>287.4</ele>
    </trkpt>
    <trkpt lat="42.287356" lon="-1.881902">
      <ele>287.4</ele>
    </trkpt>
    <trkpt lat="42.287972" lon="-1.883131">
      <ele>287.3</ele>
    </trkpt>
    <trkpt lat="42.288197" lon="-1.883957">
      <ele>287.3</ele>
    </trkpt>
    <trkpt lat="42.288281" lon="-1.884006">
      <ele>287.3</ele>
    </trkpt>
    <trkpt lat="42.288544" lon="-1.884023">
      <ele>287.3</ele>
    </trkpt>
    <trkpt lat="42.288632" lon="-1.884095">
      <ele>287.3</ele>
    </trkpt>
    <trkpt lat="42.289181" lon="-1.885543">
      <ele>287.2</ele>
    </trkpt>
    <trkpt lat="42.289315" lon="-1.885551">
      <ele>287.2</ele>
    </trkpt>
    <trkpt lat="42.289326" lon="-1.885949">
      <ele>286.9</ele>
    </trkpt>
    <trkpt lat="42.289392" lon="-1.886328">
      <ele>286.6</ele>
    </trkpt>
    <trkpt lat="42.289466" lon="-1.886977">
      <ele>286</ele>
    </trkpt>
    <trkpt lat="42.289133" lon="-1.886742">
      <ele>285.5</ele>
    </trkpt>
    <trkpt lat="42.289053" lon="-1.88679">
      <ele>285.4</ele>
    </trkpt>
    <trkpt lat="42.288998" lon="-1.886883">
      <ele>285.2</ele>
    </trkpt>
    <trkpt lat="42.289003" lon="-1.887091">
      <ele>285.1</ele>
    </trkpt>
    <trkpt lat="42.289065" lon="-1.887357">
      <ele>284.9</ele>
    </trkpt>
    <trkpt lat="42.289423" lon="-1.888218">
      <ele>284.9</ele>
    </trkpt>
    <trkpt lat="42.289531" lon="-1.888717">
      <ele>285.3</ele>
    </trkpt>
    <trkpt lat="42.289989" lon="-1.89018">
      <ele>287.1</ele>
    </trkpt>
    <trkpt lat="42.290275" lon="-1.890595">
      <ele>287.5</ele>
    </trkpt>
    <trkpt lat="42.290569" lon="-1.891412">
      <ele>287.5</ele>
    </trkpt>
    <trkpt lat="42.290915" lon="-1.892613">
      <ele>286.8</ele>
    </trkpt>
    <trkpt lat="42.291002" lon="-1.892806">
      <ele>286.6</ele>
    </trkpt>
    <trkpt lat="42.291105" lon="-1.892878">
      <ele>286.5</ele>
    </trkpt>
    <trkpt lat="42.291536" lon="-1.893027">
      <ele>286.2</ele>
    </trkpt>
    <trkpt lat="42.291812" lon="-1.893294">
      <ele>286.1</ele>
    </trkpt>
    <trkpt lat="42.292128" lon="-1.893853">
      <ele>286</ele>
    </trkpt>
    <trkpt lat="42.292549" lon="-1.894468">
      <ele>285.9</ele>
    </trkpt>
    <trkpt lat="42.292723" lon="-1.894868">
      <ele>286</ele>
    </trkpt>
    <trkpt lat="42.292869" lon="-1.895079">
      <ele>286.1</ele>
    </trkpt>
    <trkpt lat="42.293098" lon="-1.895305">
      <ele>286.3</ele>
    </trkpt>
    <trkpt lat="42.293289" lon="-1.895551">
      <ele>286.5</ele>
    </trkpt>
    <trkpt lat="42.293475" lon="-1.895862">
      <ele>286.8</ele>
    </trkpt>
    <trkpt lat="42.293849" lon="-1.896764">
      <ele>287.4</ele>
    </trkpt>
    <trkpt lat="42.294056" lon="-1.898333">
      <ele>287.2</ele>
    </trkpt>
    <trkpt lat="42.294249" lon="-1.899297">
      <ele>286.5</ele>
    </trkpt>
    <trkpt lat="42.294542" lon="-1.900211">
      <ele>285.9</ele>
    </trkpt>
    <trkpt lat="42.294837" lon="-1.900819">
      <ele>285.8</ele>
    </trkpt>
    <trkpt lat="42.295022" lon="-1.901089">
      <ele>285.8</ele>
    </trkpt>
    <trkpt lat="42.295105" lon="-1.901293">
      <ele>285.8</ele>
    </trkpt>
    <trkpt lat="42.295286" lon="-1.901886">
      <ele>286</ele>
    </trkpt>
    <trkpt lat="42.295518" lon="-1.902261">
      <ele>286.3</ele>
    </trkpt>
    <trkpt lat="42.295517" lon="-1.902414">
      <ele>286.4</ele>
    </trkpt>
    <trkpt lat="42.295577" lon="-1.902678">
      <ele>286.6</ele>
    </trkpt>
    <trkpt lat="42.2957" lon="-1.903002">
      <ele>286.8</ele>
    </trkpt>
    <trkpt lat="42.29591" lon="-1.903506">
      <ele>287.2</ele>
    </trkpt>
    <trkpt lat="42.296073" lon="-1.903782">
      <ele>287.5</ele>
    </trkpt>
    <trkpt lat="42.296727" lon="-1.905286">
      <ele>288.2</ele>
    </trkpt>
    <trkpt lat="42.297107" lon="-1.905962">
      <ele>288.1</ele>
    </trkpt>
    <trkpt lat="42.297253" lon="-1.906274">
      <ele>288</ele>
    </trkpt>
    <trkpt lat="42.297712" lon="-1.906992">
      <ele>287.7</ele>
    </trkpt>
    <trkpt lat="42.297788" lon="-1.90715">
      <ele>287.7</ele>
    </trkpt>
    <trkpt lat="42.298012" lon="-1.907723">
      <ele>287.5</ele>
    </trkpt>
    <trkpt lat="42.298147" lon="-1.908251">
      <ele>287.5</ele>
    </trkpt>
    <trkpt lat="42.298821" lon="-1.909708">
      <ele>287.5</ele>
    </trkpt>
    <trkpt lat="42.299162" lon="-1.910318">
      <ele>287.8</ele>
    </trkpt>
    <trkpt lat="42.299485" lon="-1.910827">
      <ele>288.3</ele>
    </trkpt>
    <trkpt lat="42.299748" lon="-1.91117">
      <ele>288.7</ele>
    </trkpt>
    <trkpt lat="42.29995" lon="-1.911346">
      <ele>288.9</ele>
    </trkpt>
    <trkpt lat="42.299995" lon="-1.91142">
      <ele>288.9</ele>
    </trkpt>
    <trkpt lat="42.300088" lon="-1.911898">
      <ele>289.2</ele>
    </trkpt>
    <trkpt lat="42.300174" lon="-1.912107">
      <ele>289.2</ele>
    </trkpt>
    <trkpt lat="42.300575" lon="-1.912798">
      <ele>289.1</ele>
    </trkpt>
    <trkpt lat="42.300698" lon="-1.912911">
      <ele>289</ele>
    </trkpt>
    <trkpt lat="42.300845" lon="-1.912957">
      <ele>288.9</ele>
    </trkpt>
    <trkpt lat="42.301395" lon="-1.912877">
      <ele>288.6</ele>
    </trkpt>
    <trkpt lat="42.301615" lon="-1.912808">
      <ele>288.6</ele>
    </trkpt>
    <trkpt lat="42.302134" lon="-1.912441">
      <ele>288.7</ele>
    </trkpt>
    <trkpt lat="42.302389" lon="-1.912064">
      <ele>289</ele>
    </trkpt>
    <trkpt lat="42.302668" lon="-1.911242">
      <ele>289.6</ele>
    </trkpt>
    <trkpt lat="42.302924" lon="-1.910587">
      <ele>290.1</ele>
    </trkpt>
    <trkpt lat="42.30353" lon="-1.909369">
      <ele>290.2</ele>
    </trkpt>
    <trkpt lat="42.304285" lon="-1.908301">
      <ele>289.5</ele>
    </trkpt>
    <trkpt lat="42.304634" lon="-1.907896">
      <ele>289.2</ele>
    </trkpt>
    <trkpt lat="42.305445" lon="-1.907132">
      <ele>288.1</ele>
    </trkpt>
    <trkpt lat="42.305889" lon="-1.906856">
      <ele>287.8</ele>
    </trkpt>
    <trkpt lat="42.306202" lon="-1.906626">
      <ele>287.6</ele>
    </trkpt>
    <trkpt lat="42.306701" lon="-1.906436">
      <ele>287.4</ele>
    </trkpt>
    <trkpt lat="42.306884" lon="-1.906309">
      <ele>287.4</ele>
    </trkpt>
    <trkpt lat="42.307084" lon="-1.906286">
      <ele>287.4</ele>
    </trkpt>
    <trkpt lat="42.307334" lon="-1.906305">
      <ele>287.4</ele>
    </trkpt>
    <trkpt lat="42.307938" lon="-1.906171">
      <ele>287.6</ele>
    </trkpt>
    <trkpt lat="42.308037" lon="-1.906118">
      <ele>287.6</ele>
    </trkpt>
    <trkpt lat="42.308642" lon="-1.905618">
      <ele>287.8</ele>
    </trkpt>
    <trkpt lat="42.308921" lon="-1.905239">
      <ele>288.1</ele>
    </trkpt>
    <trkpt lat="42.309068" lon="-1.905103">
      <ele>288.2</ele>
    </trkpt>
    <trkpt lat="42.309114" lon="-1.90511">
      <ele>288.3</ele>
    </trkpt>
    <trkpt lat="42.309198" lon="-1.905191">
      <ele>288.4</ele>
    </trkpt>
    <trkpt lat="42.309319" lon="-1.905438">
      <ele>288.5</ele>
    </trkpt>
    <trkpt lat="42.309561" lon="-1.905695">
      <ele>288.8</ele>
    </trkpt>
    <trkpt lat="42.31034" lon="-1.906679">
      <ele>289</ele>
    </trkpt>
    <trkpt lat="42.311437" lon="-1.908431">
      <ele>287.8</ele>
    </trkpt>
    <trkpt lat="42.311886" lon="-1.909239">
      <ele>287.5</ele>
    </trkpt>
    <trkpt lat="42.312121" lon="-1.9098">
      <ele>287.5</ele>
    </trkpt>
    <trkpt lat="42.31248" lon="-1.910292">
      <ele>287.5</ele>
    </trkpt>
    <trkpt lat="42.312712" lon="-1.910723">
      <ele>287.6</ele>
    </trkpt>
    <trkpt lat="42.312887" lon="-1.911155">
      <ele>287.5</ele>
    </trkpt>
    <trkpt lat="42.312905" lon="-1.91144">
      <ele>287.5</ele>
    </trkpt>
    <trkpt lat="42.312952" lon="-1.911683">
      <ele>287.5</ele>
    </trkpt>
    <trkpt lat="42.313311" lon="-1.912695">
      <ele>287.2</ele>
    </trkpt>
    <trkpt lat="42.313575" lon="-1.91464">
      <ele>287</ele>
    </trkpt>
    <trkpt lat="42.313681" lon="-1.915747">
      <ele>287.1</ele>
    </trkpt>
    <trkpt lat="42.313501" lon="-1.916346">
      <ele>287.4</ele>
    </trkpt>
    <trkpt lat="42.313482" lon="-1.916515">
      <ele>287.5</ele>
    </trkpt>
    <trkpt lat="42.313551" lon="-1.916836">
      <ele>287.8</ele>
    </trkpt>
    <trkpt lat="42.313647" lon="-1.917037">
      <ele>288.1</ele>
    </trkpt>
    <trkpt lat="42.31459" lon="-1.917969">
      <ele>289.8</ele>
    </trkpt>
    <trkpt lat="42.314792" lon="-1.918204">
      <ele>290</ele>
    </trkpt>
    <trkpt lat="42.315084" lon="-1.918424">
      <ele>290.1</ele>
    </trkpt>
    <trkpt lat="42.315252" lon="-1.918505">
      <ele>290.1</ele>
    </trkpt>
    <trkpt lat="42.316307" lon="-1.918631">
      <ele>289.6</ele>
    </trkpt>
    <trkpt lat="42.316641" lon="-1.918557">
      <ele>289.5</ele>
    </trkpt>
    <trkpt lat="42.316913" lon="-1.918442">
      <ele>289.4</ele>
    </trkpt>
    <trkpt lat="42.316937" lon="-1.918397">
      <ele>289.4</ele>
    </trkpt>
    <trkpt lat="42.316934" lon="-1.918334">
      <ele>289.4</ele>
    </trkpt>
    <trkpt lat="42.316781" lon="-1.918171">
      <ele>289.4</ele>
    </trkpt>
    <trkpt lat="42.316748" lon="-1.918094">
      <ele>289.5</ele>
    </trkpt>
    <trkpt lat="42.31674" lon="-1.918004">
      <ele>289.5</ele>
    </trkpt>
    <trkpt lat="42.316765" lon="-1.917887">
      <ele>289.5</ele>
    </trkpt>
    <trkpt lat="42.316879" lon="-1.917632">
      <ele>289.6</ele>
    </trkpt>
    <trkpt lat="42.317159" lon="-1.917239">
      <ele>289.7</ele>
    </trkpt>
    <trkpt lat="42.317251" lon="-1.917205">
      <ele>289.8</ele>
    </trkpt>
    <trkpt lat="42.317384" lon="-1.917247">
      <ele>289.8</ele>
    </trkpt>
    <trkpt lat="42.317441" lon="-1.917215">
      <ele>289.9</ele>
    </trkpt>
    <trkpt lat="42.317653" lon="-1.917307">
      <ele>290</ele>
    </trkpt>
    <trkpt lat="42.318069" lon="-1.917286">
      <ele>290.1</ele>
    </trkpt>
    <trkpt lat="42.319927" lon="-1.916826">
      <ele>290.1</ele>
    </trkpt>
    <trkpt lat="42.322577" lon="-1.915761">
      <ele>290.2</ele>
    </trkpt>
    <trkpt lat="42.324023" lon="-1.915359">
      <ele>291.5</ele>
    </trkpt>
    <trkpt lat="42.324989" lon="-1.914891">
      <ele>293.2</ele>
    </trkpt>
    <trkpt lat="42.325192" lon="-1.914824">
      <ele>293.7</ele>
    </trkpt>
    <trkpt lat="42.325128" lon="-1.91474">
      <ele>293.9</ele>
    </trkpt>
    <trkpt lat="42.325192" lon="-1.914824">
      <ele>294.1</ele>
    </trkpt>
    <trkpt lat="42.326216" lon="-1.914714">
      <ele>296.7</ele>
    </trkpt>
    <trkpt lat="42.32693" lon="-1.914486">
      <ele>296.3</ele>
    </trkpt>
    <trkpt lat="42.32701" lon="-1.914939">
      <ele>295.5</ele>
    </trkpt>
    <trkpt lat="42.327016" lon="-1.915005">
      <ele>295.4</ele>
    </trkpt>
    <trkpt lat="42.327107" lon="-1.916054">
      <ele>292.6</ele>
    </trkpt>
    <trkpt lat="42.327378" lon="-1.917334">
      <ele>290.4</ele>
    </trkpt>
    <trkpt lat="42.327639" lon="-1.918404">
      <ele>289.9</ele>
    </trkpt>
    <trkpt lat="42.327774" lon="-1.918741">
      <ele>289.9</ele>
    </trkpt>
    <trkpt lat="42.328023" lon="-1.918959">
      <ele>289.9</ele>
    </trkpt>
    <trkpt lat="42.328218" lon="-1.919071">
      <ele>290</ele>
    </trkpt>
    <trkpt lat="42.328534" lon="-1.919387">
      <ele>290.1</ele>
    </trkpt>
    <trkpt lat="42.3295" lon="-1.920508">
      <ele>290.8</ele>
    </trkpt>
    <trkpt lat="42.329761" lon="-1.920645">
      <ele>291</ele>
    </trkpt>
    <trkpt lat="42.329879" lon="-1.920656">
      <ele>291</ele>
    </trkpt>
    <trkpt lat="42.330546" lon="-1.920656">
      <ele>291.2</ele>
    </trkpt>
    <trkpt lat="42.330757" lon="-1.920579">
      <ele>291.2</ele>
    </trkpt>
    <trkpt lat="42.331344" lon="-1.919991">
      <ele>291.2</ele>
    </trkpt>
    <trkpt lat="42.331668" lon="-1.919483">
      <ele>291.5</ele>
    </trkpt>
    <trkpt lat="42.33187" lon="-1.919326">
      <ele>291.7</ele>
    </trkpt>
    <trkpt lat="42.331982" lon="-1.91908">
      <ele>291.9</ele>
    </trkpt>
    <trkpt lat="42.332147" lon="-1.918534">
      <ele>292.3</ele>
    </trkpt>
    <trkpt lat="42.332447" lon="-1.918746">
      <ele>292.7</ele>
    </trkpt>
    <trkpt lat="42.333607" lon="-1.919437">
      <ele>293.9</ele>
    </trkpt>
    <trkpt lat="42.333741" lon="-1.919577">
      <ele>294</ele>
    </trkpt>
    <trkpt lat="42.334081" lon="-1.920039">
      <ele>294.5</ele>
    </trkpt>
    <trkpt lat="42.334262" lon="-1.920227">
      <ele>294.8</ele>
    </trkpt>
    <trkpt lat="42.334617" lon="-1.920488">
      <ele>295</ele>
    </trkpt>
    <trkpt lat="42.334685" lon="-1.920519">
      <ele>295</ele>
    </trkpt>
    <trkpt lat="42.334765" lon="-1.920506">
      <ele>295</ele>
    </trkpt>
    <trkpt lat="42.335222" lon="-1.92034">
      <ele>294.8</ele>
    </trkpt>
    <trkpt lat="42.335589" lon="-1.921206">
      <ele>294</ele>
    </trkpt>
    <trkpt lat="42.335802" lon="-1.92201">
      <ele>292.7</ele>
    </trkpt>
    <trkpt lat="42.335827" lon="-1.922632">
      <ele>292.1</ele>
    </trkpt>
    <trkpt lat="42.335809" lon="-1.922979">
      <ele>292</ele>
    </trkpt>
    <trkpt lat="42.335768" lon="-1.923315">
      <ele>291.9</ele>
    </trkpt>
    <trkpt lat="42.335659" lon="-1.92407">
      <ele>292.1</ele>
    </trkpt>
    <trkpt lat="42.335482" lon="-1.925212">
      <ele>292.8</ele>
    </trkpt>
    <trkpt lat="42.335465" lon="-1.925326">
      <ele>292.8</ele>
    </trkpt>
    <trkpt lat="42.335942" lon="-1.925409">
      <ele>293</ele>
    </trkpt>
    <trkpt lat="42.3362" lon="-1.925383">
      <ele>292.9</ele>
    </trkpt>
    <trkpt lat="42.336369" lon="-1.925129">
      <ele>292.9</ele>
    </trkpt>
    <trkpt lat="42.336415" lon="-1.924987">
      <ele>292.9</ele>
    </trkpt>
    <trkpt lat="42.336706" lon="-1.923967">
      <ele>293</ele>
    </trkpt>
    <trkpt lat="42.336752" lon="-1.923812">
      <ele>293.1</ele>
    </trkpt>
    <trkpt lat="42.336823" lon="-1.923525">
      <ele>293.3</ele>
    </trkpt>
    <trkpt lat="42.336819" lon="-1.923328">
      <ele>293.5</ele>
    </trkpt>
    <trkpt lat="42.336789" lon="-1.923162">
      <ele>293.6</ele>
    </trkpt>
    <trkpt lat="42.336604" lon="-1.922701">
      <ele>294.4</ele>
    </trkpt>
    <trkpt lat="42.336577" lon="-1.922162">
      <ele>295.5</ele>
    </trkpt>
    <trkpt lat="42.336451" lon="-1.921808">
      <ele>296.4</ele>
    </trkpt>
    <trkpt lat="42.33641" lon="-1.92162">
      <ele>296.8</ele>
    </trkpt>
    <trkpt lat="42.336432" lon="-1.921448">
      <ele>297.2</ele>
    </trkpt>
    <trkpt lat="42.336518" lon="-1.921164">
      <ele>297.9</ele>
    </trkpt>
    <trkpt lat="42.336412" lon="-1.921119">
      <ele>298.3</ele>
    </trkpt>
    <trkpt lat="42.336515" lon="-1.920823">
      <ele>299.1</ele>
    </trkpt>
    <trkpt lat="42.3369" lon="-1.919716">
      <ele>303</ele>
    </trkpt>
    <trkpt lat="42.337238" lon="-1.91894">
      <ele>307.3</ele>
    </trkpt>
    <trkpt lat="42.337444" lon="-1.918586">
      <ele>310.5</ele>
    </trkpt>
    <trkpt lat="42.337807" lon="-1.918097">
      <ele>316.5</ele>
    </trkpt>
    <trkpt lat="42.338116" lon="-1.917767">
      <ele>321.4</ele>
    </trkpt>
    <trkpt lat="42.338389" lon="-1.917537">
      <ele>325.6</ele>
    </trkpt>
    <trkpt lat="42.339452" lon="-1.916854">
      <ele>339.6</ele>
    </trkpt>
    <trkpt lat="42.339794" lon="-1.916546">
      <ele>343.9</ele>
    </trkpt>
    <trkpt lat="42.34001" lon="-1.916221">
      <ele>347.1</ele>
    </trkpt>
    <trkpt lat="42.340109" lon="-1.916003">
      <ele>348.8</ele>
    </trkpt>
    <trkpt lat="42.340177" lon="-1.915813">
      <ele>350.2</ele>
    </trkpt>
    <trkpt lat="42.340266" lon="-1.915381">
      <ele>353.1</ele>
    </trkpt>
    <trkpt lat="42.340281" lon="-1.91498">
      <ele>355.5</ele>
    </trkpt>
    <trkpt lat="42.340201" lon="-1.914468">
      <ele>358.5</ele>
    </trkpt>
    <trkpt lat="42.339826" lon="-1.913383">
      <ele>364.3</ele>
    </trkpt>
    <trkpt lat="42.339673" lon="-1.912837">
      <ele>366.9</ele>
    </trkpt>
    <trkpt lat="42.339362" lon="-1.912397">
      <ele>369.5</ele>
    </trkpt>
    <trkpt lat="42.339266" lon="-1.912213">
      <ele>370.5</ele>
    </trkpt>
    <trkpt lat="42.339292" lon="-1.912136">
      <ele>370.9</ele>
    </trkpt>
    <trkpt lat="42.339347" lon="-1.91166">
      <ele>373.5</ele>
    </trkpt>
    <trkpt lat="42.33937" lon="-1.911579">
      <ele>374</ele>
    </trkpt>
    <trkpt lat="42.339423" lon="-1.911529">
      <ele>374.5</ele>
    </trkpt>
    <trkpt lat="42.339464" lon="-1.911175">
      <ele>376.7</ele>
    </trkpt>
    <trkpt lat="42.339542" lon="-1.910774">
      <ele>379.3</ele>
    </trkpt>
    <trkpt lat="42.339611" lon="-1.91009">
      <ele>384.2</ele>
    </trkpt>
    <trkpt lat="42.339692" lon="-1.909616">
      <ele>387.8</ele>
    </trkpt>
    <trkpt lat="42.339695" lon="-1.909458">
      <ele>388.8</ele>
    </trkpt>
    <trkpt lat="42.339653" lon="-1.909187">
      <ele>390.5</ele>
    </trkpt>
    <trkpt lat="42.339561" lon="-1.908842">
      <ele>392.2</ele>
    </trkpt>
    <trkpt lat="42.339483" lon="-1.908749">
      <ele>392.7</ele>
    </trkpt>
    <trkpt lat="42.339351" lon="-1.908425">
      <ele>393.9</ele>
    </trkpt>
    <trkpt lat="42.339236" lon="-1.908375">
      <ele>394.4</ele>
    </trkpt>
    <trkpt lat="42.33921" lon="-1.907922">
      <ele>395.2</ele>
    </trkpt>
    <trkpt lat="42.339242" lon="-1.907721">
      <ele>395.5</ele>
    </trkpt>
    <trkpt lat="42.339398" lon="-1.907407">
      <ele>395.7</ele>
    </trkpt>
    <trkpt lat="42.339514" lon="-1.907266">
      <ele>395.9</ele>
    </trkpt>
    <trkpt lat="42.339601" lon="-1.907043">
      <ele>396</ele>
    </trkpt>
    <trkpt lat="42.3397" lon="-1.906683">
      <ele>396.6</ele>
    </trkpt>
    <trkpt lat="42.339852" lon="-1.90626">
      <ele>398</ele>
    </trkpt>
    <trkpt lat="42.339864" lon="-1.906144">
      <ele>398.5</ele>
    </trkpt>
    <trkpt lat="42.339853" lon="-1.906024">
      <ele>399.1</ele>
    </trkpt>
    <trkpt lat="42.339741" lon="-1.905749">
      <ele>400.8</ele>
    </trkpt>
    <trkpt lat="42.339696" lon="-1.905505">
      <ele>402.3</ele>
    </trkpt>
    <trkpt lat="42.339711" lon="-1.905317">
      <ele>403.6</ele>
    </trkpt>
    <trkpt lat="42.339778" lon="-1.905027">
      <ele>406.1</ele>
    </trkpt>
    <trkpt lat="42.339955" lon="-1.904418">
      <ele>411.6</ele>
    </trkpt>
    <trkpt lat="42.340006" lon="-1.903421">
      <ele>417.1</ele>
    </trkpt>
    <trkpt lat="42.339968" lon="-1.903266">
      <ele>417.4</ele>
    </trkpt>
    <trkpt lat="42.33986" lon="-1.903002">
      <ele>417.6</ele>
    </trkpt>
    <trkpt lat="42.339628" lon="-1.903054">
      <ele>417.1</ele>
    </trkpt>
    <trkpt lat="42.339332" lon="-1.903027">
      <ele>415.5</ele>
    </trkpt>
    <trkpt lat="42.338907" lon="-1.90317">
      <ele>411.2</ele>
    </trkpt>
    <trkpt lat="42.338624" lon="-1.90322">
      <ele>407.8</ele>
    </trkpt>
    <trkpt lat="42.338452" lon="-1.903304">
      <ele>405.6</ele>
    </trkpt>
    <trkpt lat="42.338177" lon="-1.903655">
      <ele>401.4</ele>
    </trkpt>
    <trkpt lat="42.338054" lon="-1.903884">
      <ele>399.2</ele>
    </trkpt>
    <trkpt lat="42.33788" lon="-1.90408">
      <ele>397.1</ele>
    </trkpt>
    <trkpt lat="42.337738" lon="-1.904202">
      <ele>395.6</ele>
    </trkpt>
    <trkpt lat="42.33748" lon="-1.904345">
      <ele>393.4</ele>
    </trkpt>
    <trkpt lat="42.33741" lon="-1.904267">
      <ele>392.7</ele>
    </trkpt>
    <trkpt lat="42.337384" lon="-1.904047">
      <ele>391.5</ele>
    </trkpt>
    <trkpt lat="42.337362" lon="-1.90397">
      <ele>391.1</ele>
    </trkpt>
    <trkpt lat="42.337324" lon="-1.90394">
      <ele>390.8</ele>
    </trkpt>
    <trkpt lat="42.337087" lon="-1.904071">
      <ele>389</ele>
    </trkpt>
    <trkpt lat="42.336926" lon="-1.904122">
      <ele>387.9</ele>
    </trkpt>
    <trkpt lat="42.336832" lon="-1.904122">
      <ele>387.3</ele>
    </trkpt>
    <trkpt lat="42.336684" lon="-1.90405">
      <ele>386.2</ele>
    </trkpt>
    <trkpt lat="42.336432" lon="-1.903723">
      <ele>383.8</ele>
    </trkpt>
    <trkpt lat="42.336214" lon="-1.903613">
      <ele>382.3</ele>
    </trkpt>
    <trkpt lat="42.336104" lon="-1.903652">
      <ele>381.6</ele>
    </trkpt>
    <trkpt lat="42.335877" lon="-1.903824">
      <ele>380.2</ele>
    </trkpt>
    <trkpt lat="42.335644" lon="-1.903708">
      <ele>379.3</ele>
    </trkpt>
    <trkpt lat="42.335396" lon="-1.903384">
      <ele>379.1</ele>
    </trkpt>
    <trkpt lat="42.335385" lon="-1.903374">
      <ele>379.1</ele>
    </trkpt>
    <trkpt lat="42.335279" lon="-1.903277">
      <ele>379.3</ele>
    </trkpt>
    <trkpt lat="42.334958" lon="-1.903158">
      <ele>380.7</ele>
    </trkpt>
    <trkpt lat="42.335688" lon="-1.899868">
      <ele>412.7</ele>
    </trkpt>
    <trkpt lat="42.335825" lon="-1.898827">
      <ele>423.2</ele>
    </trkpt>
    <trkpt lat="42.335873" lon="-1.898714">
      <ele>424.1</ele>
    </trkpt>
    <trkpt lat="42.336007" lon="-1.898714">
      <ele>425.2</ele>
    </trkpt>
    <trkpt lat="42.336102" lon="-1.898687">
      <ele>426</ele>
    </trkpt>
    <trkpt lat="42.336144" lon="-1.898644">
      <ele>426.3</ele>
    </trkpt>
    <trkpt lat="42.336116" lon="-1.898603">
      <ele>426.6</ele>
    </trkpt>
    <trkpt lat="42.336111" lon="-1.898508">
      <ele>427</ele>
    </trkpt>
    <trkpt lat="42.336157" lon="-1.898267">
      <ele>427.8</ele>
    </trkpt>
    <trkpt lat="42.336134" lon="-1.898144">
      <ele>428</ele>
    </trkpt>
    <trkpt lat="42.336016" lon="-1.897973">
      <ele>428.2</ele>
    </trkpt>
    <trkpt lat="42.335934" lon="-1.897901">
      <ele>428.2</ele>
    </trkpt>
    <trkpt lat="42.335765" lon="-1.897857">
      <ele>427.8</ele>
    </trkpt>
    <trkpt lat="42.335734" lon="-1.897849">
      <ele>427.7</ele>
    </trkpt>
    <trkpt lat="42.335538" lon="-1.897609">
      <ele>426.4</ele>
    </trkpt>
    <trkpt lat="42.335307" lon="-1.897252">
      <ele>423.5</ele>
    </trkpt>
    <trkpt lat="42.335113" lon="-1.89708">
      <ele>421.3</ele>
    </trkpt>
    <trkpt lat="42.334725" lon="-1.896211">
      <ele>415</ele>
    </trkpt>
    <trkpt lat="42.334429" lon="-1.895687">
      <ele>412</ele>
    </trkpt>
    <trkpt lat="42.334096" lon="-1.894914">
      <ele>409.8</ele>
    </trkpt>
    <trkpt lat="42.333923" lon="-1.894599">
      <ele>409.4</ele>
    </trkpt>
    <trkpt lat="42.333815" lon="-1.894265">
      <ele>409.3</ele>
    </trkpt>
    <trkpt lat="42.333447" lon="-1.893355">
      <ele>409.1</ele>
    </trkpt>
    <trkpt lat="42.333165" lon="-1.892182">
      <ele>408.1</ele>
    </trkpt>
    <trkpt lat="42.333002" lon="-1.891864">
      <ele>407.7</ele>
    </trkpt>
    <trkpt lat="42.33259" lon="-1.891198">
      <ele>406.5</ele>
    </trkpt>
    <trkpt lat="42.332441" lon="-1.891018">
      <ele>406</ele>
    </trkpt>
    <trkpt lat="42.332272" lon="-1.89089">
      <ele>405.5</ele>
    </trkpt>
    <trkpt lat="42.331166" lon="-1.890347">
      <ele>403</ele>
    </trkpt>
    <trkpt lat="42.330567" lon="-1.890422">
      <ele>403.3</ele>
    </trkpt>
    <trkpt lat="42.330234" lon="-1.890397">
      <ele>404.3</ele>
    </trkpt>
    <trkpt lat="42.329988" lon="-1.890006">
      <ele>406.3</ele>
    </trkpt>
    <trkpt lat="42.329847" lon="-1.889709">
      <ele>408.2</ele>
    </trkpt>
    <trkpt lat="42.329795" lon="-1.889497">
      <ele>409.7</ele>
    </trkpt>
    <trkpt lat="42.32977" lon="-1.888942">
      <ele>413.6</ele>
    </trkpt>
    <trkpt lat="42.329261" lon="-1.888618">
      <ele>418.9</ele>
    </trkpt>
    <trkpt lat="42.329199" lon="-1.888603">
      <ele>419.4</ele>
    </trkpt>
    <trkpt lat="42.329063" lon="-1.888651">
      <ele>420.4</ele>
    </trkpt>
    <trkpt lat="42.328997" lon="-1.888624">
      <ele>420.8</ele>
    </trkpt>
    <trkpt lat="42.328944" lon="-1.888511">
      <ele>421.4</ele>
    </trkpt>
    <trkpt lat="42.328891" lon="-1.888472">
      <ele>421.7</ele>
    </trkpt>
    <trkpt lat="42.32861" lon="-1.888416">
      <ele>422.7</ele>
    </trkpt>
    <trkpt lat="42.328513" lon="-1.888336">
      <ele>422.8</ele>
    </trkpt>
    <trkpt lat="42.328469" lon="-1.888318">
      <ele>422.8</ele>
    </trkpt>
    <trkpt lat="42.328513" lon="-1.888336">
      <ele>422.8</ele>
    </trkpt>
    <trkpt lat="42.32861" lon="-1.888416">
      <ele>422.7</ele>
    </trkpt>
    <trkpt lat="42.328891" lon="-1.888472">
      <ele>421.7</ele>
    </trkpt>
    <trkpt lat="42.328944" lon="-1.888511">
      <ele>421.4</ele>
    </trkpt>
    <trkpt lat="42.328997" lon="-1.888624">
      <ele>420.8</ele>
    </trkpt>
    <trkpt lat="42.329063" lon="-1.888651">
      <ele>420.4</ele>
    </trkpt>
    <trkpt lat="42.329199" lon="-1.888603">
      <ele>419.4</ele>
    </trkpt>
    <trkpt lat="42.329261" lon="-1.888618">
      <ele>418.9</ele>
    </trkpt>
    <trkpt lat="42.32977" lon="-1.888942">
      <ele>413.6</ele>
    </trkpt>
    <trkpt lat="42.329795" lon="-1.889497">
      <ele>409.7</ele>
    </trkpt>
    <trkpt lat="42.329847" lon="-1.889709">
      <ele>408.2</ele>
    </trkpt>
    <trkpt lat="42.329988" lon="-1.890006">
      <ele>406.2</ele>
    </trkpt>
    <trkpt lat="42.330234" lon="-1.890397">
      <ele>403.8</ele>
    </trkpt>
    <trkpt lat="42.329628" lon="-1.890754">
      <ele>401.2</ele>
    </trkpt>
    <trkpt lat="42.329343" lon="-1.890963">
      <ele>400.4</ele>
    </trkpt>
    <trkpt lat="42.32868" lon="-1.891246">
      <ele>398.5</ele>
    </trkpt>
    <trkpt lat="42.328242" lon="-1.89135">
      <ele>396.8</ele>
    </trkpt>
    <trkpt lat="42.328078" lon="-1.891445">
      <ele>396.2</ele>
    </trkpt>
    <trkpt lat="42.327878" lon="-1.891641">
      <ele>395.6</ele>
    </trkpt>
    <trkpt lat="42.327549" lon="-1.891748">
      <ele>395.2</ele>
    </trkpt>
    <trkpt lat="42.327222" lon="-1.891811">
      <ele>395.4</ele>
    </trkpt>
    <trkpt lat="42.326906" lon="-1.892084">
      <ele>396.3</ele>
    </trkpt>
    <trkpt lat="42.326785" lon="-1.892236">
      <ele>396.9</ele>
    </trkpt>
    <trkpt lat="42.325802" lon="-1.892612">
      <ele>401.6</ele>
    </trkpt>
    <trkpt lat="42.325486" lon="-1.892664">
      <ele>402.5</ele>
    </trkpt>
    <trkpt lat="42.325191" lon="-1.892675">
      <ele>403</ele>
    </trkpt>
    <trkpt lat="42.324775" lon="-1.892612">
      <ele>403.3</ele>
    </trkpt>
    <trkpt lat="42.324516" lon="-1.892676">
      <ele>403.4</ele>
    </trkpt>
    <trkpt lat="42.324009" lon="-1.892542">
      <ele>403.6</ele>
    </trkpt>
    <trkpt lat="42.323702" lon="-1.890629">
      <ele>406</ele>
    </trkpt>
    <trkpt lat="42.323697" lon="-1.890589">
      <ele>406</ele>
    </trkpt>
    <trkpt lat="42.323386" lon="-1.887998">
      <ele>408.4</ele>
    </trkpt>
    <trkpt lat="42.32325" lon="-1.886303">
      <ele>409.3</ele>
    </trkpt>
    <trkpt lat="42.32309" lon="-1.885635">
      <ele>409.6</ele>
    </trkpt>
    <trkpt lat="42.323071" lon="-1.884816">
      <ele>409.7</ele>
    </trkpt>
    <trkpt lat="42.323075" lon="-1.88412">
      <ele>409.5</ele>
    </trkpt>
    <trkpt lat="42.322727" lon="-1.881031">
      <ele>406.8</ele>
    </trkpt>
    <trkpt lat="42.322401" lon="-1.881133">
      <ele>406.6</ele>
    </trkpt>
    <trkpt lat="42.3214" lon="-1.882389">
      <ele>405.9</ele>
    </trkpt>
    <trkpt lat="42.320192" lon="-1.883772">
      <ele>402.6</ele>
    </trkpt>
    <trkpt lat="42.320025" lon="-1.884022">
      <ele>401.8</ele>
    </trkpt>
    <trkpt lat="42.319683" lon="-1.884535">
      <ele>400</ele>
    </trkpt>
    <trkpt lat="42.318833" lon="-1.886224">
      <ele>393.4</ele>
    </trkpt>
    <trkpt lat="42.318589" lon="-1.886558">
      <ele>391.8</ele>
    </trkpt>
    <trkpt lat="42.318157" lon="-1.886952">
      <ele>389.4</ele>
    </trkpt>
    <trkpt lat="42.317151" lon="-1.887679">
      <ele>385.2</ele>
    </trkpt>
    <trkpt lat="42.316138" lon="-1.888283">
      <ele>382.2</ele>
    </trkpt>
    <trkpt lat="42.315703" lon="-1.888421">
      <ele>381.1</ele>
    </trkpt>
    <trkpt lat="42.314729" lon="-1.888593">
      <ele>378.3</ele>
    </trkpt>
    <trkpt lat="42.313267" lon="-1.889632">
      <ele>374.1</ele>
    </trkpt>
    <trkpt lat="42.312765" lon="-1.889973">
      <ele>373.3</ele>
    </trkpt>
    <trkpt lat="42.312397" lon="-1.889588">
      <ele>373</ele>
    </trkpt>
    <trkpt lat="42.311876" lon="-1.889032">
      <ele>372.9</ele>
    </trkpt>
    <trkpt lat="42.311668" lon="-1.888855">
      <ele>372.9</ele>
    </trkpt>
    <trkpt lat="42.311286" lon="-1.888637">
      <ele>372.8</ele>
    </trkpt>
    <trkpt lat="42.310538" lon="-1.888017">
      <ele>372.4</ele>
    </trkpt>
    <trkpt lat="42.309873" lon="-1.88734">
      <ele>372.1</ele>
    </trkpt>
    <trkpt lat="42.309651" lon="-1.887175">
      <ele>372.1</ele>
    </trkpt>
    <trkpt lat="42.309413" lon="-1.887066">
      <ele>372.1</ele>
    </trkpt>
    <trkpt lat="42.308196" lon="-1.886806">
      <ele>371.6</ele>
    </trkpt>
    <trkpt lat="42.308133" lon="-1.886576">
      <ele>371.4</ele>
    </trkpt>
    <trkpt lat="42.307727" lon="-1.884466">
      <ele>367.8</ele>
    </trkpt>
    <trkpt lat="42.307597" lon="-1.883213">
      <ele>363.9</ele>
    </trkpt>
    <trkpt lat="42.307587" lon="-1.882831">
      <ele>362.4</ele>
    </trkpt>
    <trkpt lat="42.307702" lon="-1.881689">
      <ele>357.2</ele>
    </trkpt>
    <trkpt lat="42.307685" lon="-1.880603">
      <ele>353</ele>
    </trkpt>
    <trkpt lat="42.307722" lon="-1.879738">
      <ele>351.3</ele>
    </trkpt>
    <trkpt lat="42.307772" lon="-1.879142">
      <ele>351.3</ele>
    </trkpt>
    <trkpt lat="42.307929" lon="-1.878257">
      <ele>352.3</ele>
    </trkpt>
    <trkpt lat="42.307922" lon="-1.87758">
      <ele>353.5</ele>
    </trkpt>
    <trkpt lat="42.307979" lon="-1.877043">
      <ele>354.7</ele>
    </trkpt>
    <trkpt lat="42.308141" lon="-1.876215">
      <ele>357.1</ele>
    </trkpt>
    <trkpt lat="42.308158" lon="-1.875935">
      <ele>357.9</ele>
    </trkpt>
    <trkpt lat="42.308105" lon="-1.874775">
      <ele>360.6</ele>
    </trkpt>
    <trkpt lat="42.307948" lon="-1.872092">
      <ele>361.3</ele>
    </trkpt>
    <trkpt lat="42.307981" lon="-1.871395">
      <ele>361.1</ele>
    </trkpt>
    <trkpt lat="42.307975" lon="-1.870542">
      <ele>361.2</ele>
    </trkpt>
    <trkpt lat="42.307948" lon="-1.870166">
      <ele>361.3</ele>
    </trkpt>
    <trkpt lat="42.307884" lon="-1.869742">
      <ele>361.5</ele>
    </trkpt>
    <trkpt lat="42.307889" lon="-1.869533">
      <ele>361.6</ele>
    </trkpt>
    <trkpt lat="42.307943" lon="-1.869211">
      <ele>361.9</ele>
    </trkpt>
    <trkpt lat="42.308142" lon="-1.868325">
      <ele>362.8</ele>
    </trkpt>
    <trkpt lat="42.308226" lon="-1.866406">
      <ele>365.1</ele>
    </trkpt>
    <trkpt lat="42.308044" lon="-1.86509">
      <ele>366.8</ele>
    </trkpt>
    <trkpt lat="42.308024" lon="-1.863278">
      <ele>369.3</ele>
    </trkpt>
    <trkpt lat="42.307895" lon="-1.86184">
      <ele>371.4</ele>
    </trkpt>
    <trkpt lat="42.307902" lon="-1.861098">
      <ele>372.9</ele>
    </trkpt>
    <trkpt lat="42.307378" lon="-1.86114">
      <ele>375</ele>
    </trkpt>
    <trkpt lat="42.307194" lon="-1.861022">
      <ele>375.8</ele>
    </trkpt>
    <trkpt lat="42.306925" lon="-1.860683">
      <ele>377.5</ele>
    </trkpt>
    <trkpt lat="42.306805" lon="-1.860649">
      <ele>378.1</ele>
    </trkpt>
    <trkpt lat="42.306664" lon="-1.86071">
      <ele>378.8</ele>
    </trkpt>
    <trkpt lat="42.305864" lon="-1.86141">
      <ele>381.6</ele>
    </trkpt>
    <trkpt lat="42.305303" lon="-1.862067">
      <ele>381</ele>
    </trkpt>
    <trkpt lat="42.305166" lon="-1.862188">
      <ele>380.5</ele>
    </trkpt>
    <trkpt lat="42.3031" lon="-1.863386">
      <ele>368.7</ele>
    </trkpt>
    <trkpt lat="42.302426" lon="-1.864168">
      <ele>364.5</ele>
    </trkpt>
    <trkpt lat="42.302261" lon="-1.864314">
      <ele>364</ele>
    </trkpt>
    <trkpt lat="42.301886" lon="-1.864467">
      <ele>363.6</ele>
    </trkpt>
    <trkpt lat="42.300967" lon="-1.864928">
      <ele>366.8</ele>
    </trkpt>
    <trkpt lat="42.300614" lon="-1.865007">
      <ele>369.1</ele>
    </trkpt>
    <trkpt lat="42.299877" lon="-1.865103">
      <ele>374.4</ele>
    </trkpt>
    <trkpt lat="42.299196" lon="-1.865287">
      <ele>379.7</ele>
    </trkpt>
    <trkpt lat="42.29898" lon="-1.865395">
      <ele>381.4</ele>
    </trkpt>
    <trkpt lat="42.298103" lon="-1.865936">
      <ele>388.7</ele>
    </trkpt>
    <trkpt lat="42.297753" lon="-1.866031">
      <ele>391.2</ele>
    </trkpt>
    <trkpt lat="42.29748" lon="-1.865821">
      <ele>393.1</ele>
    </trkpt>
    <trkpt lat="42.297327" lon="-1.865637">
      <ele>394.2</ele>
    </trkpt>
    <trkpt lat="42.297213" lon="-1.865452">
      <ele>395</ele>
    </trkpt>
    <trkpt lat="42.297117" lon="-1.864829">
      <ele>396.5</ele>
    </trkpt>
    <trkpt lat="42.296723" lon="-1.864289">
      <ele>397.1</ele>
    </trkpt>
    <trkpt lat="42.296704" lon="-1.864227">
      <ele>397.1</ele>
    </trkpt>
    <trkpt lat="42.296399" lon="-1.863259">
      <ele>396.3</ele>
    </trkpt>
    <trkpt lat="42.296285" lon="-1.862286">
      <ele>395</ele>
    </trkpt>
    <trkpt lat="42.296246" lon="-1.861708">
      <ele>394.2</ele>
    </trkpt>
    <trkpt lat="42.296164" lon="-1.861625">
      <ele>394</ele>
    </trkpt>
    <trkpt lat="42.296004" lon="-1.861563">
      <ele>393.6</ele>
    </trkpt>
    <trkpt lat="42.295916" lon="-1.862106">
      <ele>392.3</ele>
    </trkpt>
    <trkpt lat="42.295593" lon="-1.862864">
      <ele>389.4</ele>
    </trkpt>
    <trkpt lat="42.295358" lon="-1.863339">
      <ele>386.9</ele>
    </trkpt>
    <trkpt lat="42.29519" lon="-1.863508">
      <ele>385.7</ele>
    </trkpt>
    <trkpt lat="42.294971" lon="-1.863795">
      <ele>383.9</ele>
    </trkpt>
    <trkpt lat="42.294907" lon="-1.864007">
      <ele>383</ele>
    </trkpt>
    <trkpt lat="42.294834" lon="-1.864709">
      <ele>380.7</ele>
    </trkpt>
    <trkpt lat="42.295202" lon="-1.86548">
      <ele>378.5</ele>
    </trkpt>
    <trkpt lat="42.295427" lon="-1.865892">
      <ele>377.4</ele>
    </trkpt>
    <trkpt lat="42.295615" lon="-1.866148">
      <ele>376.5</ele>
    </trkpt>
    <trkpt lat="42.295895" lon="-1.866635">
      <ele>374.9</ele>
    </trkpt>
    <trkpt lat="42.296095" lon="-1.867034">
      <ele>373.4</ele>
    </trkpt>
    <trkpt lat="42.296501" lon="-1.86803">
      <ele>369.8</ele>
    </trkpt>
    <trkpt lat="42.296507" lon="-1.868345">
      <ele>368.6</ele>
    </trkpt>
    <trkpt lat="42.296603" lon="-1.868614">
      <ele>367.5</ele>
    </trkpt>
    <trkpt lat="42.297031" lon="-1.869375">
      <ele>363.7</ele>
    </trkpt>
    <trkpt lat="42.297585" lon="-1.870232">
      <ele>358.9</ele>
    </trkpt>
    <trkpt lat="42.297786" lon="-1.870592">
      <ele>356.8</ele>
    </trkpt>
    <trkpt lat="42.297962" lon="-1.87118">
      <ele>353.8</ele>
    </trkpt>
    <trkpt lat="42.298154" lon="-1.872252">
      <ele>348.2</ele>
    </trkpt>
    <trkpt lat="42.298267" lon="-1.872664">
      <ele>345.7</ele>
    </trkpt>
    <trkpt lat="42.298404" lon="-1.872951">
      <ele>343.6</ele>
    </trkpt>
    <trkpt lat="42.298498" lon="-1.8733">
      <ele>341.3</ele>
    </trkpt>
    <trkpt lat="42.298691" lon="-1.874699">
      <ele>332.2</ele>
    </trkpt>
    <trkpt lat="42.298922" lon="-1.875678">
      <ele>325.4</ele>
    </trkpt>
    <trkpt lat="42.298876" lon="-1.876173">
      <ele>322.1</ele>
    </trkpt>
    <trkpt lat="42.298448" lon="-1.877516">
      <ele>313</ele>
    </trkpt>
    <trkpt lat="42.298741" lon="-1.877788">
      <ele>311.5</ele>
    </trkpt>
    <trkpt lat="42.29886" lon="-1.878013">
      <ele>311.2</ele>
    </trkpt>
    <trkpt lat="42.298941" lon="-1.878319">
      <ele>311.4</ele>
    </trkpt>
    <trkpt lat="42.299028" lon="-1.878475">
      <ele>311.7</ele>
    </trkpt>
    <trkpt lat="42.299234" lon="-1.878599">
      <ele>312.7</ele>
    </trkpt>
    <trkpt lat="42.29939" lon="-1.878749">
      <ele>313.9</ele>
    </trkpt>
    <trkpt lat="42.299677" lon="-1.87913">
      <ele>317.7</ele>
    </trkpt>
    <trkpt lat="42.300139" lon="-1.879417">
      <ele>323.4</ele>
    </trkpt>
    <trkpt lat="42.300245" lon="-1.879554">
      <ele>325.1</ele>
    </trkpt>
    <trkpt lat="42.300351" lon="-1.879798">
      <ele>327.4</ele>
    </trkpt>
    <trkpt lat="42.300432" lon="-1.880141">
      <ele>330.2</ele>
    </trkpt>
    <trkpt lat="42.300551" lon="-1.880384">
      <ele>332.4</ele>
    </trkpt>
    <trkpt lat="42.300745" lon="-1.88054">
      <ele>334.7</ele>
    </trkpt>
    <trkpt lat="42.300975" lon="-1.880628">
      <ele>336.9</ele>
    </trkpt>
    <trkpt lat="42.301225" lon="-1.880796">
      <ele>339.4</ele>
    </trkpt>
    <trkpt lat="42.301406" lon="-1.881002">
      <ele>341.3</ele>
    </trkpt>
    <trkpt lat="42.301537" lon="-1.881246">
      <ele>342.9</ele>
    </trkpt>
    <trkpt lat="42.301918" lon="-1.881539">
      <ele>345.4</ele>
    </trkpt>
    <trkpt lat="42.302018" lon="-1.88152">
      <ele>345.8</ele>
    </trkpt>
    <trkpt lat="42.302086" lon="-1.881389">
      <ele>346.4</ele>
    </trkpt>
    <trkpt lat="42.302192" lon="-1.88104">
      <ele>347.5</ele>
    </trkpt>
    <trkpt lat="42.302405" lon="-1.880778">
      <ele>348.4</ele>
    </trkpt>
    <trkpt lat="42.302692" lon="-1.880572">
      <ele>349.2</ele>
    </trkpt>
    <trkpt lat="42.302966" lon="-1.880441">
      <ele>349.7</ele>
    </trkpt>
    <trkpt lat="42.303366" lon="-1.880484">
      <ele>350.5</ele>
    </trkpt>
    <trkpt lat="42.30374" lon="-1.880453">
      <ele>351.4</ele>
    </trkpt>
    <trkpt lat="42.304652" lon="-1.880178">
      <ele>353.8</ele>
    </trkpt>
    <trkpt lat="42.305319" lon="-1.879835">
      <ele>354.3</ele>
    </trkpt>
    <trkpt lat="42.305544" lon="-1.87976">
      <ele>354.1</ele>
    </trkpt>
    <trkpt lat="42.305806" lon="-1.879717">
      <ele>353.7</ele>
    </trkpt>
    <trkpt lat="42.306849" lon="-1.879635">
      <ele>351.1</ele>
    </trkpt>
    <trkpt lat="42.307373" lon="-1.879785">
      <ele>350.4</ele>
    </trkpt>
    <trkpt lat="42.307722" lon="-1.879738">
      <ele>350.7</ele>
    </trkpt>
    <trkpt lat="42.307685" lon="-1.880603">
      <ele>352.8</ele>
    </trkpt>
    <trkpt lat="42.307702" lon="-1.881689">
      <ele>357.2</ele>
    </trkpt>
    <trkpt lat="42.307587" lon="-1.882831">
      <ele>362.4</ele>
    </trkpt>
    <trkpt lat="42.307597" lon="-1.883213">
      <ele>363.9</ele>
    </trkpt>
    <trkpt lat="42.307727" lon="-1.884466">
      <ele>367.8</ele>
    </trkpt>
    <trkpt lat="42.308133" lon="-1.886576">
      <ele>371.2</ele>
    </trkpt>
    <trkpt lat="42.308196" lon="-1.886806">
      <ele>371.3</ele>
    </trkpt>
    <trkpt lat="42.308263" lon="-1.887123">
      <ele>371.3</ele>
    </trkpt>
    <trkpt lat="42.308582" lon="-1.88806">
      <ele>370.5</ele>
    </trkpt>
    <trkpt lat="42.308887" lon="-1.888865">
      <ele>368.7</ele>
    </trkpt>
    <trkpt lat="42.309721" lon="-1.890699">
      <ele>362.4</ele>
    </trkpt>
    <trkpt lat="42.309916" lon="-1.89127">
      <ele>359.7</ele>
    </trkpt>
    <trkpt lat="42.309862" lon="-1.891363">
      <ele>358.9</ele>
    </trkpt>
    <trkpt lat="42.309834" lon="-1.891537">
      <ele>357.6</ele>
    </trkpt>
    <trkpt lat="42.309738" lon="-1.891671">
      <ele>356.2</ele>
    </trkpt>
    <trkpt lat="42.309268" lon="-1.89175">
      <ele>352.8</ele>
    </trkpt>
    <trkpt lat="42.309242" lon="-1.892271">
      <ele>350.7</ele>
    </trkpt>
    <trkpt lat="42.309183" lon="-1.892238">
      <ele>350.6</ele>
    </trkpt>
    <trkpt lat="42.309242" lon="-1.892271">
      <ele>350.2</ele>
    </trkpt>
    <trkpt lat="42.309316" lon="-1.892323">
      <ele>350</ele>
    </trkpt>
    <trkpt lat="42.309414" lon="-1.892319">
      <ele>349.5</ele>
    </trkpt>
    <trkpt lat="42.309612" lon="-1.892243">
      <ele>348.8</ele>
    </trkpt>
    <trkpt lat="42.310261" lon="-1.891917">
      <ele>347.4</ele>
    </trkpt>
    <trkpt lat="42.310316" lon="-1.891888">
      <ele>347.6</ele>
    </trkpt>
    <trkpt lat="42.310353" lon="-1.891922">
      <ele>347.7</ele>
    </trkpt>
    <trkpt lat="42.310543" lon="-1.892295">
      <ele>348.3</ele>
    </trkpt>
    <trkpt lat="42.310868" lon="-1.89266">
      <ele>348.7</ele>
    </trkpt>
    <trkpt lat="42.311126" lon="-1.892725">
      <ele>349.2</ele>
    </trkpt>
    <trkpt lat="42.31153" lon="-1.892994">
      <ele>350.9</ele>
    </trkpt>
    <trkpt lat="42.311754" lon="-1.893052">
      <ele>352.2</ele>
    </trkpt>
    <trkpt lat="42.312063" lon="-1.893082">
      <ele>354.3</ele>
    </trkpt>
    <trkpt lat="42.312685" lon="-1.893386">
      <ele>357.8</ele>
    </trkpt>
    <trkpt lat="42.313007" lon="-1.893489">
      <ele>358.4</ele>
    </trkpt>
    <trkpt lat="42.313322" lon="-1.893865">
      <ele>357.8</ele>
    </trkpt>
    <trkpt lat="42.313354" lon="-1.89396">
      <ele>357.5</ele>
    </trkpt>
    <trkpt lat="42.31349" lon="-1.894173">
      <ele>356.6</ele>
    </trkpt>
    <trkpt lat="42.313557" lon="-1.89422">
      <ele>356.1</ele>
    </trkpt>
    <trkpt lat="42.313815" lon="-1.894556">
      <ele>353.7</ele>
    </trkpt>
    <trkpt lat="42.314316" lon="-1.895037">
      <ele>349.2</ele>
    </trkpt>
    <trkpt lat="42.314508" lon="-1.895151">
      <ele>347.8</ele>
    </trkpt>
    <trkpt lat="42.314895" lon="-1.895754">
      <ele>344.5</ele>
    </trkpt>
    <trkpt lat="42.315292" lon="-1.89613">
      <ele>341.7</ele>
    </trkpt>
    <trkpt lat="42.315418" lon="-1.896206">
      <ele>340.9</ele>
    </trkpt>
    <trkpt lat="42.315524" lon="-1.896377">
      <ele>339.8</ele>
    </trkpt>
    <trkpt lat="42.315795" lon="-1.897056">
      <ele>336</ele>
    </trkpt>
    <trkpt lat="42.315991" lon="-1.89762">
      <ele>335.1</ele>
    </trkpt>
    <trkpt lat="42.316156" lon="-1.897963">
      <ele>335.5</ele>
    </trkpt>
    <trkpt lat="42.31624" lon="-1.898029">
      <ele>335.8</ele>
    </trkpt>
    <trkpt lat="42.316336" lon="-1.898103">
      <ele>336.2</ele>
    </trkpt>
    <trkpt lat="42.316438" lon="-1.89811">
      <ele>336.8</ele>
    </trkpt>
    <trkpt lat="42.316517" lon="-1.898061">
      <ele>337.3</ele>
    </trkpt>
    <trkpt lat="42.316586" lon="-1.897958">
      <ele>338</ele>
    </trkpt>
    <trkpt lat="42.316586" lon="-1.89789">
      <ele>338.4</ele>
    </trkpt>
    <trkpt lat="42.316295" lon="-1.897127">
      <ele>345</ele>
    </trkpt>
    <trkpt lat="42.316236" lon="-1.89666">
      <ele>349.1</ele>
    </trkpt>
    <trkpt lat="42.31611" lon="-1.896272">
      <ele>352.1</ele>
    </trkpt>
    <trkpt lat="42.316089" lon="-1.895931">
      <ele>354.1</ele>
    </trkpt>
    <trkpt lat="42.315714" lon="-1.8951">
      <ele>358.9</ele>
    </trkpt>
    <trkpt lat="42.315717" lon="-1.894992">
      <ele>359.3</ele>
    </trkpt>
    <trkpt lat="42.315756" lon="-1.894907">
      <ele>359.7</ele>
    </trkpt>
    <trkpt lat="42.315231" lon="-1.894233">
      <ele>362.9</ele>
    </trkpt>
    <trkpt lat="42.315261" lon="-1.894146">
      <ele>363.2</ele>
    </trkpt>
    <trkpt lat="42.315886" lon="-1.893311">
      <ele>367.7</ele>
    </trkpt>
    <trkpt lat="42.316423" lon="-1.892429">
      <ele>371.7</ele>
    </trkpt>
    <trkpt lat="42.316622" lon="-1.891983">
      <ele>373.1</ele>
    </trkpt>
    <trkpt lat="42.316968" lon="-1.891389">
      <ele>374.4</ele>
    </trkpt>
    <trkpt lat="42.317227" lon="-1.890872">
      <ele>375</ele>
    </trkpt>
    <trkpt lat="42.317415" lon="-1.891031">
      <ele>375.4</ele>
    </trkpt>
    <trkpt lat="42.3176" lon="-1.891308">
      <ele>376</ele>
    </trkpt>
    <trkpt lat="42.317946" lon="-1.891581">
      <ele>377.5</ele>
    </trkpt>
    <trkpt lat="42.318614" lon="-1.891995">
      <ele>381.7</ele>
    </trkpt>
    <trkpt lat="42.318917" lon="-1.892024">
      <ele>384.1</ele>
    </trkpt>
    <trkpt lat="42.319459" lon="-1.892006">
      <ele>388.4</ele>
    </trkpt>
    <trkpt lat="42.320143" lon="-1.892105">
      <ele>393.1</ele>
    </trkpt>
    <trkpt lat="42.32043" lon="-1.892064">
      <ele>394.8</ele>
    </trkpt>
    <trkpt lat="42.321143" lon="-1.891718">
      <ele>397.8</ele>
    </trkpt>
    <trkpt lat="42.321469" lon="-1.891733">
      <ele>398.7</ele>
    </trkpt>
    <trkpt lat="42.321989" lon="-1.891887">
      <ele>399.9</ele>
    </trkpt>
    <trkpt lat="42.32282" lon="-1.892242">
      <ele>401.4</ele>
    </trkpt>
    <trkpt lat="42.323619" lon="-1.892424">
      <ele>402.1</ele>
    </trkpt>
    <trkpt lat="42.324009" lon="-1.892542">
      <ele>401.8</ele>
    </trkpt>
    <trkpt lat="42.32424" lon="-1.893245">
      <ele>400.2</ele>
    </trkpt>
    <trkpt lat="42.324212" lon="-1.894767">
      <ele>393.4</ele>
    </trkpt>
    <trkpt lat="42.323784" lon="-1.895826">
      <ele>386.4</ele>
    </trkpt>
    <trkpt lat="42.323646" lon="-1.89702">
      <ele>381.1</ele>
    </trkpt>
    <trkpt lat="42.323374" lon="-1.897662">
      <ele>379.2</ele>
    </trkpt>
    <trkpt lat="42.323331" lon="-1.898018">
      <ele>378.5</ele>
    </trkpt>
    <trkpt lat="42.323445" lon="-1.898572">
      <ele>377.3</ele>
    </trkpt>
    <trkpt lat="42.323743" lon="-1.899036">
      <ele>376.1</ele>
    </trkpt>
    <trkpt lat="42.323937" lon="-1.899714">
      <ele>374.6</ele>
    </trkpt>
    <trkpt lat="42.324373" lon="-1.900441">
      <ele>372.3</ele>
    </trkpt>
    <trkpt lat="42.324398" lon="-1.900561">
      <ele>372.1</ele>
    </trkpt>
    <trkpt lat="42.324415" lon="-1.900649">
      <ele>372</ele>
    </trkpt>
    <trkpt lat="42.324542" lon="-1.901241">
      <ele>371.2</ele>
    </trkpt>
    <trkpt lat="42.324664" lon="-1.901417">
      <ele>370.8</ele>
    </trkpt>
    <trkpt lat="42.324529" lon="-1.901411">
      <ele>370.5</ele>
    </trkpt>
    <trkpt lat="42.324419" lon="-1.901513">
      <ele>370.1</ele>
    </trkpt>
    <trkpt lat="42.324276" lon="-1.901694">
      <ele>369.5</ele>
    </trkpt>
    <trkpt lat="42.324191" lon="-1.901788">
      <ele>369.1</ele>
    </trkpt>
    <trkpt lat="42.324497" lon="-1.902313">
      <ele>366.7</ele>
    </trkpt>
    <trkpt lat="42.324503" lon="-1.902326">
      <ele>366.6</ele>
    </trkpt>
    <trkpt lat="42.324714" lon="-1.902825">
      <ele>363.8</ele>
    </trkpt>
    <trkpt lat="42.325399" lon="-1.903846">
      <ele>354.4</ele>
    </trkpt>
    <trkpt lat="42.325838" lon="-1.904366">
      <ele>349.3</ele>
    </trkpt>
    <trkpt lat="42.326247" lon="-1.904544">
      <ele>346</ele>
    </trkpt>
    <trkpt lat="42.326586" lon="-1.904397">
      <ele>343.6</ele>
    </trkpt>
    <trkpt lat="42.327406" lon="-1.904194">
      <ele>338.8</ele>
    </trkpt>
    <trkpt lat="42.328045" lon="-1.905041">
      <ele>334.7</ele>
    </trkpt>
    <trkpt lat="42.328098" lon="-1.904763">
      <ele>333.8</ele>
    </trkpt>
    <trkpt lat="42.328311" lon="-1.904955">
      <ele>332.6</ele>
    </trkpt>
    <trkpt lat="42.328562" lon="-1.905283">
      <ele>331.4</ele>
    </trkpt>
    <trkpt lat="42.328864" lon="-1.905946">
      <ele>329.6</ele>
    </trkpt>
    <trkpt lat="42.329117" lon="-1.906187">
      <ele>328.6</ele>
    </trkpt>
    <trkpt lat="42.331134" lon="-1.908357">
      <ele>322.4</ele>
    </trkpt>
    <trkpt lat="42.331619" lon="-1.908886">
      <ele>321.3</ele>
    </trkpt>
    <trkpt lat="42.331756" lon="-1.909067">
      <ele>321</ele>
    </trkpt>
    <trkpt lat="42.331738" lon="-1.909259">
      <ele>320.9</ele>
    </trkpt>
    <trkpt lat="42.330877" lon="-1.910623">
      <ele>319.1</ele>
    </trkpt>
    <trkpt lat="42.332262" lon="-1.912214">
      <ele>313.4</ele>
    </trkpt>
    <trkpt lat="42.33401" lon="-1.914045">
      <ele>307.7</ele>
    </trkpt>
    <trkpt lat="42.334795" lon="-1.914952">
      <ele>306.1</ele>
    </trkpt>
    <trkpt lat="42.335714" lon="-1.916106">
      <ele>305.1</ele>
    </trkpt>
    <trkpt lat="42.335884" lon="-1.916179">
      <ele>304.8</ele>
    </trkpt>
    <trkpt lat="42.335961" lon="-1.916323">
      <ele>304.7</ele>
    </trkpt>
    <trkpt lat="42.336054" lon="-1.917103">
      <ele>303.6</ele>
    </trkpt>
    <trkpt lat="42.336204" lon="-1.917454">
      <ele>302.9</ele>
    </trkpt>
    <trkpt lat="42.336221" lon="-1.917576">
      <ele>302.6</ele>
    </trkpt>
    <trkpt lat="42.336191" lon="-1.917752">
      <ele>302.3</ele>
    </trkpt>
    <trkpt lat="42.335948" lon="-1.918424">
      <ele>300.8</ele>
    </trkpt>
    <trkpt lat="42.335844" lon="-1.918627">
      <ele>300.4</ele>
    </trkpt>
    <trkpt lat="42.335701" lon="-1.918821">
      <ele>299.9</ele>
    </trkpt>
    <trkpt lat="42.335404" lon="-1.919307">
      <ele>299</ele>
    </trkpt>
    <trkpt lat="42.335324" lon="-1.919357">
      <ele>298.8</ele>
    </trkpt>
    <trkpt lat="42.335224" lon="-1.919375">
      <ele>298.6</ele>
    </trkpt>
    <trkpt lat="42.334927" lon="-1.91966">
      <ele>297.9</ele>
    </trkpt>
    <trkpt lat="42.335222" lon="-1.92034">
      <ele>296.7</ele>
    </trkpt>
    <trkpt lat="42.334765" lon="-1.920506">
      <ele>295.7</ele>
    </trkpt>
    <trkpt lat="42.334685" lon="-1.920519">
      <ele>295.6</ele>
    </trkpt>
    <trkpt lat="42.334617" lon="-1.920488">
      <ele>295.4</ele>
    </trkpt>
    <trkpt lat="42.334262" lon="-1.920227">
      <ele>294.8</ele>
    </trkpt>
    <trkpt lat="42.334081" lon="-1.920039">
      <ele>294.5</ele>
    </trkpt>
    <trkpt lat="42.333741" lon="-1.919577">
      <ele>294</ele>
    </trkpt>
    <trkpt lat="42.333607" lon="-1.919437">
      <ele>293.9</ele>
    </trkpt>
    <trkpt lat="42.332447" lon="-1.918746">
      <ele>292.9</ele>
    </trkpt>
    <trkpt lat="42.332147" lon="-1.918534">
      <ele>292.6</ele>
    </trkpt>
    <trkpt lat="42.33189" lon="-1.91825">
      <ele>292.3</ele>
    </trkpt>
    <trkpt lat="42.331369" lon="-1.917438">
      <ele>292</ele>
    </trkpt>
    <trkpt lat="42.330279" lon="-1.916008">
      <ele>292.4</ele>
    </trkpt>
    <trkpt lat="42.329867" lon="-1.915197">
      <ele>293.2</ele>
    </trkpt>
    <trkpt lat="42.329237" lon="-1.914143">
      <ele>295.8</ele>
    </trkpt>
    <trkpt lat="42.328885" lon="-1.91384">
      <ele>297.6</ele>
    </trkpt>
    <trkpt lat="42.328825" lon="-1.913307">
      <ele>299.5</ele>
    </trkpt>
    <trkpt lat="42.32891" lon="-1.912822">
      <ele>301.5</ele>
    </trkpt>
    <trkpt lat="42.329661" lon="-1.912265">
      <ele>305.1</ele>
    </trkpt>
    <trkpt lat="42.329846" lon="-1.912044">
      <ele>305.8</ele>
    </trkpt>
    <trkpt lat="42.329402" lon="-1.911573">
      <ele>306.8</ele>
    </trkpt>
    <trkpt lat="42.329014" lon="-1.911205">
      <ele>307.3</ele>
    </trkpt>
    <trkpt lat="42.328666" lon="-1.910928">
      <ele>307.4</ele>
    </trkpt>
    <trkpt lat="42.328269" lon="-1.910677">
      <ele>307.9</ele>
    </trkpt>
    <trkpt lat="42.327818" lon="-1.910458">
      <ele>308.7</ele>
    </trkpt>
    <trkpt lat="42.326148" lon="-1.909806">
      <ele>311.9</ele>
    </trkpt>
    <trkpt lat="42.325845" lon="-1.910012">
      <ele>312.3</ele>
    </trkpt>
    <trkpt lat="42.32557" lon="-1.910778">
      <ele>312.2</ele>
    </trkpt>
    <trkpt lat="42.325526" lon="-1.910847">
      <ele>312.1</ele>
    </trkpt>
    <trkpt lat="42.325457" lon="-1.910881">
      <ele>312</ele>
    </trkpt>
    <trkpt lat="42.325381" lon="-1.910858">
      <ele>311.9</ele>
    </trkpt>
    <trkpt lat="42.324185" lon="-1.910048">
      <ele>306.9</ele>
    </trkpt>
    <trkpt lat="42.323913" lon="-1.910048">
      <ele>305.4</ele>
    </trkpt>
    <trkpt lat="42.323398" lon="-1.909951">
      <ele>302.2</ele>
    </trkpt>
    <trkpt lat="42.322828" lon="-1.909636">
      <ele>298.5</ele>
    </trkpt>
    <trkpt lat="42.322331" lon="-1.909236">
      <ele>295.7</ele>
    </trkpt>
    <trkpt lat="42.321975" lon="-1.908802">
      <ele>294.1</ele>
    </trkpt>
    <trkpt lat="42.32197" lon="-1.909043">
      <ele>293.7</ele>
    </trkpt>
    <trkpt lat="42.32221" lon="-1.909369">
      <ele>293</ele>
    </trkpt>
    <trkpt lat="42.322448" lon="-1.909606">
      <ele>292.6</ele>
    </trkpt>
    <trkpt lat="42.322865" lon="-1.910848">
      <ele>291.6</ele>
    </trkpt>
    <trkpt lat="42.323155" lon="-1.911296">
      <ele>291</ele>
    </trkpt>
    <trkpt lat="42.322702" lon="-1.911708">
      <ele>290.5</ele>
    </trkpt>
    <trkpt lat="42.322198" lon="-1.910484">
      <ele>289.9</ele>
    </trkpt>
    <trkpt lat="42.322053" lon="-1.9096">
      <ele>289.8</ele>
    </trkpt>
    <trkpt lat="42.321677" lon="-1.909309">
      <ele>289.7</ele>
    </trkpt>
    <trkpt lat="42.32129" lon="-1.908388">
      <ele>289.3</ele>
    </trkpt>
    <trkpt lat="42.320866" lon="-1.907819">
      <ele>289.1</ele>
    </trkpt>
    <trkpt lat="42.320321" lon="-1.906947">
      <ele>289.2</ele>
    </trkpt>
    <trkpt lat="42.319836" lon="-1.906523">
      <ele>289.5</ele>
    </trkpt>
    <trkpt lat="42.319388" lon="-1.905784">
      <ele>289.7</ele>
    </trkpt>
    <trkpt lat="42.31883" lon="-1.905239">
      <ele>290.2</ele>
    </trkpt>
    <trkpt lat="42.318396" lon="-1.904987">
      <ele>290.5</ele>
    </trkpt>
    <trkpt lat="42.318348" lon="-1.904764">
      <ele>290.7</ele>
    </trkpt>
    <trkpt lat="42.317979" lon="-1.904929">
      <ele>290.9</ele>
    </trkpt>
    <trkpt lat="42.317453" lon="-1.905015">
      <ele>291.2</ele>
    </trkpt>
    <trkpt lat="42.316226" lon="-1.905457">
      <ele>290.8</ele>
    </trkpt>
    <trkpt lat="42.315729" lon="-1.905434">
      <ele>290.4</ele>
    </trkpt>
    <trkpt lat="42.3153" lon="-1.905367">
      <ele>290</ele>
    </trkpt>
    <trkpt lat="42.314982" lon="-1.905102">
      <ele>289.7</ele>
    </trkpt>
    <trkpt lat="42.31459" lon="-1.904693">
      <ele>289.4</ele>
    </trkpt>
    <trkpt lat="42.313896" lon="-1.903831">
      <ele>289.4</ele>
    </trkpt>
    <trkpt lat="42.313802" lon="-1.903588">
      <ele>289.3</ele>
    </trkpt>
    <trkpt lat="42.313658" lon="-1.903067">
      <ele>289.1</ele>
    </trkpt>
    <trkpt lat="42.313621" lon="-1.902852">
      <ele>289</ele>
    </trkpt>
    <trkpt lat="42.31365" lon="-1.90275">
      <ele>289</ele>
    </trkpt>
    <trkpt lat="42.313659" lon="-1.902602">
      <ele>289</ele>
    </trkpt>
    <trkpt lat="42.313612" lon="-1.902035">
      <ele>288.8</ele>
    </trkpt>
    <trkpt lat="42.313563" lon="-1.901898">
      <ele>288.8</ele>
    </trkpt>
    <trkpt lat="42.3134" lon="-1.901693">
      <ele>288.7</ele>
    </trkpt>
    <trkpt lat="42.313337" lon="-1.901574">
      <ele>288.6</ele>
    </trkpt>
    <trkpt lat="42.313282" lon="-1.901421">
      <ele>288.6</ele>
    </trkpt>
    <trkpt lat="42.313239" lon="-1.90117">
      <ele>288.6</ele>
    </trkpt>
    <trkpt lat="42.31314" lon="-1.901015">
      <ele>288.6</ele>
    </trkpt>
    <trkpt lat="42.312371" lon="-1.90059">
      <ele>289.2</ele>
    </trkpt>
    <trkpt lat="42.312304" lon="-1.90051">
      <ele>289.3</ele>
    </trkpt>
    <trkpt lat="42.312228" lon="-1.900362">
      <ele>289.4</ele>
    </trkpt>
    <trkpt lat="42.312206" lon="-1.900157">
      <ele>289.4</ele>
    </trkpt>
    <trkpt lat="42.312347" lon="-1.899513">
      <ele>289.7</ele>
    </trkpt>
    <trkpt lat="42.312159" lon="-1.899433">
      <ele>289.8</ele>
    </trkpt>
    <trkpt lat="42.310955" lon="-1.898927">
      <ele>289.7</ele>
    </trkpt>
    <trkpt lat="42.31094" lon="-1.89909">
      <ele>289.6</ele>
    </trkpt>
    <trkpt lat="42.310786" lon="-1.899056">
      <ele>289.6</ele>
    </trkpt>
    <trkpt lat="42.310257" lon="-1.898834">
      <ele>289.5</ele>
    </trkpt>
    </trkseg>
  </trk>
</gpx>
