<?xml version="1.0" encoding="UTF-8"?>
<gpx version="1.1" creator="fitAI Komoot downloader" xmlns="http://www.topografix.com/GPX/1/1">
  <metadata>
    <name>Haro y Haro - Recorrido circular desde Ollauri</name>
    <desc>74 visitas · Dificultad: difficult · Distancia: 68.3 km · Desnivel +: 832 m</desc>
    <link href="https://www.komoot.com/smarttour/e44801357"><text>Komoot</text></link>
  </metadata>
  <trk>
    <name>Haro y Haro - Recorrido circular desde Ollauri</name>
    <type>touringbicycle</type>
    <trkseg>
    <trkpt lat="42.537701" lon="-2.817908">
      <ele>520.4</ele>
    </trkpt>
    <trkpt lat="42.537526" lon="-2.818401">
      <ele>520</ele>
    </trkpt>
    <trkpt lat="42.537364" lon="-2.819035">
      <ele>519.3</ele>
    </trkpt>
    <trkpt lat="42.53737" lon="-2.819702">
      <ele>518.3</ele>
    </trkpt>
    <trkpt lat="42.536969" lon="-2.821393">
      <ele>514.9</ele>
    </trkpt>
    <trkpt lat="42.536731" lon="-2.822128">
      <ele>513.6</ele>
    </trkpt>
    <trkpt lat="42.536336" lon="-2.823231">
      <ele>512.1</ele>
    </trkpt>
    <trkpt lat="42.536045" lon="-2.824282">
      <ele>510.9</ele>
    </trkpt>
    <trkpt lat="42.537053" lon="-2.824902">
      <ele>508.9</ele>
    </trkpt>
    <trkpt lat="42.539781" lon="-2.826646">
      <ele>502.9</ele>
    </trkpt>
    <trkpt lat="42.540141" lon="-2.826923">
      <ele>502</ele>
    </trkpt>
    <trkpt lat="42.540301" lon="-2.827119">
      <ele>501.5</ele>
    </trkpt>
    <trkpt lat="42.540457" lon="-2.827375">
      <ele>501</ele>
    </trkpt>
    <trkpt lat="42.54137" lon="-2.829143">
      <ele>497</ele>
    </trkpt>
    <trkpt lat="42.542259" lon="-2.830665">
      <ele>493.6</ele>
    </trkpt>
    <trkpt lat="42.54245" lon="-2.830303">
      <ele>492.9</ele>
    </trkpt>
    <trkpt lat="42.542945" lon="-2.830558">
      <ele>491.8</ele>
    </trkpt>
    <trkpt lat="42.543428" lon="-2.830807">
      <ele>490.9</ele>
    </trkpt>
    <trkpt lat="42.543489" lon="-2.830861">
      <ele>490.8</ele>
    </trkpt>
    <trkpt lat="42.543769" lon="-2.831393">
      <ele>489.8</ele>
    </trkpt>
    <trkpt lat="42.543898" lon="-2.831549">
      <ele>489.4</ele>
    </trkpt>
    <trkpt lat="42.544115" lon="-2.831725">
      <ele>488.7</ele>
    </trkpt>
    <trkpt lat="42.54427" lon="-2.831808">
      <ele>488.3</ele>
    </trkpt>
    <trkpt lat="42.544427" lon="-2.831891">
      <ele>487.9</ele>
    </trkpt>
    <trkpt lat="42.544557" lon="-2.8318">
      <ele>487.5</ele>
    </trkpt>
    <trkpt lat="42.54472" lon="-2.831784">
      <ele>487</ele>
    </trkpt>
    <trkpt lat="42.546225" lon="-2.831951">
      <ele>483.3</ele>
    </trkpt>
    <trkpt lat="42.546792" lon="-2.832019">
      <ele>483.8</ele>
    </trkpt>
    <trkpt lat="42.547387" lon="-2.83198">
      <ele>485.9</ele>
    </trkpt>
    <trkpt lat="42.54806" lon="-2.831957">
      <ele>489.2</ele>
    </trkpt>
    <trkpt lat="42.548221" lon="-2.832004">
      <ele>490.1</ele>
    </trkpt>
    <trkpt lat="42.548297" lon="-2.832109">
      <ele>490.7</ele>
    </trkpt>
    <trkpt lat="42.548482" lon="-2.831929">
      <ele>491.9</ele>
    </trkpt>
    <trkpt lat="42.548569" lon="-2.831792">
      <ele>492.6</ele>
    </trkpt>
    <trkpt lat="42.54879" lon="-2.831584">
      <ele>493.8</ele>
    </trkpt>
    <trkpt lat="42.548887" lon="-2.83155">
      <ele>494.2</ele>
    </trkpt>
    <trkpt lat="42.548946" lon="-2.831561">
      <ele>494.4</ele>
    </trkpt>
    <trkpt lat="42.549025" lon="-2.83162">
      <ele>494.6</ele>
    </trkpt>
    <trkpt lat="42.549144" lon="-2.831831">
      <ele>494.9</ele>
    </trkpt>
    <trkpt lat="42.549215" lon="-2.831875">
      <ele>494.9</ele>
    </trkpt>
    <trkpt lat="42.549499" lon="-2.832302">
      <ele>494.3</ele>
    </trkpt>
    <trkpt lat="42.549683" lon="-2.83253">
      <ele>493.6</ele>
    </trkpt>
    <trkpt lat="42.550395" lon="-2.833277">
      <ele>489.6</ele>
    </trkpt>
    <trkpt lat="42.550659" lon="-2.833449">
      <ele>488.1</ele>
    </trkpt>
    <trkpt lat="42.551156" lon="-2.833696">
      <ele>486.3</ele>
    </trkpt>
    <trkpt lat="42.553041" lon="-2.834294">
      <ele>485</ele>
    </trkpt>
    <trkpt lat="42.553882" lon="-2.834585">
      <ele>484.4</ele>
    </trkpt>
    <trkpt lat="42.554161" lon="-2.834694">
      <ele>484</ele>
    </trkpt>
    <trkpt lat="42.554366" lon="-2.834774">
      <ele>483.6</ele>
    </trkpt>
    <trkpt lat="42.555608" lon="-2.835285">
      <ele>479</ele>
    </trkpt>
    <trkpt lat="42.557098" lon="-2.835987">
      <ele>469.5</ele>
    </trkpt>
    <trkpt lat="42.560107" lon="-2.837627">
      <ele>460.1</ele>
    </trkpt>
    <trkpt lat="42.560316" lon="-2.837749">
      <ele>459.9</ele>
    </trkpt>
    <trkpt lat="42.560587" lon="-2.837831">
      <ele>459.8</ele>
    </trkpt>
    <trkpt lat="42.56236" lon="-2.838688">
      <ele>460.2</ele>
    </trkpt>
    <trkpt lat="42.562783" lon="-2.838841">
      <ele>459.9</ele>
    </trkpt>
    <trkpt lat="42.562975" lon="-2.838857">
      <ele>459.9</ele>
    </trkpt>
    <trkpt lat="42.563136" lon="-2.838807">
      <ele>459.8</ele>
    </trkpt>
    <trkpt lat="42.563248" lon="-2.83884">
      <ele>459.9</ele>
    </trkpt>
    <trkpt lat="42.563374" lon="-2.83897">
      <ele>459.8</ele>
    </trkpt>
    <trkpt lat="42.563387" lon="-2.838995">
      <ele>459.8</ele>
    </trkpt>
    <trkpt lat="42.563406" lon="-2.839034">
      <ele>459.8</ele>
    </trkpt>
    <trkpt lat="42.563444" lon="-2.839213">
      <ele>459.7</ele>
    </trkpt>
    <trkpt lat="42.563424" lon="-2.839397">
      <ele>459.7</ele>
    </trkpt>
    <trkpt lat="42.563394" lon="-2.839478">
      <ele>459.6</ele>
    </trkpt>
    <trkpt lat="42.563413" lon="-2.839684">
      <ele>459.5</ele>
    </trkpt>
    <trkpt lat="42.563492" lon="-2.83991">
      <ele>459.4</ele>
    </trkpt>
    <trkpt lat="42.5637" lon="-2.840115">
      <ele>459.2</ele>
    </trkpt>
    <trkpt lat="42.563845" lon="-2.840192">
      <ele>459.1</ele>
    </trkpt>
    <trkpt lat="42.56568" lon="-2.841003">
      <ele>457.2</ele>
    </trkpt>
    <trkpt lat="42.566667" lon="-2.841439">
      <ele>457.9</ele>
    </trkpt>
    <trkpt lat="42.566992" lon="-2.841599">
      <ele>458.4</ele>
    </trkpt>
    <trkpt lat="42.567495" lon="-2.841846">
      <ele>459.4</ele>
    </trkpt>
    <trkpt lat="42.567935" lon="-2.842064">
      <ele>460.2</ele>
    </trkpt>
    <trkpt lat="42.568125" lon="-2.842081">
      <ele>460.6</ele>
    </trkpt>
    <trkpt lat="42.568205" lon="-2.842031">
      <ele>460.8</ele>
    </trkpt>
    <trkpt lat="42.568262" lon="-2.84203">
      <ele>460.9</ele>
    </trkpt>
    <trkpt lat="42.568342" lon="-2.842062">
      <ele>461</ele>
    </trkpt>
    <trkpt lat="42.568407" lon="-2.842145">
      <ele>461.2</ele>
    </trkpt>
    <trkpt lat="42.568428" lon="-2.842348">
      <ele>461.5</ele>
    </trkpt>
    <trkpt lat="42.568569" lon="-2.842423">
      <ele>461.8</ele>
    </trkpt>
    <trkpt lat="42.568987" lon="-2.842662">
      <ele>462.7</ele>
    </trkpt>
    <trkpt lat="42.569362" lon="-2.84289">
      <ele>463.6</ele>
    </trkpt>
    <trkpt lat="42.56948" lon="-2.842961">
      <ele>463.9</ele>
    </trkpt>
    <trkpt lat="42.569942" lon="-2.843239">
      <ele>465.1</ele>
    </trkpt>
    <trkpt lat="42.570407" lon="-2.843636">
      <ele>466.7</ele>
    </trkpt>
    <trkpt lat="42.571003" lon="-2.844388">
      <ele>469.6</ele>
    </trkpt>
    <trkpt lat="42.571304" lon="-2.844979">
      <ele>471.6</ele>
    </trkpt>
    <trkpt lat="42.571775" lon="-2.846122">
      <ele>475</ele>
    </trkpt>
    <trkpt lat="42.57185" lon="-2.846306">
      <ele>475.5</ele>
    </trkpt>
    <trkpt lat="42.572041" lon="-2.846628">
      <ele>476.5</ele>
    </trkpt>
    <trkpt lat="42.572095" lon="-2.846693">
      <ele>476.7</ele>
    </trkpt>
    <trkpt lat="42.572206" lon="-2.846787">
      <ele>477.2</ele>
    </trkpt>
    <trkpt lat="42.572265" lon="-2.846822">
      <ele>477.4</ele>
    </trkpt>
    <trkpt lat="42.572846" lon="-2.847204">
      <ele>479.7</ele>
    </trkpt>
    <trkpt lat="42.573187" lon="-2.84737">
      <ele>480.7</ele>
    </trkpt>
    <trkpt lat="42.573286" lon="-2.847398">
      <ele>480.9</ele>
    </trkpt>
    <trkpt lat="42.573562" lon="-2.847492">
      <ele>481.4</ele>
    </trkpt>
    <trkpt lat="42.573895" lon="-2.847558">
      <ele>481.8</ele>
    </trkpt>
    <trkpt lat="42.574277" lon="-2.847571">
      <ele>481.8</ele>
    </trkpt>
    <trkpt lat="42.574689" lon="-2.847563">
      <ele>481.6</ele>
    </trkpt>
    <trkpt lat="42.574814" lon="-2.84755">
      <ele>481.4</ele>
    </trkpt>
    <trkpt lat="42.575099" lon="-2.847517">
      <ele>481.1</ele>
    </trkpt>
    <trkpt lat="42.575191" lon="-2.847507">
      <ele>481</ele>
    </trkpt>
    <trkpt lat="42.575286" lon="-2.84749">
      <ele>480.9</ele>
    </trkpt>
    <trkpt lat="42.575562" lon="-2.847438">
      <ele>480.6</ele>
    </trkpt>
    <trkpt lat="42.57581" lon="-2.84744">
      <ele>480.3</ele>
    </trkpt>
    <trkpt lat="42.575948" lon="-2.847399">
      <ele>480.1</ele>
    </trkpt>
    <trkpt lat="42.575971" lon="-2.847374">
      <ele>480.1</ele>
    </trkpt>
    <trkpt lat="42.576012" lon="-2.847376">
      <ele>480</ele>
    </trkpt>
    <trkpt lat="42.576071" lon="-2.84742">
      <ele>479.9</ele>
    </trkpt>
    <trkpt lat="42.576136" lon="-2.847552">
      <ele>479.7</ele>
    </trkpt>
    <trkpt lat="42.576269" lon="-2.84797">
      <ele>478.9</ele>
    </trkpt>
    <trkpt lat="42.576311" lon="-2.848325">
      <ele>478.1</ele>
    </trkpt>
    <trkpt lat="42.576499" lon="-2.849199">
      <ele>475.9</ele>
    </trkpt>
    <trkpt lat="42.576592" lon="-2.849505">
      <ele>475.3</ele>
    </trkpt>
    <trkpt lat="42.576656" lon="-2.849732">
      <ele>474.9</ele>
    </trkpt>
    <trkpt lat="42.576745" lon="-2.849828">
      <ele>474.7</ele>
    </trkpt>
    <trkpt lat="42.576758" lon="-2.849931">
      <ele>474.6</ele>
    </trkpt>
    <trkpt lat="42.576695" lon="-2.849939">
      <ele>474.5</ele>
    </trkpt>
    <trkpt lat="42.576474" lon="-2.849797">
      <ele>474.3</ele>
    </trkpt>
    <trkpt lat="42.576117" lon="-2.849566">
      <ele>474.3</ele>
    </trkpt>
    <trkpt lat="42.57608" lon="-2.849543">
      <ele>474.3</ele>
    </trkpt>
    <trkpt lat="42.575542" lon="-2.849379">
      <ele>475.4</ele>
    </trkpt>
    <trkpt lat="42.575457" lon="-2.849352">
      <ele>475.6</ele>
    </trkpt>
    <trkpt lat="42.575277" lon="-2.849266">
      <ele>476.1</ele>
    </trkpt>
    <trkpt lat="42.575173" lon="-2.849152">
      <ele>476.4</ele>
    </trkpt>
    <trkpt lat="42.575329" lon="-2.848722">
      <ele>477.4</ele>
    </trkpt>
    <trkpt lat="42.575752" lon="-2.847853">
      <ele>478.6</ele>
    </trkpt>
    <trkpt lat="42.575915" lon="-2.847489">
      <ele>478.8</ele>
    </trkpt>
    <trkpt lat="42.575948" lon="-2.847399">
      <ele>478.8</ele>
    </trkpt>
    <trkpt lat="42.575971" lon="-2.847374">
      <ele>478.8</ele>
    </trkpt>
    <trkpt lat="42.576012" lon="-2.847376">
      <ele>478.8</ele>
    </trkpt>
    <trkpt lat="42.576071" lon="-2.84742">
      <ele>478.8</ele>
    </trkpt>
    <trkpt lat="42.576136" lon="-2.847552">
      <ele>478.6</ele>
    </trkpt>
    <trkpt lat="42.576904" lon="-2.847131">
      <ele>477.1</ele>
    </trkpt>
    <trkpt lat="42.576974" lon="-2.847114">
      <ele>476.9</ele>
    </trkpt>
    <trkpt lat="42.57699" lon="-2.847307">
      <ele>476.7</ele>
    </trkpt>
    <trkpt lat="42.577022" lon="-2.847356">
      <ele>476.6</ele>
    </trkpt>
    <trkpt lat="42.577037" lon="-2.847324">
      <ele>476.6</ele>
    </trkpt>
    <trkpt lat="42.577191" lon="-2.847272">
      <ele>476.4</ele>
    </trkpt>
    <trkpt lat="42.577242" lon="-2.847287">
      <ele>476.3</ele>
    </trkpt>
    <trkpt lat="42.577187" lon="-2.847041">
      <ele>476.1</ele>
    </trkpt>
    <trkpt lat="42.577144" lon="-2.847056">
      <ele>476</ele>
    </trkpt>
    <trkpt lat="42.576974" lon="-2.847114">
      <ele>475.9</ele>
    </trkpt>
    <trkpt lat="42.57699" lon="-2.847307">
      <ele>475.8</ele>
    </trkpt>
    <trkpt lat="42.576986" lon="-2.847536">
      <ele>475.6</ele>
    </trkpt>
    <trkpt lat="42.576991" lon="-2.847797">
      <ele>475.4</ele>
    </trkpt>
    <trkpt lat="42.577076" lon="-2.848615">
      <ele>474.8</ele>
    </trkpt>
    <trkpt lat="42.577063" lon="-2.848963">
      <ele>474.2</ele>
    </trkpt>
    <trkpt lat="42.577019" lon="-2.849267">
      <ele>473.5</ele>
    </trkpt>
    <trkpt lat="42.576833" lon="-2.849759">
      <ele>472.1</ele>
    </trkpt>
    <trkpt lat="42.576758" lon="-2.849931">
      <ele>471.5</ele>
    </trkpt>
    <trkpt lat="42.576702" lon="-2.850056">
      <ele>471.1</ele>
    </trkpt>
    <trkpt lat="42.576493" lon="-2.850481">
      <ele>469.3</ele>
    </trkpt>
    <trkpt lat="42.576417" lon="-2.850652">
      <ele>468.7</ele>
    </trkpt>
    <trkpt lat="42.576385" lon="-2.85071">
      <ele>468.5</ele>
    </trkpt>
    <trkpt lat="42.576366" lon="-2.850786">
      <ele>468.3</ele>
    </trkpt>
    <trkpt lat="42.576186" lon="-2.851055">
      <ele>466.9</ele>
    </trkpt>
    <trkpt lat="42.57616" lon="-2.851107">
      <ele>466.5</ele>
    </trkpt>
    <trkpt lat="42.57615" lon="-2.851198">
      <ele>466.1</ele>
    </trkpt>
    <trkpt lat="42.576221" lon="-2.851231">
      <ele>465.5</ele>
    </trkpt>
    <trkpt lat="42.576397" lon="-2.851409">
      <ele>464</ele>
    </trkpt>
    <trkpt lat="42.576546" lon="-2.851428">
      <ele>463</ele>
    </trkpt>
    <trkpt lat="42.576817" lon="-2.851234">
      <ele>461.3</ele>
    </trkpt>
    <trkpt lat="42.577094" lon="-2.85104">
      <ele>459.8</ele>
    </trkpt>
    <trkpt lat="42.57724" lon="-2.850974">
      <ele>459.1</ele>
    </trkpt>
    <trkpt lat="42.577401" lon="-2.850494">
      <ele>457</ele>
    </trkpt>
    <trkpt lat="42.577489" lon="-2.850252">
      <ele>455.7</ele>
    </trkpt>
    <trkpt lat="42.577579" lon="-2.850043">
      <ele>454.4</ele>
    </trkpt>
    <trkpt lat="42.577673" lon="-2.849805">
      <ele>453.3</ele>
    </trkpt>
    <trkpt lat="42.57777" lon="-2.849704">
      <ele>452.7</ele>
    </trkpt>
    <trkpt lat="42.577881" lon="-2.849659">
      <ele>452.2</ele>
    </trkpt>
    <trkpt lat="42.578031" lon="-2.849708">
      <ele>451.5</ele>
    </trkpt>
    <trkpt lat="42.578127" lon="-2.849821">
      <ele>450.9</ele>
    </trkpt>
    <trkpt lat="42.578146" lon="-2.849842">
      <ele>450.9</ele>
    </trkpt>
    <trkpt lat="42.578161" lon="-2.849858">
      <ele>450.8</ele>
    </trkpt>
    <trkpt lat="42.578987" lon="-2.850647">
      <ele>445.6</ele>
    </trkpt>
    <trkpt lat="42.579019" lon="-2.850664">
      <ele>445.5</ele>
    </trkpt>
    <trkpt lat="42.579133" lon="-2.850659">
      <ele>445.2</ele>
    </trkpt>
    <trkpt lat="42.579202" lon="-2.850622">
      <ele>445.1</ele>
    </trkpt>
    <trkpt lat="42.579263" lon="-2.850753">
      <ele>444.9</ele>
    </trkpt>
    <trkpt lat="42.579903" lon="-2.850997">
      <ele>444.1</ele>
    </trkpt>
    <trkpt lat="42.579983" lon="-2.85103">
      <ele>444.1</ele>
    </trkpt>
    <trkpt lat="42.580429" lon="-2.85188">
      <ele>443.7</ele>
    </trkpt>
    <trkpt lat="42.580571" lon="-2.852006">
      <ele>443.6</ele>
    </trkpt>
    <trkpt lat="42.580815" lon="-2.852082">
      <ele>443.4</ele>
    </trkpt>
    <trkpt lat="42.581094" lon="-2.852126">
      <ele>443.2</ele>
    </trkpt>
    <trkpt lat="42.582098" lon="-2.851905">
      <ele>444.2</ele>
    </trkpt>
    <trkpt lat="42.582195" lon="-2.851892">
      <ele>444.3</ele>
    </trkpt>
    <trkpt lat="42.582697" lon="-2.851967">
      <ele>445.1</ele>
    </trkpt>
    <trkpt lat="42.582769" lon="-2.851978">
      <ele>445.2</ele>
    </trkpt>
    <trkpt lat="42.583118" lon="-2.850521">
      <ele>448.1</ele>
    </trkpt>
    <trkpt lat="42.583393" lon="-2.84963">
      <ele>448.9</ele>
    </trkpt>
    <trkpt lat="42.583404" lon="-2.849597">
      <ele>448.9</ele>
    </trkpt>
    <trkpt lat="42.583426" lon="-2.849531">
      <ele>448.9</ele>
    </trkpt>
    <trkpt lat="42.583413" lon="-2.849185">
      <ele>448.8</ele>
    </trkpt>
    <trkpt lat="42.583405" lon="-2.849102">
      <ele>448.8</ele>
    </trkpt>
    <trkpt lat="42.582526" lon="-2.848038">
      <ele>444.8</ele>
    </trkpt>
    <trkpt lat="42.582469" lon="-2.847997">
      <ele>444.5</ele>
    </trkpt>
    <trkpt lat="42.581856" lon="-2.848068">
      <ele>442.2</ele>
    </trkpt>
    <trkpt lat="42.581864" lon="-2.84801">
      <ele>442</ele>
    </trkpt>
    <trkpt lat="42.581865" lon="-2.848004">
      <ele>442</ele>
    </trkpt>
    <trkpt lat="42.581877" lon="-2.847914">
      <ele>441.8</ele>
    </trkpt>
    <trkpt lat="42.581834" lon="-2.847924">
      <ele>441.7</ele>
    </trkpt>
    <trkpt lat="42.581522" lon="-2.847652">
      <ele>441.2</ele>
    </trkpt>
    <trkpt lat="42.581462" lon="-2.847768">
      <ele>441.1</ele>
    </trkpt>
    <trkpt lat="42.581477" lon="-2.847833">
      <ele>441.2</ele>
    </trkpt>
    <trkpt lat="42.581623" lon="-2.84795">
      <ele>441.3</ele>
    </trkpt>
    <trkpt lat="42.581663" lon="-2.847983">
      <ele>441.4</ele>
    </trkpt>
    <trkpt lat="42.581834" lon="-2.847924">
      <ele>441.7</ele>
    </trkpt>
    <trkpt lat="42.581877" lon="-2.847914">
      <ele>441.8</ele>
    </trkpt>
    <trkpt lat="42.581865" lon="-2.848004">
      <ele>442</ele>
    </trkpt>
    <trkpt lat="42.581864" lon="-2.84801">
      <ele>442</ele>
    </trkpt>
    <trkpt lat="42.581856" lon="-2.848068">
      <ele>442.1</ele>
    </trkpt>
    <trkpt lat="42.582469" lon="-2.847997">
      <ele>444.2</ele>
    </trkpt>
    <trkpt lat="42.582484" lon="-2.847934">
      <ele>444.4</ele>
    </trkpt>
    <trkpt lat="42.58249" lon="-2.84791">
      <ele>444.4</ele>
    </trkpt>
    <trkpt lat="42.58252" lon="-2.847837">
      <ele>444.7</ele>
    </trkpt>
    <trkpt lat="42.582572" lon="-2.847747">
      <ele>445</ele>
    </trkpt>
    <trkpt lat="42.582618" lon="-2.847663">
      <ele>445.4</ele>
    </trkpt>
    <trkpt lat="42.582636" lon="-2.847598">
      <ele>445.6</ele>
    </trkpt>
    <trkpt lat="42.583281" lon="-2.847888">
      <ele>448.6</ele>
    </trkpt>
    <trkpt lat="42.583391" lon="-2.847884">
      <ele>449.1</ele>
    </trkpt>
    <trkpt lat="42.583858" lon="-2.847726">
      <ele>451.1</ele>
    </trkpt>
    <trkpt lat="42.584089" lon="-2.847648">
      <ele>452</ele>
    </trkpt>
    <trkpt lat="42.584589" lon="-2.847456">
      <ele>453.6</ele>
    </trkpt>
    <trkpt lat="42.584713" lon="-2.847324">
      <ele>453.9</ele>
    </trkpt>
    <trkpt lat="42.584799" lon="-2.847181">
      <ele>454.1</ele>
    </trkpt>
    <trkpt lat="42.584868" lon="-2.847023">
      <ele>454.2</ele>
    </trkpt>
    <trkpt lat="42.584947" lon="-2.846841">
      <ele>454.3</ele>
    </trkpt>
    <trkpt lat="42.584978" lon="-2.846762">
      <ele>454.2</ele>
    </trkpt>
    <trkpt lat="42.585098" lon="-2.846476">
      <ele>454.1</ele>
    </trkpt>
    <trkpt lat="42.585196" lon="-2.846202">
      <ele>453.6</ele>
    </trkpt>
    <trkpt lat="42.585232" lon="-2.8461">
      <ele>453.4</ele>
    </trkpt>
    <trkpt lat="42.585293" lon="-2.845722">
      <ele>452.4</ele>
    </trkpt>
    <trkpt lat="42.585292" lon="-2.845263">
      <ele>450.8</ele>
    </trkpt>
    <trkpt lat="42.585288" lon="-2.845173">
      <ele>450.5</ele>
    </trkpt>
    <trkpt lat="42.585234" lon="-2.844864">
      <ele>449.6</ele>
    </trkpt>
    <trkpt lat="42.585166" lon="-2.844735">
      <ele>449.3</ele>
    </trkpt>
    <trkpt lat="42.585084" lon="-2.844658">
      <ele>449</ele>
    </trkpt>
    <trkpt lat="42.585001" lon="-2.84463">
      <ele>448.8</ele>
    </trkpt>
    <trkpt lat="42.584848" lon="-2.844643">
      <ele>448.6</ele>
    </trkpt>
    <trkpt lat="42.584773" lon="-2.844695">
      <ele>448.5</ele>
    </trkpt>
    <trkpt lat="42.584708" lon="-2.844775">
      <ele>448.3</ele>
    </trkpt>
    <trkpt lat="42.584663" lon="-2.844881">
      <ele>448.3</ele>
    </trkpt>
    <trkpt lat="42.584648" lon="-2.84499">
      <ele>448.2</ele>
    </trkpt>
    <trkpt lat="42.58467" lon="-2.845287">
      <ele>448.1</ele>
    </trkpt>
    <trkpt lat="42.584716" lon="-2.845381">
      <ele>448.2</ele>
    </trkpt>
    <trkpt lat="42.584783" lon="-2.845436">
      <ele>448.2</ele>
    </trkpt>
    <trkpt lat="42.584912" lon="-2.84548">
      <ele>448.3</ele>
    </trkpt>
    <trkpt lat="42.58645" lon="-2.844991">
      <ele>450.2</ele>
    </trkpt>
    <trkpt lat="42.586479" lon="-2.844982">
      <ele>450.1</ele>
    </trkpt>
    <trkpt lat="42.588138" lon="-2.844422">
      <ele>444.8</ele>
    </trkpt>
    <trkpt lat="42.589495" lon="-2.843961">
      <ele>444.3</ele>
    </trkpt>
    <trkpt lat="42.589629" lon="-2.843919">
      <ele>444.3</ele>
    </trkpt>
    <trkpt lat="42.590228" lon="-2.84372">
      <ele>444</ele>
    </trkpt>
    <trkpt lat="42.590135" lon="-2.843618">
      <ele>443.9</ele>
    </trkpt>
    <trkpt lat="42.589785" lon="-2.843523">
      <ele>443.7</ele>
    </trkpt>
    <trkpt lat="42.589707" lon="-2.843412">
      <ele>443.7</ele>
    </trkpt>
    <trkpt lat="42.589818" lon="-2.843275">
      <ele>443.5</ele>
    </trkpt>
    <trkpt lat="42.590445" lon="-2.842843">
      <ele>442.5</ele>
    </trkpt>
    <trkpt lat="42.590896" lon="-2.842374">
      <ele>442.1</ele>
    </trkpt>
    <trkpt lat="42.591502" lon="-2.841906">
      <ele>441.6</ele>
    </trkpt>
    <trkpt lat="42.592161" lon="-2.841534">
      <ele>441.1</ele>
    </trkpt>
    <trkpt lat="42.592659" lon="-2.841131">
      <ele>441.1</ele>
    </trkpt>
    <trkpt lat="42.593217" lon="-2.840864">
      <ele>441.5</ele>
    </trkpt>
    <trkpt lat="42.593663" lon="-2.840509">
      <ele>441.9</ele>
    </trkpt>
    <trkpt lat="42.594317" lon="-2.840192">
      <ele>442.7</ele>
    </trkpt>
    <trkpt lat="42.595037" lon="-2.840014">
      <ele>443.5</ele>
    </trkpt>
    <trkpt lat="42.595512" lon="-2.839749">
      <ele>444.2</ele>
    </trkpt>
    <trkpt lat="42.595769" lon="-2.839644">
      <ele>444.7</ele>
    </trkpt>
    <trkpt lat="42.59605" lon="-2.839574">
      <ele>445.1</ele>
    </trkpt>
    <trkpt lat="42.59655" lon="-2.839325">
      <ele>445.9</ele>
    </trkpt>
    <trkpt lat="42.596708" lon="-2.839213">
      <ele>446.1</ele>
    </trkpt>
    <trkpt lat="42.596865" lon="-2.839041">
      <ele>446.3</ele>
    </trkpt>
    <trkpt lat="42.597234" lon="-2.838447">
      <ele>446.5</ele>
    </trkpt>
    <trkpt lat="42.597569" lon="-2.838007">
      <ele>446.1</ele>
    </trkpt>
    <trkpt lat="42.598916" lon="-2.835207">
      <ele>442.4</ele>
    </trkpt>
    <trkpt lat="42.599452" lon="-2.834113">
      <ele>441.6</ele>
    </trkpt>
    <trkpt lat="42.599785" lon="-2.833438">
      <ele>441.3</ele>
    </trkpt>
    <trkpt lat="42.600043" lon="-2.832915">
      <ele>440.9</ele>
    </trkpt>
    <trkpt lat="42.600336" lon="-2.832299">
      <ele>440.9</ele>
    </trkpt>
    <trkpt lat="42.600502" lon="-2.832009">
      <ele>441.3</ele>
    </trkpt>
    <trkpt lat="42.600669" lon="-2.831643">
      <ele>441.8</ele>
    </trkpt>
    <trkpt lat="42.600771" lon="-2.831493">
      <ele>442.2</ele>
    </trkpt>
    <trkpt lat="42.600817" lon="-2.831459">
      <ele>442.3</ele>
    </trkpt>
    <trkpt lat="42.600997" lon="-2.831455">
      <ele>443</ele>
    </trkpt>
    <trkpt lat="42.601133" lon="-2.83111">
      <ele>444</ele>
    </trkpt>
    <trkpt lat="42.601279" lon="-2.830725">
      <ele>445.1</ele>
    </trkpt>
    <trkpt lat="42.601335" lon="-2.830644">
      <ele>445.3</ele>
    </trkpt>
    <trkpt lat="42.601574" lon="-2.830258">
      <ele>446.3</ele>
    </trkpt>
    <trkpt lat="42.601659" lon="-2.829958">
      <ele>446.6</ele>
    </trkpt>
    <trkpt lat="42.601789" lon="-2.829377">
      <ele>447</ele>
    </trkpt>
    <trkpt lat="42.601913" lon="-2.828958">
      <ele>447</ele>
    </trkpt>
    <trkpt lat="42.602017" lon="-2.824466">
      <ele>443.5</ele>
    </trkpt>
    <trkpt lat="42.601995" lon="-2.823424">
      <ele>444.2</ele>
    </trkpt>
    <trkpt lat="42.601878" lon="-2.821728">
      <ele>446.5</ele>
    </trkpt>
    <trkpt lat="42.601839" lon="-2.821396">
      <ele>446.7</ele>
    </trkpt>
    <trkpt lat="42.601694" lon="-2.820707">
      <ele>446.6</ele>
    </trkpt>
    <trkpt lat="42.601567" lon="-2.820335">
      <ele>446.3</ele>
    </trkpt>
    <trkpt lat="42.601405" lon="-2.819953">
      <ele>445.8</ele>
    </trkpt>
    <trkpt lat="42.601127" lon="-2.819463">
      <ele>445.2</ele>
    </trkpt>
    <trkpt lat="42.600445" lon="-2.818432">
      <ele>445.3</ele>
    </trkpt>
    <trkpt lat="42.599756" lon="-2.817479">
      <ele>448.2</ele>
    </trkpt>
    <trkpt lat="42.599085" lon="-2.816646">
      <ele>451.8</ele>
    </trkpt>
    <trkpt lat="42.598812" lon="-2.816239">
      <ele>453</ele>
    </trkpt>
    <trkpt lat="42.598536" lon="-2.815662">
      <ele>454.3</ele>
    </trkpt>
    <trkpt lat="42.598428" lon="-2.815334">
      <ele>454.9</ele>
    </trkpt>
    <trkpt lat="42.598356" lon="-2.815026">
      <ele>455.4</ele>
    </trkpt>
    <trkpt lat="42.598284" lon="-2.814462">
      <ele>456.3</ele>
    </trkpt>
    <trkpt lat="42.59828" lon="-2.813952">
      <ele>457.2</ele>
    </trkpt>
    <trkpt lat="42.598395" lon="-2.812026">
      <ele>463.1</ele>
    </trkpt>
    <trkpt lat="42.598361" lon="-2.811427">
      <ele>465.7</ele>
    </trkpt>
    <trkpt lat="42.59808" lon="-2.809854">
      <ele>475.6</ele>
    </trkpt>
    <trkpt lat="42.597895" lon="-2.809172">
      <ele>480.4</ele>
    </trkpt>
    <trkpt lat="42.597685" lon="-2.808607">
      <ele>484.4</ele>
    </trkpt>
    <trkpt lat="42.596865" lon="-2.806696">
      <ele>497.6</ele>
    </trkpt>
    <trkpt lat="42.59611" lon="-2.804972">
      <ele>514.4</ele>
    </trkpt>
    <trkpt lat="42.596086" lon="-2.804916">
      <ele>514.9</ele>
    </trkpt>
    <trkpt lat="42.595885" lon="-2.804533">
      <ele>518.4</ele>
    </trkpt>
    <trkpt lat="42.595413" lon="-2.803888">
      <ele>523.7</ele>
    </trkpt>
    <trkpt lat="42.594431" lon="-2.802854">
      <ele>529</ele>
    </trkpt>
    <trkpt lat="42.5944" lon="-2.802822">
      <ele>529.1</ele>
    </trkpt>
    <trkpt lat="42.594079" lon="-2.802488">
      <ele>530</ele>
    </trkpt>
    <trkpt lat="42.593245" lon="-2.801601">
      <ele>531.2</ele>
    </trkpt>
    <trkpt lat="42.592555" lon="-2.80072">
      <ele>531.6</ele>
    </trkpt>
    <trkpt lat="42.592354" lon="-2.800549">
      <ele>532</ele>
    </trkpt>
    <trkpt lat="42.592239" lon="-2.800507">
      <ele>532.3</ele>
    </trkpt>
    <trkpt lat="42.592188" lon="-2.800503">
      <ele>532.4</ele>
    </trkpt>
    <trkpt lat="42.592147" lon="-2.80046">
      <ele>532.5</ele>
    </trkpt>
    <trkpt lat="42.592138" lon="-2.800357">
      <ele>532.8</ele>
    </trkpt>
    <trkpt lat="42.592119" lon="-2.800279">
      <ele>532.9</ele>
    </trkpt>
    <trkpt lat="42.592063" lon="-2.800044">
      <ele>533.5</ele>
    </trkpt>
    <trkpt lat="42.591392" lon="-2.799072">
      <ele>537.2</ele>
    </trkpt>
    <trkpt lat="42.591267" lon="-2.798815">
      <ele>537.8</ele>
    </trkpt>
    <trkpt lat="42.591127" lon="-2.798509">
      <ele>538.3</ele>
    </trkpt>
    <trkpt lat="42.591026" lon="-2.798261">
      <ele>538.4</ele>
    </trkpt>
    <trkpt lat="42.59105" lon="-2.798068">
      <ele>538.4</ele>
    </trkpt>
    <trkpt lat="42.591001" lon="-2.79707">
      <ele>537.1</ele>
    </trkpt>
    <trkpt lat="42.590995" lon="-2.796644">
      <ele>536.5</ele>
    </trkpt>
    <trkpt lat="42.591015" lon="-2.796168">
      <ele>536.2</ele>
    </trkpt>
    <trkpt lat="42.590969" lon="-2.795646">
      <ele>536.4</ele>
    </trkpt>
    <trkpt lat="42.591021" lon="-2.795113">
      <ele>537.2</ele>
    </trkpt>
    <trkpt lat="42.590997" lon="-2.795033">
      <ele>537.5</ele>
    </trkpt>
    <trkpt lat="42.590981" lon="-2.794978">
      <ele>537.6</ele>
    </trkpt>
    <trkpt lat="42.590849" lon="-2.794358">
      <ele>539.6</ele>
    </trkpt>
    <trkpt lat="42.590613" lon="-2.793604">
      <ele>541.5</ele>
    </trkpt>
    <trkpt lat="42.590429" lon="-2.793204">
      <ele>541.5</ele>
    </trkpt>
    <trkpt lat="42.590323" lon="-2.792939">
      <ele>541.4</ele>
    </trkpt>
    <trkpt lat="42.590234" lon="-2.79272">
      <ele>541.3</ele>
    </trkpt>
    <trkpt lat="42.590189" lon="-2.792621">
      <ele>541.2</ele>
    </trkpt>
    <trkpt lat="42.590116" lon="-2.792547">
      <ele>541</ele>
    </trkpt>
    <trkpt lat="42.589908" lon="-2.792375">
      <ele>540.6</ele>
    </trkpt>
    <trkpt lat="42.589654" lon="-2.792159">
      <ele>540.1</ele>
    </trkpt>
    <trkpt lat="42.58945" lon="-2.791976">
      <ele>539.6</ele>
    </trkpt>
    <trkpt lat="42.589296" lon="-2.791812">
      <ele>539.1</ele>
    </trkpt>
    <trkpt lat="42.589262" lon="-2.791776">
      <ele>539</ele>
    </trkpt>
    <trkpt lat="42.589124" lon="-2.791606">
      <ele>538.5</ele>
    </trkpt>
    <trkpt lat="42.588991" lon="-2.791359">
      <ele>537.8</ele>
    </trkpt>
    <trkpt lat="42.589082" lon="-2.791311">
      <ele>537.5</ele>
    </trkpt>
    <trkpt lat="42.588988" lon="-2.790748">
      <ele>535.6</ele>
    </trkpt>
    <trkpt lat="42.588915" lon="-2.790731">
      <ele>535.2</ele>
    </trkpt>
    <trkpt lat="42.588892" lon="-2.790417">
      <ele>533.7</ele>
    </trkpt>
    <trkpt lat="42.588834" lon="-2.790178">
      <ele>532.3</ele>
    </trkpt>
    <trkpt lat="42.588757" lon="-2.790016">
      <ele>531.1</ele>
    </trkpt>
    <trkpt lat="42.588563" lon="-2.78975">
      <ele>528.6</ele>
    </trkpt>
    <trkpt lat="42.588041" lon="-2.789156">
      <ele>522.5</ele>
    </trkpt>
    <trkpt lat="42.586326" lon="-2.787464">
      <ele>510</ele>
    </trkpt>
    <trkpt lat="42.585582" lon="-2.786758">
      <ele>506.8</ele>
    </trkpt>
    <trkpt lat="42.584864" lon="-2.786085">
      <ele>504.9</ele>
    </trkpt>
    <trkpt lat="42.584404" lon="-2.785611">
      <ele>503.8</ele>
    </trkpt>
    <trkpt lat="42.584029" lon="-2.785165">
      <ele>502.8</ele>
    </trkpt>
    <trkpt lat="42.583224" lon="-2.784084">
      <ele>501.3</ele>
    </trkpt>
    <trkpt lat="42.581902" lon="-2.782203">
      <ele>502.6</ele>
    </trkpt>
    <trkpt lat="42.580091" lon="-2.77953">
      <ele>506.3</ele>
    </trkpt>
    <trkpt lat="42.579679" lon="-2.778938">
      <ele>504.4</ele>
    </trkpt>
    <trkpt lat="42.579279" lon="-2.778478">
      <ele>501.5</ele>
    </trkpt>
    <trkpt lat="42.578704" lon="-2.778001">
      <ele>496.7</ele>
    </trkpt>
    <trkpt lat="42.577408" lon="-2.77722">
      <ele>486.6</ele>
    </trkpt>
    <trkpt lat="42.57703" lon="-2.776918">
      <ele>483.6</ele>
    </trkpt>
    <trkpt lat="42.57622" lon="-2.776514">
      <ele>478.2</ele>
    </trkpt>
    <trkpt lat="42.575972" lon="-2.776426">
      <ele>476.8</ele>
    </trkpt>
    <trkpt lat="42.574947" lon="-2.775937">
      <ele>472.3</ele>
    </trkpt>
    <trkpt lat="42.574714" lon="-2.775924">
      <ele>471.5</ele>
    </trkpt>
    <trkpt lat="42.574552" lon="-2.775979">
      <ele>470.9</ele>
    </trkpt>
    <trkpt lat="42.574385" lon="-2.776089">
      <ele>470.3</ele>
    </trkpt>
    <trkpt lat="42.574151" lon="-2.776371">
      <ele>469.3</ele>
    </trkpt>
    <trkpt lat="42.574019" lon="-2.776433">
      <ele>468.9</ele>
    </trkpt>
    <trkpt lat="42.573918" lon="-2.776447">
      <ele>468.5</ele>
    </trkpt>
    <trkpt lat="42.573264" lon="-2.776137">
      <ele>466.5</ele>
    </trkpt>
    <trkpt lat="42.572727" lon="-2.776054">
      <ele>464.9</ele>
    </trkpt>
    <trkpt lat="42.572352" lon="-2.776123">
      <ele>464.3</ele>
    </trkpt>
    <trkpt lat="42.57226" lon="-2.776027">
      <ele>464.3</ele>
    </trkpt>
    <trkpt lat="42.572103" lon="-2.775924">
      <ele>464.4</ele>
    </trkpt>
    <trkpt lat="42.571829" lon="-2.775903">
      <ele>464.6</ele>
    </trkpt>
    <trkpt lat="42.571668" lon="-2.775689">
      <ele>465</ele>
    </trkpt>
    <trkpt lat="42.571604" lon="-2.77561">
      <ele>465.2</ele>
    </trkpt>
    <trkpt lat="42.571484" lon="-2.775462">
      <ele>465.6</ele>
    </trkpt>
    <trkpt lat="42.571089" lon="-2.775511">
      <ele>466.5</ele>
    </trkpt>
    <trkpt lat="42.570506" lon="-2.775228">
      <ele>468.1</ele>
    </trkpt>
    <trkpt lat="42.568691" lon="-2.774409">
      <ele>468.2</ele>
    </trkpt>
    <trkpt lat="42.568295" lon="-2.774113">
      <ele>468.3</ele>
    </trkpt>
    <trkpt lat="42.567575" lon="-2.773776">
      <ele>468.2</ele>
    </trkpt>
    <trkpt lat="42.567271" lon="-2.7735">
      <ele>467.7</ele>
    </trkpt>
    <trkpt lat="42.566718" lon="-2.773135">
      <ele>466.1</ele>
    </trkpt>
    <trkpt lat="42.566373" lon="-2.772832">
      <ele>464.1</ele>
    </trkpt>
    <trkpt lat="42.565963" lon="-2.772612">
      <ele>461</ele>
    </trkpt>
    <trkpt lat="42.565593" lon="-2.772584">
      <ele>457.9</ele>
    </trkpt>
    <trkpt lat="42.564984" lon="-2.772687">
      <ele>451.8</ele>
    </trkpt>
    <trkpt lat="42.564366" lon="-2.772791">
      <ele>444.7</ele>
    </trkpt>
    <trkpt lat="42.564335" lon="-2.772282">
      <ele>441</ele>
    </trkpt>
    <trkpt lat="42.56438" lon="-2.771838">
      <ele>438.4</ele>
    </trkpt>
    <trkpt lat="42.564623" lon="-2.771295">
      <ele>435.5</ele>
    </trkpt>
    <trkpt lat="42.565265" lon="-2.770056">
      <ele>432.8</ele>
    </trkpt>
    <trkpt lat="42.565917" lon="-2.768896">
      <ele>432.4</ele>
    </trkpt>
    <trkpt lat="42.566151" lon="-2.768603">
      <ele>432.6</ele>
    </trkpt>
    <trkpt lat="42.566634" lon="-2.768205">
      <ele>433.3</ele>
    </trkpt>
    <trkpt lat="42.566768" lon="-2.767971">
      <ele>433.7</ele>
    </trkpt>
    <trkpt lat="42.566783" lon="-2.767618">
      <ele>434.4</ele>
    </trkpt>
    <trkpt lat="42.566624" lon="-2.766373">
      <ele>438.1</ele>
    </trkpt>
    <trkpt lat="42.566499" lon="-2.766135">
      <ele>439.1</ele>
    </trkpt>
    <trkpt lat="42.565952" lon="-2.765508">
      <ele>442.2</ele>
    </trkpt>
    <trkpt lat="42.56535" lon="-2.76504">
      <ele>444.6</ele>
    </trkpt>
    <trkpt lat="42.56529" lon="-2.764955">
      <ele>444.9</ele>
    </trkpt>
    <trkpt lat="42.564892" lon="-2.764393">
      <ele>446.4</ele>
    </trkpt>
    <trkpt lat="42.56429" lon="-2.763617">
      <ele>449.6</ele>
    </trkpt>
    <trkpt lat="42.564096" lon="-2.763189">
      <ele>452</ele>
    </trkpt>
    <trkpt lat="42.564011" lon="-2.762855">
      <ele>454.1</ele>
    </trkpt>
    <trkpt lat="42.564007" lon="-2.76275">
      <ele>454.8</ele>
    </trkpt>
    <trkpt lat="42.563832" lon="-2.7625">
      <ele>457</ele>
    </trkpt>
    <trkpt lat="42.563523" lon="-2.761807">
      <ele>463.1</ele>
    </trkpt>
    <trkpt lat="42.562844" lon="-2.7609">
      <ele>472.5</ele>
    </trkpt>
    <trkpt lat="42.562451" lon="-2.760266">
      <ele>477.5</ele>
    </trkpt>
    <trkpt lat="42.562215" lon="-2.759876">
      <ele>481.4</ele>
    </trkpt>
    <trkpt lat="42.562114" lon="-2.759757">
      <ele>482.9</ele>
    </trkpt>
    <trkpt lat="42.561971" lon="-2.759608">
      <ele>484.8</ele>
    </trkpt>
    <trkpt lat="42.561662" lon="-2.759483">
      <ele>488.2</ele>
    </trkpt>
    <trkpt lat="42.561602" lon="-2.759304">
      <ele>489.7</ele>
    </trkpt>
    <trkpt lat="42.561541" lon="-2.75928">
      <ele>490.3</ele>
    </trkpt>
    <trkpt lat="42.561509" lon="-2.759082">
      <ele>492</ele>
    </trkpt>
    <trkpt lat="42.561516" lon="-2.759024">
      <ele>492.5</ele>
    </trkpt>
    <trkpt lat="42.561584" lon="-2.758914">
      <ele>493.7</ele>
    </trkpt>
    <trkpt lat="42.56178" lon="-2.758887">
      <ele>496</ele>
    </trkpt>
    <trkpt lat="42.561961" lon="-2.758827">
      <ele>498.1</ele>
    </trkpt>
    <trkpt lat="42.562102" lon="-2.758467">
      <ele>501.3</ele>
    </trkpt>
    <trkpt lat="42.561984" lon="-2.758432">
      <ele>502.4</ele>
    </trkpt>
    <trkpt lat="42.561586" lon="-2.758366">
      <ele>505.5</ele>
    </trkpt>
    <trkpt lat="42.561405" lon="-2.758135">
      <ele>507</ele>
    </trkpt>
    <trkpt lat="42.56119" lon="-2.757971">
      <ele>508.3</ele>
    </trkpt>
    <trkpt lat="42.561052" lon="-2.757953">
      <ele>508.9</ele>
    </trkpt>
    <trkpt lat="42.560976" lon="-2.757914">
      <ele>509.3</ele>
    </trkpt>
    <trkpt lat="42.560938" lon="-2.757877">
      <ele>509.4</ele>
    </trkpt>
    <trkpt lat="42.560787" lon="-2.757681">
      <ele>510.2</ele>
    </trkpt>
    <trkpt lat="42.56048" lon="-2.757195">
      <ele>511.6</ele>
    </trkpt>
    <trkpt lat="42.560104" lon="-2.756828">
      <ele>512.1</ele>
    </trkpt>
    <trkpt lat="42.560065" lon="-2.756798">
      <ele>512.1</ele>
    </trkpt>
    <trkpt lat="42.56001" lon="-2.756758">
      <ele>512.1</ele>
    </trkpt>
    <trkpt lat="42.559864" lon="-2.756751">
      <ele>511.9</ele>
    </trkpt>
    <trkpt lat="42.559827" lon="-2.756775">
      <ele>511.9</ele>
    </trkpt>
    <trkpt lat="42.559457" lon="-2.757073">
      <ele>511.8</ele>
    </trkpt>
    <trkpt lat="42.559417" lon="-2.757141">
      <ele>511.8</ele>
    </trkpt>
    <trkpt lat="42.559457" lon="-2.757073">
      <ele>511.8</ele>
    </trkpt>
    <trkpt lat="42.559827" lon="-2.756775">
      <ele>511.9</ele>
    </trkpt>
    <trkpt lat="42.559864" lon="-2.756751">
      <ele>511.9</ele>
    </trkpt>
    <trkpt lat="42.56001" lon="-2.756758">
      <ele>512.1</ele>
    </trkpt>
    <trkpt lat="42.560065" lon="-2.756798">
      <ele>512.1</ele>
    </trkpt>
    <trkpt lat="42.560104" lon="-2.756828">
      <ele>512.1</ele>
    </trkpt>
    <trkpt lat="42.56048" lon="-2.757195">
      <ele>511.6</ele>
    </trkpt>
    <trkpt lat="42.560787" lon="-2.757681">
      <ele>510.2</ele>
    </trkpt>
    <trkpt lat="42.560938" lon="-2.757877">
      <ele>509.4</ele>
    </trkpt>
    <trkpt lat="42.560976" lon="-2.757914">
      <ele>509.3</ele>
    </trkpt>
    <trkpt lat="42.561052" lon="-2.757953">
      <ele>508.9</ele>
    </trkpt>
    <trkpt lat="42.56119" lon="-2.757971">
      <ele>508.3</ele>
    </trkpt>
    <trkpt lat="42.561405" lon="-2.758135">
      <ele>507.2</ele>
    </trkpt>
    <trkpt lat="42.561586" lon="-2.758366">
      <ele>505.7</ele>
    </trkpt>
    <trkpt lat="42.561984" lon="-2.758432">
      <ele>503.5</ele>
    </trkpt>
    <trkpt lat="42.562102" lon="-2.758467">
      <ele>503</ele>
    </trkpt>
    <trkpt lat="42.562351" lon="-2.758472">
      <ele>502</ele>
    </trkpt>
    <trkpt lat="42.562508" lon="-2.758529">
      <ele>501.3</ele>
    </trkpt>
    <trkpt lat="42.562553" lon="-2.758547">
      <ele>501.1</ele>
    </trkpt>
    <trkpt lat="42.56263" lon="-2.758579">
      <ele>500.6</ele>
    </trkpt>
    <trkpt lat="42.562867" lon="-2.7587">
      <ele>499.1</ele>
    </trkpt>
    <trkpt lat="42.562943" lon="-2.758437">
      <ele>497.7</ele>
    </trkpt>
    <trkpt lat="42.56298" lon="-2.758249">
      <ele>496.8</ele>
    </trkpt>
    <trkpt lat="42.563043" lon="-2.757611">
      <ele>493.5</ele>
    </trkpt>
    <trkpt lat="42.56308" lon="-2.75744">
      <ele>492.5</ele>
    </trkpt>
    <trkpt lat="42.563357" lon="-2.757246">
      <ele>489.7</ele>
    </trkpt>
    <trkpt lat="42.563503" lon="-2.757098">
      <ele>488</ele>
    </trkpt>
    <trkpt lat="42.563892" lon="-2.756249">
      <ele>482.4</ele>
    </trkpt>
    <trkpt lat="42.563978" lon="-2.75586">
      <ele>481.2</ele>
    </trkpt>
    <trkpt lat="42.56402" lon="-2.755307">
      <ele>480.2</ele>
    </trkpt>
    <trkpt lat="42.564017" lon="-2.755164">
      <ele>480</ele>
    </trkpt>
    <trkpt lat="42.564005" lon="-2.755102">
      <ele>480</ele>
    </trkpt>
    <trkpt lat="42.563949" lon="-2.755047">
      <ele>480</ele>
    </trkpt>
    <trkpt lat="42.563423" lon="-2.754823">
      <ele>480.3</ele>
    </trkpt>
    <trkpt lat="42.563303" lon="-2.754835">
      <ele>480.4</ele>
    </trkpt>
    <trkpt lat="42.56314" lon="-2.754902">
      <ele>480.6</ele>
    </trkpt>
    <trkpt lat="42.562995" lon="-2.755026">
      <ele>480.8</ele>
    </trkpt>
    <trkpt lat="42.562897" lon="-2.755066">
      <ele>480.9</ele>
    </trkpt>
    <trkpt lat="42.562775" lon="-2.755076">
      <ele>481.1</ele>
    </trkpt>
    <trkpt lat="42.562441" lon="-2.755016">
      <ele>481.3</ele>
    </trkpt>
    <trkpt lat="42.562257" lon="-2.755036">
      <ele>481.5</ele>
    </trkpt>
    <trkpt lat="42.562097" lon="-2.754999">
      <ele>481.5</ele>
    </trkpt>
    <trkpt lat="42.561738" lon="-2.754734">
      <ele>481.4</ele>
    </trkpt>
    <trkpt lat="42.561599" lon="-2.754576">
      <ele>481.4</ele>
    </trkpt>
    <trkpt lat="42.561405" lon="-2.754202">
      <ele>481.6</ele>
    </trkpt>
    <trkpt lat="42.561211" lon="-2.754009">
      <ele>482</ele>
    </trkpt>
    <trkpt lat="42.561088" lon="-2.753896">
      <ele>482.3</ele>
    </trkpt>
    <trkpt lat="42.56072" lon="-2.753715">
      <ele>483.2</ele>
    </trkpt>
    <trkpt lat="42.560476" lon="-2.753377">
      <ele>484</ele>
    </trkpt>
    <trkpt lat="42.560392" lon="-2.753195">
      <ele>484.4</ele>
    </trkpt>
    <trkpt lat="42.560318" lon="-2.752925">
      <ele>484.9</ele>
    </trkpt>
    <trkpt lat="42.560314" lon="-2.752778">
      <ele>485.2</ele>
    </trkpt>
    <trkpt lat="42.560457" lon="-2.75193">
      <ele>486.3</ele>
    </trkpt>
    <trkpt lat="42.560438" lon="-2.751295">
      <ele>486</ele>
    </trkpt>
    <trkpt lat="42.560451" lon="-2.750679">
      <ele>485.2</ele>
    </trkpt>
    <trkpt lat="42.560449" lon="-2.750489">
      <ele>484.8</ele>
    </trkpt>
    <trkpt lat="42.560393" lon="-2.750326">
      <ele>484.5</ele>
    </trkpt>
    <trkpt lat="42.559764" lon="-2.749058">
      <ele>482.2</ele>
    </trkpt>
    <trkpt lat="42.559656" lon="-2.748466">
      <ele>482.3</ele>
    </trkpt>
    <trkpt lat="42.55961" lon="-2.748345">
      <ele>482.4</ele>
    </trkpt>
    <trkpt lat="42.55941" lon="-2.747986">
      <ele>483.1</ele>
    </trkpt>
    <trkpt lat="42.559226" lon="-2.747449">
      <ele>484.6</ele>
    </trkpt>
    <trkpt lat="42.559018" lon="-2.747056">
      <ele>486.3</ele>
    </trkpt>
    <trkpt lat="42.558842" lon="-2.746613">
      <ele>488.1</ele>
    </trkpt>
    <trkpt lat="42.558606" lon="-2.746182">
      <ele>490</ele>
    </trkpt>
    <trkpt lat="42.558461" lon="-2.745782">
      <ele>491.3</ele>
    </trkpt>
    <trkpt lat="42.558427" lon="-2.745541">
      <ele>491.9</ele>
    </trkpt>
    <trkpt lat="42.558435" lon="-2.745417">
      <ele>492.2</ele>
    </trkpt>
    <trkpt lat="42.558544" lon="-2.744849">
      <ele>493</ele>
    </trkpt>
    <trkpt lat="42.558558" lon="-2.744647">
      <ele>493.2</ele>
    </trkpt>
    <trkpt lat="42.558528" lon="-2.744224">
      <ele>493.4</ele>
    </trkpt>
    <trkpt lat="42.558461" lon="-2.743995">
      <ele>493.4</ele>
    </trkpt>
    <trkpt lat="42.558277" lon="-2.743734">
      <ele>493.3</ele>
    </trkpt>
    <trkpt lat="42.557795" lon="-2.74325">
      <ele>493</ele>
    </trkpt>
    <trkpt lat="42.55703" lon="-2.742339">
      <ele>491.7</ele>
    </trkpt>
    <trkpt lat="42.556929" lon="-2.742246">
      <ele>491.4</ele>
    </trkpt>
    <trkpt lat="42.555712" lon="-2.741554">
      <ele>487.1</ele>
    </trkpt>
    <trkpt lat="42.555418" lon="-2.741517">
      <ele>485.7</ele>
    </trkpt>
    <trkpt lat="42.5553" lon="-2.741451">
      <ele>485.1</ele>
    </trkpt>
    <trkpt lat="42.555249" lon="-2.741379">
      <ele>484.7</ele>
    </trkpt>
    <trkpt lat="42.554973" lon="-2.740689">
      <ele>481.1</ele>
    </trkpt>
    <trkpt lat="42.554856" lon="-2.740517">
      <ele>480</ele>
    </trkpt>
    <trkpt lat="42.554755" lon="-2.740441">
      <ele>479.2</ele>
    </trkpt>
    <trkpt lat="42.554641" lon="-2.740403">
      <ele>478.4</ele>
    </trkpt>
    <trkpt lat="42.554204" lon="-2.740383">
      <ele>475.5</ele>
    </trkpt>
    <trkpt lat="42.554037" lon="-2.74023">
      <ele>474.4</ele>
    </trkpt>
    <trkpt lat="42.553967" lon="-2.740122">
      <ele>473.9</ele>
    </trkpt>
    <trkpt lat="42.553905" lon="-2.739951">
      <ele>473.3</ele>
    </trkpt>
    <trkpt lat="42.553831" lon="-2.738922">
      <ele>473.1</ele>
    </trkpt>
    <trkpt lat="42.553806" lon="-2.738814">
      <ele>473.4</ele>
    </trkpt>
    <trkpt lat="42.553688" lon="-2.738497">
      <ele>474.4</ele>
    </trkpt>
    <trkpt lat="42.553592" lon="-2.738076">
      <ele>476.3</ele>
    </trkpt>
    <trkpt lat="42.553517" lon="-2.737664">
      <ele>478.5</ele>
    </trkpt>
    <trkpt lat="42.553222" lon="-2.73642">
      <ele>484.9</ele>
    </trkpt>
    <trkpt lat="42.553121" lon="-2.735796">
      <ele>487</ele>
    </trkpt>
    <trkpt lat="42.553051" lon="-2.735324">
      <ele>487.7</ele>
    </trkpt>
    <trkpt lat="42.552993" lon="-2.735176">
      <ele>487.6</ele>
    </trkpt>
    <trkpt lat="42.552761" lon="-2.734903">
      <ele>487.2</ele>
    </trkpt>
    <trkpt lat="42.552586" lon="-2.73479">
      <ele>486.8</ele>
    </trkpt>
    <trkpt lat="42.552318" lon="-2.734731">
      <ele>485.9</ele>
    </trkpt>
    <trkpt lat="42.552245" lon="-2.73466">
      <ele>485.6</ele>
    </trkpt>
    <trkpt lat="42.552132" lon="-2.734564">
      <ele>485.1</ele>
    </trkpt>
    <trkpt lat="42.552059" lon="-2.734555">
      <ele>484.8</ele>
    </trkpt>
    <trkpt lat="42.551999" lon="-2.734576">
      <ele>484.5</ele>
    </trkpt>
    <trkpt lat="42.551787" lon="-2.734787">
      <ele>483.2</ele>
    </trkpt>
    <trkpt lat="42.551661" lon="-2.734814">
      <ele>482.5</ele>
    </trkpt>
    <trkpt lat="42.55107" lon="-2.734576">
      <ele>479</ele>
    </trkpt>
    <trkpt lat="42.550328" lon="-2.734371">
      <ele>475.1</ele>
    </trkpt>
    <trkpt lat="42.550159" lon="-2.734294">
      <ele>474.1</ele>
    </trkpt>
    <trkpt lat="42.549813" lon="-2.734014">
      <ele>471.8</ele>
    </trkpt>
    <trkpt lat="42.549777" lon="-2.733915">
      <ele>471.3</ele>
    </trkpt>
    <trkpt lat="42.549771" lon="-2.733796">
      <ele>470.8</ele>
    </trkpt>
    <trkpt lat="42.549812" lon="-2.733675">
      <ele>470.3</ele>
    </trkpt>
    <trkpt lat="42.549888" lon="-2.733577">
      <ele>469.7</ele>
    </trkpt>
    <trkpt lat="42.550008" lon="-2.733513">
      <ele>468.9</ele>
    </trkpt>
    <trkpt lat="42.550502" lon="-2.733338">
      <ele>465.8</ele>
    </trkpt>
    <trkpt lat="42.550576" lon="-2.733275">
      <ele>465.3</ele>
    </trkpt>
    <trkpt lat="42.550617" lon="-2.73318">
      <ele>464.8</ele>
    </trkpt>
    <trkpt lat="42.550625" lon="-2.733081">
      <ele>464.4</ele>
    </trkpt>
    <trkpt lat="42.550588" lon="-2.732943">
      <ele>463.7</ele>
    </trkpt>
    <trkpt lat="42.55024" lon="-2.73239">
      <ele>460.4</ele>
    </trkpt>
    <trkpt lat="42.549697" lon="-2.731697">
      <ele>455.8</ele>
    </trkpt>
    <trkpt lat="42.549213" lon="-2.730732">
      <ele>450.7</ele>
    </trkpt>
    <trkpt lat="42.549082" lon="-2.730513">
      <ele>449.6</ele>
    </trkpt>
    <trkpt lat="42.548572" lon="-2.729882">
      <ele>446.8</ele>
    </trkpt>
    <trkpt lat="42.548264" lon="-2.729506">
      <ele>445.5</ele>
    </trkpt>
    <trkpt lat="42.548167" lon="-2.729281">
      <ele>445</ele>
    </trkpt>
    <trkpt lat="42.548026" lon="-2.728854">
      <ele>444.4</ele>
    </trkpt>
    <trkpt lat="42.547852" lon="-2.728548">
      <ele>444.1</ele>
    </trkpt>
    <trkpt lat="42.547544" lon="-2.728189">
      <ele>444.1</ele>
    </trkpt>
    <trkpt lat="42.547029" lon="-2.727798">
      <ele>444.5</ele>
    </trkpt>
    <trkpt lat="42.546673" lon="-2.727348">
      <ele>445.2</ele>
    </trkpt>
    <trkpt lat="42.5465" lon="-2.72707">
      <ele>445.6</ele>
    </trkpt>
    <trkpt lat="42.546" lon="-2.726106">
      <ele>446</ele>
    </trkpt>
    <trkpt lat="42.54495" lon="-2.724624">
      <ele>442.6</ele>
    </trkpt>
    <trkpt lat="42.544917" lon="-2.724578">
      <ele>442.4</ele>
    </trkpt>
    <trkpt lat="42.544718" lon="-2.724392">
      <ele>441.3</ele>
    </trkpt>
    <trkpt lat="42.543863" lon="-2.72391">
      <ele>435.8</ele>
    </trkpt>
    <trkpt lat="42.543562" lon="-2.723702">
      <ele>433.5</ele>
    </trkpt>
    <trkpt lat="42.54307" lon="-2.723248">
      <ele>430</ele>
    </trkpt>
    <trkpt lat="42.542902" lon="-2.723051">
      <ele>428.9</ele>
    </trkpt>
    <trkpt lat="42.542736" lon="-2.722789">
      <ele>427.9</ele>
    </trkpt>
    <trkpt lat="42.54261" lon="-2.722563">
      <ele>427.2</ele>
    </trkpt>
    <trkpt lat="42.542463" lon="-2.722182">
      <ele>426.4</ele>
    </trkpt>
    <trkpt lat="42.542175" lon="-2.721088">
      <ele>425.7</ele>
    </trkpt>
    <trkpt lat="42.542064" lon="-2.720797">
      <ele>425.8</ele>
    </trkpt>
    <trkpt lat="42.541927" lon="-2.720553">
      <ele>426</ele>
    </trkpt>
    <trkpt lat="42.5413" lon="-2.719694">
      <ele>427.7</ele>
    </trkpt>
    <trkpt lat="42.541136" lon="-2.719412">
      <ele>428.6</ele>
    </trkpt>
    <trkpt lat="42.541041" lon="-2.718746">
      <ele>430.9</ele>
    </trkpt>
    <trkpt lat="42.541002" lon="-2.718661">
      <ele>431.3</ele>
    </trkpt>
    <trkpt lat="42.54081" lon="-2.718505">
      <ele>432.5</ele>
    </trkpt>
    <trkpt lat="42.54074" lon="-2.718394">
      <ele>433.1</ele>
    </trkpt>
    <trkpt lat="42.540496" lon="-2.717697">
      <ele>436.3</ele>
    </trkpt>
    <trkpt lat="42.54023" lon="-2.717456">
      <ele>438.2</ele>
    </trkpt>
    <trkpt lat="42.539776" lon="-2.716963">
      <ele>441.9</ele>
    </trkpt>
    <trkpt lat="42.539509" lon="-2.716723">
      <ele>444</ele>
    </trkpt>
    <trkpt lat="42.539138" lon="-2.716197">
      <ele>447.8</ele>
    </trkpt>
    <trkpt lat="42.5384" lon="-2.715509">
      <ele>454.7</ele>
    </trkpt>
    <trkpt lat="42.537984" lon="-2.715259">
      <ele>458</ele>
    </trkpt>
    <trkpt lat="42.537818" lon="-2.715204">
      <ele>459.2</ele>
    </trkpt>
    <trkpt lat="42.537368" lon="-2.715144">
      <ele>462.1</ele>
    </trkpt>
    <trkpt lat="42.537102" lon="-2.715109">
      <ele>463.6</ele>
    </trkpt>
    <trkpt lat="42.536664" lon="-2.714893">
      <ele>465.9</ele>
    </trkpt>
    <trkpt lat="42.536377" lon="-2.714801">
      <ele>467.1</ele>
    </trkpt>
    <trkpt lat="42.536174" lon="-2.714759">
      <ele>467.7</ele>
    </trkpt>
    <trkpt lat="42.535685" lon="-2.714524">
      <ele>469.1</ele>
    </trkpt>
    <trkpt lat="42.535168" lon="-2.714008">
      <ele>470.3</ele>
    </trkpt>
    <trkpt lat="42.534847" lon="-2.714133">
      <ele>470.8</ele>
    </trkpt>
    <trkpt lat="42.534719" lon="-2.714156">
      <ele>471</ele>
    </trkpt>
    <trkpt lat="42.53444" lon="-2.714129">
      <ele>471.3</ele>
    </trkpt>
    <trkpt lat="42.534142" lon="-2.714029">
      <ele>471.6</ele>
    </trkpt>
    <trkpt lat="42.533886" lon="-2.714017">
      <ele>471.8</ele>
    </trkpt>
    <trkpt lat="42.533434" lon="-2.714174">
      <ele>471.5</ele>
    </trkpt>
    <trkpt lat="42.533085" lon="-2.714358">
      <ele>470.9</ele>
    </trkpt>
    <trkpt lat="42.532651" lon="-2.714685">
      <ele>469.7</ele>
    </trkpt>
    <trkpt lat="42.531922" lon="-2.715527">
      <ele>467.4</ele>
    </trkpt>
    <trkpt lat="42.531278" lon="-2.715956">
      <ele>466.6</ele>
    </trkpt>
    <trkpt lat="42.531013" lon="-2.716299">
      <ele>466.4</ele>
    </trkpt>
    <trkpt lat="42.530713" lon="-2.716955">
      <ele>465.7</ele>
    </trkpt>
    <trkpt lat="42.530408" lon="-2.71733">
      <ele>464.9</ele>
    </trkpt>
    <trkpt lat="42.529646" lon="-2.718051">
      <ele>461.8</ele>
    </trkpt>
    <trkpt lat="42.529266" lon="-2.718523">
      <ele>459.7</ele>
    </trkpt>
    <trkpt lat="42.528536" lon="-2.719156">
      <ele>457</ele>
    </trkpt>
    <trkpt lat="42.528406" lon="-2.719233">
      <ele>456.7</ele>
    </trkpt>
    <trkpt lat="42.528176" lon="-2.719304">
      <ele>456.2</ele>
    </trkpt>
    <trkpt lat="42.528056" lon="-2.719384">
      <ele>455.9</ele>
    </trkpt>
    <trkpt lat="42.527777" lon="-2.719713">
      <ele>455.3</ele>
    </trkpt>
    <trkpt lat="42.527372" lon="-2.719981">
      <ele>454.5</ele>
    </trkpt>
    <trkpt lat="42.527013" lon="-2.720082">
      <ele>453.7</ele>
    </trkpt>
    <trkpt lat="42.526861" lon="-2.720086">
      <ele>453.3</ele>
    </trkpt>
    <trkpt lat="42.526622" lon="-2.72004">
      <ele>452.6</ele>
    </trkpt>
    <trkpt lat="42.52648" lon="-2.719976">
      <ele>452.1</ele>
    </trkpt>
    <trkpt lat="42.526352" lon="-2.719875">
      <ele>451.5</ele>
    </trkpt>
    <trkpt lat="42.525829" lon="-2.719132">
      <ele>447.8</ele>
    </trkpt>
    <trkpt lat="42.525105" lon="-2.718206">
      <ele>442.4</ele>
    </trkpt>
    <trkpt lat="42.524622" lon="-2.717677">
      <ele>439</ele>
    </trkpt>
    <trkpt lat="42.524175" lon="-2.716823">
      <ele>434.4</ele>
    </trkpt>
    <trkpt lat="42.523719" lon="-2.716191">
      <ele>429.9</ele>
    </trkpt>
    <trkpt lat="42.52345" lon="-2.715733">
      <ele>427</ele>
    </trkpt>
    <trkpt lat="42.523346" lon="-2.715622">
      <ele>426.2</ele>
    </trkpt>
    <trkpt lat="42.523139" lon="-2.715492">
      <ele>424.9</ele>
    </trkpt>
    <trkpt lat="42.523109" lon="-2.715381">
      <ele>424.5</ele>
    </trkpt>
    <trkpt lat="42.523117" lon="-2.715174">
      <ele>423.7</ele>
    </trkpt>
    <trkpt lat="42.523098" lon="-2.715071">
      <ele>423.4</ele>
    </trkpt>
    <trkpt lat="42.522977" lon="-2.714898">
      <ele>422.6</ele>
    </trkpt>
    <trkpt lat="42.522927" lon="-2.714578">
      <ele>421.8</ele>
    </trkpt>
    <trkpt lat="42.522915" lon="-2.71412">
      <ele>420.9</ele>
    </trkpt>
    <trkpt lat="42.522803" lon="-2.713859">
      <ele>420.5</ele>
    </trkpt>
    <trkpt lat="42.522538" lon="-2.713392">
      <ele>419.9</ele>
    </trkpt>
    <trkpt lat="42.52245" lon="-2.713125">
      <ele>419.6</ele>
    </trkpt>
    <trkpt lat="42.522465" lon="-2.712022">
      <ele>418.6</ele>
    </trkpt>
    <trkpt lat="42.522508" lon="-2.711746">
      <ele>418.5</ele>
    </trkpt>
    <trkpt lat="42.522658" lon="-2.711156">
      <ele>418.2</ele>
    </trkpt>
    <trkpt lat="42.522667" lon="-2.710639">
      <ele>418.1</ele>
    </trkpt>
    <trkpt lat="42.522548" lon="-2.710187">
      <ele>418.1</ele>
    </trkpt>
    <trkpt lat="42.522343" lon="-2.709681">
      <ele>418.2</ele>
    </trkpt>
    <trkpt lat="42.522232" lon="-2.709176">
      <ele>418.3</ele>
    </trkpt>
    <trkpt lat="42.52222" lon="-2.708916">
      <ele>418.3</ele>
    </trkpt>
    <trkpt lat="42.522315" lon="-2.708083">
      <ele>418.3</ele>
    </trkpt>
    <trkpt lat="42.522229" lon="-2.707257">
      <ele>418.2</ele>
    </trkpt>
    <trkpt lat="42.522212" lon="-2.706888">
      <ele>418.1</ele>
    </trkpt>
    <trkpt lat="42.52217" lon="-2.706669">
      <ele>418</ele>
    </trkpt>
    <trkpt lat="42.522" lon="-2.705788">
      <ele>417.7</ele>
    </trkpt>
    <trkpt lat="42.52189" lon="-2.705332">
      <ele>417.7</ele>
    </trkpt>
    <trkpt lat="42.521698" lon="-2.704785">
      <ele>417.8</ele>
    </trkpt>
    <trkpt lat="42.521661" lon="-2.704563">
      <ele>417.8</ele>
    </trkpt>
    <trkpt lat="42.521633" lon="-2.704198">
      <ele>417.9</ele>
    </trkpt>
    <trkpt lat="42.521636" lon="-2.703372">
      <ele>418.1</ele>
    </trkpt>
    <trkpt lat="42.5215" lon="-2.702808">
      <ele>418.4</ele>
    </trkpt>
    <trkpt lat="42.521171" lon="-2.70111">
      <ele>419</ele>
    </trkpt>
    <trkpt lat="42.521026" lon="-2.700635">
      <ele>418.9</ele>
    </trkpt>
    <trkpt lat="42.52075" lon="-2.700111">
      <ele>418.6</ele>
    </trkpt>
    <trkpt lat="42.520272" lon="-2.699348">
      <ele>417.8</ele>
    </trkpt>
    <trkpt lat="42.520097" lon="-2.698965">
      <ele>417.5</ele>
    </trkpt>
    <trkpt lat="42.519932" lon="-2.698343">
      <ele>417.1</ele>
    </trkpt>
    <trkpt lat="42.519871" lon="-2.698028">
      <ele>416.9</ele>
    </trkpt>
    <trkpt lat="42.519834" lon="-2.697811">
      <ele>416.9</ele>
    </trkpt>
    <trkpt lat="42.519794" lon="-2.697285">
      <ele>416.8</ele>
    </trkpt>
    <trkpt lat="42.51983" lon="-2.69568">
      <ele>416.8</ele>
    </trkpt>
    <trkpt lat="42.51996" lon="-2.694624">
      <ele>418.4</ele>
    </trkpt>
    <trkpt lat="42.519988" lon="-2.694408">
      <ele>419.2</ele>
    </trkpt>
    <trkpt lat="42.520206" lon="-2.694247">
      <ele>420.6</ele>
    </trkpt>
    <trkpt lat="42.520498" lon="-2.693894">
      <ele>423.6</ele>
    </trkpt>
    <trkpt lat="42.520616" lon="-2.693665">
      <ele>425.5</ele>
    </trkpt>
    <trkpt lat="42.520777" lon="-2.693472">
      <ele>427.5</ele>
    </trkpt>
    <trkpt lat="42.520865" lon="-2.69342">
      <ele>428.4</ele>
    </trkpt>
    <trkpt lat="42.521226" lon="-2.693323">
      <ele>431.9</ele>
    </trkpt>
    <trkpt lat="42.521468" lon="-2.693161">
      <ele>434.3</ele>
    </trkpt>
    <trkpt lat="42.521688" lon="-2.692957">
      <ele>436.2</ele>
    </trkpt>
    <trkpt lat="42.521999" lon="-2.692555">
      <ele>438.4</ele>
    </trkpt>
    <trkpt lat="42.52223" lon="-2.692328">
      <ele>439.2</ele>
    </trkpt>
    <trkpt lat="42.52236" lon="-2.692282">
      <ele>439.5</ele>
    </trkpt>
    <trkpt lat="42.522566" lon="-2.692347">
      <ele>439.7</ele>
    </trkpt>
    <trkpt lat="42.522683" lon="-2.692326">
      <ele>439.8</ele>
    </trkpt>
    <trkpt lat="42.523041" lon="-2.69205">
      <ele>439.8</ele>
    </trkpt>
    <trkpt lat="42.52319" lon="-2.691877">
      <ele>439.7</ele>
    </trkpt>
    <trkpt lat="42.52352" lon="-2.691354">
      <ele>439.3</ele>
    </trkpt>
    <trkpt lat="42.52407" lon="-2.690788">
      <ele>438.5</ele>
    </trkpt>
    <trkpt lat="42.524578" lon="-2.690507">
      <ele>437.9</ele>
    </trkpt>
    <trkpt lat="42.524853" lon="-2.690141">
      <ele>437.6</ele>
    </trkpt>
    <trkpt lat="42.525448" lon="-2.689532">
      <ele>437.1</ele>
    </trkpt>
    <trkpt lat="42.525851" lon="-2.68895">
      <ele>436.6</ele>
    </trkpt>
    <trkpt lat="42.526741" lon="-2.687785">
      <ele>434.2</ele>
    </trkpt>
    <trkpt lat="42.526927" lon="-2.687469">
      <ele>432.9</ele>
    </trkpt>
    <trkpt lat="42.527036" lon="-2.687199">
      <ele>431.7</ele>
    </trkpt>
    <trkpt lat="42.527179" lon="-2.686372">
      <ele>428</ele>
    </trkpt>
    <trkpt lat="42.527285" lon="-2.686039">
      <ele>426.6</ele>
    </trkpt>
    <trkpt lat="42.527481" lon="-2.68565">
      <ele>425</ele>
    </trkpt>
    <trkpt lat="42.527708" lon="-2.685369">
      <ele>424</ele>
    </trkpt>
    <trkpt lat="42.527991" lon="-2.685248">
      <ele>423.5</ele>
    </trkpt>
    <trkpt lat="42.528112" lon="-2.685168">
      <ele>423.3</ele>
    </trkpt>
    <trkpt lat="42.528316" lon="-2.68497">
      <ele>423.3</ele>
    </trkpt>
    <trkpt lat="42.528627" lon="-2.684512">
      <ele>423.8</ele>
    </trkpt>
    <trkpt lat="42.528743" lon="-2.68442">
      <ele>424</ele>
    </trkpt>
    <trkpt lat="42.529252" lon="-2.68414">
      <ele>424.4</ele>
    </trkpt>
    <trkpt lat="42.529394" lon="-2.68389">
      <ele>424.6</ele>
    </trkpt>
    <trkpt lat="42.529396" lon="-2.683885">
      <ele>424.6</ele>
    </trkpt>
    <trkpt lat="42.529489" lon="-2.683529">
      <ele>424.7</ele>
    </trkpt>
    <trkpt lat="42.529562" lon="-2.683366">
      <ele>424.8</ele>
    </trkpt>
    <trkpt lat="42.529879" lon="-2.68293">
      <ele>424.5</ele>
    </trkpt>
    <trkpt lat="42.529967" lon="-2.682642">
      <ele>424.2</ele>
    </trkpt>
    <trkpt lat="42.529975" lon="-2.682488">
      <ele>424</ele>
    </trkpt>
    <trkpt lat="42.529925" lon="-2.682337">
      <ele>423.7</ele>
    </trkpt>
    <trkpt lat="42.529126" lon="-2.680921">
      <ele>420.2</ele>
    </trkpt>
    <trkpt lat="42.528948" lon="-2.680551">
      <ele>419.3</ele>
    </trkpt>
    <trkpt lat="42.528837" lon="-2.680198">
      <ele>418.7</ele>
    </trkpt>
    <trkpt lat="42.528738" lon="-2.679742">
      <ele>418.2</ele>
    </trkpt>
    <trkpt lat="42.527127" lon="-2.68136">
      <ele>417.3</ele>
    </trkpt>
    <trkpt lat="42.526685" lon="-2.681804">
      <ele>416.9</ele>
    </trkpt>
    <trkpt lat="42.52636" lon="-2.682111">
      <ele>416.2</ele>
    </trkpt>
    <trkpt lat="42.526299" lon="-2.682105">
      <ele>416.1</ele>
    </trkpt>
    <trkpt lat="42.526193" lon="-2.682023">
      <ele>415.8</ele>
    </trkpt>
    <trkpt lat="42.526094" lon="-2.681848">
      <ele>415.5</ele>
    </trkpt>
    <trkpt lat="42.525476" lon="-2.680974">
      <ele>414.5</ele>
    </trkpt>
    <trkpt lat="42.525067" lon="-2.680386">
      <ele>415</ele>
    </trkpt>
    <trkpt lat="42.524795" lon="-2.680004">
      <ele>416.2</ele>
    </trkpt>
    <trkpt lat="42.524439" lon="-2.67954">
      <ele>418.4</ele>
    </trkpt>
    <trkpt lat="42.524224" lon="-2.679338">
      <ele>419.6</ele>
    </trkpt>
    <trkpt lat="42.524111" lon="-2.679277">
      <ele>420.2</ele>
    </trkpt>
    <trkpt lat="42.523896" lon="-2.679211">
      <ele>421.2</ele>
    </trkpt>
    <trkpt lat="42.523454" lon="-2.679228">
      <ele>423.1</ele>
    </trkpt>
    <trkpt lat="42.518876" lon="-2.680316">
      <ele>436.9</ele>
    </trkpt>
    <trkpt lat="42.517996" lon="-2.680571">
      <ele>438.8</ele>
    </trkpt>
    <trkpt lat="42.517034" lon="-2.680995">
      <ele>439.5</ele>
    </trkpt>
    <trkpt lat="42.51575" lon="-2.681621">
      <ele>437.8</ele>
    </trkpt>
    <trkpt lat="42.515347" lon="-2.681024">
      <ele>436.3</ele>
    </trkpt>
    <trkpt lat="42.515165" lon="-2.680907">
      <ele>435.7</ele>
    </trkpt>
    <trkpt lat="42.514742" lon="-2.680998">
      <ele>434.3</ele>
    </trkpt>
    <trkpt lat="42.514012" lon="-2.681337">
      <ele>431.7</ele>
    </trkpt>
    <trkpt lat="42.512918" lon="-2.681545">
      <ele>428.9</ele>
    </trkpt>
    <trkpt lat="42.510258" lon="-2.682274">
      <ele>426.4</ele>
    </trkpt>
    <trkpt lat="42.506791" lon="-2.683291">
      <ele>425.8</ele>
    </trkpt>
    <trkpt lat="42.506221" lon="-2.683291">
      <ele>425.7</ele>
    </trkpt>
    <trkpt lat="42.504488" lon="-2.683672">
      <ele>425.4</ele>
    </trkpt>
    <trkpt lat="42.504143" lon="-2.683829">
      <ele>425.3</ele>
    </trkpt>
    <trkpt lat="42.502943" lon="-2.684999">
      <ele>425.9</ele>
    </trkpt>
    <trkpt lat="42.501842" lon="-2.68609">
      <ele>426.8</ele>
    </trkpt>
    <trkpt lat="42.501751" lon="-2.686324">
      <ele>426.7</ele>
    </trkpt>
    <trkpt lat="42.501654" lon="-2.686686">
      <ele>426.5</ele>
    </trkpt>
    <trkpt lat="42.501349" lon="-2.687387">
      <ele>425.7</ele>
    </trkpt>
    <trkpt lat="42.501086" lon="-2.689127">
      <ele>424.8</ele>
    </trkpt>
    <trkpt lat="42.501079" lon="-2.689528">
      <ele>424.8</ele>
    </trkpt>
    <trkpt lat="42.500986" lon="-2.690073">
      <ele>424.9</ele>
    </trkpt>
    <trkpt lat="42.500469" lon="-2.691643">
      <ele>426.1</ele>
    </trkpt>
    <trkpt lat="42.500016" lon="-2.692531">
      <ele>427</ele>
    </trkpt>
    <trkpt lat="42.49955" lon="-2.693267">
      <ele>427.6</ele>
    </trkpt>
    <trkpt lat="42.499263" lon="-2.69372">
      <ele>427.9</ele>
    </trkpt>
    <trkpt lat="42.49912" lon="-2.6942">
      <ele>428.1</ele>
    </trkpt>
    <trkpt lat="42.499066" lon="-2.694795">
      <ele>428.4</ele>
    </trkpt>
    <trkpt lat="42.498578" lon="-2.695863">
      <ele>429.1</ele>
    </trkpt>
    <trkpt lat="42.497367" lon="-2.6977">
      <ele>430</ele>
    </trkpt>
    <trkpt lat="42.496875" lon="-2.698535">
      <ele>430.1</ele>
    </trkpt>
    <trkpt lat="42.49651" lon="-2.699523">
      <ele>430.2</ele>
    </trkpt>
    <trkpt lat="42.496166" lon="-2.700705">
      <ele>430.7</ele>
    </trkpt>
    <trkpt lat="42.496013" lon="-2.701961">
      <ele>431.5</ele>
    </trkpt>
    <trkpt lat="42.496052" lon="-2.702855">
      <ele>432</ele>
    </trkpt>
    <trkpt lat="42.495929" lon="-2.703944">
      <ele>432.4</ele>
    </trkpt>
    <trkpt lat="42.495373" lon="-2.706942">
      <ele>432.8</ele>
    </trkpt>
    <trkpt lat="42.495196" lon="-2.707417">
      <ele>433.2</ele>
    </trkpt>
    <trkpt lat="42.495053" lon="-2.707877">
      <ele>433.8</ele>
    </trkpt>
    <trkpt lat="42.494885" lon="-2.708786">
      <ele>436.1</ele>
    </trkpt>
    <trkpt lat="42.49491" lon="-2.709387">
      <ele>438</ele>
    </trkpt>
    <trkpt lat="42.495256" lon="-2.710073">
      <ele>440.1</ele>
    </trkpt>
    <trkpt lat="42.495452" lon="-2.710682">
      <ele>441.2</ele>
    </trkpt>
    <trkpt lat="42.495447" lon="-2.711257">
      <ele>441.5</ele>
    </trkpt>
    <trkpt lat="42.495181" lon="-2.712085">
      <ele>440.6</ele>
    </trkpt>
    <trkpt lat="42.494969" lon="-2.712505">
      <ele>439.9</ele>
    </trkpt>
    <trkpt lat="42.494915" lon="-2.712706">
      <ele>439.6</ele>
    </trkpt>
    <trkpt lat="42.494176" lon="-2.712085">
      <ele>437.8</ele>
    </trkpt>
    <trkpt lat="42.493945" lon="-2.711965">
      <ele>437.2</ele>
    </trkpt>
    <trkpt lat="42.493152" lon="-2.710562">
      <ele>434.3</ele>
    </trkpt>
    <trkpt lat="42.492965" lon="-2.710315">
      <ele>433.9</ele>
    </trkpt>
    <trkpt lat="42.491694" lon="-2.708225">
      <ele>431.7</ele>
    </trkpt>
    <trkpt lat="42.491256" lon="-2.707677">
      <ele>431.4</ele>
    </trkpt>
    <trkpt lat="42.491182" lon="-2.707737">
      <ele>431.3</ele>
    </trkpt>
    <trkpt lat="42.490902" lon="-2.708058">
      <ele>431.1</ele>
    </trkpt>
    <trkpt lat="42.490788" lon="-2.70813">
      <ele>431.1</ele>
    </trkpt>
    <trkpt lat="42.490049" lon="-2.708565">
      <ele>430.9</ele>
    </trkpt>
    <trkpt lat="42.488898" lon="-2.709051">
      <ele>431.1</ele>
    </trkpt>
    <trkpt lat="42.488632" lon="-2.709269">
      <ele>431.2</ele>
    </trkpt>
    <trkpt lat="42.48783" lon="-2.710091">
      <ele>431.9</ele>
    </trkpt>
    <trkpt lat="42.48683" lon="-2.71075">
      <ele>433</ele>
    </trkpt>
    <trkpt lat="42.485557" lon="-2.711412">
      <ele>434.7</ele>
    </trkpt>
    <trkpt lat="42.485202" lon="-2.711816">
      <ele>435.3</ele>
    </trkpt>
    <trkpt lat="42.485198" lon="-2.712086">
      <ele>435.5</ele>
    </trkpt>
    <trkpt lat="42.485157" lon="-2.712248">
      <ele>435.6</ele>
    </trkpt>
    <trkpt lat="42.484859" lon="-2.712573">
      <ele>435.9</ele>
    </trkpt>
    <trkpt lat="42.484567" lon="-2.712364">
      <ele>436.1</ele>
    </trkpt>
    <trkpt lat="42.4841" lon="-2.712686">
      <ele>436.3</ele>
    </trkpt>
    <trkpt lat="42.483236" lon="-2.713215">
      <ele>436.6</ele>
    </trkpt>
    <trkpt lat="42.48249" lon="-2.713537">
      <ele>437.2</ele>
    </trkpt>
    <trkpt lat="42.482064" lon="-2.713508">
      <ele>437.5</ele>
    </trkpt>
    <trkpt lat="42.4818" lon="-2.713603">
      <ele>437.8</ele>
    </trkpt>
    <trkpt lat="42.481505" lon="-2.713893">
      <ele>438.1</ele>
    </trkpt>
    <trkpt lat="42.481284" lon="-2.714255">
      <ele>438.4</ele>
    </trkpt>
    <trkpt lat="42.481205" lon="-2.714851">
      <ele>438.8</ele>
    </trkpt>
    <trkpt lat="42.481102" lon="-2.7152">
      <ele>439</ele>
    </trkpt>
    <trkpt lat="42.481047" lon="-2.715286">
      <ele>439.1</ele>
    </trkpt>
    <trkpt lat="42.481052" lon="-2.715496">
      <ele>439.2</ele>
    </trkpt>
    <trkpt lat="42.481182" lon="-2.715772">
      <ele>439.3</ele>
    </trkpt>
    <trkpt lat="42.48119" lon="-2.716051">
      <ele>439.4</ele>
    </trkpt>
    <trkpt lat="42.481088" lon="-2.71642">
      <ele>439.5</ele>
    </trkpt>
    <trkpt lat="42.480942" lon="-2.717271">
      <ele>439.7</ele>
    </trkpt>
    <trkpt lat="42.480587" lon="-2.717696">
      <ele>439.9</ele>
    </trkpt>
    <trkpt lat="42.477868" lon="-2.71925">
      <ele>442.6</ele>
    </trkpt>
    <trkpt lat="42.477362" lon="-2.719588">
      <ele>443.2</ele>
    </trkpt>
    <trkpt lat="42.476173" lon="-2.721192">
      <ele>444.6</ele>
    </trkpt>
    <trkpt lat="42.47514" lon="-2.721964">
      <ele>445.7</ele>
    </trkpt>
    <trkpt lat="42.474355" lon="-2.722173">
      <ele>446.4</ele>
    </trkpt>
    <trkpt lat="42.473314" lon="-2.722085">
      <ele>447</ele>
    </trkpt>
    <trkpt lat="42.472703" lon="-2.72244">
      <ele>447.3</ele>
    </trkpt>
    <trkpt lat="42.471153" lon="-2.72316">
      <ele>448.1</ele>
    </trkpt>
    <trkpt lat="42.470738" lon="-2.723219">
      <ele>448.6</ele>
    </trkpt>
    <trkpt lat="42.4696" lon="-2.724253">
      <ele>450.5</ele>
    </trkpt>
    <trkpt lat="42.469524" lon="-2.724178">
      <ele>450.6</ele>
    </trkpt>
    <trkpt lat="42.468984" lon="-2.723964">
      <ele>450.9</ele>
    </trkpt>
    <trkpt lat="42.468617" lon="-2.723653">
      <ele>450.9</ele>
    </trkpt>
    <trkpt lat="42.468046" lon="-2.722804">
      <ele>450.9</ele>
    </trkpt>
    <trkpt lat="42.46782" lon="-2.722656">
      <ele>450.9</ele>
    </trkpt>
    <trkpt lat="42.467464" lon="-2.722192">
      <ele>450.8</ele>
    </trkpt>
    <trkpt lat="42.466704" lon="-2.721867">
      <ele>450.6</ele>
    </trkpt>
    <trkpt lat="42.466156" lon="-2.721807">
      <ele>450.6</ele>
    </trkpt>
    <trkpt lat="42.466013" lon="-2.721834">
      <ele>450.7</ele>
    </trkpt>
    <trkpt lat="42.465493" lon="-2.722182">
      <ele>450.9</ele>
    </trkpt>
    <trkpt lat="42.464887" lon="-2.722781">
      <ele>451.5</ele>
    </trkpt>
    <trkpt lat="42.46388" lon="-2.723115">
      <ele>452.6</ele>
    </trkpt>
    <trkpt lat="42.463008" lon="-2.723166">
      <ele>453.3</ele>
    </trkpt>
    <trkpt lat="42.462371" lon="-2.723268">
      <ele>453.6</ele>
    </trkpt>
    <trkpt lat="42.461755" lon="-2.723468">
      <ele>453.5</ele>
    </trkpt>
    <trkpt lat="42.461245" lon="-2.723523">
      <ele>453.6</ele>
    </trkpt>
    <trkpt lat="42.460574" lon="-2.723542">
      <ele>454.1</ele>
    </trkpt>
    <trkpt lat="42.460362" lon="-2.723662">
      <ele>454.5</ele>
    </trkpt>
    <trkpt lat="42.45926" lon="-2.72485">
      <ele>457.8</ele>
    </trkpt>
    <trkpt lat="42.459086" lon="-2.724944">
      <ele>458.3</ele>
    </trkpt>
    <trkpt lat="42.458275" lon="-2.725627">
      <ele>459.7</ele>
    </trkpt>
    <trkpt lat="42.457983" lon="-2.725813">
      <ele>459.7</ele>
    </trkpt>
    <trkpt lat="42.457757" lon="-2.725852">
      <ele>459.7</ele>
    </trkpt>
    <trkpt lat="42.457523" lon="-2.725981">
      <ele>459.6</ele>
    </trkpt>
    <trkpt lat="42.456977" lon="-2.726384">
      <ele>459.3</ele>
    </trkpt>
    <trkpt lat="42.456819" lon="-2.726632">
      <ele>459.3</ele>
    </trkpt>
    <trkpt lat="42.456649" lon="-2.726728">
      <ele>459.4</ele>
    </trkpt>
    <trkpt lat="42.456442" lon="-2.726845">
      <ele>459.5</ele>
    </trkpt>
    <trkpt lat="42.456196" lon="-2.726878">
      <ele>459.8</ele>
    </trkpt>
    <trkpt lat="42.455857" lon="-2.726864">
      <ele>460.5</ele>
    </trkpt>
    <trkpt lat="42.455299" lon="-2.726952">
      <ele>461.9</ele>
    </trkpt>
    <trkpt lat="42.454967" lon="-2.727077">
      <ele>462.6</ele>
    </trkpt>
    <trkpt lat="42.454792" lon="-2.727309">
      <ele>462.8</ele>
    </trkpt>
    <trkpt lat="42.454618" lon="-2.727875">
      <ele>463.1</ele>
    </trkpt>
    <trkpt lat="42.454579" lon="-2.728157">
      <ele>463.2</ele>
    </trkpt>
    <trkpt lat="42.454604" lon="-2.728762">
      <ele>463.5</ele>
    </trkpt>
    <trkpt lat="42.454701" lon="-2.729035">
      <ele>463.8</ele>
    </trkpt>
    <trkpt lat="42.454762" lon="-2.729105">
      <ele>463.9</ele>
    </trkpt>
    <trkpt lat="42.454862" lon="-2.729145">
      <ele>464</ele>
    </trkpt>
    <trkpt lat="42.455237" lon="-2.729169">
      <ele>464.3</ele>
    </trkpt>
    <trkpt lat="42.455323" lon="-2.729139">
      <ele>464.5</ele>
    </trkpt>
    <trkpt lat="42.455412" lon="-2.729114">
      <ele>464.7</ele>
    </trkpt>
    <trkpt lat="42.455458" lon="-2.729147">
      <ele>464.8</ele>
    </trkpt>
    <trkpt lat="42.455558" lon="-2.72927">
      <ele>465.2</ele>
    </trkpt>
    <trkpt lat="42.455048" lon="-2.729765">
      <ele>467.4</ele>
    </trkpt>
    <trkpt lat="42.454949" lon="-2.729911">
      <ele>467.8</ele>
    </trkpt>
    <trkpt lat="42.45486" lon="-2.730103">
      <ele>468.3</ele>
    </trkpt>
    <trkpt lat="42.454702" lon="-2.730405">
      <ele>468.8</ele>
    </trkpt>
    <trkpt lat="42.454519" lon="-2.730685">
      <ele>469.3</ele>
    </trkpt>
    <trkpt lat="42.450089" lon="-2.737217">
      <ele>472.2</ele>
    </trkpt>
    <trkpt lat="42.449513" lon="-2.738098">
      <ele>474.1</ele>
    </trkpt>
    <trkpt lat="42.449392" lon="-2.73828">
      <ele>474.8</ele>
    </trkpt>
    <trkpt lat="42.448993" lon="-2.738878">
      <ele>477.3</ele>
    </trkpt>
    <trkpt lat="42.44881" lon="-2.739216">
      <ele>478.9</ele>
    </trkpt>
    <trkpt lat="42.44836" lon="-2.74083">
      <ele>484.8</ele>
    </trkpt>
    <trkpt lat="42.44815" lon="-2.74133">
      <ele>485.9</ele>
    </trkpt>
    <trkpt lat="42.44627" lon="-2.744">
      <ele>487.1</ele>
    </trkpt>
    <trkpt lat="42.44491" lon="-2.74583">
      <ele>493.2</ele>
    </trkpt>
    <trkpt lat="42.44442" lon="-2.74637">
      <ele>496.3</ele>
    </trkpt>
    <trkpt lat="42.44394" lon="-2.74676">
      <ele>498.7</ele>
    </trkpt>
    <trkpt lat="42.44164" lon="-2.74805">
      <ele>501.6</ele>
    </trkpt>
    <trkpt lat="42.44095" lon="-2.74838">
      <ele>502.7</ele>
    </trkpt>
    <trkpt lat="42.44071" lon="-2.74844">
      <ele>503.3</ele>
    </trkpt>
    <trkpt lat="42.44037" lon="-2.74844">
      <ele>504.2</ele>
    </trkpt>
    <trkpt lat="42.43779" lon="-2.74795">
      <ele>515.6</ele>
    </trkpt>
    <trkpt lat="42.43746" lon="-2.74783">
      <ele>517.7</ele>
    </trkpt>
    <trkpt lat="42.43723" lon="-2.74755">
      <ele>519.7</ele>
    </trkpt>
    <trkpt lat="42.43703" lon="-2.74701">
      <ele>522.9</ele>
    </trkpt>
    <trkpt lat="42.43683" lon="-2.74577">
      <ele>529.6</ele>
    </trkpt>
    <trkpt lat="42.43665" lon="-2.74526">
      <ele>532</ele>
    </trkpt>
    <trkpt lat="42.43618" lon="-2.74473">
      <ele>534.8</ele>
    </trkpt>
    <trkpt lat="42.43529" lon="-2.74419">
      <ele>538.3</ele>
    </trkpt>
    <trkpt lat="42.43505" lon="-2.74414">
      <ele>539.3</ele>
    </trkpt>
    <trkpt lat="42.43478" lon="-2.7442">
      <ele>540.6</ele>
    </trkpt>
    <trkpt lat="42.43456" lon="-2.74437">
      <ele>542</ele>
    </trkpt>
    <trkpt lat="42.43407" lon="-2.745">
      <ele>546.9</ele>
    </trkpt>
    <trkpt lat="42.43378" lon="-2.74528">
      <ele>549.9</ele>
    </trkpt>
    <trkpt lat="42.43331" lon="-2.74544">
      <ele>553.6</ele>
    </trkpt>
    <trkpt lat="42.43286" lon="-2.7454">
      <ele>555.9</ele>
    </trkpt>
    <trkpt lat="42.432631" lon="-2.745297">
      <ele>556.5</ele>
    </trkpt>
    <trkpt lat="42.43237" lon="-2.74518">
      <ele>556.7</ele>
    </trkpt>
    <trkpt lat="42.43065" lon="-2.74395">
      <ele>545.7</ele>
    </trkpt>
    <trkpt lat="42.43044" lon="-2.7438">
      <ele>543.7</ele>
    </trkpt>
    <trkpt lat="42.430137" lon="-2.743673">
      <ele>540.8</ele>
    </trkpt>
    <trkpt lat="42.42973" lon="-2.74356">
      <ele>536.9</ele>
    </trkpt>
    <trkpt lat="42.42909" lon="-2.74364">
      <ele>531</ele>
    </trkpt>
    <trkpt lat="42.428737" lon="-2.743743">
      <ele>527.7</ele>
    </trkpt>
    <trkpt lat="42.427414" lon="-2.744126">
      <ele>517.2</ele>
    </trkpt>
    <trkpt lat="42.426956" lon="-2.744277">
      <ele>514</ele>
    </trkpt>
    <trkpt lat="42.426853" lon="-2.744343">
      <ele>513.4</ele>
    </trkpt>
    <trkpt lat="42.426716" lon="-2.744504">
      <ele>512.4</ele>
    </trkpt>
    <trkpt lat="42.426654" lon="-2.744719">
      <ele>511.6</ele>
    </trkpt>
    <trkpt lat="42.426519" lon="-2.744839">
      <ele>510.8</ele>
    </trkpt>
    <trkpt lat="42.426438" lon="-2.744854">
      <ele>510.3</ele>
    </trkpt>
    <trkpt lat="42.426354" lon="-2.744834">
      <ele>509.9</ele>
    </trkpt>
    <trkpt lat="42.426218" lon="-2.744696">
      <ele>509</ele>
    </trkpt>
    <trkpt lat="42.426169" lon="-2.744477">
      <ele>508.1</ele>
    </trkpt>
    <trkpt lat="42.426184" lon="-2.744362">
      <ele>507.7</ele>
    </trkpt>
    <trkpt lat="42.425983" lon="-2.744249">
      <ele>506.6</ele>
    </trkpt>
    <trkpt lat="42.425528" lon="-2.74425">
      <ele>504.4</ele>
    </trkpt>
    <trkpt lat="42.425262" lon="-2.744313">
      <ele>503.4</ele>
    </trkpt>
    <trkpt lat="42.42493" lon="-2.744452">
      <ele>501.8</ele>
    </trkpt>
    <trkpt lat="42.424664" lon="-2.744522">
      <ele>500.6</ele>
    </trkpt>
    <trkpt lat="42.424243" lon="-2.744391">
      <ele>499</ele>
    </trkpt>
    <trkpt lat="42.424328" lon="-2.743771">
      <ele>497.6</ele>
    </trkpt>
    <trkpt lat="42.424345" lon="-2.743499">
      <ele>497.1</ele>
    </trkpt>
    <trkpt lat="42.424415" lon="-2.741812">
      <ele>494.8</ele>
    </trkpt>
    <trkpt lat="42.424501" lon="-2.740561">
      <ele>494.1</ele>
    </trkpt>
    <trkpt lat="42.424694" lon="-2.739319">
      <ele>493.2</ele>
    </trkpt>
    <trkpt lat="42.424862" lon="-2.73865">
      <ele>492.3</ele>
    </trkpt>
    <trkpt lat="42.424984" lon="-2.738499">
      <ele>492</ele>
    </trkpt>
    <trkpt lat="42.424668" lon="-2.737486">
      <ele>490.9</ele>
    </trkpt>
    <trkpt lat="42.424484" lon="-2.736898">
      <ele>490.5</ele>
    </trkpt>
    <trkpt lat="42.424538" lon="-2.736871">
      <ele>490.4</ele>
    </trkpt>
    <trkpt lat="42.424547" lon="-2.736771">
      <ele>490.3</ele>
    </trkpt>
    <trkpt lat="42.424312" lon="-2.736059">
      <ele>489.4</ele>
    </trkpt>
    <trkpt lat="42.424303" lon="-2.735899">
      <ele>489.2</ele>
    </trkpt>
    <trkpt lat="42.424325" lon="-2.735781">
      <ele>488.9</ele>
    </trkpt>
    <trkpt lat="42.424394" lon="-2.735653">
      <ele>488.6</ele>
    </trkpt>
    <trkpt lat="42.424502" lon="-2.735578">
      <ele>488.2</ele>
    </trkpt>
    <trkpt lat="42.424806" lon="-2.735517">
      <ele>487.1</ele>
    </trkpt>
    <trkpt lat="42.425157" lon="-2.735289">
      <ele>485.7</ele>
    </trkpt>
    <trkpt lat="42.425332" lon="-2.735108">
      <ele>484.9</ele>
    </trkpt>
    <trkpt lat="42.425897" lon="-2.734936">
      <ele>483.1</ele>
    </trkpt>
    <trkpt lat="42.425837" lon="-2.734842">
      <ele>482.9</ele>
    </trkpt>
    <trkpt lat="42.42571" lon="-2.734771">
      <ele>482.7</ele>
    </trkpt>
    <trkpt lat="42.425491" lon="-2.734786">
      <ele>482.4</ele>
    </trkpt>
    <trkpt lat="42.425362" lon="-2.734839">
      <ele>482.2</ele>
    </trkpt>
    <trkpt lat="42.425255" lon="-2.734805">
      <ele>482.2</ele>
    </trkpt>
    <trkpt lat="42.425077" lon="-2.734666">
      <ele>482.1</ele>
    </trkpt>
    <trkpt lat="42.424793" lon="-2.734521">
      <ele>482.1</ele>
    </trkpt>
    <trkpt lat="42.42465" lon="-2.734487">
      <ele>482.2</ele>
    </trkpt>
    <trkpt lat="42.424029" lon="-2.734457">
      <ele>482.3</ele>
    </trkpt>
    <trkpt lat="42.423735" lon="-2.733785">
      <ele>482.5</ele>
    </trkpt>
    <trkpt lat="42.423608" lon="-2.733313">
      <ele>482.3</ele>
    </trkpt>
    <trkpt lat="42.423484" lon="-2.732681">
      <ele>482</ele>
    </trkpt>
    <trkpt lat="42.423389" lon="-2.731981">
      <ele>481.7</ele>
    </trkpt>
    <trkpt lat="42.423231" lon="-2.732026">
      <ele>481.7</ele>
    </trkpt>
    <trkpt lat="42.423065" lon="-2.732152">
      <ele>481.6</ele>
    </trkpt>
    <trkpt lat="42.422987" lon="-2.732497">
      <ele>481.6</ele>
    </trkpt>
    <trkpt lat="42.422962" lon="-2.732725">
      <ele>481.6</ele>
    </trkpt>
    <trkpt lat="42.422976" lon="-2.732888">
      <ele>481.6</ele>
    </trkpt>
    <trkpt lat="42.423117" lon="-2.733791">
      <ele>481.7</ele>
    </trkpt>
    <trkpt lat="42.423044" lon="-2.733887">
      <ele>481.7</ele>
    </trkpt>
    <trkpt lat="42.422753" lon="-2.734047">
      <ele>481.7</ele>
    </trkpt>
    <trkpt lat="42.42259" lon="-2.734058">
      <ele>481.6</ele>
    </trkpt>
    <trkpt lat="42.422619" lon="-2.733878">
      <ele>481.6</ele>
    </trkpt>
    <trkpt lat="42.422633" lon="-2.733716">
      <ele>481.5</ele>
    </trkpt>
    <trkpt lat="42.422299" lon="-2.733621">
      <ele>481.3</ele>
    </trkpt>
    <trkpt lat="42.420925" lon="-2.733217">
      <ele>482.1</ele>
    </trkpt>
    <trkpt lat="42.420815" lon="-2.733267">
      <ele>482.4</ele>
    </trkpt>
    <trkpt lat="42.420765" lon="-2.733329">
      <ele>482.6</ele>
    </trkpt>
    <trkpt lat="42.420701" lon="-2.733504">
      <ele>482.9</ele>
    </trkpt>
    <trkpt lat="42.420692" lon="-2.733611">
      <ele>483.1</ele>
    </trkpt>
    <trkpt lat="42.420728" lon="-2.733765">
      <ele>483.4</ele>
    </trkpt>
    <trkpt lat="42.420974" lon="-2.734359">
      <ele>484.6</ele>
    </trkpt>
    <trkpt lat="42.419934" lon="-2.734185">
      <ele>486.4</ele>
    </trkpt>
    <trkpt lat="42.419466" lon="-2.734043">
      <ele>486.9</ele>
    </trkpt>
    <trkpt lat="42.41948" lon="-2.734316">
      <ele>487.1</ele>
    </trkpt>
    <trkpt lat="42.419491" lon="-2.734621">
      <ele>487.4</ele>
    </trkpt>
    <trkpt lat="42.418516" lon="-2.734683">
      <ele>488.2</ele>
    </trkpt>
    <trkpt lat="42.418487" lon="-2.734609">
      <ele>488.2</ele>
    </trkpt>
    <trkpt lat="42.418218" lon="-2.733918">
      <ele>487.6</ele>
    </trkpt>
    <trkpt lat="42.41816" lon="-2.733811">
      <ele>487.4</ele>
    </trkpt>
    <trkpt lat="42.418101" lon="-2.733779">
      <ele>487.3</ele>
    </trkpt>
    <trkpt lat="42.41803" lon="-2.73372">
      <ele>487.2</ele>
    </trkpt>
    <trkpt lat="42.417939" lon="-2.733398">
      <ele>486.6</ele>
    </trkpt>
    <trkpt lat="42.418707" lon="-2.733356">
      <ele>484.9</ele>
    </trkpt>
    <trkpt lat="42.419345" lon="-2.733465">
      <ele>483.8</ele>
    </trkpt>
    <trkpt lat="42.419566" lon="-2.733461">
      <ele>483.6</ele>
    </trkpt>
    <trkpt lat="42.420692" lon="-2.733611">
      <ele>482</ele>
    </trkpt>
    <trkpt lat="42.420701" lon="-2.733504">
      <ele>481.9</ele>
    </trkpt>
    <trkpt lat="42.420765" lon="-2.733329">
      <ele>481.8</ele>
    </trkpt>
    <trkpt lat="42.420815" lon="-2.733267">
      <ele>481.7</ele>
    </trkpt>
    <trkpt lat="42.420925" lon="-2.733217">
      <ele>481.6</ele>
    </trkpt>
    <trkpt lat="42.422299" lon="-2.733621">
      <ele>481.3</ele>
    </trkpt>
    <trkpt lat="42.422633" lon="-2.733716">
      <ele>481.5</ele>
    </trkpt>
    <trkpt lat="42.422619" lon="-2.733878">
      <ele>481.6</ele>
    </trkpt>
    <trkpt lat="42.42259" lon="-2.734058">
      <ele>481.6</ele>
    </trkpt>
    <trkpt lat="42.422753" lon="-2.734047">
      <ele>481.7</ele>
    </trkpt>
    <trkpt lat="42.423044" lon="-2.733887">
      <ele>481.7</ele>
    </trkpt>
    <trkpt lat="42.423117" lon="-2.733791">
      <ele>481.7</ele>
    </trkpt>
    <trkpt lat="42.422976" lon="-2.732888">
      <ele>481.6</ele>
    </trkpt>
    <trkpt lat="42.422962" lon="-2.732725">
      <ele>481.6</ele>
    </trkpt>
    <trkpt lat="42.422987" lon="-2.732497">
      <ele>481.6</ele>
    </trkpt>
    <trkpt lat="42.423065" lon="-2.732152">
      <ele>481.6</ele>
    </trkpt>
    <trkpt lat="42.423231" lon="-2.732026">
      <ele>481.7</ele>
    </trkpt>
    <trkpt lat="42.423389" lon="-2.731981">
      <ele>481.7</ele>
    </trkpt>
    <trkpt lat="42.423484" lon="-2.732681">
      <ele>482</ele>
    </trkpt>
    <trkpt lat="42.423608" lon="-2.733313">
      <ele>482.3</ele>
    </trkpt>
    <trkpt lat="42.423735" lon="-2.733785">
      <ele>482.5</ele>
    </trkpt>
    <trkpt lat="42.424029" lon="-2.734457">
      <ele>482.3</ele>
    </trkpt>
    <trkpt lat="42.42465" lon="-2.734487">
      <ele>482.2</ele>
    </trkpt>
    <trkpt lat="42.424793" lon="-2.734521">
      <ele>482.1</ele>
    </trkpt>
    <trkpt lat="42.425077" lon="-2.734666">
      <ele>482.1</ele>
    </trkpt>
    <trkpt lat="42.425255" lon="-2.734805">
      <ele>482.2</ele>
    </trkpt>
    <trkpt lat="42.425362" lon="-2.734839">
      <ele>482.2</ele>
    </trkpt>
    <trkpt lat="42.425491" lon="-2.734786">
      <ele>482.4</ele>
    </trkpt>
    <trkpt lat="42.42571" lon="-2.734771">
      <ele>482.7</ele>
    </trkpt>
    <trkpt lat="42.425837" lon="-2.734842">
      <ele>482.9</ele>
    </trkpt>
    <trkpt lat="42.425897" lon="-2.734936">
      <ele>483.1</ele>
    </trkpt>
    <trkpt lat="42.425332" lon="-2.735108">
      <ele>484.9</ele>
    </trkpt>
    <trkpt lat="42.425157" lon="-2.735289">
      <ele>485.7</ele>
    </trkpt>
    <trkpt lat="42.424806" lon="-2.735517">
      <ele>487.1</ele>
    </trkpt>
    <trkpt lat="42.424502" lon="-2.735578">
      <ele>488.2</ele>
    </trkpt>
    <trkpt lat="42.424394" lon="-2.735653">
      <ele>488.6</ele>
    </trkpt>
    <trkpt lat="42.424325" lon="-2.735781">
      <ele>488.9</ele>
    </trkpt>
    <trkpt lat="42.424303" lon="-2.735899">
      <ele>489.2</ele>
    </trkpt>
    <trkpt lat="42.424312" lon="-2.736059">
      <ele>489.4</ele>
    </trkpt>
    <trkpt lat="42.424547" lon="-2.736771">
      <ele>490.3</ele>
    </trkpt>
    <trkpt lat="42.424538" lon="-2.736871">
      <ele>490.4</ele>
    </trkpt>
    <trkpt lat="42.424484" lon="-2.736898">
      <ele>490.5</ele>
    </trkpt>
    <trkpt lat="42.424668" lon="-2.737486">
      <ele>490.9</ele>
    </trkpt>
    <trkpt lat="42.424984" lon="-2.738499">
      <ele>492.7</ele>
    </trkpt>
    <trkpt lat="42.426358" lon="-2.743146">
      <ele>509.5</ele>
    </trkpt>
    <trkpt lat="42.426431" lon="-2.743557">
      <ele>510.3</ele>
    </trkpt>
    <trkpt lat="42.426437" lon="-2.743949">
      <ele>510.8</ele>
    </trkpt>
    <trkpt lat="42.426505" lon="-2.744121">
      <ele>511</ele>
    </trkpt>
    <trkpt lat="42.426591" lon="-2.744171">
      <ele>511.1</ele>
    </trkpt>
    <trkpt lat="42.42666" lon="-2.744257">
      <ele>511.1</ele>
    </trkpt>
    <trkpt lat="42.426693" lon="-2.744332">
      <ele>511.2</ele>
    </trkpt>
    <trkpt lat="42.426716" lon="-2.744504">
      <ele>511.2</ele>
    </trkpt>
    <trkpt lat="42.426654" lon="-2.744719">
      <ele>511.2</ele>
    </trkpt>
    <trkpt lat="42.426779" lon="-2.745047">
      <ele>511.3</ele>
    </trkpt>
    <trkpt lat="42.426932" lon="-2.745309">
      <ele>511.4</ele>
    </trkpt>
    <trkpt lat="42.427059" lon="-2.745684">
      <ele>511.6</ele>
    </trkpt>
    <trkpt lat="42.428162" lon="-2.7498">
      <ele>518.2</ele>
    </trkpt>
    <trkpt lat="42.42898" lon="-2.752957">
      <ele>523.5</ele>
    </trkpt>
    <trkpt lat="42.42923" lon="-2.75382">
      <ele>524.5</ele>
    </trkpt>
    <trkpt lat="42.429407" lon="-2.755019">
      <ele>525.2</ele>
    </trkpt>
    <trkpt lat="42.4295" lon="-2.75623">
      <ele>525.3</ele>
    </trkpt>
    <trkpt lat="42.42948" lon="-2.75676">
      <ele>525.3</ele>
    </trkpt>
    <trkpt lat="42.42938" lon="-2.75737">
      <ele>525.2</ele>
    </trkpt>
    <trkpt lat="42.429185" lon="-2.757919">
      <ele>525.1</ele>
    </trkpt>
    <trkpt lat="42.4288" lon="-2.75879">
      <ele>524.3</ele>
    </trkpt>
    <trkpt lat="42.42877" lon="-2.75908">
      <ele>523.8</ele>
    </trkpt>
    <trkpt lat="42.428778" lon="-2.75919">
      <ele>523.6</ele>
    </trkpt>
    <trkpt lat="42.428957" lon="-2.759409">
      <ele>523</ele>
    </trkpt>
    <trkpt lat="42.429176" lon="-2.759467">
      <ele>522.3</ele>
    </trkpt>
    <trkpt lat="42.429247" lon="-2.759437">
      <ele>522</ele>
    </trkpt>
    <trkpt lat="42.429392" lon="-2.759457">
      <ele>521.5</ele>
    </trkpt>
    <trkpt lat="42.429508" lon="-2.759577">
      <ele>520.9</ele>
    </trkpt>
    <trkpt lat="42.429669" lon="-2.759661">
      <ele>520.3</ele>
    </trkpt>
    <trkpt lat="42.429837" lon="-2.759702">
      <ele>519.7</ele>
    </trkpt>
    <trkpt lat="42.429981" lon="-2.759684">
      <ele>519.2</ele>
    </trkpt>
    <trkpt lat="42.430616" lon="-2.759556">
      <ele>517.2</ele>
    </trkpt>
    <trkpt lat="42.430753" lon="-2.759528">
      <ele>516.8</ele>
    </trkpt>
    <trkpt lat="42.431006" lon="-2.75928">
      <ele>516.1</ele>
    </trkpt>
    <trkpt lat="42.431038" lon="-2.759205">
      <ele>515.9</ele>
    </trkpt>
    <trkpt lat="42.431136" lon="-2.759095">
      <ele>515.6</ele>
    </trkpt>
    <trkpt lat="42.43126" lon="-2.759059">
      <ele>515.3</ele>
    </trkpt>
    <trkpt lat="42.431324" lon="-2.759071">
      <ele>515.2</ele>
    </trkpt>
    <trkpt lat="42.43141" lon="-2.759126">
      <ele>515</ele>
    </trkpt>
    <trkpt lat="42.431477" lon="-2.759218">
      <ele>514.7</ele>
    </trkpt>
    <trkpt lat="42.431517" lon="-2.759336">
      <ele>514.5</ele>
    </trkpt>
    <trkpt lat="42.4317" lon="-2.760172">
      <ele>512.7</ele>
    </trkpt>
    <trkpt lat="42.431696" lon="-2.760594">
      <ele>511.8</ele>
    </trkpt>
    <trkpt lat="42.431653" lon="-2.760928">
      <ele>511.3</ele>
    </trkpt>
    <trkpt lat="42.431694" lon="-2.761196">
      <ele>510.9</ele>
    </trkpt>
    <trkpt lat="42.431767" lon="-2.761347">
      <ele>510.6</ele>
    </trkpt>
    <trkpt lat="42.431825" lon="-2.761407">
      <ele>510.4</ele>
    </trkpt>
    <trkpt lat="42.431876" lon="-2.761507">
      <ele>510.3</ele>
    </trkpt>
    <trkpt lat="42.4319" lon="-2.761624">
      <ele>510.1</ele>
    </trkpt>
    <trkpt lat="42.431893" lon="-2.761746">
      <ele>509.9</ele>
    </trkpt>
    <trkpt lat="42.431856" lon="-2.761857">
      <ele>509.8</ele>
    </trkpt>
    <trkpt lat="42.431795" lon="-2.761945">
      <ele>509.6</ele>
    </trkpt>
    <trkpt lat="42.431727" lon="-2.762113">
      <ele>509.4</ele>
    </trkpt>
    <trkpt lat="42.43171" lon="-2.762364">
      <ele>509.2</ele>
    </trkpt>
    <trkpt lat="42.431746" lon="-2.762553">
      <ele>509.1</ele>
    </trkpt>
    <trkpt lat="42.431898" lon="-2.763137">
      <ele>508.8</ele>
    </trkpt>
    <trkpt lat="42.431937" lon="-2.76321">
      <ele>508.7</ele>
    </trkpt>
    <trkpt lat="42.432214" lon="-2.764171">
      <ele>508</ele>
    </trkpt>
    <trkpt lat="42.432363" lon="-2.764674">
      <ele>507.8</ele>
    </trkpt>
    <trkpt lat="42.432623" lon="-2.765561">
      <ele>507.7</ele>
    </trkpt>
    <trkpt lat="42.433009" lon="-2.766926">
      <ele>508.4</ele>
    </trkpt>
    <trkpt lat="42.433321" lon="-2.767946">
      <ele>509.2</ele>
    </trkpt>
    <trkpt lat="42.433442" lon="-2.768273">
      <ele>509.3</ele>
    </trkpt>
    <trkpt lat="42.43381" lon="-2.769">
      <ele>509.1</ele>
    </trkpt>
    <trkpt lat="42.433953" lon="-2.76919">
      <ele>508.8</ele>
    </trkpt>
    <trkpt lat="42.43576" lon="-2.77156">
      <ele>501.7</ele>
    </trkpt>
    <trkpt lat="42.436676" lon="-2.772804">
      <ele>501.6</ele>
    </trkpt>
    <trkpt lat="42.437099" lon="-2.773378">
      <ele>503.3</ele>
    </trkpt>
    <trkpt lat="42.437156" lon="-2.773446">
      <ele>503.7</ele>
    </trkpt>
    <trkpt lat="42.437174" lon="-2.773474">
      <ele>503.8</ele>
    </trkpt>
    <trkpt lat="42.43726" lon="-2.773573">
      <ele>504.4</ele>
    </trkpt>
    <trkpt lat="42.437327" lon="-2.773602">
      <ele>504.8</ele>
    </trkpt>
    <trkpt lat="42.437399" lon="-2.773575">
      <ele>505.2</ele>
    </trkpt>
    <trkpt lat="42.437486" lon="-2.773408">
      <ele>506.1</ele>
    </trkpt>
    <trkpt lat="42.43754" lon="-2.77341">
      <ele>506.4</ele>
    </trkpt>
    <trkpt lat="42.437805" lon="-2.773416">
      <ele>508.1</ele>
    </trkpt>
    <trkpt lat="42.437901" lon="-2.773356">
      <ele>508.9</ele>
    </trkpt>
    <trkpt lat="42.437942" lon="-2.773348">
      <ele>509.1</ele>
    </trkpt>
    <trkpt lat="42.438074" lon="-2.773456">
      <ele>510.2</ele>
    </trkpt>
    <trkpt lat="42.438329" lon="-2.773512">
      <ele>512</ele>
    </trkpt>
    <trkpt lat="42.438362" lon="-2.773245">
      <ele>513.4</ele>
    </trkpt>
    <trkpt lat="42.438563" lon="-2.773372">
      <ele>515</ele>
    </trkpt>
    <trkpt lat="42.438776" lon="-2.773443">
      <ele>516.3</ele>
    </trkpt>
    <trkpt lat="42.438963" lon="-2.773435">
      <ele>517.3</ele>
    </trkpt>
    <trkpt lat="42.43915" lon="-2.773427">
      <ele>518.2</ele>
    </trkpt>
    <trkpt lat="42.439156" lon="-2.774132">
      <ele>520.3</ele>
    </trkpt>
    <trkpt lat="42.439165" lon="-2.774667">
      <ele>521.3</ele>
    </trkpt>
    <trkpt lat="42.439195" lon="-2.775058">
      <ele>521.8</ele>
    </trkpt>
    <trkpt lat="42.439247" lon="-2.775369">
      <ele>522.1</ele>
    </trkpt>
    <trkpt lat="42.439281" lon="-2.775456">
      <ele>522.1</ele>
    </trkpt>
    <trkpt lat="42.43941" lon="-2.77558">
      <ele>522.2</ele>
    </trkpt>
    <trkpt lat="42.43971" lon="-2.77579">
      <ele>522.3</ele>
    </trkpt>
    <trkpt lat="42.440642" lon="-2.776356">
      <ele>521.8</ele>
    </trkpt>
    <trkpt lat="42.444414" lon="-2.778645">
      <ele>528.1</ele>
    </trkpt>
    <trkpt lat="42.44882" lon="-2.78132">
      <ele>550.3</ele>
    </trkpt>
    <trkpt lat="42.44902" lon="-2.78151">
      <ele>551.3</ele>
    </trkpt>
    <trkpt lat="42.451705" lon="-2.784882">
      <ele>565.6</ele>
    </trkpt>
    <trkpt lat="42.451748" lon="-2.784926">
      <ele>565.9</ele>
    </trkpt>
    <trkpt lat="42.45217" lon="-2.78527">
      <ele>568.4</ele>
    </trkpt>
    <trkpt lat="42.45262" lon="-2.78535">
      <ele>570.9</ele>
    </trkpt>
    <trkpt lat="42.45377" lon="-2.7852">
      <ele>577.3</ele>
    </trkpt>
    <trkpt lat="42.45391" lon="-2.78507">
      <ele>578.2</ele>
    </trkpt>
    <trkpt lat="42.45413" lon="-2.78464">
      <ele>580.3</ele>
    </trkpt>
    <trkpt lat="42.45432" lon="-2.78441">
      <ele>581.7</ele>
    </trkpt>
    <trkpt lat="42.45488" lon="-2.78416">
      <ele>584.8</ele>
    </trkpt>
    <trkpt lat="42.45522" lon="-2.78414">
      <ele>586.6</ele>
    </trkpt>
    <trkpt lat="42.45643" lon="-2.78434">
      <ele>593.6</ele>
    </trkpt>
    <trkpt lat="42.457068" lon="-2.783723">
      <ele>598.9</ele>
    </trkpt>
    <trkpt lat="42.459016" lon="-2.782668">
      <ele>615.7</ele>
    </trkpt>
    <trkpt lat="42.459417" lon="-2.782707">
      <ele>619.3</ele>
    </trkpt>
    <trkpt lat="42.461537" lon="-2.783367">
      <ele>635.8</ele>
    </trkpt>
    <trkpt lat="42.463336" lon="-2.783994">
      <ele>630.1</ele>
    </trkpt>
    <trkpt lat="42.468664" lon="-2.785198">
      <ele>601.6</ele>
    </trkpt>
    <trkpt lat="42.471728" lon="-2.78591">
      <ele>595.6</ele>
    </trkpt>
    <trkpt lat="42.478257" lon="-2.789257">
      <ele>595.8</ele>
    </trkpt>
    <trkpt lat="42.478414" lon="-2.789436">
      <ele>594.9</ele>
    </trkpt>
    <trkpt lat="42.478524" lon="-2.789516">
      <ele>594.2</ele>
    </trkpt>
    <trkpt lat="42.478548" lon="-2.789533">
      <ele>594.1</ele>
    </trkpt>
    <trkpt lat="42.478639" lon="-2.789677">
      <ele>593.2</ele>
    </trkpt>
    <trkpt lat="42.478738" lon="-2.789988">
      <ele>591.6</ele>
    </trkpt>
    <trkpt lat="42.478761" lon="-2.790218">
      <ele>590.3</ele>
    </trkpt>
    <trkpt lat="42.478822" lon="-2.790358">
      <ele>589.4</ele>
    </trkpt>
    <trkpt lat="42.478884" lon="-2.790509">
      <ele>588.3</ele>
    </trkpt>
    <trkpt lat="42.478913" lon="-2.79065">
      <ele>587.3</ele>
    </trkpt>
    <trkpt lat="42.478918" lon="-2.790933">
      <ele>585.4</ele>
    </trkpt>
    <trkpt lat="42.47878" lon="-2.791485">
      <ele>581.3</ele>
    </trkpt>
    <trkpt lat="42.478532" lon="-2.792257">
      <ele>575.2</ele>
    </trkpt>
    <trkpt lat="42.478502" lon="-2.79269">
      <ele>571.8</ele>
    </trkpt>
    <trkpt lat="42.478497" lon="-2.792764">
      <ele>571.3</ele>
    </trkpt>
    <trkpt lat="42.478495" lon="-2.792791">
      <ele>571</ele>
    </trkpt>
    <trkpt lat="42.478443" lon="-2.792912">
      <ele>570</ele>
    </trkpt>
    <trkpt lat="42.478396" lon="-2.793269">
      <ele>567.2</ele>
    </trkpt>
    <trkpt lat="42.478401" lon="-2.793754">
      <ele>563.6</ele>
    </trkpt>
    <trkpt lat="42.478439" lon="-2.793879">
      <ele>562.6</ele>
    </trkpt>
    <trkpt lat="42.47986" lon="-2.79287">
      <ele>549.3</ele>
    </trkpt>
    <trkpt lat="42.481779" lon="-2.792099">
      <ele>536.2</ele>
    </trkpt>
    <trkpt lat="42.482152" lon="-2.792174">
      <ele>534</ele>
    </trkpt>
    <trkpt lat="42.48323" lon="-2.792664">
      <ele>528.7</ele>
    </trkpt>
    <trkpt lat="42.487093" lon="-2.794454">
      <ele>515.1</ele>
    </trkpt>
    <trkpt lat="42.488168" lon="-2.795035">
      <ele>510.2</ele>
    </trkpt>
    <trkpt lat="42.488636" lon="-2.795289">
      <ele>508.2</ele>
    </trkpt>
    <trkpt lat="42.489145" lon="-2.795564">
      <ele>506.5</ele>
    </trkpt>
    <trkpt lat="42.489198" lon="-2.795593">
      <ele>506.3</ele>
    </trkpt>
    <trkpt lat="42.490093" lon="-2.796077">
      <ele>504.5</ele>
    </trkpt>
    <trkpt lat="42.495619" lon="-2.799092">
      <ele>500.9</ele>
    </trkpt>
    <trkpt lat="42.498931" lon="-2.800881">
      <ele>496.7</ele>
    </trkpt>
    <trkpt lat="42.500758" lon="-2.801893">
      <ele>498.8</ele>
    </trkpt>
    <trkpt lat="42.502443" lon="-2.802827">
      <ele>500.7</ele>
    </trkpt>
    <trkpt lat="42.505303" lon="-2.804412">
      <ele>497.5</ele>
    </trkpt>
    <trkpt lat="42.5122" lon="-2.808216">
      <ele>503.7</ele>
    </trkpt>
    <trkpt lat="42.515656" lon="-2.810121">
      <ele>503.2</ele>
    </trkpt>
    <trkpt lat="42.518881" lon="-2.811874">
      <ele>507.3</ele>
    </trkpt>
    <trkpt lat="42.520503" lon="-2.812772">
      <ele>510</ele>
    </trkpt>
    <trkpt lat="42.521123" lon="-2.813144">
      <ele>509.6</ele>
    </trkpt>
    <trkpt lat="42.52134" lon="-2.813391">
      <ele>509.1</ele>
    </trkpt>
    <trkpt lat="42.522166" lon="-2.814906">
      <ele>505.5</ele>
    </trkpt>
    <trkpt lat="42.522471" lon="-2.815447">
      <ele>505.1</ele>
    </trkpt>
    <trkpt lat="42.522669" lon="-2.815686">
      <ele>505.2</ele>
    </trkpt>
    <trkpt lat="42.526227" lon="-2.819109">
      <ele>516.6</ele>
    </trkpt>
    <trkpt lat="42.527823" lon="-2.82073">
      <ele>524.5</ele>
    </trkpt>
    <trkpt lat="42.528343" lon="-2.821378">
      <ele>526</ele>
    </trkpt>
    <trkpt lat="42.528509" lon="-2.821518">
      <ele>526.2</ele>
    </trkpt>
    <trkpt lat="42.528867" lon="-2.821786">
      <ele>526.2</ele>
    </trkpt>
    <trkpt lat="42.529241" lon="-2.821944">
      <ele>525.9</ele>
    </trkpt>
    <trkpt lat="42.530608" lon="-2.822414">
      <ele>523.4</ele>
    </trkpt>
    <trkpt lat="42.530662" lon="-2.822433">
      <ele>523.4</ele>
    </trkpt>
    <trkpt lat="42.530724" lon="-2.822454">
      <ele>523.2</ele>
    </trkpt>
    <trkpt lat="42.534759" lon="-2.82384">
      <ele>515.3</ele>
    </trkpt>
    <trkpt lat="42.536045" lon="-2.824282">
      <ele>512.5</ele>
    </trkpt>
    <trkpt lat="42.536336" lon="-2.823231">
      <ele>512.2</ele>
    </trkpt>
    <trkpt lat="42.536731" lon="-2.822128">
      <ele>513.6</ele>
    </trkpt>
    <trkpt lat="42.536969" lon="-2.821393">
      <ele>514.9</ele>
    </trkpt>
    <trkpt lat="42.53737" lon="-2.819702">
      <ele>518.3</ele>
    </trkpt>
    <trkpt lat="42.537364" lon="-2.819035">
      <ele>519.3</ele>
    </trkpt>
    <trkpt lat="42.537526" lon="-2.818401">
      <ele>520</ele>
    </trkpt>
    <trkpt lat="42.537701" lon="-2.817908">
      <ele>520.4</ele>
    </trkpt>
    </trkseg>
  </trk>
</gpx>
