<?xml version="1.0" encoding="UTF-8"?>
<gpx version="1.1" creator="fitAI Komoot downloader" xmlns="http://www.topografix.com/GPX/1/1">
  <metadata>
    <name>Haro – Capital del vino de Rioja y Haro - Recorrido circular desde Haro</name>
    <desc>88 visitas · Dificultad: moderate · Distancia: 45.1 km · Desnivel +: 453 m</desc>
    <link href="https://www.komoot.com/smarttour/e44695931"><text>Komoot</text></link>
  </metadata>
  <trk>
    <name>Haro – Capital del vino de Rioja y Haro - Recorrido circular desde Haro</name>
    <type>mtb</type>
    <trkseg>
    <trkpt lat="42.573676" lon="-2.85372">
      <ele>472.7</ele>
    </trkpt>
    <trkpt lat="42.573814" lon="-2.853783">
      <ele>472.7</ele>
    </trkpt>
    <trkpt lat="42.573814" lon="-2.854084">
      <ele>472.8</ele>
    </trkpt>
    <trkpt lat="42.573802" lon="-2.854292">
      <ele>472.9</ele>
    </trkpt>
    <trkpt lat="42.573799" lon="-2.85454">
      <ele>472.9</ele>
    </trkpt>
    <trkpt lat="42.573833" lon="-2.85462">
      <ele>473</ele>
    </trkpt>
    <trkpt lat="42.57417" lon="-2.856025">
      <ele>473.3</ele>
    </trkpt>
    <trkpt lat="42.574054" lon="-2.857234">
      <ele>473.2</ele>
    </trkpt>
    <trkpt lat="42.574024" lon="-2.857717">
      <ele>473.1</ele>
    </trkpt>
    <trkpt lat="42.573957" lon="-2.859106">
      <ele>473.1</ele>
    </trkpt>
    <trkpt lat="42.57394" lon="-2.859472">
      <ele>473.3</ele>
    </trkpt>
    <trkpt lat="42.57387" lon="-2.860737">
      <ele>473.5</ele>
    </trkpt>
    <trkpt lat="42.573551" lon="-2.862659">
      <ele>471.4</ele>
    </trkpt>
    <trkpt lat="42.573449" lon="-2.863461">
      <ele>470</ele>
    </trkpt>
    <trkpt lat="42.573376" lon="-2.864177">
      <ele>468.5</ele>
    </trkpt>
    <trkpt lat="42.573677" lon="-2.864082">
      <ele>467.8</ele>
    </trkpt>
    <trkpt lat="42.573963" lon="-2.864697">
      <ele>467.2</ele>
    </trkpt>
    <trkpt lat="42.574142" lon="-2.865389">
      <ele>467</ele>
    </trkpt>
    <trkpt lat="42.574197" lon="-2.86651">
      <ele>467.9</ele>
    </trkpt>
    <trkpt lat="42.574174" lon="-2.866742">
      <ele>468.3</ele>
    </trkpt>
    <trkpt lat="42.574169" lon="-2.867282">
      <ele>469.3</ele>
    </trkpt>
    <trkpt lat="42.574211" lon="-2.868091">
      <ele>470.7</ele>
    </trkpt>
    <trkpt lat="42.574372" lon="-2.868838">
      <ele>471.9</ele>
    </trkpt>
    <trkpt lat="42.574351" lon="-2.86897">
      <ele>472.1</ele>
    </trkpt>
    <trkpt lat="42.574414" lon="-2.869116">
      <ele>472.3</ele>
    </trkpt>
    <trkpt lat="42.574529" lon="-2.870027">
      <ele>472.9</ele>
    </trkpt>
    <trkpt lat="42.574582" lon="-2.870253">
      <ele>473</ele>
    </trkpt>
    <trkpt lat="42.574561" lon="-2.870786">
      <ele>473</ele>
    </trkpt>
    <trkpt lat="42.574531" lon="-2.871032">
      <ele>473</ele>
    </trkpt>
    <trkpt lat="42.574367" lon="-2.871646">
      <ele>472.9</ele>
    </trkpt>
    <trkpt lat="42.573878" lon="-2.872942">
      <ele>472.7</ele>
    </trkpt>
    <trkpt lat="42.573526" lon="-2.873599">
      <ele>473.2</ele>
    </trkpt>
    <trkpt lat="42.573279" lon="-2.874081">
      <ele>473.8</ele>
    </trkpt>
    <trkpt lat="42.573225" lon="-2.874236">
      <ele>474</ele>
    </trkpt>
    <trkpt lat="42.572989" lon="-2.8752">
      <ele>475.4</ele>
    </trkpt>
    <trkpt lat="42.572964" lon="-2.875624">
      <ele>475.9</ele>
    </trkpt>
    <trkpt lat="42.573048" lon="-2.876174">
      <ele>476.2</ele>
    </trkpt>
    <trkpt lat="42.573363" lon="-2.876911">
      <ele>476.4</ele>
    </trkpt>
    <trkpt lat="42.573447" lon="-2.877219">
      <ele>476.4</ele>
    </trkpt>
    <trkpt lat="42.573639" lon="-2.878168">
      <ele>476.9</ele>
    </trkpt>
    <trkpt lat="42.573578" lon="-2.878271">
      <ele>476.9</ele>
    </trkpt>
    <trkpt lat="42.573338" lon="-2.878376">
      <ele>477.1</ele>
    </trkpt>
    <trkpt lat="42.57289" lon="-2.878423">
      <ele>477.5</ele>
    </trkpt>
    <trkpt lat="42.572905" lon="-2.878722">
      <ele>477.7</ele>
    </trkpt>
    <trkpt lat="42.57293" lon="-2.879424">
      <ele>478.2</ele>
    </trkpt>
    <trkpt lat="42.57294" lon="-2.879605">
      <ele>478.3</ele>
    </trkpt>
    <trkpt lat="42.570715" lon="-2.880127">
      <ele>480.2</ele>
    </trkpt>
    <trkpt lat="42.569674" lon="-2.880262">
      <ele>481.4</ele>
    </trkpt>
    <trkpt lat="42.568607" lon="-2.8803">
      <ele>482.3</ele>
    </trkpt>
    <trkpt lat="42.569124" lon="-2.882102">
      <ele>483</ele>
    </trkpt>
    <trkpt lat="42.568693" lon="-2.885761">
      <ele>485.5</ele>
    </trkpt>
    <trkpt lat="42.56795" lon="-2.892082">
      <ele>486.1</ele>
    </trkpt>
    <trkpt lat="42.567636" lon="-2.894694">
      <ele>486.7</ele>
    </trkpt>
    <trkpt lat="42.56702" lon="-2.894311">
      <ele>487</ele>
    </trkpt>
    <trkpt lat="42.566793" lon="-2.894132">
      <ele>487.2</ele>
    </trkpt>
    <trkpt lat="42.566441" lon="-2.893743">
      <ele>487.5</ele>
    </trkpt>
    <trkpt lat="42.565878" lon="-2.893054">
      <ele>488</ele>
    </trkpt>
    <trkpt lat="42.565315" lon="-2.892366">
      <ele>488.6</ele>
    </trkpt>
    <trkpt lat="42.56472" lon="-2.891392">
      <ele>489</ele>
    </trkpt>
    <trkpt lat="42.563443" lon="-2.889857">
      <ele>489.3</ele>
    </trkpt>
    <trkpt lat="42.56319" lon="-2.889471">
      <ele>489.4</ele>
    </trkpt>
    <trkpt lat="42.56276" lon="-2.888563">
      <ele>489.3</ele>
    </trkpt>
    <trkpt lat="42.561886" lon="-2.886449">
      <ele>488.3</ele>
    </trkpt>
    <trkpt lat="42.561634" lon="-2.885617">
      <ele>487.7</ele>
    </trkpt>
    <trkpt lat="42.561412" lon="-2.8847">
      <ele>486.9</ele>
    </trkpt>
    <trkpt lat="42.561045" lon="-2.883376">
      <ele>486</ele>
    </trkpt>
    <trkpt lat="42.561102" lon="-2.883219">
      <ele>485.9</ele>
    </trkpt>
    <trkpt lat="42.561043" lon="-2.883116">
      <ele>485.8</ele>
    </trkpt>
    <trkpt lat="42.560523" lon="-2.881618">
      <ele>485.4</ele>
    </trkpt>
    <trkpt lat="42.560065" lon="-2.879526">
      <ele>485.9</ele>
    </trkpt>
    <trkpt lat="42.55948" lon="-2.877878">
      <ele>486.2</ele>
    </trkpt>
    <trkpt lat="42.559383" lon="-2.877711">
      <ele>486.2</ele>
    </trkpt>
    <trkpt lat="42.55914" lon="-2.877508">
      <ele>486.3</ele>
    </trkpt>
    <trkpt lat="42.558867" lon="-2.877">
      <ele>486.2</ele>
    </trkpt>
    <trkpt lat="42.558759" lon="-2.876543">
      <ele>486.1</ele>
    </trkpt>
    <trkpt lat="42.558673" lon="-2.875904">
      <ele>485.9</ele>
    </trkpt>
    <trkpt lat="42.558781" lon="-2.875234">
      <ele>485.5</ele>
    </trkpt>
    <trkpt lat="42.558725" lon="-2.874843">
      <ele>485.3</ele>
    </trkpt>
    <trkpt lat="42.55852" lon="-2.873955">
      <ele>484.9</ele>
    </trkpt>
    <trkpt lat="42.558191" lon="-2.873087">
      <ele>484.8</ele>
    </trkpt>
    <trkpt lat="42.557634" lon="-2.872042">
      <ele>485.4</ele>
    </trkpt>
    <trkpt lat="42.555721" lon="-2.868844">
      <ele>488.8</ele>
    </trkpt>
    <trkpt lat="42.554469" lon="-2.866958">
      <ele>491.4</ele>
    </trkpt>
    <trkpt lat="42.554252" lon="-2.866453">
      <ele>492.1</ele>
    </trkpt>
    <trkpt lat="42.552948" lon="-2.863825">
      <ele>497.2</ele>
    </trkpt>
    <trkpt lat="42.552692" lon="-2.863377">
      <ele>498.1</ele>
    </trkpt>
    <trkpt lat="42.552627" lon="-2.863196">
      <ele>498.5</ele>
    </trkpt>
    <trkpt lat="42.552603" lon="-2.862997">
      <ele>498.8</ele>
    </trkpt>
    <trkpt lat="42.552564" lon="-2.862696">
      <ele>499.3</ele>
    </trkpt>
    <trkpt lat="42.552408" lon="-2.862031">
      <ele>500.7</ele>
    </trkpt>
    <trkpt lat="42.551766" lon="-2.859653">
      <ele>505.4</ele>
    </trkpt>
    <trkpt lat="42.551547" lon="-2.858732">
      <ele>506.3</ele>
    </trkpt>
    <trkpt lat="42.551438" lon="-2.857678">
      <ele>506.9</ele>
    </trkpt>
    <trkpt lat="42.550927" lon="-2.855547">
      <ele>509</ele>
    </trkpt>
    <trkpt lat="42.550426" lon="-2.853714">
      <ele>511.7</ele>
    </trkpt>
    <trkpt lat="42.549832" lon="-2.852128">
      <ele>514.8</ele>
    </trkpt>
    <trkpt lat="42.54967" lon="-2.851597">
      <ele>515.5</ele>
    </trkpt>
    <trkpt lat="42.549122" lon="-2.850798">
      <ele>516.1</ele>
    </trkpt>
    <trkpt lat="42.549013" lon="-2.850323">
      <ele>515.9</ele>
    </trkpt>
    <trkpt lat="42.548815" lon="-2.849722">
      <ele>515.5</ele>
    </trkpt>
    <trkpt lat="42.548554" lon="-2.849318">
      <ele>514.9</ele>
    </trkpt>
    <trkpt lat="42.548299" lon="-2.848978">
      <ele>514.3</ele>
    </trkpt>
    <trkpt lat="42.548012" lon="-2.848306">
      <ele>513.4</ele>
    </trkpt>
    <trkpt lat="42.547813" lon="-2.84798">
      <ele>513.1</ele>
    </trkpt>
    <trkpt lat="42.547647" lon="-2.847641">
      <ele>513</ele>
    </trkpt>
    <trkpt lat="42.547287" lon="-2.847138">
      <ele>513</ele>
    </trkpt>
    <trkpt lat="42.546599" lon="-2.84706">
      <ele>512.7</ele>
    </trkpt>
    <trkpt lat="42.545743" lon="-2.846968">
      <ele>511.1</ele>
    </trkpt>
    <trkpt lat="42.545149" lon="-2.847202">
      <ele>508.6</ele>
    </trkpt>
    <trkpt lat="42.544914" lon="-2.84723">
      <ele>507.5</ele>
    </trkpt>
    <trkpt lat="42.544674" lon="-2.847322">
      <ele>506.3</ele>
    </trkpt>
    <trkpt lat="42.544527" lon="-2.847339">
      <ele>505.5</ele>
    </trkpt>
    <trkpt lat="42.544739" lon="-2.84624">
      <ele>501.3</ele>
    </trkpt>
    <trkpt lat="42.544521" lon="-2.84605">
      <ele>500.1</ele>
    </trkpt>
    <trkpt lat="42.543746" lon="-2.845375">
      <ele>497.2</ele>
    </trkpt>
    <trkpt lat="42.54312" lon="-2.844448">
      <ele>496.3</ele>
    </trkpt>
    <trkpt lat="42.54287" lon="-2.843974">
      <ele>496.4</ele>
    </trkpt>
    <trkpt lat="42.542724" lon="-2.843797">
      <ele>496.6</ele>
    </trkpt>
    <trkpt lat="42.542307" lon="-2.843535">
      <ele>497</ele>
    </trkpt>
    <trkpt lat="42.538019" lon="-2.841334">
      <ele>505.4</ele>
    </trkpt>
    <trkpt lat="42.538732" lon="-2.838676">
      <ele>509.9</ele>
    </trkpt>
    <trkpt lat="42.538866" lon="-2.838636">
      <ele>510</ele>
    </trkpt>
    <trkpt lat="42.539526" lon="-2.838444">
      <ele>510</ele>
    </trkpt>
    <trkpt lat="42.53989" lon="-2.838285">
      <ele>509.5</ele>
    </trkpt>
    <trkpt lat="42.540156" lon="-2.838072">
      <ele>509.1</ele>
    </trkpt>
    <trkpt lat="42.540268" lon="-2.837952">
      <ele>509</ele>
    </trkpt>
    <trkpt lat="42.540669" lon="-2.837393">
      <ele>508.3</ele>
    </trkpt>
    <trkpt lat="42.541307" lon="-2.836482">
      <ele>507.3</ele>
    </trkpt>
    <trkpt lat="42.541448" lon="-2.836283">
      <ele>506.9</ele>
    </trkpt>
    <trkpt lat="42.541476" lon="-2.836051">
      <ele>506.6</ele>
    </trkpt>
    <trkpt lat="42.541606" lon="-2.835577">
      <ele>506.1</ele>
    </trkpt>
    <trkpt lat="42.541771" lon="-2.835193">
      <ele>505.5</ele>
    </trkpt>
    <trkpt lat="42.541938" lon="-2.834658">
      <ele>504.3</ele>
    </trkpt>
    <trkpt lat="42.541955" lon="-2.834147">
      <ele>502.7</ele>
    </trkpt>
    <trkpt lat="42.541886" lon="-2.833612">
      <ele>501</ele>
    </trkpt>
    <trkpt lat="42.542068" lon="-2.833501">
      <ele>500.2</ele>
    </trkpt>
    <trkpt lat="42.542094" lon="-2.83343">
      <ele>500</ele>
    </trkpt>
    <trkpt lat="42.542057" lon="-2.833406">
      <ele>499.8</ele>
    </trkpt>
    <trkpt lat="42.542017" lon="-2.833293">
      <ele>499.5</ele>
    </trkpt>
    <trkpt lat="42.542279" lon="-2.833146">
      <ele>498.3</ele>
    </trkpt>
    <trkpt lat="42.542448" lon="-2.832999">
      <ele>497.4</ele>
    </trkpt>
    <trkpt lat="42.542518" lon="-2.832824">
      <ele>496.8</ele>
    </trkpt>
    <trkpt lat="42.542422" lon="-2.832666">
      <ele>496.2</ele>
    </trkpt>
    <trkpt lat="42.5424" lon="-2.832473">
      <ele>495.7</ele>
    </trkpt>
    <trkpt lat="42.542501" lon="-2.831892">
      <ele>494.2</ele>
    </trkpt>
    <trkpt lat="42.543053" lon="-2.83178">
      <ele>492.6</ele>
    </trkpt>
    <trkpt lat="42.543267" lon="-2.831746">
      <ele>492</ele>
    </trkpt>
    <trkpt lat="42.543299" lon="-2.831758">
      <ele>491.9</ele>
    </trkpt>
    <trkpt lat="42.543619" lon="-2.831882">
      <ele>490.9</ele>
    </trkpt>
    <trkpt lat="42.544078" lon="-2.832215">
      <ele>489.5</ele>
    </trkpt>
    <trkpt lat="42.544427" lon="-2.831891">
      <ele>488.3</ele>
    </trkpt>
    <trkpt lat="42.544557" lon="-2.8318">
      <ele>487.9</ele>
    </trkpt>
    <trkpt lat="42.54472" lon="-2.831784">
      <ele>487.4</ele>
    </trkpt>
    <trkpt lat="42.546225" lon="-2.831951">
      <ele>483.3</ele>
    </trkpt>
    <trkpt lat="42.546792" lon="-2.832019">
      <ele>483.2</ele>
    </trkpt>
    <trkpt lat="42.547387" lon="-2.83198">
      <ele>483.4</ele>
    </trkpt>
    <trkpt lat="42.547999" lon="-2.828763">
      <ele>480.5</ele>
    </trkpt>
    <trkpt lat="42.547891" lon="-2.828202">
      <ele>480.5</ele>
    </trkpt>
    <trkpt lat="42.54795" lon="-2.828121">
      <ele>480.6</ele>
    </trkpt>
    <trkpt lat="42.548057" lon="-2.827959">
      <ele>480.8</ele>
    </trkpt>
    <trkpt lat="42.54812" lon="-2.827791">
      <ele>480.9</ele>
    </trkpt>
    <trkpt lat="42.548149" lon="-2.827532">
      <ele>481.2</ele>
    </trkpt>
    <trkpt lat="42.548187" lon="-2.82747">
      <ele>481.2</ele>
    </trkpt>
    <trkpt lat="42.548253" lon="-2.827436">
      <ele>481.3</ele>
    </trkpt>
    <trkpt lat="42.54842" lon="-2.826501">
      <ele>482.2</ele>
    </trkpt>
    <trkpt lat="42.548681" lon="-2.825208">
      <ele>480.8</ele>
    </trkpt>
    <trkpt lat="42.548795" lon="-2.824641">
      <ele>479.8</ele>
    </trkpt>
    <trkpt lat="42.549155" lon="-2.824061">
      <ele>478.9</ele>
    </trkpt>
    <trkpt lat="42.549248" lon="-2.823477">
      <ele>478.4</ele>
    </trkpt>
    <trkpt lat="42.549402" lon="-2.823236">
      <ele>478.4</ele>
    </trkpt>
    <trkpt lat="42.549527" lon="-2.823115">
      <ele>478.4</ele>
    </trkpt>
    <trkpt lat="42.549624" lon="-2.822999">
      <ele>478.3</ele>
    </trkpt>
    <trkpt lat="42.549787" lon="-2.822702">
      <ele>478.2</ele>
    </trkpt>
    <trkpt lat="42.549808" lon="-2.822609">
      <ele>478.2</ele>
    </trkpt>
    <trkpt lat="42.549846" lon="-2.822416">
      <ele>478</ele>
    </trkpt>
    <trkpt lat="42.549948" lon="-2.822271">
      <ele>477.7</ele>
    </trkpt>
    <trkpt lat="42.550187" lon="-2.82181">
      <ele>476.8</ele>
    </trkpt>
    <trkpt lat="42.550298" lon="-2.821747">
      <ele>476.6</ele>
    </trkpt>
    <trkpt lat="42.550347" lon="-2.821717">
      <ele>476.5</ele>
    </trkpt>
    <trkpt lat="42.550424" lon="-2.821508">
      <ele>476.2</ele>
    </trkpt>
    <trkpt lat="42.550427" lon="-2.8215">
      <ele>476.2</ele>
    </trkpt>
    <trkpt lat="42.550424" lon="-2.821034">
      <ele>475.9</ele>
    </trkpt>
    <trkpt lat="42.550651" lon="-2.820616">
      <ele>476</ele>
    </trkpt>
    <trkpt lat="42.550768" lon="-2.820253">
      <ele>476.2</ele>
    </trkpt>
    <trkpt lat="42.551408" lon="-2.81921">
      <ele>479.4</ele>
    </trkpt>
    <trkpt lat="42.552045" lon="-2.819019">
      <ele>481.6</ele>
    </trkpt>
    <trkpt lat="42.552576" lon="-2.818937">
      <ele>482.3</ele>
    </trkpt>
    <trkpt lat="42.552777" lon="-2.817916">
      <ele>482</ele>
    </trkpt>
    <trkpt lat="42.553671" lon="-2.81361">
      <ele>476.6</ele>
    </trkpt>
    <trkpt lat="42.554288" lon="-2.81219">
      <ele>475.6</ele>
    </trkpt>
    <trkpt lat="42.554774" lon="-2.811227">
      <ele>474.7</ele>
    </trkpt>
    <trkpt lat="42.55536" lon="-2.810534">
      <ele>473.8</ele>
    </trkpt>
    <trkpt lat="42.557341" lon="-2.806321">
      <ele>469.7</ele>
    </trkpt>
    <trkpt lat="42.557523" lon="-2.805278">
      <ele>468</ele>
    </trkpt>
    <trkpt lat="42.557751" lon="-2.804215">
      <ele>464.3</ele>
    </trkpt>
    <trkpt lat="42.5575" lon="-2.803973">
      <ele>462.4</ele>
    </trkpt>
    <trkpt lat="42.557367" lon="-2.803735">
      <ele>460.9</ele>
    </trkpt>
    <trkpt lat="42.556747" lon="-2.802561">
      <ele>455.8</ele>
    </trkpt>
    <trkpt lat="42.556685" lon="-2.802181">
      <ele>456</ele>
    </trkpt>
    <trkpt lat="42.556311" lon="-2.80154">
      <ele>459</ele>
    </trkpt>
    <trkpt lat="42.556085" lon="-2.8011">
      <ele>462.5</ele>
    </trkpt>
    <trkpt lat="42.555911" lon="-2.80077">
      <ele>465.5</ele>
    </trkpt>
    <trkpt lat="42.555813" lon="-2.800473">
      <ele>467.8</ele>
    </trkpt>
    <trkpt lat="42.555605" lon="-2.799506">
      <ele>473.5</ele>
    </trkpt>
    <trkpt lat="42.555569" lon="-2.798859">
      <ele>475.5</ele>
    </trkpt>
    <trkpt lat="42.555438" lon="-2.798361">
      <ele>476.4</ele>
    </trkpt>
    <trkpt lat="42.555053" lon="-2.797255">
      <ele>476.3</ele>
    </trkpt>
    <trkpt lat="42.555013" lon="-2.797092">
      <ele>476.1</ele>
    </trkpt>
    <trkpt lat="42.554976" lon="-2.796608">
      <ele>475.4</ele>
    </trkpt>
    <trkpt lat="42.554915" lon="-2.796371">
      <ele>474.8</ele>
    </trkpt>
    <trkpt lat="42.554693" lon="-2.795957">
      <ele>473.5</ele>
    </trkpt>
    <trkpt lat="42.554464" lon="-2.795779">
      <ele>472.4</ele>
    </trkpt>
    <trkpt lat="42.554213" lon="-2.795522">
      <ele>470.9</ele>
    </trkpt>
    <trkpt lat="42.553821" lon="-2.794974">
      <ele>468.5</ele>
    </trkpt>
    <trkpt lat="42.553369" lon="-2.794343">
      <ele>466</ele>
    </trkpt>
    <trkpt lat="42.552347" lon="-2.79262">
      <ele>461.5</ele>
    </trkpt>
    <trkpt lat="42.55166" lon="-2.791647">
      <ele>458.5</ele>
    </trkpt>
    <trkpt lat="42.551216" lon="-2.790527">
      <ele>454.1</ele>
    </trkpt>
    <trkpt lat="42.55102" lon="-2.79029">
      <ele>452.5</ele>
    </trkpt>
    <trkpt lat="42.550893" lon="-2.790068">
      <ele>451.3</ele>
    </trkpt>
    <trkpt lat="42.550806" lon="-2.789742">
      <ele>449.8</ele>
    </trkpt>
    <trkpt lat="42.550696" lon="-2.78953">
      <ele>448.6</ele>
    </trkpt>
    <trkpt lat="42.550529" lon="-2.789485">
      <ele>447.6</ele>
    </trkpt>
    <trkpt lat="42.549696" lon="-2.789421">
      <ele>443.7</ele>
    </trkpt>
    <trkpt lat="42.549162" lon="-2.789308">
      <ele>442.7</ele>
    </trkpt>
    <trkpt lat="42.548729" lon="-2.78915">
      <ele>442.7</ele>
    </trkpt>
    <trkpt lat="42.548325" lon="-2.788903">
      <ele>443.5</ele>
    </trkpt>
    <trkpt lat="42.547703" lon="-2.788355">
      <ele>446.9</ele>
    </trkpt>
    <trkpt lat="42.547536" lon="-2.788301">
      <ele>448</ele>
    </trkpt>
    <trkpt lat="42.547147" lon="-2.78836">
      <ele>450.7</ele>
    </trkpt>
    <trkpt lat="42.546696" lon="-2.788503">
      <ele>454.6</ele>
    </trkpt>
    <trkpt lat="42.546508" lon="-2.788462">
      <ele>456.5</ele>
    </trkpt>
    <trkpt lat="42.546311" lon="-2.788411">
      <ele>458.6</ele>
    </trkpt>
    <trkpt lat="42.545995" lon="-2.788229">
      <ele>462.5</ele>
    </trkpt>
    <trkpt lat="42.545975" lon="-2.787971">
      <ele>464.8</ele>
    </trkpt>
    <trkpt lat="42.546038" lon="-2.787301">
      <ele>470.2</ele>
    </trkpt>
    <trkpt lat="42.545905" lon="-2.787293">
      <ele>471.5</ele>
    </trkpt>
    <trkpt lat="42.545919" lon="-2.78713">
      <ele>472.7</ele>
    </trkpt>
    <trkpt lat="42.5458" lon="-2.787016">
      <ele>474</ele>
    </trkpt>
    <trkpt lat="42.545717" lon="-2.787038">
      <ele>474.7</ele>
    </trkpt>
    <trkpt lat="42.545568" lon="-2.786944">
      <ele>475.9</ele>
    </trkpt>
    <trkpt lat="42.545601" lon="-2.786885">
      <ele>476.3</ele>
    </trkpt>
    <trkpt lat="42.545959" lon="-2.786702">
      <ele>478.4</ele>
    </trkpt>
    <trkpt lat="42.546028" lon="-2.786614">
      <ele>478.8</ele>
    </trkpt>
    <trkpt lat="42.546054" lon="-2.786525">
      <ele>479</ele>
    </trkpt>
    <trkpt lat="42.546042" lon="-2.78638">
      <ele>479.2</ele>
    </trkpt>
    <trkpt lat="42.546016" lon="-2.786296">
      <ele>479.2</ele>
    </trkpt>
    <trkpt lat="42.546042" lon="-2.78638">
      <ele>479.2</ele>
    </trkpt>
    <trkpt lat="42.546054" lon="-2.786525">
      <ele>479</ele>
    </trkpt>
    <trkpt lat="42.546028" lon="-2.786614">
      <ele>478.8</ele>
    </trkpt>
    <trkpt lat="42.545959" lon="-2.786702">
      <ele>478.4</ele>
    </trkpt>
    <trkpt lat="42.545601" lon="-2.786885">
      <ele>476.3</ele>
    </trkpt>
    <trkpt lat="42.545568" lon="-2.786944">
      <ele>475.9</ele>
    </trkpt>
    <trkpt lat="42.545717" lon="-2.787038">
      <ele>474.7</ele>
    </trkpt>
    <trkpt lat="42.5458" lon="-2.787016">
      <ele>474</ele>
    </trkpt>
    <trkpt lat="42.545919" lon="-2.78713">
      <ele>472.7</ele>
    </trkpt>
    <trkpt lat="42.545905" lon="-2.787293">
      <ele>471.5</ele>
    </trkpt>
    <trkpt lat="42.546038" lon="-2.787301">
      <ele>470.2</ele>
    </trkpt>
    <trkpt lat="42.545975" lon="-2.787971">
      <ele>464.8</ele>
    </trkpt>
    <trkpt lat="42.545995" lon="-2.788229">
      <ele>462.5</ele>
    </trkpt>
    <trkpt lat="42.546311" lon="-2.788411">
      <ele>458.6</ele>
    </trkpt>
    <trkpt lat="42.546508" lon="-2.788462">
      <ele>456.5</ele>
    </trkpt>
    <trkpt lat="42.546696" lon="-2.788503">
      <ele>454.6</ele>
    </trkpt>
    <trkpt lat="42.547147" lon="-2.78836">
      <ele>449.7</ele>
    </trkpt>
    <trkpt lat="42.547551" lon="-2.788108">
      <ele>445.1</ele>
    </trkpt>
    <trkpt lat="42.547693" lon="-2.787935">
      <ele>443.7</ele>
    </trkpt>
    <trkpt lat="42.547875" lon="-2.78783">
      <ele>442.4</ele>
    </trkpt>
    <trkpt lat="42.548283" lon="-2.787725">
      <ele>440.8</ele>
    </trkpt>
    <trkpt lat="42.548201" lon="-2.787618">
      <ele>440.5</ele>
    </trkpt>
    <trkpt lat="42.548017" lon="-2.787643">
      <ele>440.3</ele>
    </trkpt>
    <trkpt lat="42.547767" lon="-2.787575">
      <ele>440.3</ele>
    </trkpt>
    <trkpt lat="42.547559" lon="-2.787443">
      <ele>440.8</ele>
    </trkpt>
    <trkpt lat="42.54724" lon="-2.787173">
      <ele>442.5</ele>
    </trkpt>
    <trkpt lat="42.54678" lon="-2.786475">
      <ele>446.9</ele>
    </trkpt>
    <trkpt lat="42.546326" lon="-2.785687">
      <ele>451.7</ele>
    </trkpt>
    <trkpt lat="42.545987" lon="-2.784801">
      <ele>455.8</ele>
    </trkpt>
    <trkpt lat="42.545877" lon="-2.78381">
      <ele>457.5</ele>
    </trkpt>
    <trkpt lat="42.545772" lon="-2.782208">
      <ele>453</ele>
    </trkpt>
    <trkpt lat="42.545789" lon="-2.782078">
      <ele>452.3</ele>
    </trkpt>
    <trkpt lat="42.545833" lon="-2.78175">
      <ele>451</ele>
    </trkpt>
    <trkpt lat="42.546082" lon="-2.781108">
      <ele>449</ele>
    </trkpt>
    <trkpt lat="42.546188" lon="-2.780609">
      <ele>448.1</ele>
    </trkpt>
    <trkpt lat="42.54605" lon="-2.780755">
      <ele>448</ele>
    </trkpt>
    <trkpt lat="42.546427" lon="-2.777014">
      <ele>453.4</ele>
    </trkpt>
    <trkpt lat="42.546497" lon="-2.776633">
      <ele>454.2</ele>
    </trkpt>
    <trkpt lat="42.546638" lon="-2.776201">
      <ele>455.2</ele>
    </trkpt>
    <trkpt lat="42.546778" lon="-2.775979">
      <ele>455.7</ele>
    </trkpt>
    <trkpt lat="42.546666" lon="-2.775614">
      <ele>456.1</ele>
    </trkpt>
    <trkpt lat="42.546483" lon="-2.775276">
      <ele>456</ele>
    </trkpt>
    <trkpt lat="42.546422" lon="-2.775022">
      <ele>455.6</ele>
    </trkpt>
    <trkpt lat="42.546405" lon="-2.774629">
      <ele>454.6</ele>
    </trkpt>
    <trkpt lat="42.546392" lon="-2.774347">
      <ele>453.5</ele>
    </trkpt>
    <trkpt lat="42.546615" lon="-2.773954">
      <ele>451</ele>
    </trkpt>
    <trkpt lat="42.546833" lon="-2.773473">
      <ele>447.6</ele>
    </trkpt>
    <trkpt lat="42.54698" lon="-2.773294">
      <ele>445.9</ele>
    </trkpt>
    <trkpt lat="42.547031" lon="-2.772633">
      <ele>441.9</ele>
    </trkpt>
    <trkpt lat="42.547254" lon="-2.772213">
      <ele>439.4</ele>
    </trkpt>
    <trkpt lat="42.547467" lon="-2.771352">
      <ele>436.2</ele>
    </trkpt>
    <trkpt lat="42.547787" lon="-2.770843">
      <ele>434.6</ele>
    </trkpt>
    <trkpt lat="42.547954" lon="-2.769899">
      <ele>433.3</ele>
    </trkpt>
    <trkpt lat="42.548218" lon="-2.769514">
      <ele>432.9</ele>
    </trkpt>
    <trkpt lat="42.548548" lon="-2.768867">
      <ele>432.9</ele>
    </trkpt>
    <trkpt lat="42.548958" lon="-2.768357">
      <ele>433.3</ele>
    </trkpt>
    <trkpt lat="42.549111" lon="-2.768006">
      <ele>433.5</ele>
    </trkpt>
    <trkpt lat="42.550262" lon="-2.766409">
      <ele>435.7</ele>
    </trkpt>
    <trkpt lat="42.550541" lon="-2.765982">
      <ele>436.3</ele>
    </trkpt>
    <trkpt lat="42.55085" lon="-2.765741">
      <ele>436.7</ele>
    </trkpt>
    <trkpt lat="42.551205" lon="-2.765307">
      <ele>437.3</ele>
    </trkpt>
    <trkpt lat="42.551713" lon="-2.764846">
      <ele>438.2</ele>
    </trkpt>
    <trkpt lat="42.552027" lon="-2.764694">
      <ele>438.7</ele>
    </trkpt>
    <trkpt lat="42.552316" lon="-2.764467">
      <ele>439.2</ele>
    </trkpt>
    <trkpt lat="42.552788" lon="-2.764323">
      <ele>440.3</ele>
    </trkpt>
    <trkpt lat="42.55296" lon="-2.764185">
      <ele>440.8</ele>
    </trkpt>
    <trkpt lat="42.553072" lon="-2.763992">
      <ele>441.3</ele>
    </trkpt>
    <trkpt lat="42.553964" lon="-2.763682">
      <ele>445.1</ele>
    </trkpt>
    <trkpt lat="42.554096" lon="-2.763724">
      <ele>445.7</ele>
    </trkpt>
    <trkpt lat="42.554167" lon="-2.763868">
      <ele>446.3</ele>
    </trkpt>
    <trkpt lat="42.554426" lon="-2.764619">
      <ele>448</ele>
    </trkpt>
    <trkpt lat="42.554521" lon="-2.764742">
      <ele>448.2</ele>
    </trkpt>
    <trkpt lat="42.555187" lon="-2.76367">
      <ele>447.3</ele>
    </trkpt>
    <trkpt lat="42.555311" lon="-2.763377">
      <ele>446.3</ele>
    </trkpt>
    <trkpt lat="42.555606" lon="-2.762857">
      <ele>444.7</ele>
    </trkpt>
    <trkpt lat="42.555751" lon="-2.76252">
      <ele>443.9</ele>
    </trkpt>
    <trkpt lat="42.555861" lon="-2.762421">
      <ele>443.6</ele>
    </trkpt>
    <trkpt lat="42.555979" lon="-2.762396">
      <ele>443.4</ele>
    </trkpt>
    <trkpt lat="42.55604" lon="-2.762413">
      <ele>443.3</ele>
    </trkpt>
    <trkpt lat="42.556062" lon="-2.762426">
      <ele>443.2</ele>
    </trkpt>
    <trkpt lat="42.556263" lon="-2.762551">
      <ele>442.9</ele>
    </trkpt>
    <trkpt lat="42.556398" lon="-2.76257">
      <ele>442.7</ele>
    </trkpt>
    <trkpt lat="42.55734" lon="-2.762605">
      <ele>442</ele>
    </trkpt>
    <trkpt lat="42.557683" lon="-2.762644">
      <ele>441.6</ele>
    </trkpt>
    <trkpt lat="42.559461" lon="-2.762975">
      <ele>435.3</ele>
    </trkpt>
    <trkpt lat="42.559587" lon="-2.762946">
      <ele>434.8</ele>
    </trkpt>
    <trkpt lat="42.559647" lon="-2.762828">
      <ele>434.5</ele>
    </trkpt>
    <trkpt lat="42.559671" lon="-2.762838">
      <ele>434.5</ele>
    </trkpt>
    <trkpt lat="42.559725" lon="-2.762434">
      <ele>433.7</ele>
    </trkpt>
    <trkpt lat="42.559769" lon="-2.762404">
      <ele>433.5</ele>
    </trkpt>
    <trkpt lat="42.559738" lon="-2.762352">
      <ele>433.4</ele>
    </trkpt>
    <trkpt lat="42.559762" lon="-2.762178">
      <ele>433.1</ele>
    </trkpt>
    <trkpt lat="42.559738" lon="-2.762352">
      <ele>432.8</ele>
    </trkpt>
    <trkpt lat="42.559769" lon="-2.762404">
      <ele>432.6</ele>
    </trkpt>
    <trkpt lat="42.559725" lon="-2.762434">
      <ele>432.5</ele>
    </trkpt>
    <trkpt lat="42.559671" lon="-2.762838">
      <ele>431.8</ele>
    </trkpt>
    <trkpt lat="42.559647" lon="-2.762828">
      <ele>431.8</ele>
    </trkpt>
    <trkpt lat="42.559795" lon="-2.761782">
      <ele>432.6</ele>
    </trkpt>
    <trkpt lat="42.559978" lon="-2.760077">
      <ele>434</ele>
    </trkpt>
    <trkpt lat="42.56001" lon="-2.759903">
      <ele>434.6</ele>
    </trkpt>
    <trkpt lat="42.560567" lon="-2.760113">
      <ele>438.1</ele>
    </trkpt>
    <trkpt lat="42.561242" lon="-2.760294">
      <ele>442</ele>
    </trkpt>
    <trkpt lat="42.562295" lon="-2.76109">
      <ele>446.1</ele>
    </trkpt>
    <trkpt lat="42.562724" lon="-2.761545">
      <ele>447</ele>
    </trkpt>
    <trkpt lat="42.562973" lon="-2.761808">
      <ele>447.6</ele>
    </trkpt>
    <trkpt lat="42.563409" lon="-2.762077">
      <ele>448.9</ele>
    </trkpt>
    <trkpt lat="42.563867" lon="-2.76281">
      <ele>449.6</ele>
    </trkpt>
    <trkpt lat="42.563935" lon="-2.762869">
      <ele>449.4</ele>
    </trkpt>
    <trkpt lat="42.564011" lon="-2.762855">
      <ele>449.5</ele>
    </trkpt>
    <trkpt lat="42.564096" lon="-2.763189">
      <ele>449</ele>
    </trkpt>
    <trkpt lat="42.56429" lon="-2.763617">
      <ele>448.3</ele>
    </trkpt>
    <trkpt lat="42.564892" lon="-2.764393">
      <ele>446.4</ele>
    </trkpt>
    <trkpt lat="42.56535" lon="-2.76504">
      <ele>444.6</ele>
    </trkpt>
    <trkpt lat="42.565952" lon="-2.765508">
      <ele>442.2</ele>
    </trkpt>
    <trkpt lat="42.566499" lon="-2.766135">
      <ele>439.1</ele>
    </trkpt>
    <trkpt lat="42.566624" lon="-2.766373">
      <ele>438.1</ele>
    </trkpt>
    <trkpt lat="42.566783" lon="-2.767618">
      <ele>434.4</ele>
    </trkpt>
    <trkpt lat="42.566768" lon="-2.767971">
      <ele>433.7</ele>
    </trkpt>
    <trkpt lat="42.566634" lon="-2.768205">
      <ele>433.3</ele>
    </trkpt>
    <trkpt lat="42.566151" lon="-2.768603">
      <ele>432.6</ele>
    </trkpt>
    <trkpt lat="42.565917" lon="-2.768896">
      <ele>432.4</ele>
    </trkpt>
    <trkpt lat="42.565265" lon="-2.770056">
      <ele>432.8</ele>
    </trkpt>
    <trkpt lat="42.564623" lon="-2.771295">
      <ele>434.3</ele>
    </trkpt>
    <trkpt lat="42.56438" lon="-2.771838">
      <ele>434.9</ele>
    </trkpt>
    <trkpt lat="42.563663" lon="-2.772753">
      <ele>436.1</ele>
    </trkpt>
    <trkpt lat="42.563369" lon="-2.773345">
      <ele>436.2</ele>
    </trkpt>
    <trkpt lat="42.563215" lon="-2.773788">
      <ele>436.4</ele>
    </trkpt>
    <trkpt lat="42.563016" lon="-2.774589">
      <ele>437.3</ele>
    </trkpt>
    <trkpt lat="42.562862" lon="-2.774818">
      <ele>437.8</ele>
    </trkpt>
    <trkpt lat="42.562826" lon="-2.774846">
      <ele>437.9</ele>
    </trkpt>
    <trkpt lat="42.562807" lon="-2.77486">
      <ele>438</ele>
    </trkpt>
    <trkpt lat="42.562767" lon="-2.774888">
      <ele>438.2</ele>
    </trkpt>
    <trkpt lat="42.562613" lon="-2.774793">
      <ele>438.8</ele>
    </trkpt>
    <trkpt lat="42.562389" lon="-2.774709">
      <ele>439.7</ele>
    </trkpt>
    <trkpt lat="42.56215" lon="-2.774719">
      <ele>440.9</ele>
    </trkpt>
    <trkpt lat="42.561817" lon="-2.774898">
      <ele>442.8</ele>
    </trkpt>
    <trkpt lat="42.561558" lon="-2.775167">
      <ele>444.5</ele>
    </trkpt>
    <trkpt lat="42.560931" lon="-2.7756">
      <ele>447.8</ele>
    </trkpt>
    <trkpt lat="42.560637" lon="-2.775953">
      <ele>449.1</ele>
    </trkpt>
    <trkpt lat="42.560438" lon="-2.776341">
      <ele>450</ele>
    </trkpt>
    <trkpt lat="42.560269" lon="-2.776615">
      <ele>450.6</ele>
    </trkpt>
    <trkpt lat="42.560219" lon="-2.776874">
      <ele>451</ele>
    </trkpt>
    <trkpt lat="42.560254" lon="-2.777192">
      <ele>451.5</ele>
    </trkpt>
    <trkpt lat="42.560433" lon="-2.77771">
      <ele>452.4</ele>
    </trkpt>
    <trkpt lat="42.560667" lon="-2.778128">
      <ele>453.1</ele>
    </trkpt>
    <trkpt lat="42.560896" lon="-2.778317">
      <ele>453.5</ele>
    </trkpt>
    <trkpt lat="42.56118" lon="-2.778416">
      <ele>453.7</ele>
    </trkpt>
    <trkpt lat="42.561354" lon="-2.778367">
      <ele>453.8</ele>
    </trkpt>
    <trkpt lat="42.561503" lon="-2.778257">
      <ele>453.9</ele>
    </trkpt>
    <trkpt lat="42.561638" lon="-2.778272">
      <ele>453.8</ele>
    </trkpt>
    <trkpt lat="42.561777" lon="-2.778396">
      <ele>453.8</ele>
    </trkpt>
    <trkpt lat="42.562245" lon="-2.779412">
      <ele>452.6</ele>
    </trkpt>
    <trkpt lat="42.562245" lon="-2.779581">
      <ele>452.3</ele>
    </trkpt>
    <trkpt lat="42.562135" lon="-2.77981">
      <ele>451.8</ele>
    </trkpt>
    <trkpt lat="42.561558" lon="-2.780277">
      <ele>449.5</ele>
    </trkpt>
    <trkpt lat="42.561379" lon="-2.780521">
      <ele>448.5</ele>
    </trkpt>
    <trkpt lat="42.561359" lon="-2.78078">
      <ele>447.7</ele>
    </trkpt>
    <trkpt lat="42.561394" lon="-2.781039">
      <ele>446.9</ele>
    </trkpt>
    <trkpt lat="42.561399" lon="-2.781288">
      <ele>446.2</ele>
    </trkpt>
    <trkpt lat="42.561354" lon="-2.781646">
      <ele>445.4</ele>
    </trkpt>
    <trkpt lat="42.561409" lon="-2.781795">
      <ele>445.1</ele>
    </trkpt>
    <trkpt lat="42.561613" lon="-2.781905">
      <ele>444.7</ele>
    </trkpt>
    <trkpt lat="42.561941" lon="-2.781989">
      <ele>444.5</ele>
    </trkpt>
    <trkpt lat="42.56223" lon="-2.782009">
      <ele>444.9</ele>
    </trkpt>
    <trkpt lat="42.563275" lon="-2.782348">
      <ele>446.3</ele>
    </trkpt>
    <trkpt lat="42.563608" lon="-2.782512">
      <ele>446.2</ele>
    </trkpt>
    <trkpt lat="42.564101" lon="-2.782989">
      <ele>445.3</ele>
    </trkpt>
    <trkpt lat="42.565101" lon="-2.784093">
      <ele>443</ele>
    </trkpt>
    <trkpt lat="42.56521" lon="-2.784213">
      <ele>442.8</ele>
    </trkpt>
    <trkpt lat="42.565435" lon="-2.784386">
      <ele>442.3</ele>
    </trkpt>
    <trkpt lat="42.565739" lon="-2.784464">
      <ele>441.7</ele>
    </trkpt>
    <trkpt lat="42.566113" lon="-2.785358">
      <ele>439.7</ele>
    </trkpt>
    <trkpt lat="42.566268" lon="-2.786173">
      <ele>438.2</ele>
    </trkpt>
    <trkpt lat="42.566371" lon="-2.786937">
      <ele>437.3</ele>
    </trkpt>
    <trkpt lat="42.566423" lon="-2.787711">
      <ele>436.9</ele>
    </trkpt>
    <trkpt lat="42.566629" lon="-2.788567">
      <ele>437.6</ele>
    </trkpt>
    <trkpt lat="42.566746" lon="-2.788857">
      <ele>437.8</ele>
    </trkpt>
    <trkpt lat="42.566938" lon="-2.788888">
      <ele>438.1</ele>
    </trkpt>
    <trkpt lat="42.567125" lon="-2.788815">
      <ele>438.4</ele>
    </trkpt>
    <trkpt lat="42.567351" lon="-2.789">
      <ele>438.9</ele>
    </trkpt>
    <trkpt lat="42.567413" lon="-2.789248">
      <ele>439.4</ele>
    </trkpt>
    <trkpt lat="42.567372" lon="-2.789455">
      <ele>439.8</ele>
    </trkpt>
    <trkpt lat="42.567186" lon="-2.78962">
      <ele>440.5</ele>
    </trkpt>
    <trkpt lat="42.567145" lon="-2.790043">
      <ele>441.4</ele>
    </trkpt>
    <trkpt lat="42.567228" lon="-2.790868">
      <ele>443.1</ele>
    </trkpt>
    <trkpt lat="42.567217" lon="-2.791364">
      <ele>444.3</ele>
    </trkpt>
    <trkpt lat="42.567104" lon="-2.791952">
      <ele>445.4</ele>
    </trkpt>
    <trkpt lat="42.567248" lon="-2.792829">
      <ele>446</ele>
    </trkpt>
    <trkpt lat="42.5673" lon="-2.793324">
      <ele>445.8</ele>
    </trkpt>
    <trkpt lat="42.567423" lon="-2.793623">
      <ele>445.4</ele>
    </trkpt>
    <trkpt lat="42.567651" lon="-2.793902">
      <ele>444.9</ele>
    </trkpt>
    <trkpt lat="42.567774" lon="-2.794346">
      <ele>444.3</ele>
    </trkpt>
    <trkpt lat="42.567847" lon="-2.794707">
      <ele>443.9</ele>
    </trkpt>
    <trkpt lat="42.568094" lon="-2.795223">
      <ele>443.4</ele>
    </trkpt>
    <trkpt lat="42.568352" lon="-2.795924">
      <ele>443.4</ele>
    </trkpt>
    <trkpt lat="42.568703" lon="-2.796606">
      <ele>443.9</ele>
    </trkpt>
    <trkpt lat="42.569013" lon="-2.797286">
      <ele>444.4</ele>
    </trkpt>
    <trkpt lat="42.569354" lon="-2.798535">
      <ele>445.1</ele>
    </trkpt>
    <trkpt lat="42.569374" lon="-2.798607">
      <ele>445.1</ele>
    </trkpt>
    <trkpt lat="42.569663" lon="-2.799067">
      <ele>445.1</ele>
    </trkpt>
    <trkpt lat="42.569869" lon="-2.799593">
      <ele>445.2</ele>
    </trkpt>
    <trkpt lat="42.570045" lon="-2.800388">
      <ele>445.3</ele>
    </trkpt>
    <trkpt lat="42.570199" lon="-2.800687">
      <ele>445.1</ele>
    </trkpt>
    <trkpt lat="42.570447" lon="-2.800894">
      <ele>444.8</ele>
    </trkpt>
    <trkpt lat="42.570633" lon="-2.80111">
      <ele>444.4</ele>
    </trkpt>
    <trkpt lat="42.570684" lon="-2.801296">
      <ele>444.1</ele>
    </trkpt>
    <trkpt lat="42.570573" lon="-2.801285">
      <ele>443.8</ele>
    </trkpt>
    <trkpt lat="42.570438" lon="-2.801422">
      <ele>443.4</ele>
    </trkpt>
    <trkpt lat="42.570332" lon="-2.801646">
      <ele>442.8</ele>
    </trkpt>
    <trkpt lat="42.570206" lon="-2.801769">
      <ele>442.2</ele>
    </trkpt>
    <trkpt lat="42.569924" lon="-2.801844">
      <ele>441</ele>
    </trkpt>
    <trkpt lat="42.569585" lon="-2.801999">
      <ele>439.4</ele>
    </trkpt>
    <trkpt lat="42.569327" lon="-2.802247">
      <ele>438.4</ele>
    </trkpt>
    <trkpt lat="42.569155" lon="-2.802535">
      <ele>437.8</ele>
    </trkpt>
    <trkpt lat="42.56926" lon="-2.802786">
      <ele>437.5</ele>
    </trkpt>
    <trkpt lat="42.569456" lon="-2.803154">
      <ele>437.2</ele>
    </trkpt>
    <trkpt lat="42.570457" lon="-2.804443">
      <ele>438.6</ele>
    </trkpt>
    <trkpt lat="42.571035" lon="-2.80529">
      <ele>439.5</ele>
    </trkpt>
    <trkpt lat="42.571376" lon="-2.805609">
      <ele>439.5</ele>
    </trkpt>
    <trkpt lat="42.571572" lon="-2.805919">
      <ele>439.2</ele>
    </trkpt>
    <trkpt lat="42.571634" lon="-2.806641">
      <ele>438.3</ele>
    </trkpt>
    <trkpt lat="42.571753" lon="-2.807109">
      <ele>437.4</ele>
    </trkpt>
    <trkpt lat="42.571811" lon="-2.807449">
      <ele>436.6</ele>
    </trkpt>
    <trkpt lat="42.57171" lon="-2.808">
      <ele>435.9</ele>
    </trkpt>
    <trkpt lat="42.571683" lon="-2.808437">
      <ele>435.7</ele>
    </trkpt>
    <trkpt lat="42.571731" lon="-2.808712">
      <ele>435.8</ele>
    </trkpt>
    <trkpt lat="42.57185" lon="-2.808788">
      <ele>435.9</ele>
    </trkpt>
    <trkpt lat="42.572088" lon="-2.808829">
      <ele>436.3</ele>
    </trkpt>
    <trkpt lat="42.572253" lon="-2.808953">
      <ele>436.6</ele>
    </trkpt>
    <trkpt lat="42.572428" lon="-2.809489">
      <ele>437.6</ele>
    </trkpt>
    <trkpt lat="42.572779" lon="-2.809634">
      <ele>438.3</ele>
    </trkpt>
    <trkpt lat="42.572717" lon="-2.809709">
      <ele>438.4</ele>
    </trkpt>
    <trkpt lat="42.572693" lon="-2.809782">
      <ele>438.5</ele>
    </trkpt>
    <trkpt lat="42.572592" lon="-2.80994">
      <ele>438.6</ele>
    </trkpt>
    <trkpt lat="42.571865" lon="-2.80994">
      <ele>438.6</ele>
    </trkpt>
    <trkpt lat="42.5717" lon="-2.810013">
      <ele>438.4</ele>
    </trkpt>
    <trkpt lat="42.571528" lon="-2.810303">
      <ele>438.1</ele>
    </trkpt>
    <trkpt lat="42.571258" lon="-2.810871">
      <ele>437.9</ele>
    </trkpt>
    <trkpt lat="42.571165" lon="-2.811122">
      <ele>437.8</ele>
    </trkpt>
    <trkpt lat="42.571013" lon="-2.811393">
      <ele>437.8</ele>
    </trkpt>
    <trkpt lat="42.570822" lon="-2.81239">
      <ele>437.9</ele>
    </trkpt>
    <trkpt lat="42.570511" lon="-2.813255">
      <ele>437.4</ele>
    </trkpt>
    <trkpt lat="42.570439" lon="-2.813572">
      <ele>437.1</ele>
    </trkpt>
    <trkpt lat="42.570247" lon="-2.813777">
      <ele>436.8</ele>
    </trkpt>
    <trkpt lat="42.570069" lon="-2.814094">
      <ele>436.6</ele>
    </trkpt>
    <trkpt lat="42.569725" lon="-2.81485">
      <ele>436.2</ele>
    </trkpt>
    <trkpt lat="42.569551" lon="-2.815437">
      <ele>436.5</ele>
    </trkpt>
    <trkpt lat="42.569401" lon="-2.815688">
      <ele>436.9</ele>
    </trkpt>
    <trkpt lat="42.5692" lon="-2.815933">
      <ele>437.3</ele>
    </trkpt>
    <trkpt lat="42.568798" lon="-2.81628">
      <ele>438.2</ele>
    </trkpt>
    <trkpt lat="42.56863" lon="-2.81667">
      <ele>438.6</ele>
    </trkpt>
    <trkpt lat="42.568418" lon="-2.816737">
      <ele>438.8</ele>
    </trkpt>
    <trkpt lat="42.568072" lon="-2.816972">
      <ele>439</ele>
    </trkpt>
    <trkpt lat="42.56782" lon="-2.817096">
      <ele>438.9</ele>
    </trkpt>
    <trkpt lat="42.567642" lon="-2.817252">
      <ele>438.7</ele>
    </trkpt>
    <trkpt lat="42.567462" lon="-2.817333">
      <ele>438.5</ele>
    </trkpt>
    <trkpt lat="42.567168" lon="-2.817296">
      <ele>438</ele>
    </trkpt>
    <trkpt lat="42.566855" lon="-2.817218">
      <ele>437.3</ele>
    </trkpt>
    <trkpt lat="42.566431" lon="-2.817285">
      <ele>436.4</ele>
    </trkpt>
    <trkpt lat="42.566076" lon="-2.81749">
      <ele>435.6</ele>
    </trkpt>
    <trkpt lat="42.565571" lon="-2.817675">
      <ele>435.1</ele>
    </trkpt>
    <trkpt lat="42.565292" lon="-2.817843">
      <ele>435.1</ele>
    </trkpt>
    <trkpt lat="42.564655" lon="-2.81801">
      <ele>435.6</ele>
    </trkpt>
    <trkpt lat="42.563918" lon="-2.818446">
      <ele>437.5</ele>
    </trkpt>
    <trkpt lat="42.563382" lon="-2.818613">
      <ele>440.3</ele>
    </trkpt>
    <trkpt lat="42.563104" lon="-2.818658">
      <ele>442</ele>
    </trkpt>
    <trkpt lat="42.563042" lon="-2.81914">
      <ele>444.3</ele>
    </trkpt>
    <trkpt lat="42.563025" lon="-2.819585">
      <ele>446.6</ele>
    </trkpt>
    <trkpt lat="42.562869" lon="-2.820188">
      <ele>449.7</ele>
    </trkpt>
    <trkpt lat="42.562791" lon="-2.820768">
      <ele>451.9</ele>
    </trkpt>
    <trkpt lat="42.562556" lon="-2.821248">
      <ele>453.2</ele>
    </trkpt>
    <trkpt lat="42.562333" lon="-2.821461">
      <ele>453.8</ele>
    </trkpt>
    <trkpt lat="42.562087" lon="-2.822052">
      <ele>454.5</ele>
    </trkpt>
    <trkpt lat="42.561875" lon="-2.822465">
      <ele>454.8</ele>
    </trkpt>
    <trkpt lat="42.561596" lon="-2.822734">
      <ele>454.9</ele>
    </trkpt>
    <trkpt lat="42.561428" lon="-2.823091">
      <ele>455</ele>
    </trkpt>
    <trkpt lat="42.561562" lon="-2.824464">
      <ele>453.8</ele>
    </trkpt>
    <trkpt lat="42.561471" lon="-2.825631">
      <ele>451.9</ele>
    </trkpt>
    <trkpt lat="42.563382" lon="-2.826429">
      <ele>448.1</ele>
    </trkpt>
    <trkpt lat="42.563795" lon="-2.826697">
      <ele>447.6</ele>
    </trkpt>
    <trkpt lat="42.564209" lon="-2.827088">
      <ele>447.5</ele>
    </trkpt>
    <trkpt lat="42.564227" lon="-2.827092">
      <ele>447.6</ele>
    </trkpt>
    <trkpt lat="42.564555" lon="-2.827166">
      <ele>447.8</ele>
    </trkpt>
    <trkpt lat="42.565225" lon="-2.82749">
      <ele>448.2</ele>
    </trkpt>
    <trkpt lat="42.565416" lon="-2.827619">
      <ele>448.2</ele>
    </trkpt>
    <trkpt lat="42.565515" lon="-2.827702">
      <ele>448.2</ele>
    </trkpt>
    <trkpt lat="42.565995" lon="-2.828495">
      <ele>447.7</ele>
    </trkpt>
    <trkpt lat="42.566245" lon="-2.82909">
      <ele>446.5</ele>
    </trkpt>
    <trkpt lat="42.56662" lon="-2.829969">
      <ele>445.2</ele>
    </trkpt>
    <trkpt lat="42.567101" lon="-2.830672">
      <ele>444.1</ele>
    </trkpt>
    <trkpt lat="42.567335" lon="-2.831242">
      <ele>443.5</ele>
    </trkpt>
    <trkpt lat="42.567536" lon="-2.831532">
      <ele>443.1</ele>
    </trkpt>
    <trkpt lat="42.567871" lon="-2.831577">
      <ele>442.9</ele>
    </trkpt>
    <trkpt lat="42.568853" lon="-2.831268">
      <ele>442.3</ele>
    </trkpt>
    <trkpt lat="42.569088" lon="-2.831287">
      <ele>442.3</ele>
    </trkpt>
    <trkpt lat="42.569423" lon="-2.831432">
      <ele>442.2</ele>
    </trkpt>
    <trkpt lat="42.569859" lon="-2.831443">
      <ele>442.1</ele>
    </trkpt>
    <trkpt lat="42.570394" lon="-2.831342">
      <ele>441.9</ele>
    </trkpt>
    <trkpt lat="42.570947" lon="-2.831402">
      <ele>441.8</ele>
    </trkpt>
    <trkpt lat="42.57154" lon="-2.831324">
      <ele>441.9</ele>
    </trkpt>
    <trkpt lat="42.572203" lon="-2.831342">
      <ele>442.5</ele>
    </trkpt>
    <trkpt lat="42.573119" lon="-2.831253">
      <ele>442.7</ele>
    </trkpt>
    <trkpt lat="42.573207" lon="-2.831178">
      <ele>442.6</ele>
    </trkpt>
    <trkpt lat="42.573591" lon="-2.831887">
      <ele>442.1</ele>
    </trkpt>
    <trkpt lat="42.573873" lon="-2.832331">
      <ele>441.7</ele>
    </trkpt>
    <trkpt lat="42.574104" lon="-2.83264">
      <ele>441.3</ele>
    </trkpt>
    <trkpt lat="42.574415" lon="-2.832921">
      <ele>441</ele>
    </trkpt>
    <trkpt lat="42.574816" lon="-2.833185">
      <ele>440.9</ele>
    </trkpt>
    <trkpt lat="42.575068" lon="-2.833415">
      <ele>440.9</ele>
    </trkpt>
    <trkpt lat="42.575652" lon="-2.834112">
      <ele>441</ele>
    </trkpt>
    <trkpt lat="42.575883" lon="-2.834303">
      <ele>441.1</ele>
    </trkpt>
    <trkpt lat="42.576885" lon="-2.835022">
      <ele>441.7</ele>
    </trkpt>
    <trkpt lat="42.577116" lon="-2.835044">
      <ele>441.8</ele>
    </trkpt>
    <trkpt lat="42.577269" lon="-2.835151">
      <ele>441.8</ele>
    </trkpt>
    <trkpt lat="42.577724" lon="-2.835623">
      <ele>441.8</ele>
    </trkpt>
    <trkpt lat="42.577952" lon="-2.835797">
      <ele>441.8</ele>
    </trkpt>
    <trkpt lat="42.57813" lon="-2.83587">
      <ele>441.8</ele>
    </trkpt>
    <trkpt lat="42.578304" lon="-2.836168">
      <ele>441.8</ele>
    </trkpt>
    <trkpt lat="42.578498" lon="-2.836398">
      <ele>442</ele>
    </trkpt>
    <trkpt lat="42.578788" lon="-2.836629">
      <ele>442.3</ele>
    </trkpt>
    <trkpt lat="42.579197" lon="-2.836848">
      <ele>442.9</ele>
    </trkpt>
    <trkpt lat="42.579454" lon="-2.836932">
      <ele>443.3</ele>
    </trkpt>
    <trkpt lat="42.579615" lon="-2.836949">
      <ele>443.5</ele>
    </trkpt>
    <trkpt lat="42.579776" lon="-2.83687">
      <ele>443.6</ele>
    </trkpt>
    <trkpt lat="42.58014" lon="-2.836612">
      <ele>443.9</ele>
    </trkpt>
    <trkpt lat="42.58031" lon="-2.836612">
      <ele>444.2</ele>
    </trkpt>
    <trkpt lat="42.580662" lon="-2.836792">
      <ele>445.2</ele>
    </trkpt>
    <trkpt lat="42.58091" lon="-2.836859">
      <ele>446.1</ele>
    </trkpt>
    <trkpt lat="42.581003" lon="-2.836851">
      <ele>446.5</ele>
    </trkpt>
    <trkpt lat="42.58084" lon="-2.835943">
      <ele>449.8</ele>
    </trkpt>
    <trkpt lat="42.580673" lon="-2.835164">
      <ele>453.1</ele>
    </trkpt>
    <trkpt lat="42.580649" lon="-2.83505">
      <ele>453.5</ele>
    </trkpt>
    <trkpt lat="42.580665" lon="-2.834676">
      <ele>454.7</ele>
    </trkpt>
    <trkpt lat="42.580674" lon="-2.834601">
      <ele>454.9</ele>
    </trkpt>
    <trkpt lat="42.580757" lon="-2.834415">
      <ele>455.4</ele>
    </trkpt>
    <trkpt lat="42.580757" lon="-2.833859">
      <ele>456.2</ele>
    </trkpt>
    <trkpt lat="42.580633" lon="-2.832893">
      <ele>456.7</ele>
    </trkpt>
    <trkpt lat="42.580695" lon="-2.832533">
      <ele>456.9</ele>
    </trkpt>
    <trkpt lat="42.580736" lon="-2.831174">
      <ele>457.9</ele>
    </trkpt>
    <trkpt lat="42.580835" lon="-2.830877">
      <ele>458.3</ele>
    </trkpt>
    <trkpt lat="42.580756" lon="-2.830527">
      <ele>458.7</ele>
    </trkpt>
    <trkpt lat="42.580589" lon="-2.829623">
      <ele>458.9</ele>
    </trkpt>
    <trkpt lat="42.580593" lon="-2.829419">
      <ele>458.8</ele>
    </trkpt>
    <trkpt lat="42.580629" lon="-2.829344">
      <ele>458.7</ele>
    </trkpt>
    <trkpt lat="42.580699" lon="-2.829282">
      <ele>458.7</ele>
    </trkpt>
    <trkpt lat="42.580996" lon="-2.829823">
      <ele>457.8</ele>
    </trkpt>
    <trkpt lat="42.581189" lon="-2.830069">
      <ele>457</ele>
    </trkpt>
    <trkpt lat="42.581434" lon="-2.83033">
      <ele>455.7</ele>
    </trkpt>
    <trkpt lat="42.582574" lon="-2.831358">
      <ele>450.4</ele>
    </trkpt>
    <trkpt lat="42.583042" lon="-2.83175">
      <ele>448.5</ele>
    </trkpt>
    <trkpt lat="42.583393" lon="-2.832006">
      <ele>447.1</ele>
    </trkpt>
    <trkpt lat="42.584025" lon="-2.832394">
      <ele>444.7</ele>
    </trkpt>
    <trkpt lat="42.584539" lon="-2.832695">
      <ele>443.1</ele>
    </trkpt>
    <trkpt lat="42.585043" lon="-2.832999">
      <ele>441.9</ele>
    </trkpt>
    <trkpt lat="42.585207" lon="-2.833131">
      <ele>441.5</ele>
    </trkpt>
    <trkpt lat="42.585346" lon="-2.833347">
      <ele>441.2</ele>
    </trkpt>
    <trkpt lat="42.585391" lon="-2.833466">
      <ele>441</ele>
    </trkpt>
    <trkpt lat="42.585427" lon="-2.833716">
      <ele>440.8</ele>
    </trkpt>
    <trkpt lat="42.58538" lon="-2.834134">
      <ele>440.7</ele>
    </trkpt>
    <trkpt lat="42.58519" lon="-2.834912">
      <ele>440.7</ele>
    </trkpt>
    <trkpt lat="42.585568" lon="-2.83459">
      <ele>440.8</ele>
    </trkpt>
    <trkpt lat="42.585701" lon="-2.834398">
      <ele>440.9</ele>
    </trkpt>
    <trkpt lat="42.58599" lon="-2.833516">
      <ele>441.1</ele>
    </trkpt>
    <trkpt lat="42.586344" lon="-2.832466">
      <ele>441.1</ele>
    </trkpt>
    <trkpt lat="42.586506" lon="-2.832046">
      <ele>441.1</ele>
    </trkpt>
    <trkpt lat="42.586708" lon="-2.831692">
      <ele>441.2</ele>
    </trkpt>
    <trkpt lat="42.587133" lon="-2.831209">
      <ele>441.4</ele>
    </trkpt>
    <trkpt lat="42.587276" lon="-2.830548">
      <ele>441.6</ele>
    </trkpt>
    <trkpt lat="42.587335" lon="-2.830016">
      <ele>441.8</ele>
    </trkpt>
    <trkpt lat="42.587577" lon="-2.829341">
      <ele>441.8</ele>
    </trkpt>
    <trkpt lat="42.587691" lon="-2.828939">
      <ele>441.7</ele>
    </trkpt>
    <trkpt lat="42.587764" lon="-2.828177">
      <ele>441.5</ele>
    </trkpt>
    <trkpt lat="42.587888" lon="-2.82774">
      <ele>441.6</ele>
    </trkpt>
    <trkpt lat="42.587982" lon="-2.827546">
      <ele>441.6</ele>
    </trkpt>
    <trkpt lat="42.58857" lon="-2.826717">
      <ele>441.8</ele>
    </trkpt>
    <trkpt lat="42.588813" lon="-2.826167">
      <ele>442.1</ele>
    </trkpt>
    <trkpt lat="42.589278" lon="-2.82515">
      <ele>442.2</ele>
    </trkpt>
    <trkpt lat="42.58954" lon="-2.824689">
      <ele>442.2</ele>
    </trkpt>
    <trkpt lat="42.590535" lon="-2.823149">
      <ele>442.5</ele>
    </trkpt>
    <trkpt lat="42.590779" lon="-2.822843">
      <ele>442.7</ele>
    </trkpt>
    <trkpt lat="42.591073" lon="-2.822568">
      <ele>442.9</ele>
    </trkpt>
    <trkpt lat="42.591889" lon="-2.822007">
      <ele>443.3</ele>
    </trkpt>
    <trkpt lat="42.592227" lon="-2.821831">
      <ele>443.4</ele>
    </trkpt>
    <trkpt lat="42.593211" lon="-2.821504">
      <ele>443.7</ele>
    </trkpt>
    <trkpt lat="42.595066" lon="-2.820806">
      <ele>445.1</ele>
    </trkpt>
    <trkpt lat="42.595347" lon="-2.820751">
      <ele>445.3</ele>
    </trkpt>
    <trkpt lat="42.596925" lon="-2.820266">
      <ele>445.9</ele>
    </trkpt>
    <trkpt lat="42.597167" lon="-2.820093">
      <ele>446.1</ele>
    </trkpt>
    <trkpt lat="42.59725" lon="-2.820065">
      <ele>446.2</ele>
    </trkpt>
    <trkpt lat="42.597351" lon="-2.820031">
      <ele>446.3</ele>
    </trkpt>
    <trkpt lat="42.597685" lon="-2.820156">
      <ele>446.6</ele>
    </trkpt>
    <trkpt lat="42.597823" lon="-2.820156">
      <ele>446.7</ele>
    </trkpt>
    <trkpt lat="42.598226" lon="-2.820531">
      <ele>447.3</ele>
    </trkpt>
    <trkpt lat="42.598434" lon="-2.820625">
      <ele>447.7</ele>
    </trkpt>
    <trkpt lat="42.598698" lon="-2.820876">
      <ele>448.3</ele>
    </trkpt>
    <trkpt lat="42.598917" lon="-2.821236">
      <ele>449.1</ele>
    </trkpt>
    <trkpt lat="42.599125" lon="-2.82219">
      <ele>451.2</ele>
    </trkpt>
    <trkpt lat="42.599125" lon="-2.822242">
      <ele>451.4</ele>
    </trkpt>
    <trkpt lat="42.599125" lon="-2.822519">
      <ele>452</ele>
    </trkpt>
    <trkpt lat="42.599078" lon="-2.822847">
      <ele>452.8</ele>
    </trkpt>
    <trkpt lat="42.598963" lon="-2.823207">
      <ele>453.5</ele>
    </trkpt>
    <trkpt lat="42.598952" lon="-2.823426">
      <ele>453.8</ele>
    </trkpt>
    <trkpt lat="42.598871" lon="-2.823801">
      <ele>454.3</ele>
    </trkpt>
    <trkpt lat="42.598883" lon="-2.824036">
      <ele>454.4</ele>
    </trkpt>
    <trkpt lat="42.598975" lon="-2.824286">
      <ele>454.5</ele>
    </trkpt>
    <trkpt lat="42.598998" lon="-2.824615">
      <ele>454.5</ele>
    </trkpt>
    <trkpt lat="42.599078" lon="-2.824803">
      <ele>454.4</ele>
    </trkpt>
    <trkpt lat="42.599113" lon="-2.825288">
      <ele>454.1</ele>
    </trkpt>
    <trkpt lat="42.599102" lon="-2.825757">
      <ele>454</ele>
    </trkpt>
    <trkpt lat="42.599032" lon="-2.826148">
      <ele>454.2</ele>
    </trkpt>
    <trkpt lat="42.598825" lon="-2.826586">
      <ele>454.6</ele>
    </trkpt>
    <trkpt lat="42.598203" lon="-2.827181">
      <ele>456.3</ele>
    </trkpt>
    <trkpt lat="42.597558" lon="-2.827971">
      <ele>459.1</ele>
    </trkpt>
    <trkpt lat="42.596928" lon="-2.828857">
      <ele>460.8</ele>
    </trkpt>
    <trkpt lat="42.596465" lon="-2.829832">
      <ele>460.9</ele>
    </trkpt>
    <trkpt lat="42.596202" lon="-2.83031">
      <ele>460.5</ele>
    </trkpt>
    <trkpt lat="42.595775" lon="-2.831007">
      <ele>459.8</ele>
    </trkpt>
    <trkpt lat="42.595416" lon="-2.831399">
      <ele>459.5</ele>
    </trkpt>
    <trkpt lat="42.595166" lon="-2.831618">
      <ele>459.5</ele>
    </trkpt>
    <trkpt lat="42.595008" lon="-2.831813">
      <ele>459.6</ele>
    </trkpt>
    <trkpt lat="42.594611" lon="-2.832555">
      <ele>460.2</ele>
    </trkpt>
    <trkpt lat="42.59419" lon="-2.833503">
      <ele>461.1</ele>
    </trkpt>
    <trkpt lat="42.593903" lon="-2.834052">
      <ele>461.4</ele>
    </trkpt>
    <trkpt lat="42.593383" lon="-2.834739">
      <ele>461</ele>
    </trkpt>
    <trkpt lat="42.593099" lon="-2.835193">
      <ele>460.4</ele>
    </trkpt>
    <trkpt lat="42.592728" lon="-2.835534">
      <ele>459.8</ele>
    </trkpt>
    <trkpt lat="42.592322" lon="-2.835846">
      <ele>459.7</ele>
    </trkpt>
    <trkpt lat="42.592225" lon="-2.836309">
      <ele>460</ele>
    </trkpt>
    <trkpt lat="42.59218" lon="-2.836605">
      <ele>460.4</ele>
    </trkpt>
    <trkpt lat="42.592185" lon="-2.836934">
      <ele>461.1</ele>
    </trkpt>
    <trkpt lat="42.592135" lon="-2.837188">
      <ele>462</ele>
    </trkpt>
    <trkpt lat="42.591742" lon="-2.837879">
      <ele>465.2</ele>
    </trkpt>
    <trkpt lat="42.591404" lon="-2.83819">
      <ele>466.5</ele>
    </trkpt>
    <trkpt lat="42.591256" lon="-2.838419">
      <ele>466.8</ele>
    </trkpt>
    <trkpt lat="42.59121" lon="-2.838638">
      <ele>466.8</ele>
    </trkpt>
    <trkpt lat="42.591245" lon="-2.839029">
      <ele>466.5</ele>
    </trkpt>
    <trkpt lat="42.591152" lon="-2.839825">
      <ele>463.9</ele>
    </trkpt>
    <trkpt lat="42.590678" lon="-2.840571">
      <ele>459.5</ele>
    </trkpt>
    <trkpt lat="42.589875" lon="-2.841314">
      <ele>454.8</ele>
    </trkpt>
    <trkpt lat="42.589602" lon="-2.841396">
      <ele>454.1</ele>
    </trkpt>
    <trkpt lat="42.589365" lon="-2.841361">
      <ele>453.8</ele>
    </trkpt>
    <trkpt lat="42.589275" lon="-2.841384">
      <ele>453.6</ele>
    </trkpt>
    <trkpt lat="42.588898" lon="-2.841621">
      <ele>453.4</ele>
    </trkpt>
    <trkpt lat="42.588853" lon="-2.841644">
      <ele>453.4</ele>
    </trkpt>
    <trkpt lat="42.588481" lon="-2.841832">
      <ele>453.4</ele>
    </trkpt>
    <trkpt lat="42.587871" lon="-2.842014">
      <ele>455</ele>
    </trkpt>
    <trkpt lat="42.587682" lon="-2.842106">
      <ele>455.6</ele>
    </trkpt>
    <trkpt lat="42.587464" lon="-2.842333">
      <ele>456.2</ele>
    </trkpt>
    <trkpt lat="42.587396" lon="-2.842345">
      <ele>456.3</ele>
    </trkpt>
    <trkpt lat="42.587101" lon="-2.84265">
      <ele>456.8</ele>
    </trkpt>
    <trkpt lat="42.585928" lon="-2.84478">
      <ele>454.7</ele>
    </trkpt>
    <trkpt lat="42.585755" lon="-2.844892">
      <ele>454.4</ele>
    </trkpt>
    <trkpt lat="42.585455" lon="-2.845018">
      <ele>454.2</ele>
    </trkpt>
    <trkpt lat="42.585322" lon="-2.845166">
      <ele>454.1</ele>
    </trkpt>
    <trkpt lat="42.585288" lon="-2.845173">
      <ele>454.1</ele>
    </trkpt>
    <trkpt lat="42.585292" lon="-2.845263">
      <ele>454.1</ele>
    </trkpt>
    <trkpt lat="42.585293" lon="-2.845722">
      <ele>454.1</ele>
    </trkpt>
    <trkpt lat="42.585232" lon="-2.8461">
      <ele>454.1</ele>
    </trkpt>
    <trkpt lat="42.585098" lon="-2.846476">
      <ele>454.2</ele>
    </trkpt>
    <trkpt lat="42.584978" lon="-2.846762">
      <ele>454.2</ele>
    </trkpt>
    <trkpt lat="42.584947" lon="-2.846841">
      <ele>454.3</ele>
    </trkpt>
    <trkpt lat="42.584868" lon="-2.847023">
      <ele>454.2</ele>
    </trkpt>
    <trkpt lat="42.584799" lon="-2.847181">
      <ele>454.1</ele>
    </trkpt>
    <trkpt lat="42.584713" lon="-2.847324">
      <ele>453.9</ele>
    </trkpt>
    <trkpt lat="42.584704" lon="-2.847334">
      <ele>453.9</ele>
    </trkpt>
    <trkpt lat="42.584589" lon="-2.847456">
      <ele>453.6</ele>
    </trkpt>
    <trkpt lat="42.584089" lon="-2.847648">
      <ele>452</ele>
    </trkpt>
    <trkpt lat="42.583858" lon="-2.847726">
      <ele>451.1</ele>
    </trkpt>
    <trkpt lat="42.583391" lon="-2.847884">
      <ele>449.1</ele>
    </trkpt>
    <trkpt lat="42.583281" lon="-2.847888">
      <ele>448.6</ele>
    </trkpt>
    <trkpt lat="42.582636" lon="-2.847598">
      <ele>445.7</ele>
    </trkpt>
    <trkpt lat="42.582372" lon="-2.84734">
      <ele>444.4</ele>
    </trkpt>
    <trkpt lat="42.582254" lon="-2.847189">
      <ele>443.8</ele>
    </trkpt>
    <trkpt lat="42.582155" lon="-2.846958">
      <ele>443.2</ele>
    </trkpt>
    <trkpt lat="42.582106" lon="-2.846823">
      <ele>442.8</ele>
    </trkpt>
    <trkpt lat="42.581991" lon="-2.846661">
      <ele>442.3</ele>
    </trkpt>
    <trkpt lat="42.581914" lon="-2.846632">
      <ele>442</ele>
    </trkpt>
    <trkpt lat="42.58179" lon="-2.846718">
      <ele>441.6</ele>
    </trkpt>
    <trkpt lat="42.581715" lon="-2.846812">
      <ele>441.4</ele>
    </trkpt>
    <trkpt lat="42.581541" lon="-2.847098">
      <ele>440.8</ele>
    </trkpt>
    <trkpt lat="42.58135" lon="-2.847394">
      <ele>440.4</ele>
    </trkpt>
    <trkpt lat="42.58101" lon="-2.847932">
      <ele>440.3</ele>
    </trkpt>
    <trkpt lat="42.580801" lon="-2.848255">
      <ele>440.5</ele>
    </trkpt>
    <trkpt lat="42.580587" lon="-2.848704">
      <ele>440.9</ele>
    </trkpt>
    <trkpt lat="42.580335" lon="-2.849383">
      <ele>441.6</ele>
    </trkpt>
    <trkpt lat="42.580315" lon="-2.849435">
      <ele>441.7</ele>
    </trkpt>
    <trkpt lat="42.580148" lon="-2.849849">
      <ele>442.2</ele>
    </trkpt>
    <trkpt lat="42.580081" lon="-2.849935">
      <ele>442.3</ele>
    </trkpt>
    <trkpt lat="42.579927" lon="-2.850056">
      <ele>442.6</ele>
    </trkpt>
    <trkpt lat="42.579662" lon="-2.850264">
      <ele>443.1</ele>
    </trkpt>
    <trkpt lat="42.579202" lon="-2.850622">
      <ele>444.4</ele>
    </trkpt>
    <trkpt lat="42.579133" lon="-2.850659">
      <ele>444.6</ele>
    </trkpt>
    <trkpt lat="42.579019" lon="-2.850664">
      <ele>444.9</ele>
    </trkpt>
    <trkpt lat="42.578987" lon="-2.850647">
      <ele>445.1</ele>
    </trkpt>
    <trkpt lat="42.578161" lon="-2.849858">
      <ele>451.8</ele>
    </trkpt>
    <trkpt lat="42.578146" lon="-2.849842">
      <ele>452</ele>
    </trkpt>
    <trkpt lat="42.578127" lon="-2.849821">
      <ele>452.2</ele>
    </trkpt>
    <trkpt lat="42.578045" lon="-2.849784">
      <ele>453</ele>
    </trkpt>
    <trkpt lat="42.577991" lon="-2.849733">
      <ele>453.7</ele>
    </trkpt>
    <trkpt lat="42.577912" lon="-2.849708">
      <ele>454.5</ele>
    </trkpt>
    <trkpt lat="42.577881" lon="-2.849659">
      <ele>455</ele>
    </trkpt>
    <trkpt lat="42.577849" lon="-2.849575">
      <ele>455.7</ele>
    </trkpt>
    <trkpt lat="42.577848" lon="-2.849504">
      <ele>456.2</ele>
    </trkpt>
    <trkpt lat="42.577866" lon="-2.849475">
      <ele>456.5</ele>
    </trkpt>
    <trkpt lat="42.577438" lon="-2.848148">
      <ele>467.9</ele>
    </trkpt>
    <trkpt lat="42.577301" lon="-2.847635">
      <ele>471.3</ele>
    </trkpt>
    <trkpt lat="42.577246" lon="-2.84731">
      <ele>472.9</ele>
    </trkpt>
    <trkpt lat="42.577242" lon="-2.847287">
      <ele>473</ele>
    </trkpt>
    <trkpt lat="42.577285" lon="-2.847268">
      <ele>473.2</ele>
    </trkpt>
    <trkpt lat="42.577274" lon="-2.847106">
      <ele>473.7</ele>
    </trkpt>
    <trkpt lat="42.577234" lon="-2.846458">
      <ele>475.2</ele>
    </trkpt>
    <trkpt lat="42.577067" lon="-2.846497">
      <ele>475.6</ele>
    </trkpt>
    <trkpt lat="42.577187" lon="-2.847041">
      <ele>476</ele>
    </trkpt>
    <trkpt lat="42.577144" lon="-2.847056">
      <ele>476.1</ele>
    </trkpt>
    <trkpt lat="42.576974" lon="-2.847114">
      <ele>476.2</ele>
    </trkpt>
    <trkpt lat="42.57699" lon="-2.847307">
      <ele>476.2</ele>
    </trkpt>
    <trkpt lat="42.576986" lon="-2.847536">
      <ele>476</ele>
    </trkpt>
    <trkpt lat="42.576991" lon="-2.847797">
      <ele>475.6</ele>
    </trkpt>
    <trkpt lat="42.577076" lon="-2.848615">
      <ele>474</ele>
    </trkpt>
    <trkpt lat="42.577063" lon="-2.848963">
      <ele>472.5</ele>
    </trkpt>
    <trkpt lat="42.577019" lon="-2.849267">
      <ele>470.7</ele>
    </trkpt>
    <trkpt lat="42.577139" lon="-2.849171">
      <ele>469.4</ele>
    </trkpt>
    <trkpt lat="42.577282" lon="-2.84914">
      <ele>468.1</ele>
    </trkpt>
    <trkpt lat="42.577393" lon="-2.848975">
      <ele>466.5</ele>
    </trkpt>
    <trkpt lat="42.577588" lon="-2.849288">
      <ele>463</ele>
    </trkpt>
    <trkpt lat="42.577663" lon="-2.849264">
      <ele>462.1</ele>
    </trkpt>
    <trkpt lat="42.577723" lon="-2.849685">
      <ele>458.4</ele>
    </trkpt>
    <trkpt lat="42.577848" lon="-2.849504">
      <ele>456.3</ele>
    </trkpt>
    <trkpt lat="42.577866" lon="-2.849475">
      <ele>456</ele>
    </trkpt>
    <trkpt lat="42.577886" lon="-2.849489">
      <ele>455.8</ele>
    </trkpt>
    <trkpt lat="42.577892" lon="-2.849534">
      <ele>455.4</ele>
    </trkpt>
    <trkpt lat="42.578031" lon="-2.849708">
      <ele>453.3</ele>
    </trkpt>
    <trkpt lat="42.578127" lon="-2.849821">
      <ele>452</ele>
    </trkpt>
    <trkpt lat="42.578146" lon="-2.849842">
      <ele>451.7</ele>
    </trkpt>
    <trkpt lat="42.578161" lon="-2.849858">
      <ele>451.6</ele>
    </trkpt>
    <trkpt lat="42.578987" lon="-2.850647">
      <ele>445.2</ele>
    </trkpt>
    <trkpt lat="42.579019" lon="-2.850664">
      <ele>445.1</ele>
    </trkpt>
    <trkpt lat="42.578985" lon="-2.851022">
      <ele>444.3</ele>
    </trkpt>
    <trkpt lat="42.578936" lon="-2.851038">
      <ele>444.2</ele>
    </trkpt>
    <trkpt lat="42.578913" lon="-2.851103">
      <ele>444.1</ele>
    </trkpt>
    <trkpt lat="42.578627" lon="-2.852705">
      <ele>442.2</ele>
    </trkpt>
    <trkpt lat="42.578582" lon="-2.852869">
      <ele>442</ele>
    </trkpt>
    <trkpt lat="42.578628" lon="-2.853083">
      <ele>442</ele>
    </trkpt>
    <trkpt lat="42.578562" lon="-2.8533">
      <ele>441.9</ele>
    </trkpt>
    <trkpt lat="42.578531" lon="-2.853645">
      <ele>441.9</ele>
    </trkpt>
    <trkpt lat="42.578528" lon="-2.853728">
      <ele>441.9</ele>
    </trkpt>
    <trkpt lat="42.578488" lon="-2.853834">
      <ele>441.9</ele>
    </trkpt>
    <trkpt lat="42.578681" lon="-2.854545">
      <ele>442.3</ele>
    </trkpt>
    <trkpt lat="42.578792" lon="-2.854807">
      <ele>442.5</ele>
    </trkpt>
    <trkpt lat="42.578991" lon="-2.85515">
      <ele>442.7</ele>
    </trkpt>
    <trkpt lat="42.579125" lon="-2.855508">
      <ele>443</ele>
    </trkpt>
    <trkpt lat="42.579159" lon="-2.855726">
      <ele>443.1</ele>
    </trkpt>
    <trkpt lat="42.579157" lon="-2.856048">
      <ele>443.3</ele>
    </trkpt>
    <trkpt lat="42.578846" lon="-2.856951">
      <ele>443.9</ele>
    </trkpt>
    <trkpt lat="42.57884" lon="-2.857071">
      <ele>444</ele>
    </trkpt>
    <trkpt lat="42.57897" lon="-2.857791">
      <ele>444.5</ele>
    </trkpt>
    <trkpt lat="42.578961" lon="-2.858207">
      <ele>444.8</ele>
    </trkpt>
    <trkpt lat="42.579046" lon="-2.858841">
      <ele>445.4</ele>
    </trkpt>
    <trkpt lat="42.579135" lon="-2.858758">
      <ele>445.6</ele>
    </trkpt>
    <trkpt lat="42.579251" lon="-2.858744">
      <ele>445.7</ele>
    </trkpt>
    <trkpt lat="42.580489" lon="-2.858947">
      <ele>448.1</ele>
    </trkpt>
    <trkpt lat="42.581221" lon="-2.858988">
      <ele>450</ele>
    </trkpt>
    <trkpt lat="42.581485" lon="-2.858831">
      <ele>450.7</ele>
    </trkpt>
    <trkpt lat="42.581669" lon="-2.859511">
      <ele>451.8</ele>
    </trkpt>
    <trkpt lat="42.581903" lon="-2.860005">
      <ele>452.5</ele>
    </trkpt>
    <trkpt lat="42.582001" lon="-2.860282">
      <ele>452.8</ele>
    </trkpt>
    <trkpt lat="42.58218" lon="-2.861951">
      <ele>453.3</ele>
    </trkpt>
    <trkpt lat="42.581359" lon="-2.865253">
      <ele>453.8</ele>
    </trkpt>
    <trkpt lat="42.580901" lon="-2.866358">
      <ele>454</ele>
    </trkpt>
    <trkpt lat="42.58034" lon="-2.869706">
      <ele>454.9</ele>
    </trkpt>
    <trkpt lat="42.580238" lon="-2.870478">
      <ele>455.5</ele>
    </trkpt>
    <trkpt lat="42.580301" lon="-2.871058">
      <ele>456.2</ele>
    </trkpt>
    <trkpt lat="42.580364" lon="-2.87139">
      <ele>456.7</ele>
    </trkpt>
    <trkpt lat="42.580442" lon="-2.87162">
      <ele>457.1</ele>
    </trkpt>
    <trkpt lat="42.580583" lon="-2.871811">
      <ele>457.4</ele>
    </trkpt>
    <trkpt lat="42.581028" lon="-2.872388">
      <ele>458.2</ele>
    </trkpt>
    <trkpt lat="42.581066" lon="-2.872515">
      <ele>458.2</ele>
    </trkpt>
    <trkpt lat="42.581075" lon="-2.872656">
      <ele>458.2</ele>
    </trkpt>
    <trkpt lat="42.581034" lon="-2.872783">
      <ele>458.2</ele>
    </trkpt>
    <trkpt lat="42.580704" lon="-2.8733">
      <ele>457.6</ele>
    </trkpt>
    <trkpt lat="42.580506" lon="-2.873557">
      <ele>457.1</ele>
    </trkpt>
    <trkpt lat="42.5803" lon="-2.873615">
      <ele>456.5</ele>
    </trkpt>
    <trkpt lat="42.579939" lon="-2.873975">
      <ele>455.3</ele>
    </trkpt>
    <trkpt lat="42.579815" lon="-2.874158">
      <ele>454.9</ele>
    </trkpt>
    <trkpt lat="42.57959" lon="-2.874656">
      <ele>454</ele>
    </trkpt>
    <trkpt lat="42.579471" lon="-2.875195">
      <ele>453.4</ele>
    </trkpt>
    <trkpt lat="42.579184" lon="-2.876753">
      <ele>452.7</ele>
    </trkpt>
    <trkpt lat="42.579375" lon="-2.877035">
      <ele>452.8</ele>
    </trkpt>
    <trkpt lat="42.579259" lon="-2.877203">
      <ele>452.8</ele>
    </trkpt>
    <trkpt lat="42.579105" lon="-2.877115">
      <ele>452.9</ele>
    </trkpt>
    <trkpt lat="42.579062" lon="-2.877124">
      <ele>452.9</ele>
    </trkpt>
    <trkpt lat="42.578953" lon="-2.877341">
      <ele>453</ele>
    </trkpt>
    <trkpt lat="42.57885" lon="-2.877669">
      <ele>453.2</ele>
    </trkpt>
    <trkpt lat="42.578682" lon="-2.877582">
      <ele>453.4</ele>
    </trkpt>
    <trkpt lat="42.578725" lon="-2.877308">
      <ele>453.7</ele>
    </trkpt>
    <trkpt lat="42.578683" lon="-2.877182">
      <ele>453.8</ele>
    </trkpt>
    <trkpt lat="42.578337" lon="-2.87688">
      <ele>454.4</ele>
    </trkpt>
    <trkpt lat="42.578167" lon="-2.876695">
      <ele>454.6</ele>
    </trkpt>
    <trkpt lat="42.577776" lon="-2.876178">
      <ele>455</ele>
    </trkpt>
    <trkpt lat="42.57765" lon="-2.875982">
      <ele>455.1</ele>
    </trkpt>
    <trkpt lat="42.577557" lon="-2.875782">
      <ele>455.2</ele>
    </trkpt>
    <trkpt lat="42.577495" lon="-2.87576">
      <ele>455.2</ele>
    </trkpt>
    <trkpt lat="42.577405" lon="-2.875791">
      <ele>455.3</ele>
    </trkpt>
    <trkpt lat="42.577209" lon="-2.875814">
      <ele>455.3</ele>
    </trkpt>
    <trkpt lat="42.576902" lon="-2.876">
      <ele>455.4</ele>
    </trkpt>
    <trkpt lat="42.576839" lon="-2.875972">
      <ele>455.5</ele>
    </trkpt>
    <trkpt lat="42.576511" lon="-2.875278">
      <ele>455.8</ele>
    </trkpt>
    <trkpt lat="42.576448" lon="-2.875252">
      <ele>455.9</ele>
    </trkpt>
    <trkpt lat="42.576203" lon="-2.875378">
      <ele>456.2</ele>
    </trkpt>
    <trkpt lat="42.576158" lon="-2.875378">
      <ele>456.2</ele>
    </trkpt>
    <trkpt lat="42.576089" lon="-2.875316">
      <ele>456.3</ele>
    </trkpt>
    <trkpt lat="42.57603" lon="-2.874961">
      <ele>456.6</ele>
    </trkpt>
    <trkpt lat="42.575849" lon="-2.87456">
      <ele>457.1</ele>
    </trkpt>
    <trkpt lat="42.575409" lon="-2.873946">
      <ele>458.6</ele>
    </trkpt>
    <trkpt lat="42.575207" lon="-2.873774">
      <ele>459.4</ele>
    </trkpt>
    <trkpt lat="42.574866" lon="-2.873629">
      <ele>460.8</ele>
    </trkpt>
    <trkpt lat="42.574731" lon="-2.873289">
      <ele>462</ele>
    </trkpt>
    <trkpt lat="42.574596" lon="-2.872166">
      <ele>466.4</ele>
    </trkpt>
    <trkpt lat="42.574563" lon="-2.871915">
      <ele>467.4</ele>
    </trkpt>
    <trkpt lat="42.574577" lon="-2.871692">
      <ele>468.3</ele>
    </trkpt>
    <trkpt lat="42.574629" lon="-2.871507">
      <ele>469</ele>
    </trkpt>
    <trkpt lat="42.574674" lon="-2.871142">
      <ele>470.1</ele>
    </trkpt>
    <trkpt lat="42.574645" lon="-2.87052">
      <ele>471.5</ele>
    </trkpt>
    <trkpt lat="42.574582" lon="-2.870253">
      <ele>472</ele>
    </trkpt>
    <trkpt lat="42.574529" lon="-2.870027">
      <ele>472.2</ele>
    </trkpt>
    <trkpt lat="42.574414" lon="-2.869116">
      <ele>472.3</ele>
    </trkpt>
    <trkpt lat="42.574351" lon="-2.86897">
      <ele>472.1</ele>
    </trkpt>
    <trkpt lat="42.574372" lon="-2.868838">
      <ele>471.9</ele>
    </trkpt>
    <trkpt lat="42.574211" lon="-2.868091">
      <ele>470.7</ele>
    </trkpt>
    <trkpt lat="42.574169" lon="-2.867282">
      <ele>469.3</ele>
    </trkpt>
    <trkpt lat="42.574174" lon="-2.866742">
      <ele>468.3</ele>
    </trkpt>
    <trkpt lat="42.574197" lon="-2.86651">
      <ele>467.9</ele>
    </trkpt>
    <trkpt lat="42.574142" lon="-2.865389">
      <ele>467</ele>
    </trkpt>
    <trkpt lat="42.573963" lon="-2.864697">
      <ele>467.2</ele>
    </trkpt>
    <trkpt lat="42.573677" lon="-2.864082">
      <ele>467.8</ele>
    </trkpt>
    <trkpt lat="42.573376" lon="-2.864177">
      <ele>468.5</ele>
    </trkpt>
    <trkpt lat="42.573449" lon="-2.863461">
      <ele>470</ele>
    </trkpt>
    <trkpt lat="42.573551" lon="-2.862659">
      <ele>471.4</ele>
    </trkpt>
    <trkpt lat="42.57387" lon="-2.860737">
      <ele>473.5</ele>
    </trkpt>
    <trkpt lat="42.57394" lon="-2.859472">
      <ele>473.3</ele>
    </trkpt>
    <trkpt lat="42.573957" lon="-2.859106">
      <ele>473.1</ele>
    </trkpt>
    <trkpt lat="42.574024" lon="-2.857717">
      <ele>472.6</ele>
    </trkpt>
    <trkpt lat="42.573937" lon="-2.857699">
      <ele>472.6</ele>
    </trkpt>
    <trkpt lat="42.573346" lon="-2.857416">
      <ele>472.1</ele>
    </trkpt>
    <trkpt lat="42.573499" lon="-2.856192">
      <ele>471.2</ele>
    </trkpt>
    <trkpt lat="42.573379" lon="-2.85618">
      <ele>471.1</ele>
    </trkpt>
    <trkpt lat="42.573316" lon="-2.856145">
      <ele>471</ele>
    </trkpt>
    <trkpt lat="42.57284" lon="-2.855721">
      <ele>470.5</ele>
    </trkpt>
    <trkpt lat="42.572665" lon="-2.855529">
      <ele>470.5</ele>
    </trkpt>
    <trkpt lat="42.572244" lon="-2.855337">
      <ele>470.5</ele>
    </trkpt>
    <trkpt lat="42.572161" lon="-2.855287">
      <ele>470.5</ele>
    </trkpt>
    <trkpt lat="42.572247" lon="-2.855079">
      <ele>470.5</ele>
    </trkpt>
    <trkpt lat="42.572484" lon="-2.854503">
      <ele>470.9</ele>
    </trkpt>
    <trkpt lat="42.572508" lon="-2.854445">
      <ele>470.9</ele>
    </trkpt>
    <trkpt lat="42.572589" lon="-2.854157">
      <ele>471.2</ele>
    </trkpt>
    <trkpt lat="42.572587" lon="-2.854128">
      <ele>471.2</ele>
    </trkpt>
    <trkpt lat="42.572624" lon="-2.854015">
      <ele>471.3</ele>
    </trkpt>
    <trkpt lat="42.572654" lon="-2.853986">
      <ele>471.4</ele>
    </trkpt>
    <trkpt lat="42.572897" lon="-2.853462">
      <ele>471.7</ele>
    </trkpt>
    <trkpt lat="42.572916" lon="-2.853419">
      <ele>471.7</ele>
    </trkpt>
    <trkpt lat="42.57301" lon="-2.853197">
      <ele>471.8</ele>
    </trkpt>
    <trkpt lat="42.57304" lon="-2.853088">
      <ele>471.9</ele>
    </trkpt>
    <trkpt lat="42.573246" lon="-2.852656">
      <ele>472.1</ele>
    </trkpt>
    <trkpt lat="42.573336" lon="-2.852485">
      <ele>472.2</ele>
    </trkpt>
    <trkpt lat="42.573399" lon="-2.852398">
      <ele>472.2</ele>
    </trkpt>
    <trkpt lat="42.573477" lon="-2.852418">
      <ele>472.3</ele>
    </trkpt>
    <trkpt lat="42.573658" lon="-2.852499">
      <ele>472.4</ele>
    </trkpt>
    <trkpt lat="42.573803" lon="-2.852586">
      <ele>472.4</ele>
    </trkpt>
    <trkpt lat="42.57384" lon="-2.852645">
      <ele>472.4</ele>
    </trkpt>
    <trkpt lat="42.573823" lon="-2.852748">
      <ele>472.4</ele>
    </trkpt>
    <trkpt lat="42.573816" lon="-2.853325">
      <ele>472.4</ele>
    </trkpt>
    <trkpt lat="42.573814" lon="-2.853783">
      <ele>472.5</ele>
    </trkpt>
    <trkpt lat="42.573676" lon="-2.85372">
      <ele>472.5</ele>
    </trkpt>
    </trkseg>
  </trk>
</gpx>
