<?xml version="1.0" encoding="UTF-8"?>
<gpx version="1.1" creator="fitAI Komoot downloader" xmlns="http://www.topografix.com/GPX/1/1">
  <metadata>
    <name>Hotel Marqués de Riscal y Bodegas Ysios - Recorrido circular desde Laguardia</name>
    <desc>89 visitas · Dificultad: difficult · Distancia: 51.2 km · Desnivel +: 890 m</desc>
    <link href="https://www.komoot.com/smarttour/e20062582"><text>Komoot</text></link>
  </metadata>
  <trk>
    <name>Hotel Marqués de Riscal y Bodegas Ysios - Recorrido circular desde Laguardia</name>
    <type>touringbicycle</type>
    <trkseg>
    <trkpt lat="42.553894" lon="-2.584211">
      <ele>630.2</ele>
    </trkpt>
    <trkpt lat="42.554772" lon="-2.584336">
      <ele>628.6</ele>
    </trkpt>
    <trkpt lat="42.55495" lon="-2.584368">
      <ele>627.9</ele>
    </trkpt>
    <trkpt lat="42.555055" lon="-2.584387">
      <ele>627.5</ele>
    </trkpt>
    <trkpt lat="42.556356" lon="-2.58469">
      <ele>618.8</ele>
    </trkpt>
    <trkpt lat="42.55637" lon="-2.584694">
      <ele>618.7</ele>
    </trkpt>
    <trkpt lat="42.556968" lon="-2.584859">
      <ele>613.8</ele>
    </trkpt>
    <trkpt lat="42.557623" lon="-2.58517">
      <ele>609.2</ele>
    </trkpt>
    <trkpt lat="42.557738" lon="-2.585287">
      <ele>608.2</ele>
    </trkpt>
    <trkpt lat="42.557898" lon="-2.585556">
      <ele>606.4</ele>
    </trkpt>
    <trkpt lat="42.558074" lon="-2.585954">
      <ele>603.8</ele>
    </trkpt>
    <trkpt lat="42.558118" lon="-2.586053">
      <ele>603.1</ele>
    </trkpt>
    <trkpt lat="42.558185" lon="-2.586212">
      <ele>602.1</ele>
    </trkpt>
    <trkpt lat="42.558331" lon="-2.586564">
      <ele>599.7</ele>
    </trkpt>
    <trkpt lat="42.558407" lon="-2.586751">
      <ele>598.5</ele>
    </trkpt>
    <trkpt lat="42.558504" lon="-2.586977">
      <ele>597.1</ele>
    </trkpt>
    <trkpt lat="42.558934" lon="-2.587982">
      <ele>590.4</ele>
    </trkpt>
    <trkpt lat="42.559225" lon="-2.588659">
      <ele>586.9</ele>
    </trkpt>
    <trkpt lat="42.559795" lon="-2.589996">
      <ele>582.1</ele>
    </trkpt>
    <trkpt lat="42.561355" lon="-2.59362">
      <ele>569.1</ele>
    </trkpt>
    <trkpt lat="42.561945" lon="-2.595004">
      <ele>569.8</ele>
    </trkpt>
    <trkpt lat="42.562865" lon="-2.597148">
      <ele>576</ele>
    </trkpt>
    <trkpt lat="42.56292" lon="-2.597287">
      <ele>576.3</ele>
    </trkpt>
    <trkpt lat="42.562613" lon="-2.598743">
      <ele>577.3</ele>
    </trkpt>
    <trkpt lat="42.56241" lon="-2.599229">
      <ele>577</ele>
    </trkpt>
    <trkpt lat="42.562339" lon="-2.599484">
      <ele>576.9</ele>
    </trkpt>
    <trkpt lat="42.562069" lon="-2.600258">
      <ele>576.5</ele>
    </trkpt>
    <trkpt lat="42.561695" lon="-2.60111">
      <ele>576.4</ele>
    </trkpt>
    <trkpt lat="42.561616" lon="-2.6012">
      <ele>576.4</ele>
    </trkpt>
    <trkpt lat="42.561605" lon="-2.602056">
      <ele>576.4</ele>
    </trkpt>
    <trkpt lat="42.561534" lon="-2.602259">
      <ele>576.3</ele>
    </trkpt>
    <trkpt lat="42.561247" lon="-2.602574">
      <ele>576</ele>
    </trkpt>
    <trkpt lat="42.561332" lon="-2.602626">
      <ele>575.9</ele>
    </trkpt>
    <trkpt lat="42.561602" lon="-2.603086">
      <ele>575.3</ele>
    </trkpt>
    <trkpt lat="42.562623" lon="-2.604904">
      <ele>573.1</ele>
    </trkpt>
    <trkpt lat="42.562962" lon="-2.605485">
      <ele>572.6</ele>
    </trkpt>
    <trkpt lat="42.563113" lon="-2.605677">
      <ele>572.5</ele>
    </trkpt>
    <trkpt lat="42.563448" lon="-2.605957">
      <ele>572.6</ele>
    </trkpt>
    <trkpt lat="42.56376" lon="-2.606091">
      <ele>572.8</ele>
    </trkpt>
    <trkpt lat="42.564505" lon="-2.606293">
      <ele>573.8</ele>
    </trkpt>
    <trkpt lat="42.564979" lon="-2.606374">
      <ele>574.6</ele>
    </trkpt>
    <trkpt lat="42.566005" lon="-2.60803">
      <ele>575</ele>
    </trkpt>
    <trkpt lat="42.566041" lon="-2.608352">
      <ele>574.9</ele>
    </trkpt>
    <trkpt lat="42.5661" lon="-2.6095">
      <ele>574.1</ele>
    </trkpt>
    <trkpt lat="42.566179" lon="-2.609768">
      <ele>573.7</ele>
    </trkpt>
    <trkpt lat="42.566578" lon="-2.610632">
      <ele>571.2</ele>
    </trkpt>
    <trkpt lat="42.566646" lon="-2.610847">
      <ele>570.4</ele>
    </trkpt>
    <trkpt lat="42.566653" lon="-2.611114">
      <ele>569.6</ele>
    </trkpt>
    <trkpt lat="42.56615" lon="-2.611616">
      <ele>567</ele>
    </trkpt>
    <trkpt lat="42.566131" lon="-2.611747">
      <ele>566.7</ele>
    </trkpt>
    <trkpt lat="42.566171" lon="-2.611871">
      <ele>566.3</ele>
    </trkpt>
    <trkpt lat="42.566428" lon="-2.612338">
      <ele>565.2</ele>
    </trkpt>
    <trkpt lat="42.566739" lon="-2.613043">
      <ele>565.3</ele>
    </trkpt>
    <trkpt lat="42.566787" lon="-2.613386">
      <ele>565.9</ele>
    </trkpt>
    <trkpt lat="42.56676" lon="-2.614027">
      <ele>567.6</ele>
    </trkpt>
    <trkpt lat="42.566802" lon="-2.614405">
      <ele>569</ele>
    </trkpt>
    <trkpt lat="42.566898" lon="-2.614907">
      <ele>571.3</ele>
    </trkpt>
    <trkpt lat="42.567265" lon="-2.616184">
      <ele>574.9</ele>
    </trkpt>
    <trkpt lat="42.567257" lon="-2.616261">
      <ele>575</ele>
    </trkpt>
    <trkpt lat="42.567115" lon="-2.616667">
      <ele>575.2</ele>
    </trkpt>
    <trkpt lat="42.567088" lon="-2.616849">
      <ele>575.3</ele>
    </trkpt>
    <trkpt lat="42.567096" lon="-2.617434">
      <ele>575.3</ele>
    </trkpt>
    <trkpt lat="42.56702" lon="-2.617693">
      <ele>575.2</ele>
    </trkpt>
    <trkpt lat="42.567009" lon="-2.617831">
      <ele>575.2</ele>
    </trkpt>
    <trkpt lat="42.567115" lon="-2.618533">
      <ele>575.7</ele>
    </trkpt>
    <trkpt lat="42.567384" lon="-2.619295">
      <ele>576.6</ele>
    </trkpt>
    <trkpt lat="42.567411" lon="-2.619464">
      <ele>576.6</ele>
    </trkpt>
    <trkpt lat="42.567399" lon="-2.61971">
      <ele>576.7</ele>
    </trkpt>
    <trkpt lat="42.567304" lon="-2.619963">
      <ele>576.5</ele>
    </trkpt>
    <trkpt lat="42.567297" lon="-2.620105">
      <ele>576.4</ele>
    </trkpt>
    <trkpt lat="42.567498" lon="-2.620728">
      <ele>575.4</ele>
    </trkpt>
    <trkpt lat="42.567661" lon="-2.621339">
      <ele>574.3</ele>
    </trkpt>
    <trkpt lat="42.5676" lon="-2.622049">
      <ele>573.9</ele>
    </trkpt>
    <trkpt lat="42.567478" lon="-2.622983">
      <ele>575.4</ele>
    </trkpt>
    <trkpt lat="42.567254" lon="-2.623453">
      <ele>576.9</ele>
    </trkpt>
    <trkpt lat="42.566972" lon="-2.623798">
      <ele>578.6</ele>
    </trkpt>
    <trkpt lat="42.566791" lon="-2.624109">
      <ele>579.9</ele>
    </trkpt>
    <trkpt lat="42.566518" lon="-2.625482">
      <ele>582.8</ele>
    </trkpt>
    <trkpt lat="42.566511" lon="-2.625885">
      <ele>582.5</ele>
    </trkpt>
    <trkpt lat="42.566388" lon="-2.625886">
      <ele>582.3</ele>
    </trkpt>
    <trkpt lat="42.565871" lon="-2.626046">
      <ele>580.8</ele>
    </trkpt>
    <trkpt lat="42.565762" lon="-2.626157">
      <ele>580.3</ele>
    </trkpt>
    <trkpt lat="42.565154" lon="-2.626218">
      <ele>578</ele>
    </trkpt>
    <trkpt lat="42.564936" lon="-2.626157">
      <ele>577.4</ele>
    </trkpt>
    <trkpt lat="42.564537" lon="-2.625935">
      <ele>576.7</ele>
    </trkpt>
    <trkpt lat="42.564391" lon="-2.625762">
      <ele>576.6</ele>
    </trkpt>
    <trkpt lat="42.564328" lon="-2.625565">
      <ele>576.5</ele>
    </trkpt>
    <trkpt lat="42.564273" lon="-2.625368">
      <ele>576.5</ele>
    </trkpt>
    <trkpt lat="42.564155" lon="-2.624468">
      <ele>576.1</ele>
    </trkpt>
    <trkpt lat="42.564001" lon="-2.623978">
      <ele>575.1</ele>
    </trkpt>
    <trkpt lat="42.56391" lon="-2.623692">
      <ele>574.2</ele>
    </trkpt>
    <trkpt lat="42.563574" lon="-2.622768">
      <ele>569.9</ele>
    </trkpt>
    <trkpt lat="42.563393" lon="-2.622546">
      <ele>568.4</ele>
    </trkpt>
    <trkpt lat="42.563003" lon="-2.622336">
      <ele>566.4</ele>
    </trkpt>
    <trkpt lat="42.56264" lon="-2.622213">
      <ele>565.5</ele>
    </trkpt>
    <trkpt lat="42.562477" lon="-2.622101">
      <ele>565.4</ele>
    </trkpt>
    <trkpt lat="42.562291" lon="-2.622235">
      <ele>565.6</ele>
    </trkpt>
    <trkpt lat="42.561928" lon="-2.62239">
      <ele>566.7</ele>
    </trkpt>
    <trkpt lat="42.561631" lon="-2.622557">
      <ele>568.4</ele>
    </trkpt>
    <trkpt lat="42.561465" lon="-2.622755">
      <ele>570</ele>
    </trkpt>
    <trkpt lat="42.56139" lon="-2.623152">
      <ele>572.2</ele>
    </trkpt>
    <trkpt lat="42.561406" lon="-2.62385">
      <ele>575.8</ele>
    </trkpt>
    <trkpt lat="42.561442" lon="-2.624225">
      <ele>577.7</ele>
    </trkpt>
    <trkpt lat="42.561864" lon="-2.625513">
      <ele>581.7</ele>
    </trkpt>
    <trkpt lat="42.561955" lon="-2.625958">
      <ele>581.8</ele>
    </trkpt>
    <trkpt lat="42.562008" lon="-2.626086">
      <ele>581.7</ele>
    </trkpt>
    <trkpt lat="42.562809" lon="-2.628029">
      <ele>575.7</ele>
    </trkpt>
    <trkpt lat="42.562987" lon="-2.628399">
      <ele>574.3</ele>
    </trkpt>
    <trkpt lat="42.563058" lon="-2.628586">
      <ele>573.8</ele>
    </trkpt>
    <trkpt lat="42.563081" lon="-2.628742">
      <ele>573.4</ele>
    </trkpt>
    <trkpt lat="42.563074" lon="-2.628871">
      <ele>573.1</ele>
    </trkpt>
    <trkpt lat="42.561973" lon="-2.628183">
      <ele>570.5</ele>
    </trkpt>
    <trkpt lat="42.561647" lon="-2.627947">
      <ele>570</ele>
    </trkpt>
    <trkpt lat="42.560949" lon="-2.627266">
      <ele>568.3</ele>
    </trkpt>
    <trkpt lat="42.560572" lon="-2.626813">
      <ele>566.5</ele>
    </trkpt>
    <trkpt lat="42.559417" lon="-2.625516">
      <ele>559.2</ele>
    </trkpt>
    <trkpt lat="42.55923" lon="-2.625336">
      <ele>558.1</ele>
    </trkpt>
    <trkpt lat="42.558715" lon="-2.62491">
      <ele>555.7</ele>
    </trkpt>
    <trkpt lat="42.558183" lon="-2.62459">
      <ele>553.9</ele>
    </trkpt>
    <trkpt lat="42.557798" lon="-2.624241">
      <ele>552.9</ele>
    </trkpt>
    <trkpt lat="42.557412" lon="-2.623951">
      <ele>552.2</ele>
    </trkpt>
    <trkpt lat="42.556785" lon="-2.623548">
      <ele>551.3</ele>
    </trkpt>
    <trkpt lat="42.556644" lon="-2.623419">
      <ele>551.1</ele>
    </trkpt>
    <trkpt lat="42.556384" lon="-2.623045">
      <ele>550.7</ele>
    </trkpt>
    <trkpt lat="42.556258" lon="-2.62292">
      <ele>550.5</ele>
    </trkpt>
    <trkpt lat="42.555852" lon="-2.622626">
      <ele>550</ele>
    </trkpt>
    <trkpt lat="42.555537" lon="-2.622409">
      <ele>549.7</ele>
    </trkpt>
    <trkpt lat="42.555347" lon="-2.622323">
      <ele>549.5</ele>
    </trkpt>
    <trkpt lat="42.555196" lon="-2.622254">
      <ele>549.4</ele>
    </trkpt>
    <trkpt lat="42.554763" lon="-2.622153">
      <ele>549</ele>
    </trkpt>
    <trkpt lat="42.55481" lon="-2.622633">
      <ele>548.7</ele>
    </trkpt>
    <trkpt lat="42.554819" lon="-2.623047">
      <ele>548.5</ele>
    </trkpt>
    <trkpt lat="42.554789" lon="-2.623332">
      <ele>548.4</ele>
    </trkpt>
    <trkpt lat="42.554802" lon="-2.623769">
      <ele>548.3</ele>
    </trkpt>
    <trkpt lat="42.554844" lon="-2.62457">
      <ele>548.4</ele>
    </trkpt>
    <trkpt lat="42.554836" lon="-2.625198">
      <ele>548.8</ele>
    </trkpt>
    <trkpt lat="42.555052" lon="-2.626698">
      <ele>551.1</ele>
    </trkpt>
    <trkpt lat="42.555105" lon="-2.627703">
      <ele>552.2</ele>
    </trkpt>
    <trkpt lat="42.555217" lon="-2.628452">
      <ele>552.3</ele>
    </trkpt>
    <trkpt lat="42.555218" lon="-2.62898">
      <ele>551.6</ele>
    </trkpt>
    <trkpt lat="42.555232" lon="-2.629206">
      <ele>551.2</ele>
    </trkpt>
    <trkpt lat="42.555262" lon="-2.629335">
      <ele>550.9</ele>
    </trkpt>
    <trkpt lat="42.555294" lon="-2.629428">
      <ele>550.6</ele>
    </trkpt>
    <trkpt lat="42.555358" lon="-2.629691">
      <ele>549.8</ele>
    </trkpt>
    <trkpt lat="42.5554" lon="-2.630219">
      <ele>547.9</ele>
    </trkpt>
    <trkpt lat="42.555367" lon="-2.630825">
      <ele>545.3</ele>
    </trkpt>
    <trkpt lat="42.555122" lon="-2.631805">
      <ele>539.9</ele>
    </trkpt>
    <trkpt lat="42.555005" lon="-2.632192">
      <ele>537.7</ele>
    </trkpt>
    <trkpt lat="42.554856" lon="-2.632532">
      <ele>535.7</ele>
    </trkpt>
    <trkpt lat="42.554807" lon="-2.632785">
      <ele>534.4</ele>
    </trkpt>
    <trkpt lat="42.554732" lon="-2.632846">
      <ele>533.8</ele>
    </trkpt>
    <trkpt lat="42.554523" lon="-2.632929">
      <ele>532.3</ele>
    </trkpt>
    <trkpt lat="42.554326" lon="-2.63308">
      <ele>530.7</ele>
    </trkpt>
    <trkpt lat="42.553771" lon="-2.63378">
      <ele>527.3</ele>
    </trkpt>
    <trkpt lat="42.553768" lon="-2.633951">
      <ele>527.2</ele>
    </trkpt>
    <trkpt lat="42.553823" lon="-2.634298">
      <ele>527.2</ele>
    </trkpt>
    <trkpt lat="42.553823" lon="-2.634433">
      <ele>527.2</ele>
    </trkpt>
    <trkpt lat="42.553681" lon="-2.634777">
      <ele>527.7</ele>
    </trkpt>
    <trkpt lat="42.553657" lon="-2.634954">
      <ele>528</ele>
    </trkpt>
    <trkpt lat="42.553659" lon="-2.635207">
      <ele>528.7</ele>
    </trkpt>
    <trkpt lat="42.553843" lon="-2.63528">
      <ele>529.5</ele>
    </trkpt>
    <trkpt lat="42.553826" lon="-2.635343">
      <ele>529.8</ele>
    </trkpt>
    <trkpt lat="42.553885" lon="-2.635829">
      <ele>531.9</ele>
    </trkpt>
    <trkpt lat="42.55386" lon="-2.63618">
      <ele>533.4</ele>
    </trkpt>
    <trkpt lat="42.553733" lon="-2.636539">
      <ele>534.8</ele>
    </trkpt>
    <trkpt lat="42.553718" lon="-2.637177">
      <ele>536.6</ele>
    </trkpt>
    <trkpt lat="42.553572" lon="-2.63844">
      <ele>539.9</ele>
    </trkpt>
    <trkpt lat="42.553401" lon="-2.639254">
      <ele>541.8</ele>
    </trkpt>
    <trkpt lat="42.553292" lon="-2.639664">
      <ele>542.6</ele>
    </trkpt>
    <trkpt lat="42.553253" lon="-2.639898">
      <ele>543</ele>
    </trkpt>
    <trkpt lat="42.553258" lon="-2.640308">
      <ele>543.6</ele>
    </trkpt>
    <trkpt lat="42.553237" lon="-2.640634">
      <ele>543.9</ele>
    </trkpt>
    <trkpt lat="42.5532" lon="-2.640814">
      <ele>544.1</ele>
    </trkpt>
    <trkpt lat="42.552947" lon="-2.641682">
      <ele>544</ele>
    </trkpt>
    <trkpt lat="42.552782" lon="-2.64147">
      <ele>543.8</ele>
    </trkpt>
    <trkpt lat="42.552561" lon="-2.64103">
      <ele>543.3</ele>
    </trkpt>
    <trkpt lat="42.552513" lon="-2.640869">
      <ele>543.1</ele>
    </trkpt>
    <trkpt lat="42.552476" lon="-2.640545">
      <ele>542.5</ele>
    </trkpt>
    <trkpt lat="42.552404" lon="-2.640062">
      <ele>541.4</ele>
    </trkpt>
    <trkpt lat="42.552116" lon="-2.639463">
      <ele>539.8</ele>
    </trkpt>
    <trkpt lat="42.551973" lon="-2.638963">
      <ele>538.8</ele>
    </trkpt>
    <trkpt lat="42.551817" lon="-2.638597">
      <ele>538.1</ele>
    </trkpt>
    <trkpt lat="42.551596" lon="-2.638272">
      <ele>537.6</ele>
    </trkpt>
    <trkpt lat="42.551201" lon="-2.637825">
      <ele>537.4</ele>
    </trkpt>
    <trkpt lat="42.550861" lon="-2.637368">
      <ele>537.8</ele>
    </trkpt>
    <trkpt lat="42.550577" lon="-2.637117">
      <ele>538</ele>
    </trkpt>
    <trkpt lat="42.550089" lon="-2.636457">
      <ele>538.4</ele>
    </trkpt>
    <trkpt lat="42.549937" lon="-2.636362">
      <ele>538.4</ele>
    </trkpt>
    <trkpt lat="42.549794" lon="-2.636792">
      <ele>538.3</ele>
    </trkpt>
    <trkpt lat="42.549785" lon="-2.637282">
      <ele>538.1</ele>
    </trkpt>
    <trkpt lat="42.549742" lon="-2.637469">
      <ele>538</ele>
    </trkpt>
    <trkpt lat="42.549578" lon="-2.637826">
      <ele>537.6</ele>
    </trkpt>
    <trkpt lat="42.549336" lon="-2.638144">
      <ele>537.3</ele>
    </trkpt>
    <trkpt lat="42.54915" lon="-2.63831">
      <ele>537</ele>
    </trkpt>
    <trkpt lat="42.548547" lon="-2.638736">
      <ele>536.2</ele>
    </trkpt>
    <trkpt lat="42.548224" lon="-2.639052">
      <ele>535.7</ele>
    </trkpt>
    <trkpt lat="42.548212" lon="-2.639159">
      <ele>535.7</ele>
    </trkpt>
    <trkpt lat="42.547429" lon="-2.639159">
      <ele>535.5</ele>
    </trkpt>
    <trkpt lat="42.546524" lon="-2.639235">
      <ele>535.8</ele>
    </trkpt>
    <trkpt lat="42.546054" lon="-2.639476">
      <ele>536.3</ele>
    </trkpt>
    <trkpt lat="42.545722" lon="-2.639701">
      <ele>536.6</ele>
    </trkpt>
    <trkpt lat="42.54556" lon="-2.63975">
      <ele>536.8</ele>
    </trkpt>
    <trkpt lat="42.545418" lon="-2.639749">
      <ele>536.9</ele>
    </trkpt>
    <trkpt lat="42.545178" lon="-2.639632">
      <ele>537.3</ele>
    </trkpt>
    <trkpt lat="42.545083" lon="-2.639518">
      <ele>537.5</ele>
    </trkpt>
    <trkpt lat="42.545005" lon="-2.639373">
      <ele>537.7</ele>
    </trkpt>
    <trkpt lat="42.544933" lon="-2.639297">
      <ele>537.9</ele>
    </trkpt>
    <trkpt lat="42.54456" lon="-2.639127">
      <ele>538.7</ele>
    </trkpt>
    <trkpt lat="42.543928" lon="-2.638956">
      <ele>540.1</ele>
    </trkpt>
    <trkpt lat="42.543291" lon="-2.63866">
      <ele>541.1</ele>
    </trkpt>
    <trkpt lat="42.543105" lon="-2.638607">
      <ele>541.2</ele>
    </trkpt>
    <trkpt lat="42.542912" lon="-2.63866">
      <ele>541.2</ele>
    </trkpt>
    <trkpt lat="42.542576" lon="-2.638848">
      <ele>541</ele>
    </trkpt>
    <trkpt lat="42.542343" lon="-2.638945">
      <ele>540.7</ele>
    </trkpt>
    <trkpt lat="42.541872" lon="-2.638993">
      <ele>539.8</ele>
    </trkpt>
    <trkpt lat="42.540979" lon="-2.639464">
      <ele>537.1</ele>
    </trkpt>
    <trkpt lat="42.540656" lon="-2.639583">
      <ele>536.3</ele>
    </trkpt>
    <trkpt lat="42.540437" lon="-2.639604">
      <ele>535.8</ele>
    </trkpt>
    <trkpt lat="42.540253" lon="-2.639579">
      <ele>535.5</ele>
    </trkpt>
    <trkpt lat="42.539983" lon="-2.639492">
      <ele>535</ele>
    </trkpt>
    <trkpt lat="42.539208" lon="-2.63914">
      <ele>534.1</ele>
    </trkpt>
    <trkpt lat="42.539159" lon="-2.639081">
      <ele>534</ele>
    </trkpt>
    <trkpt lat="42.539088" lon="-2.638295">
      <ele>533.4</ele>
    </trkpt>
    <trkpt lat="42.538983" lon="-2.63775">
      <ele>532.7</ele>
    </trkpt>
    <trkpt lat="42.538866" lon="-2.637466">
      <ele>532.4</ele>
    </trkpt>
    <trkpt lat="42.538645" lon="-2.637086">
      <ele>531.9</ele>
    </trkpt>
    <trkpt lat="42.538313" lon="-2.636668">
      <ele>531.2</ele>
    </trkpt>
    <trkpt lat="42.538078" lon="-2.636413">
      <ele>530.5</ele>
    </trkpt>
    <trkpt lat="42.537858" lon="-2.636112">
      <ele>529.3</ele>
    </trkpt>
    <trkpt lat="42.537658" lon="-2.635785">
      <ele>527.6</ele>
    </trkpt>
    <trkpt lat="42.537621" lon="-2.635621">
      <ele>526.8</ele>
    </trkpt>
    <trkpt lat="42.537648" lon="-2.635493">
      <ele>526.2</ele>
    </trkpt>
    <trkpt lat="42.537835" lon="-2.635221">
      <ele>524.1</ele>
    </trkpt>
    <trkpt lat="42.538153" lon="-2.634951">
      <ele>520.8</ele>
    </trkpt>
    <trkpt lat="42.538247" lon="-2.634825">
      <ele>519.6</ele>
    </trkpt>
    <trkpt lat="42.538325" lon="-2.634646">
      <ele>518.1</ele>
    </trkpt>
    <trkpt lat="42.538573" lon="-2.634078">
      <ele>513.4</ele>
    </trkpt>
    <trkpt lat="42.538637" lon="-2.633865">
      <ele>511.9</ele>
    </trkpt>
    <trkpt lat="42.538618" lon="-2.633533">
      <ele>509.9</ele>
    </trkpt>
    <trkpt lat="42.538412" lon="-2.632907">
      <ele>506.5</ele>
    </trkpt>
    <trkpt lat="42.538402" lon="-2.631983">
      <ele>502.4</ele>
    </trkpt>
    <trkpt lat="42.538259" lon="-2.631498">
      <ele>499.9</ele>
    </trkpt>
    <trkpt lat="42.538292" lon="-2.631267">
      <ele>498.8</ele>
    </trkpt>
    <trkpt lat="42.538372" lon="-2.631035">
      <ele>497.9</ele>
    </trkpt>
    <trkpt lat="42.538718" lon="-2.630472">
      <ele>496.5</ele>
    </trkpt>
    <trkpt lat="42.53874" lon="-2.630362">
      <ele>496.4</ele>
    </trkpt>
    <trkpt lat="42.53873" lon="-2.630284">
      <ele>496.4</ele>
    </trkpt>
    <trkpt lat="42.53864" lon="-2.630114">
      <ele>496.5</ele>
    </trkpt>
    <trkpt lat="42.538316" lon="-2.630502">
      <ele>497.6</ele>
    </trkpt>
    <trkpt lat="42.538224" lon="-2.630527">
      <ele>498</ele>
    </trkpt>
    <trkpt lat="42.538047" lon="-2.630509">
      <ele>498.9</ele>
    </trkpt>
    <trkpt lat="42.537481" lon="-2.630714">
      <ele>503.2</ele>
    </trkpt>
    <trkpt lat="42.537109" lon="-2.630753">
      <ele>505.9</ele>
    </trkpt>
    <trkpt lat="42.536457" lon="-2.631137">
      <ele>508.7</ele>
    </trkpt>
    <trkpt lat="42.53635" lon="-2.631241">
      <ele>509</ele>
    </trkpt>
    <trkpt lat="42.536153" lon="-2.631504">
      <ele>509.2</ele>
    </trkpt>
    <trkpt lat="42.535721" lon="-2.632132">
      <ele>508.6</ele>
    </trkpt>
    <trkpt lat="42.535021" lon="-2.631832">
      <ele>506.5</ele>
    </trkpt>
    <trkpt lat="42.534697" lon="-2.631658">
      <ele>505.3</ele>
    </trkpt>
    <trkpt lat="42.534566" lon="-2.631665">
      <ele>504.8</ele>
    </trkpt>
    <trkpt lat="42.534286" lon="-2.6318">
      <ele>503.5</ele>
    </trkpt>
    <trkpt lat="42.53415" lon="-2.631814">
      <ele>502.8</ele>
    </trkpt>
    <trkpt lat="42.533916" lon="-2.631765">
      <ele>501.6</ele>
    </trkpt>
    <trkpt lat="42.533481" lon="-2.631584">
      <ele>498.8</ele>
    </trkpt>
    <trkpt lat="42.533351" lon="-2.631562">
      <ele>498</ele>
    </trkpt>
    <trkpt lat="42.53243" lon="-2.631945">
      <ele>492.3</ele>
    </trkpt>
    <trkpt lat="42.531544" lon="-2.631928">
      <ele>488.3</ele>
    </trkpt>
    <trkpt lat="42.531451" lon="-2.631885">
      <ele>487.9</ele>
    </trkpt>
    <trkpt lat="42.531362" lon="-2.63178">
      <ele>487.5</ele>
    </trkpt>
    <trkpt lat="42.531026" lon="-2.631274">
      <ele>486.2</ele>
    </trkpt>
    <trkpt lat="42.53078" lon="-2.630843">
      <ele>485.3</ele>
    </trkpt>
    <trkpt lat="42.530725" lon="-2.630805">
      <ele>485.1</ele>
    </trkpt>
    <trkpt lat="42.531102" lon="-2.630601">
      <ele>484.1</ele>
    </trkpt>
    <trkpt lat="42.531025" lon="-2.630389">
      <ele>483.7</ele>
    </trkpt>
    <trkpt lat="42.530932" lon="-2.630206">
      <ele>483.3</ele>
    </trkpt>
    <trkpt lat="42.530871" lon="-2.630139">
      <ele>483.2</ele>
    </trkpt>
    <trkpt lat="42.5308" lon="-2.630094">
      <ele>483</ele>
    </trkpt>
    <trkpt lat="42.530163" lon="-2.629917">
      <ele>481.9</ele>
    </trkpt>
    <trkpt lat="42.52976" lon="-2.629951">
      <ele>481</ele>
    </trkpt>
    <trkpt lat="42.529414" lon="-2.629828">
      <ele>480.1</ele>
    </trkpt>
    <trkpt lat="42.529302" lon="-2.62985">
      <ele>479.9</ele>
    </trkpt>
    <trkpt lat="42.529084" lon="-2.629959">
      <ele>479.4</ele>
    </trkpt>
    <trkpt lat="42.528912" lon="-2.629976">
      <ele>479</ele>
    </trkpt>
    <trkpt lat="42.528598" lon="-2.630128">
      <ele>478.4</ele>
    </trkpt>
    <trkpt lat="42.528439" lon="-2.630142">
      <ele>478.2</ele>
    </trkpt>
    <trkpt lat="42.528222" lon="-2.63011">
      <ele>477.9</ele>
    </trkpt>
    <trkpt lat="42.52805" lon="-2.630016">
      <ele>477.7</ele>
    </trkpt>
    <trkpt lat="42.527886" lon="-2.629739">
      <ele>477.4</ele>
    </trkpt>
    <trkpt lat="42.52772" lon="-2.629581">
      <ele>477.3</ele>
    </trkpt>
    <trkpt lat="42.526389" lon="-2.628997">
      <ele>477.3</ele>
    </trkpt>
    <trkpt lat="42.525641" lon="-2.628433">
      <ele>477.4</ele>
    </trkpt>
    <trkpt lat="42.525417" lon="-2.628286">
      <ele>477.3</ele>
    </trkpt>
    <trkpt lat="42.525128" lon="-2.628154">
      <ele>477.2</ele>
    </trkpt>
    <trkpt lat="42.524854" lon="-2.627883">
      <ele>477</ele>
    </trkpt>
    <trkpt lat="42.524501" lon="-2.627591">
      <ele>476.6</ele>
    </trkpt>
    <trkpt lat="42.523958" lon="-2.62721">
      <ele>475.7</ele>
    </trkpt>
    <trkpt lat="42.523523" lon="-2.626684">
      <ele>474.4</ele>
    </trkpt>
    <trkpt lat="42.523019" lon="-2.626247">
      <ele>472.8</ele>
    </trkpt>
    <trkpt lat="42.522492" lon="-2.625414">
      <ele>470.3</ele>
    </trkpt>
    <trkpt lat="42.521755" lon="-2.624448">
      <ele>467.4</ele>
    </trkpt>
    <trkpt lat="42.521674" lon="-2.624192">
      <ele>467</ele>
    </trkpt>
    <trkpt lat="42.521586" lon="-2.62368">
      <ele>466.2</ele>
    </trkpt>
    <trkpt lat="42.521527" lon="-2.623565">
      <ele>466.1</ele>
    </trkpt>
    <trkpt lat="42.521492" lon="-2.623559">
      <ele>466</ele>
    </trkpt>
    <trkpt lat="42.52023" lon="-2.62347">
      <ele>465.2</ele>
    </trkpt>
    <trkpt lat="42.519251" lon="-2.623448">
      <ele>466.1</ele>
    </trkpt>
    <trkpt lat="42.518793" lon="-2.623407">
      <ele>467</ele>
    </trkpt>
    <trkpt lat="42.51864" lon="-2.623056">
      <ele>467.8</ele>
    </trkpt>
    <trkpt lat="42.518444" lon="-2.622788">
      <ele>468.5</ele>
    </trkpt>
    <trkpt lat="42.51792" lon="-2.62216">
      <ele>469.9</ele>
    </trkpt>
    <trkpt lat="42.517786" lon="-2.621906">
      <ele>470.1</ele>
    </trkpt>
    <trkpt lat="42.517702" lon="-2.621552">
      <ele>470</ele>
    </trkpt>
    <trkpt lat="42.517533" lon="-2.620491">
      <ele>467.9</ele>
    </trkpt>
    <trkpt lat="42.517428" lon="-2.619903">
      <ele>466.2</ele>
    </trkpt>
    <trkpt lat="42.517412" lon="-2.619634">
      <ele>465.4</ele>
    </trkpt>
    <trkpt lat="42.517279" lon="-2.619773">
      <ele>464.7</ele>
    </trkpt>
    <trkpt lat="42.516961" lon="-2.62019">
      <ele>463.2</ele>
    </trkpt>
    <trkpt lat="42.51637" lon="-2.620842">
      <ele>461.8</ele>
    </trkpt>
    <trkpt lat="42.516068" lon="-2.621168">
      <ele>461.3</ele>
    </trkpt>
    <trkpt lat="42.516003" lon="-2.621152">
      <ele>461.2</ele>
    </trkpt>
    <trkpt lat="42.515913" lon="-2.620995">
      <ele>461.1</ele>
    </trkpt>
    <trkpt lat="42.515627" lon="-2.620605">
      <ele>460.7</ele>
    </trkpt>
    <trkpt lat="42.515539" lon="-2.620713">
      <ele>460.5</ele>
    </trkpt>
    <trkpt lat="42.515336" lon="-2.620797">
      <ele>460.2</ele>
    </trkpt>
    <trkpt lat="42.515194" lon="-2.620773">
      <ele>460</ele>
    </trkpt>
    <trkpt lat="42.515058" lon="-2.620639">
      <ele>459.7</ele>
    </trkpt>
    <trkpt lat="42.514975" lon="-2.620448">
      <ele>459.4</ele>
    </trkpt>
    <trkpt lat="42.514958" lon="-2.620341">
      <ele>459.2</ele>
    </trkpt>
    <trkpt lat="42.514871" lon="-2.620323">
      <ele>458.9</ele>
    </trkpt>
    <trkpt lat="42.514774" lon="-2.62026">
      <ele>458.6</ele>
    </trkpt>
    <trkpt lat="42.514704" lon="-2.620225">
      <ele>458.3</ele>
    </trkpt>
    <trkpt lat="42.514262" lon="-2.620352">
      <ele>456.3</ele>
    </trkpt>
    <trkpt lat="42.514232" lon="-2.620362">
      <ele>456.2</ele>
    </trkpt>
    <trkpt lat="42.513765" lon="-2.620509">
      <ele>453.9</ele>
    </trkpt>
    <trkpt lat="42.513245" lon="-2.620674">
      <ele>452.4</ele>
    </trkpt>
    <trkpt lat="42.513157" lon="-2.620442">
      <ele>452.1</ele>
    </trkpt>
    <trkpt lat="42.513396" lon="-2.620269">
      <ele>452</ele>
    </trkpt>
    <trkpt lat="42.513682" lon="-2.620062">
      <ele>452.4</ele>
    </trkpt>
    <trkpt lat="42.514112" lon="-2.619694">
      <ele>454.5</ele>
    </trkpt>
    <trkpt lat="42.514293" lon="-2.619493">
      <ele>455.5</ele>
    </trkpt>
    <trkpt lat="42.514402" lon="-2.619454">
      <ele>455.9</ele>
    </trkpt>
    <trkpt lat="42.514819" lon="-2.6192">
      <ele>457</ele>
    </trkpt>
    <trkpt lat="42.515037" lon="-2.619121">
      <ele>457.1</ele>
    </trkpt>
    <trkpt lat="42.514965" lon="-2.61881">
      <ele>456.8</ele>
    </trkpt>
    <trkpt lat="42.514994" lon="-2.618308">
      <ele>456</ele>
    </trkpt>
    <trkpt lat="42.514998" lon="-2.618247">
      <ele>455.8</ele>
    </trkpt>
    <trkpt lat="42.514901" lon="-2.617902">
      <ele>454.4</ele>
    </trkpt>
    <trkpt lat="42.514724" lon="-2.617977">
      <ele>453</ele>
    </trkpt>
    <trkpt lat="42.514765" lon="-2.617563">
      <ele>450.4</ele>
    </trkpt>
    <trkpt lat="42.514843" lon="-2.617199">
      <ele>447.9</ele>
    </trkpt>
    <trkpt lat="42.514874" lon="-2.617037">
      <ele>446.8</ele>
    </trkpt>
    <trkpt lat="42.514849" lon="-2.61697">
      <ele>446.3</ele>
    </trkpt>
    <trkpt lat="42.514491" lon="-2.616721">
      <ele>443.2</ele>
    </trkpt>
    <trkpt lat="42.514535" lon="-2.616598">
      <ele>442.5</ele>
    </trkpt>
    <trkpt lat="42.514118" lon="-2.616257">
      <ele>439.3</ele>
    </trkpt>
    <trkpt lat="42.513985" lon="-2.616211">
      <ele>438.6</ele>
    </trkpt>
    <trkpt lat="42.513893" lon="-2.616191">
      <ele>438.1</ele>
    </trkpt>
    <trkpt lat="42.51385" lon="-2.61619">
      <ele>437.9</ele>
    </trkpt>
    <trkpt lat="42.51371" lon="-2.616218">
      <ele>437.4</ele>
    </trkpt>
    <trkpt lat="42.513624" lon="-2.616331">
      <ele>437</ele>
    </trkpt>
    <trkpt lat="42.513386" lon="-2.616782">
      <ele>436.3</ele>
    </trkpt>
    <trkpt lat="42.513255" lon="-2.617175">
      <ele>436.2</ele>
    </trkpt>
    <trkpt lat="42.513253" lon="-2.617189">
      <ele>436.2</ele>
    </trkpt>
    <trkpt lat="42.513255" lon="-2.617175">
      <ele>436.2</ele>
    </trkpt>
    <trkpt lat="42.513386" lon="-2.616782">
      <ele>436.6</ele>
    </trkpt>
    <trkpt lat="42.513624" lon="-2.616331">
      <ele>438.3</ele>
    </trkpt>
    <trkpt lat="42.51371" lon="-2.616218">
      <ele>439</ele>
    </trkpt>
    <trkpt lat="42.513777" lon="-2.616129">
      <ele>439.6</ele>
    </trkpt>
    <trkpt lat="42.513974" lon="-2.615929">
      <ele>441.5</ele>
    </trkpt>
    <trkpt lat="42.514069" lon="-2.61585">
      <ele>442.5</ele>
    </trkpt>
    <trkpt lat="42.514097" lon="-2.615827">
      <ele>442.8</ele>
    </trkpt>
    <trkpt lat="42.514098" lon="-2.615612">
      <ele>444.4</ele>
    </trkpt>
    <trkpt lat="42.514135" lon="-2.61541">
      <ele>446</ele>
    </trkpt>
    <trkpt lat="42.514141" lon="-2.615287">
      <ele>447</ele>
    </trkpt>
    <trkpt lat="42.514115" lon="-2.615094">
      <ele>448.7</ele>
    </trkpt>
    <trkpt lat="42.514114" lon="-2.614947">
      <ele>449.9</ele>
    </trkpt>
    <trkpt lat="42.514205" lon="-2.6148">
      <ele>451.7</ele>
    </trkpt>
    <trkpt lat="42.514448" lon="-2.614541">
      <ele>455.4</ele>
    </trkpt>
    <trkpt lat="42.514583" lon="-2.614251">
      <ele>458.2</ele>
    </trkpt>
    <trkpt lat="42.514663" lon="-2.613936">
      <ele>460.7</ele>
    </trkpt>
    <trkpt lat="42.514731" lon="-2.613786">
      <ele>462.2</ele>
    </trkpt>
    <trkpt lat="42.514834" lon="-2.613685">
      <ele>463.5</ele>
    </trkpt>
    <trkpt lat="42.51504" lon="-2.613561">
      <ele>465.8</ele>
    </trkpt>
    <trkpt lat="42.515086" lon="-2.613404">
      <ele>467</ele>
    </trkpt>
    <trkpt lat="42.515109" lon="-2.613043">
      <ele>469</ele>
    </trkpt>
    <trkpt lat="42.515174" lon="-2.612635">
      <ele>470.9</ele>
    </trkpt>
    <trkpt lat="42.51532" lon="-2.612238">
      <ele>472.4</ele>
    </trkpt>
    <trkpt lat="42.515367" lon="-2.61199">
      <ele>473.3</ele>
    </trkpt>
    <trkpt lat="42.515373" lon="-2.611951">
      <ele>473.4</ele>
    </trkpt>
    <trkpt lat="42.515441" lon="-2.611605">
      <ele>474.6</ele>
    </trkpt>
    <trkpt lat="42.515666" lon="-2.610974">
      <ele>476.5</ele>
    </trkpt>
    <trkpt lat="42.515706" lon="-2.610795">
      <ele>476.9</ele>
    </trkpt>
    <trkpt lat="42.515797" lon="-2.609971">
      <ele>478.4</ele>
    </trkpt>
    <trkpt lat="42.515868" lon="-2.60962">
      <ele>479.2</ele>
    </trkpt>
    <trkpt lat="42.515942" lon="-2.609402">
      <ele>479.7</ele>
    </trkpt>
    <trkpt lat="42.516117" lon="-2.608926">
      <ele>480.7</ele>
    </trkpt>
    <trkpt lat="42.516386" lon="-2.60719">
      <ele>480.8</ele>
    </trkpt>
    <trkpt lat="42.516421" lon="-2.606904">
      <ele>480.7</ele>
    </trkpt>
    <trkpt lat="42.516459" lon="-2.605953">
      <ele>480.5</ele>
    </trkpt>
    <trkpt lat="42.516524" lon="-2.605451">
      <ele>481</ele>
    </trkpt>
    <trkpt lat="42.516682" lon="-2.604924">
      <ele>482</ele>
    </trkpt>
    <trkpt lat="42.516928" lon="-2.60394">
      <ele>484.6</ele>
    </trkpt>
    <trkpt lat="42.517174" lon="-2.603103">
      <ele>486.7</ele>
    </trkpt>
    <trkpt lat="42.517307" lon="-2.602864">
      <ele>487.3</ele>
    </trkpt>
    <trkpt lat="42.517479" lon="-2.602333">
      <ele>488.3</ele>
    </trkpt>
    <trkpt lat="42.517645" lon="-2.601984">
      <ele>489</ele>
    </trkpt>
    <trkpt lat="42.517904" lon="-2.601676">
      <ele>489.8</ele>
    </trkpt>
    <trkpt lat="42.518265" lon="-2.601428">
      <ele>490.9</ele>
    </trkpt>
    <trkpt lat="42.518349" lon="-2.60129">
      <ele>491.2</ele>
    </trkpt>
    <trkpt lat="42.51847" lon="-2.600899">
      <ele>491.7</ele>
    </trkpt>
    <trkpt lat="42.518493" lon="-2.600342">
      <ele>492.1</ele>
    </trkpt>
    <trkpt lat="42.518397" lon="-2.598739">
      <ele>493.4</ele>
    </trkpt>
    <trkpt lat="42.51874" lon="-2.59782">
      <ele>496.1</ele>
    </trkpt>
    <trkpt lat="42.518603" lon="-2.596768">
      <ele>500.7</ele>
    </trkpt>
    <trkpt lat="42.519507" lon="-2.595956">
      <ele>504.4</ele>
    </trkpt>
    <trkpt lat="42.519574" lon="-2.595844">
      <ele>504.4</ele>
    </trkpt>
    <trkpt lat="42.519663" lon="-2.595144">
      <ele>503.8</ele>
    </trkpt>
    <trkpt lat="42.51993" lon="-2.594722">
      <ele>502.5</ele>
    </trkpt>
    <trkpt lat="42.520128" lon="-2.593982">
      <ele>500.2</ele>
    </trkpt>
    <trkpt lat="42.52034" lon="-2.593014">
      <ele>498</ele>
    </trkpt>
    <trkpt lat="42.520389" lon="-2.591656">
      <ele>496.5</ele>
    </trkpt>
    <trkpt lat="42.520737" lon="-2.591091">
      <ele>495.3</ele>
    </trkpt>
    <trkpt lat="42.520824" lon="-2.590576">
      <ele>494.1</ele>
    </trkpt>
    <trkpt lat="42.520948" lon="-2.590098">
      <ele>492.7</ele>
    </trkpt>
    <trkpt lat="42.52084" lon="-2.58934">
      <ele>490.8</ele>
    </trkpt>
    <trkpt lat="42.521017" lon="-2.588834">
      <ele>489.9</ele>
    </trkpt>
    <trkpt lat="42.520752" lon="-2.588062">
      <ele>489.6</ele>
    </trkpt>
    <trkpt lat="42.520501" lon="-2.586573">
      <ele>492.3</ele>
    </trkpt>
    <trkpt lat="42.520235" lon="-2.586219">
      <ele>493.9</ele>
    </trkpt>
    <trkpt lat="42.520481" lon="-2.584985">
      <ele>498.5</ele>
    </trkpt>
    <trkpt lat="42.520265" lon="-2.583819">
      <ele>501.9</ele>
    </trkpt>
    <trkpt lat="42.520034" lon="-2.58339">
      <ele>502.9</ele>
    </trkpt>
    <trkpt lat="42.520041" lon="-2.583311">
      <ele>503</ele>
    </trkpt>
    <trkpt lat="42.520119" lon="-2.582504">
      <ele>504.6</ele>
    </trkpt>
    <trkpt lat="42.520045" lon="-2.58229">
      <ele>505</ele>
    </trkpt>
    <trkpt lat="42.519999" lon="-2.582051">
      <ele>505.5</ele>
    </trkpt>
    <trkpt lat="42.519981" lon="-2.581612">
      <ele>506.3</ele>
    </trkpt>
    <trkpt lat="42.51995" lon="-2.581491">
      <ele>506.5</ele>
    </trkpt>
    <trkpt lat="42.519845" lon="-2.581345">
      <ele>506.8</ele>
    </trkpt>
    <trkpt lat="42.519709" lon="-2.581257">
      <ele>507</ele>
    </trkpt>
    <trkpt lat="42.519597" lon="-2.581268">
      <ele>507.2</ele>
    </trkpt>
    <trkpt lat="42.519385" lon="-2.581189">
      <ele>507.5</ele>
    </trkpt>
    <trkpt lat="42.518523" lon="-2.581023">
      <ele>508.7</ele>
    </trkpt>
    <trkpt lat="42.518221" lon="-2.581136">
      <ele>509.3</ele>
    </trkpt>
    <trkpt lat="42.517481" lon="-2.580792">
      <ele>511.9</ele>
    </trkpt>
    <trkpt lat="42.517038" lon="-2.580639">
      <ele>513.9</ele>
    </trkpt>
    <trkpt lat="42.516304" lon="-2.580634">
      <ele>517</ele>
    </trkpt>
    <trkpt lat="42.515446" lon="-2.580427">
      <ele>519.3</ele>
    </trkpt>
    <trkpt lat="42.515289" lon="-2.580121">
      <ele>519.6</ele>
    </trkpt>
    <trkpt lat="42.514602" lon="-2.579868">
      <ele>519.2</ele>
    </trkpt>
    <trkpt lat="42.514141" lon="-2.579961">
      <ele>518.3</ele>
    </trkpt>
    <trkpt lat="42.513516" lon="-2.579842">
      <ele>517.1</ele>
    </trkpt>
    <trkpt lat="42.513428" lon="-2.579849">
      <ele>516.9</ele>
    </trkpt>
    <trkpt lat="42.512749" lon="-2.579652">
      <ele>515.7</ele>
    </trkpt>
    <trkpt lat="42.512122" lon="-2.57962">
      <ele>514.3</ele>
    </trkpt>
    <trkpt lat="42.51187" lon="-2.579683">
      <ele>513.6</ele>
    </trkpt>
    <trkpt lat="42.511579" lon="-2.579884">
      <ele>512.3</ele>
    </trkpt>
    <trkpt lat="42.511439" lon="-2.579922">
      <ele>511.6</ele>
    </trkpt>
    <trkpt lat="42.51038" lon="-2.579894">
      <ele>505.7</ele>
    </trkpt>
    <trkpt lat="42.510162" lon="-2.579919">
      <ele>504.6</ele>
    </trkpt>
    <trkpt lat="42.509987" lon="-2.579972">
      <ele>503.8</ele>
    </trkpt>
    <trkpt lat="42.509808" lon="-2.580098">
      <ele>503.1</ele>
    </trkpt>
    <trkpt lat="42.509654" lon="-2.580349">
      <ele>502.6</ele>
    </trkpt>
    <trkpt lat="42.509578" lon="-2.580426">
      <ele>502.4</ele>
    </trkpt>
    <trkpt lat="42.509467" lon="-2.580473">
      <ele>502.4</ele>
    </trkpt>
    <trkpt lat="42.509378" lon="-2.580472">
      <ele>502.4</ele>
    </trkpt>
    <trkpt lat="42.508982" lon="-2.580353">
      <ele>503</ele>
    </trkpt>
    <trkpt lat="42.50813" lon="-2.580821">
      <ele>506.2</ele>
    </trkpt>
    <trkpt lat="42.507971" lon="-2.580811">
      <ele>506.8</ele>
    </trkpt>
    <trkpt lat="42.507853" lon="-2.580746">
      <ele>507.2</ele>
    </trkpt>
    <trkpt lat="42.507734" lon="-2.580628">
      <ele>507.5</ele>
    </trkpt>
    <trkpt lat="42.507323" lon="-2.579834">
      <ele>508.2</ele>
    </trkpt>
    <trkpt lat="42.507181" lon="-2.579738">
      <ele>508.2</ele>
    </trkpt>
    <trkpt lat="42.507007" lon="-2.579706">
      <ele>508.1</ele>
    </trkpt>
    <trkpt lat="42.506848" lon="-2.579759">
      <ele>508</ele>
    </trkpt>
    <trkpt lat="42.506168" lon="-2.58036">
      <ele>508.4</ele>
    </trkpt>
    <trkpt lat="42.505658" lon="-2.58069">
      <ele>509.6</ele>
    </trkpt>
    <trkpt lat="42.505571" lon="-2.580786">
      <ele>509.8</ele>
    </trkpt>
    <trkpt lat="42.505253" lon="-2.58128">
      <ele>511.1</ele>
    </trkpt>
    <trkpt lat="42.504992" lon="-2.581374">
      <ele>511.8</ele>
    </trkpt>
    <trkpt lat="42.504677" lon="-2.581615">
      <ele>512.8</ele>
    </trkpt>
    <trkpt lat="42.504521" lon="-2.581661">
      <ele>513.3</ele>
    </trkpt>
    <trkpt lat="42.504431" lon="-2.581642">
      <ele>513.5</ele>
    </trkpt>
    <trkpt lat="42.504359" lon="-2.581574">
      <ele>513.7</ele>
    </trkpt>
    <trkpt lat="42.503963" lon="-2.58097">
      <ele>514.3</ele>
    </trkpt>
    <trkpt lat="42.503811" lon="-2.580548">
      <ele>513.7</ele>
    </trkpt>
    <trkpt lat="42.503411" lon="-2.579909">
      <ele>512.5</ele>
    </trkpt>
    <trkpt lat="42.503248" lon="-2.579775">
      <ele>512.1</ele>
    </trkpt>
    <trkpt lat="42.503143" lon="-2.579741">
      <ele>511.9</ele>
    </trkpt>
    <trkpt lat="42.502951" lon="-2.579743">
      <ele>511.5</ele>
    </trkpt>
    <trkpt lat="42.502684" lon="-2.579886">
      <ele>510.6</ele>
    </trkpt>
    <trkpt lat="42.502319" lon="-2.57996">
      <ele>509.3</ele>
    </trkpt>
    <trkpt lat="42.502228" lon="-2.579978">
      <ele>508.9</ele>
    </trkpt>
    <trkpt lat="42.502008" lon="-2.579911">
      <ele>508.2</ele>
    </trkpt>
    <trkpt lat="42.501902" lon="-2.579825">
      <ele>507.9</ele>
    </trkpt>
    <trkpt lat="42.501843" lon="-2.579749">
      <ele>507.7</ele>
    </trkpt>
    <trkpt lat="42.501781" lon="-2.579511">
      <ele>507.1</ele>
    </trkpt>
    <trkpt lat="42.50181" lon="-2.578987">
      <ele>506.1</ele>
    </trkpt>
    <trkpt lat="42.501786" lon="-2.578697">
      <ele>505.6</ele>
    </trkpt>
    <trkpt lat="42.501746" lon="-2.578495">
      <ele>505.2</ele>
    </trkpt>
    <trkpt lat="42.501619" lon="-2.578075">
      <ele>504.3</ele>
    </trkpt>
    <trkpt lat="42.501573" lon="-2.578">
      <ele>504.1</ele>
    </trkpt>
    <trkpt lat="42.501488" lon="-2.577934">
      <ele>504</ele>
    </trkpt>
    <trkpt lat="42.501358" lon="-2.577831">
      <ele>503.7</ele>
    </trkpt>
    <trkpt lat="42.501159" lon="-2.577526">
      <ele>503.1</ele>
    </trkpt>
    <trkpt lat="42.501047" lon="-2.57729">
      <ele>502.6</ele>
    </trkpt>
    <trkpt lat="42.500865" lon="-2.576737">
      <ele>501.2</ele>
    </trkpt>
    <trkpt lat="42.500753" lon="-2.575727">
      <ele>496.3</ele>
    </trkpt>
    <trkpt lat="42.500712" lon="-2.575628">
      <ele>495.7</ele>
    </trkpt>
    <trkpt lat="42.500525" lon="-2.575387">
      <ele>493.8</ele>
    </trkpt>
    <trkpt lat="42.500305" lon="-2.575232">
      <ele>492.2</ele>
    </trkpt>
    <trkpt lat="42.499946" lon="-2.575141">
      <ele>490.2</ele>
    </trkpt>
    <trkpt lat="42.499529" lon="-2.575107">
      <ele>488.6</ele>
    </trkpt>
    <trkpt lat="42.499181" lon="-2.575155">
      <ele>487.5</ele>
    </trkpt>
    <trkpt lat="42.498856" lon="-2.575249">
      <ele>486.2</ele>
    </trkpt>
    <trkpt lat="42.498642" lon="-2.575216">
      <ele>485.4</ele>
    </trkpt>
    <trkpt lat="42.498289" lon="-2.575084">
      <ele>483.5</ele>
    </trkpt>
    <trkpt lat="42.497913" lon="-2.575032">
      <ele>480.9</ele>
    </trkpt>
    <trkpt lat="42.49783" lon="-2.575033">
      <ele>480.2</ele>
    </trkpt>
    <trkpt lat="42.497755" lon="-2.575073">
      <ele>479.5</ele>
    </trkpt>
    <trkpt lat="42.497722" lon="-2.57512">
      <ele>479.1</ele>
    </trkpt>
    <trkpt lat="42.497656" lon="-2.575448">
      <ele>476.6</ele>
    </trkpt>
    <trkpt lat="42.49762" lon="-2.575525">
      <ele>475.9</ele>
    </trkpt>
    <trkpt lat="42.49757" lon="-2.575549">
      <ele>475.4</ele>
    </trkpt>
    <trkpt lat="42.497242" lon="-2.575339">
      <ele>471.3</ele>
    </trkpt>
    <trkpt lat="42.496904" lon="-2.575206">
      <ele>467.2</ele>
    </trkpt>
    <trkpt lat="42.496779" lon="-2.575167">
      <ele>465.7</ele>
    </trkpt>
    <trkpt lat="42.496605" lon="-2.575167">
      <ele>463.5</ele>
    </trkpt>
    <trkpt lat="42.49621" lon="-2.575071">
      <ele>458.2</ele>
    </trkpt>
    <trkpt lat="42.496012" lon="-2.575103">
      <ele>455.7</ele>
    </trkpt>
    <trkpt lat="42.495879" lon="-2.575087">
      <ele>454.1</ele>
    </trkpt>
    <trkpt lat="42.495742" lon="-2.575101">
      <ele>452.4</ele>
    </trkpt>
    <trkpt lat="42.495595" lon="-2.575092">
      <ele>450.8</ele>
    </trkpt>
    <trkpt lat="42.495563" lon="-2.575083">
      <ele>450.4</ele>
    </trkpt>
    <trkpt lat="42.495316" lon="-2.574921">
      <ele>447.5</ele>
    </trkpt>
    <trkpt lat="42.495229" lon="-2.574781">
      <ele>446.1</ele>
    </trkpt>
    <trkpt lat="42.495118" lon="-2.574473">
      <ele>443.6</ele>
    </trkpt>
    <trkpt lat="42.494912" lon="-2.573891">
      <ele>439</ele>
    </trkpt>
    <trkpt lat="42.494803" lon="-2.573451">
      <ele>435.9</ele>
    </trkpt>
    <trkpt lat="42.49477" lon="-2.573342">
      <ele>435.1</ele>
    </trkpt>
    <trkpt lat="42.49471" lon="-2.573144">
      <ele>433.6</ele>
    </trkpt>
    <trkpt lat="42.494182" lon="-2.573287">
      <ele>428.9</ele>
    </trkpt>
    <trkpt lat="42.493743" lon="-2.573392">
      <ele>425.9</ele>
    </trkpt>
    <trkpt lat="42.493675" lon="-2.573438">
      <ele>425.3</ele>
    </trkpt>
    <trkpt lat="42.493558" lon="-2.573696">
      <ele>423.5</ele>
    </trkpt>
    <trkpt lat="42.493466" lon="-2.574006">
      <ele>420.8</ele>
    </trkpt>
    <trkpt lat="42.493323" lon="-2.574386">
      <ele>417</ele>
    </trkpt>
    <trkpt lat="42.493183" lon="-2.574576">
      <ele>414.8</ele>
    </trkpt>
    <trkpt lat="42.493081" lon="-2.574417">
      <ele>413</ele>
    </trkpt>
    <trkpt lat="42.493056" lon="-2.574219">
      <ele>411.4</ele>
    </trkpt>
    <trkpt lat="42.493067" lon="-2.573885">
      <ele>408.7</ele>
    </trkpt>
    <trkpt lat="42.493047" lon="-2.573761">
      <ele>407.7</ele>
    </trkpt>
    <trkpt lat="42.493245" lon="-2.573089">
      <ele>402.7</ele>
    </trkpt>
    <trkpt lat="42.493382" lon="-2.57276">
      <ele>401.6</ele>
    </trkpt>
    <trkpt lat="42.493383" lon="-2.572754">
      <ele>401.6</ele>
    </trkpt>
    <trkpt lat="42.493382" lon="-2.57276">
      <ele>401.6</ele>
    </trkpt>
    <trkpt lat="42.493245" lon="-2.573089">
      <ele>402.7</ele>
    </trkpt>
    <trkpt lat="42.493047" lon="-2.573761">
      <ele>407.7</ele>
    </trkpt>
    <trkpt lat="42.493067" lon="-2.573885">
      <ele>408.7</ele>
    </trkpt>
    <trkpt lat="42.493056" lon="-2.574219">
      <ele>411.4</ele>
    </trkpt>
    <trkpt lat="42.493081" lon="-2.574417">
      <ele>413</ele>
    </trkpt>
    <trkpt lat="42.493183" lon="-2.574576">
      <ele>414.6</ele>
    </trkpt>
    <trkpt lat="42.493323" lon="-2.574386">
      <ele>416.6</ele>
    </trkpt>
    <trkpt lat="42.493466" lon="-2.574006">
      <ele>419.7</ele>
    </trkpt>
    <trkpt lat="42.493558" lon="-2.573696">
      <ele>421.7</ele>
    </trkpt>
    <trkpt lat="42.493675" lon="-2.573438">
      <ele>422.7</ele>
    </trkpt>
    <trkpt lat="42.493789" lon="-2.573229">
      <ele>423.1</ele>
    </trkpt>
    <trkpt lat="42.494066" lon="-2.572923">
      <ele>423.9</ele>
    </trkpt>
    <trkpt lat="42.494233" lon="-2.572759">
      <ele>424.7</ele>
    </trkpt>
    <trkpt lat="42.494357" lon="-2.572591">
      <ele>425.5</ele>
    </trkpt>
    <trkpt lat="42.494484" lon="-2.572366">
      <ele>426.4</ele>
    </trkpt>
    <trkpt lat="42.494522" lon="-2.572293">
      <ele>426.6</ele>
    </trkpt>
    <trkpt lat="42.495362" lon="-2.572356">
      <ele>428.1</ele>
    </trkpt>
    <trkpt lat="42.495394" lon="-2.571472">
      <ele>428.4</ele>
    </trkpt>
    <trkpt lat="42.495721" lon="-2.571437">
      <ele>427.4</ele>
    </trkpt>
    <trkpt lat="42.496225" lon="-2.571271">
      <ele>423.9</ele>
    </trkpt>
    <trkpt lat="42.496284" lon="-2.571169">
      <ele>423.2</ele>
    </trkpt>
    <trkpt lat="42.496364" lon="-2.570291">
      <ele>417.2</ele>
    </trkpt>
    <trkpt lat="42.496423" lon="-2.570123">
      <ele>415.7</ele>
    </trkpt>
    <trkpt lat="42.496587" lon="-2.569892">
      <ele>413.1</ele>
    </trkpt>
    <trkpt lat="42.49667" lon="-2.569704">
      <ele>411.4</ele>
    </trkpt>
    <trkpt lat="42.496716" lon="-2.569431">
      <ele>409.4</ele>
    </trkpt>
    <trkpt lat="42.496757" lon="-2.568768">
      <ele>406.2</ele>
    </trkpt>
    <trkpt lat="42.497022" lon="-2.568344">
      <ele>405.5</ele>
    </trkpt>
    <trkpt lat="42.497113" lon="-2.568097">
      <ele>405.7</ele>
    </trkpt>
    <trkpt lat="42.497278" lon="-2.56731">
      <ele>407.7</ele>
    </trkpt>
    <trkpt lat="42.497291" lon="-2.566896">
      <ele>409.4</ele>
    </trkpt>
    <trkpt lat="42.49733" lon="-2.566716">
      <ele>410.4</ele>
    </trkpt>
    <trkpt lat="42.497375" lon="-2.566631">
      <ele>410.9</ele>
    </trkpt>
    <trkpt lat="42.497477" lon="-2.566554">
      <ele>411.8</ele>
    </trkpt>
    <trkpt lat="42.497531" lon="-2.566485">
      <ele>412.4</ele>
    </trkpt>
    <trkpt lat="42.497858" lon="-2.566585">
      <ele>415.3</ele>
    </trkpt>
    <trkpt lat="42.498406" lon="-2.566555">
      <ele>420.9</ele>
    </trkpt>
    <trkpt lat="42.498576" lon="-2.566499">
      <ele>422.8</ele>
    </trkpt>
    <trkpt lat="42.498654" lon="-2.566403">
      <ele>423.9</ele>
    </trkpt>
    <trkpt lat="42.498766" lon="-2.565992">
      <ele>427.8</ele>
    </trkpt>
    <trkpt lat="42.498956" lon="-2.565544">
      <ele>432.9</ele>
    </trkpt>
    <trkpt lat="42.498986" lon="-2.565322">
      <ele>435.1</ele>
    </trkpt>
    <trkpt lat="42.498946" lon="-2.564675">
      <ele>441.5</ele>
    </trkpt>
    <trkpt lat="42.49894" lon="-2.564074">
      <ele>447.4</ele>
    </trkpt>
    <trkpt lat="42.498978" lon="-2.563817">
      <ele>449.9</ele>
    </trkpt>
    <trkpt lat="42.499037" lon="-2.563621">
      <ele>451.8</ele>
    </trkpt>
    <trkpt lat="42.4995" lon="-2.563055">
      <ele>459.3</ele>
    </trkpt>
    <trkpt lat="42.499648" lon="-2.562593">
      <ele>463.2</ele>
    </trkpt>
    <trkpt lat="42.499733" lon="-2.562491">
      <ele>464.2</ele>
    </trkpt>
    <trkpt lat="42.500052" lon="-2.562261">
      <ele>467.1</ele>
    </trkpt>
    <trkpt lat="42.50015" lon="-2.56213">
      <ele>468</ele>
    </trkpt>
    <trkpt lat="42.500242" lon="-2.561937">
      <ele>468.8</ele>
    </trkpt>
    <trkpt lat="42.500477" lon="-2.561322">
      <ele>469.9</ele>
    </trkpt>
    <trkpt lat="42.500493" lon="-2.561119">
      <ele>469.9</ele>
    </trkpt>
    <trkpt lat="42.500431" lon="-2.560633">
      <ele>469.2</ele>
    </trkpt>
    <trkpt lat="42.500453" lon="-2.560469">
      <ele>468.7</ele>
    </trkpt>
    <trkpt lat="42.50051" lon="-2.560266">
      <ele>468.1</ele>
    </trkpt>
    <trkpt lat="42.500667" lon="-2.559941">
      <ele>466.8</ele>
    </trkpt>
    <trkpt lat="42.501009" lon="-2.558718">
      <ele>462.3</ele>
    </trkpt>
    <trkpt lat="42.501165" lon="-2.558318">
      <ele>461.1</ele>
    </trkpt>
    <trkpt lat="42.501325" lon="-2.558088">
      <ele>460.2</ele>
    </trkpt>
    <trkpt lat="42.501938" lon="-2.557476">
      <ele>456.9</ele>
    </trkpt>
    <trkpt lat="42.502037" lon="-2.557272">
      <ele>456</ele>
    </trkpt>
    <trkpt lat="42.502504" lon="-2.555674">
      <ele>447.9</ele>
    </trkpt>
    <trkpt lat="42.502507" lon="-2.555653">
      <ele>447.8</ele>
    </trkpt>
    <trkpt lat="42.502549" lon="-2.5554">
      <ele>446.5</ele>
    </trkpt>
    <trkpt lat="42.502557" lon="-2.555054">
      <ele>444.9</ele>
    </trkpt>
    <trkpt lat="42.50262" lon="-2.554764">
      <ele>443.4</ele>
    </trkpt>
    <trkpt lat="42.50298" lon="-2.553597">
      <ele>438.7</ele>
    </trkpt>
    <trkpt lat="42.503469" lon="-2.552862">
      <ele>436.7</ele>
    </trkpt>
    <trkpt lat="42.503647" lon="-2.552428">
      <ele>436.2</ele>
    </trkpt>
    <trkpt lat="42.50401" lon="-2.55169">
      <ele>435.7</ele>
    </trkpt>
    <trkpt lat="42.504109" lon="-2.551223">
      <ele>435.3</ele>
    </trkpt>
    <trkpt lat="42.504916" lon="-2.549317">
      <ele>432.2</ele>
    </trkpt>
    <trkpt lat="42.505364" lon="-2.54874">
      <ele>430.4</ele>
    </trkpt>
    <trkpt lat="42.505519" lon="-2.548402">
      <ele>429.4</ele>
    </trkpt>
    <trkpt lat="42.505582" lon="-2.548227">
      <ele>428.9</ele>
    </trkpt>
    <trkpt lat="42.505608" lon="-2.548064">
      <ele>428.5</ele>
    </trkpt>
    <trkpt lat="42.505577" lon="-2.547677">
      <ele>427.5</ele>
    </trkpt>
    <trkpt lat="42.505612" lon="-2.547417">
      <ele>426.8</ele>
    </trkpt>
    <trkpt lat="42.505679" lon="-2.547283">
      <ele>426.4</ele>
    </trkpt>
    <trkpt lat="42.50577" lon="-2.547206">
      <ele>426.1</ele>
    </trkpt>
    <trkpt lat="42.506132" lon="-2.54702">
      <ele>425</ele>
    </trkpt>
    <trkpt lat="42.506221" lon="-2.546883">
      <ele>424.7</ele>
    </trkpt>
    <trkpt lat="42.506609" lon="-2.545781">
      <ele>424.3</ele>
    </trkpt>
    <trkpt lat="42.506632" lon="-2.545736">
      <ele>424.3</ele>
    </trkpt>
    <trkpt lat="42.506673" lon="-2.545654">
      <ele>424.4</ele>
    </trkpt>
    <trkpt lat="42.507101" lon="-2.545051">
      <ele>426</ele>
    </trkpt>
    <trkpt lat="42.507474" lon="-2.544649">
      <ele>428.2</ele>
    </trkpt>
    <trkpt lat="42.507569" lon="-2.544516">
      <ele>428.9</ele>
    </trkpt>
    <trkpt lat="42.50763" lon="-2.5444">
      <ele>429.6</ele>
    </trkpt>
    <trkpt lat="42.507657" lon="-2.544253">
      <ele>430.3</ele>
    </trkpt>
    <trkpt lat="42.507651" lon="-2.544091">
      <ele>431.1</ele>
    </trkpt>
    <trkpt lat="42.507628" lon="-2.543786">
      <ele>432.6</ele>
    </trkpt>
    <trkpt lat="42.507643" lon="-2.543634">
      <ele>433.4</ele>
    </trkpt>
    <trkpt lat="42.507688" lon="-2.543478">
      <ele>434.3</ele>
    </trkpt>
    <trkpt lat="42.507765" lon="-2.543322">
      <ele>435.3</ele>
    </trkpt>
    <trkpt lat="42.507866" lon="-2.543222">
      <ele>436.2</ele>
    </trkpt>
    <trkpt lat="42.508165" lon="-2.543053">
      <ele>438.4</ele>
    </trkpt>
    <trkpt lat="42.50823" lon="-2.542965">
      <ele>439</ele>
    </trkpt>
    <trkpt lat="42.508394" lon="-2.542361">
      <ele>441.4</ele>
    </trkpt>
    <trkpt lat="42.508545" lon="-2.542074">
      <ele>442.3</ele>
    </trkpt>
    <trkpt lat="42.508999" lon="-2.54138">
      <ele>443</ele>
    </trkpt>
    <trkpt lat="42.509229" lon="-2.540833">
      <ele>442.4</ele>
    </trkpt>
    <trkpt lat="42.509504" lon="-2.540259">
      <ele>441.3</ele>
    </trkpt>
    <trkpt lat="42.509513" lon="-2.540226">
      <ele>441.2</ele>
    </trkpt>
    <trkpt lat="42.509585" lon="-2.539977">
      <ele>440.6</ele>
    </trkpt>
    <trkpt lat="42.509606" lon="-2.539749">
      <ele>440.1</ele>
    </trkpt>
    <trkpt lat="42.509606" lon="-2.538969">
      <ele>438.3</ele>
    </trkpt>
    <trkpt lat="42.509687" lon="-2.538644">
      <ele>437.6</ele>
    </trkpt>
    <trkpt lat="42.509757" lon="-2.53837">
      <ele>437</ele>
    </trkpt>
    <trkpt lat="42.50982" lon="-2.537627">
      <ele>435.4</ele>
    </trkpt>
    <trkpt lat="42.509915" lon="-2.537359">
      <ele>434.8</ele>
    </trkpt>
    <trkpt lat="42.510025" lon="-2.537217">
      <ele>434.3</ele>
    </trkpt>
    <trkpt lat="42.510886" lon="-2.53645">
      <ele>431.6</ele>
    </trkpt>
    <trkpt lat="42.511071" lon="-2.536182">
      <ele>431</ele>
    </trkpt>
    <trkpt lat="42.5117" lon="-2.534915">
      <ele>427.7</ele>
    </trkpt>
    <trkpt lat="42.512072" lon="-2.534219">
      <ele>424.4</ele>
    </trkpt>
    <trkpt lat="42.512266" lon="-2.533696">
      <ele>421.8</ele>
    </trkpt>
    <trkpt lat="42.512392" lon="-2.533282">
      <ele>419.7</ele>
    </trkpt>
    <trkpt lat="42.512438" lon="-2.532929">
      <ele>417.9</ele>
    </trkpt>
    <trkpt lat="42.512432" lon="-2.532585">
      <ele>416.3</ele>
    </trkpt>
    <trkpt lat="42.512287" lon="-2.531799">
      <ele>412.5</ele>
    </trkpt>
    <trkpt lat="42.512143" lon="-2.531161">
      <ele>409.6</ele>
    </trkpt>
    <trkpt lat="42.512169" lon="-2.530938">
      <ele>408.7</ele>
    </trkpt>
    <trkpt lat="42.512485" lon="-2.53059">
      <ele>406.4</ele>
    </trkpt>
    <trkpt lat="42.512556" lon="-2.530453">
      <ele>405.7</ele>
    </trkpt>
    <trkpt lat="42.512556" lon="-2.530302">
      <ele>405.1</ele>
    </trkpt>
    <trkpt lat="42.512509" lon="-2.530122">
      <ele>404.3</ele>
    </trkpt>
    <trkpt lat="42.512363" lon="-2.52979">
      <ele>403</ele>
    </trkpt>
    <trkpt lat="42.512337" lon="-2.529615">
      <ele>402.4</ele>
    </trkpt>
    <trkpt lat="42.512349" lon="-2.529409">
      <ele>401.8</ele>
    </trkpt>
    <trkpt lat="42.512406" lon="-2.529095">
      <ele>401</ele>
    </trkpt>
    <trkpt lat="42.512541" lon="-2.528718">
      <ele>400.2</ele>
    </trkpt>
    <trkpt lat="42.512581" lon="-2.528275">
      <ele>399.6</ele>
    </trkpt>
    <trkpt lat="42.512647" lon="-2.528006">
      <ele>399.3</ele>
    </trkpt>
    <trkpt lat="42.51305" lon="-2.526966">
      <ele>398.2</ele>
    </trkpt>
    <trkpt lat="42.513762" lon="-2.52559">
      <ele>397.1</ele>
    </trkpt>
    <trkpt lat="42.513807" lon="-2.525409">
      <ele>397</ele>
    </trkpt>
    <trkpt lat="42.513771" lon="-2.524926">
      <ele>397.1</ele>
    </trkpt>
    <trkpt lat="42.513784" lon="-2.52467">
      <ele>397.3</ele>
    </trkpt>
    <trkpt lat="42.514404" lon="-2.523802">
      <ele>397.7</ele>
    </trkpt>
    <trkpt lat="42.514567" lon="-2.523533">
      <ele>397.7</ele>
    </trkpt>
    <trkpt lat="42.514612" lon="-2.523338">
      <ele>397.7</ele>
    </trkpt>
    <trkpt lat="42.514614" lon="-2.523075">
      <ele>397.7</ele>
    </trkpt>
    <trkpt lat="42.514979" lon="-2.523037">
      <ele>397.6</ele>
    </trkpt>
    <trkpt lat="42.515815" lon="-2.522719">
      <ele>397</ele>
    </trkpt>
    <trkpt lat="42.515927" lon="-2.522651">
      <ele>396.9</ele>
    </trkpt>
    <trkpt lat="42.516012" lon="-2.522547">
      <ele>396.8</ele>
    </trkpt>
    <trkpt lat="42.516084" lon="-2.52252">
      <ele>396.6</ele>
    </trkpt>
    <trkpt lat="42.516155" lon="-2.522533">
      <ele>396.5</ele>
    </trkpt>
    <trkpt lat="42.516262" lon="-2.522391">
      <ele>396.2</ele>
    </trkpt>
    <trkpt lat="42.516431" lon="-2.522286">
      <ele>395.8</ele>
    </trkpt>
    <trkpt lat="42.516476" lon="-2.522249">
      <ele>395.6</ele>
    </trkpt>
    <trkpt lat="42.516547" lon="-2.522065">
      <ele>395.2</ele>
    </trkpt>
    <trkpt lat="42.516566" lon="-2.521944">
      <ele>394.9</ele>
    </trkpt>
    <trkpt lat="42.516559" lon="-2.521279">
      <ele>393.2</ele>
    </trkpt>
    <trkpt lat="42.51659" lon="-2.520952">
      <ele>392.5</ele>
    </trkpt>
    <trkpt lat="42.516686" lon="-2.520733">
      <ele>391.9</ele>
    </trkpt>
    <trkpt lat="42.516745" lon="-2.520656">
      <ele>391.7</ele>
    </trkpt>
    <trkpt lat="42.516897" lon="-2.520545">
      <ele>391.2</ele>
    </trkpt>
    <trkpt lat="42.517867" lon="-2.520242">
      <ele>389.3</ele>
    </trkpt>
    <trkpt lat="42.518423" lon="-2.519913">
      <ele>389</ele>
    </trkpt>
    <trkpt lat="42.518746" lon="-2.519767">
      <ele>388.6</ele>
    </trkpt>
    <trkpt lat="42.519008" lon="-2.519701">
      <ele>388.4</ele>
    </trkpt>
    <trkpt lat="42.519319" lon="-2.51968">
      <ele>388.6</ele>
    </trkpt>
    <trkpt lat="42.519459" lon="-2.519065">
      <ele>389.8</ele>
    </trkpt>
    <trkpt lat="42.519588" lon="-2.518676">
      <ele>391.3</ele>
    </trkpt>
    <trkpt lat="42.519592" lon="-2.518586">
      <ele>391.7</ele>
    </trkpt>
    <trkpt lat="42.519595" lon="-2.518515">
      <ele>392</ele>
    </trkpt>
    <trkpt lat="42.51966" lon="-2.518401">
      <ele>392.5</ele>
    </trkpt>
    <trkpt lat="42.520615" lon="-2.518101">
      <ele>398.7</ele>
    </trkpt>
    <trkpt lat="42.521037" lon="-2.518019">
      <ele>401.6</ele>
    </trkpt>
    <trkpt lat="42.521175" lon="-2.517966">
      <ele>402.6</ele>
    </trkpt>
    <trkpt lat="42.521402" lon="-2.517748">
      <ele>404.5</ele>
    </trkpt>
    <trkpt lat="42.521591" lon="-2.517635">
      <ele>406</ele>
    </trkpt>
    <trkpt lat="42.521704" lon="-2.517534">
      <ele>407</ele>
    </trkpt>
    <trkpt lat="42.521777" lon="-2.517219">
      <ele>408.9</ele>
    </trkpt>
    <trkpt lat="42.521798" lon="-2.51699">
      <ele>410.4</ele>
    </trkpt>
    <trkpt lat="42.521867" lon="-2.515505">
      <ele>420.1</ele>
    </trkpt>
    <trkpt lat="42.521902" lon="-2.51541">
      <ele>420.7</ele>
    </trkpt>
    <trkpt lat="42.521965" lon="-2.515336">
      <ele>421.2</ele>
    </trkpt>
    <trkpt lat="42.52238" lon="-2.515019">
      <ele>423.5</ele>
    </trkpt>
    <trkpt lat="42.522249" lon="-2.514888">
      <ele>423.8</ele>
    </trkpt>
    <trkpt lat="42.52223" lon="-2.51455">
      <ele>424</ele>
    </trkpt>
    <trkpt lat="42.522077" lon="-2.514235">
      <ele>423.4</ele>
    </trkpt>
    <trkpt lat="42.521912" lon="-2.514018">
      <ele>422.3</ele>
    </trkpt>
    <trkpt lat="42.521804" lon="-2.513748">
      <ele>420.6</ele>
    </trkpt>
    <trkpt lat="42.521735" lon="-2.513664">
      <ele>419.8</ele>
    </trkpt>
    <trkpt lat="42.521553" lon="-2.513609">
      <ele>418</ele>
    </trkpt>
    <trkpt lat="42.521477" lon="-2.513533">
      <ele>417</ele>
    </trkpt>
    <trkpt lat="42.521443" lon="-2.513498">
      <ele>416.5</ele>
    </trkpt>
    <trkpt lat="42.521366" lon="-2.513362">
      <ele>415.1</ele>
    </trkpt>
    <trkpt lat="42.521227" lon="-2.51305">
      <ele>412.2</ele>
    </trkpt>
    <trkpt lat="42.52112" lon="-2.512722">
      <ele>409.3</ele>
    </trkpt>
    <trkpt lat="42.521108" lon="-2.512413">
      <ele>407</ele>
    </trkpt>
    <trkpt lat="42.521173" lon="-2.5121">
      <ele>404.7</ele>
    </trkpt>
    <trkpt lat="42.521653" lon="-2.511729">
      <ele>400.2</ele>
    </trkpt>
    <trkpt lat="42.521859" lon="-2.511677">
      <ele>398.9</ele>
    </trkpt>
    <trkpt lat="42.522144" lon="-2.511466">
      <ele>397.2</ele>
    </trkpt>
    <trkpt lat="42.52228" lon="-2.511303">
      <ele>396.3</ele>
    </trkpt>
    <trkpt lat="42.522441" lon="-2.511339">
      <ele>395.5</ele>
    </trkpt>
    <trkpt lat="42.522537" lon="-2.511292">
      <ele>395.1</ele>
    </trkpt>
    <trkpt lat="42.522169" lon="-2.511021">
      <ele>393.4</ele>
    </trkpt>
    <trkpt lat="42.522095" lon="-2.511008">
      <ele>393.2</ele>
    </trkpt>
    <trkpt lat="42.521828" lon="-2.511106">
      <ele>392.6</ele>
    </trkpt>
    <trkpt lat="42.521617" lon="-2.511126">
      <ele>392.6</ele>
    </trkpt>
    <trkpt lat="42.521443" lon="-2.511102">
      <ele>392.7</ele>
    </trkpt>
    <trkpt lat="42.521498" lon="-2.510843">
      <ele>393.1</ele>
    </trkpt>
    <trkpt lat="42.521498" lon="-2.510753">
      <ele>393.3</ele>
    </trkpt>
    <trkpt lat="42.521416" lon="-2.510609">
      <ele>393.9</ele>
    </trkpt>
    <trkpt lat="42.521281" lon="-2.510516">
      <ele>394.8</ele>
    </trkpt>
    <trkpt lat="42.521237" lon="-2.510443">
      <ele>395.2</ele>
    </trkpt>
    <trkpt lat="42.521209" lon="-2.510226">
      <ele>396.4</ele>
    </trkpt>
    <trkpt lat="42.521188" lon="-2.509828">
      <ele>398.8</ele>
    </trkpt>
    <trkpt lat="42.521266" lon="-2.509143">
      <ele>403.9</ele>
    </trkpt>
    <trkpt lat="42.521271" lon="-2.508696">
      <ele>407.4</ele>
    </trkpt>
    <trkpt lat="42.52139" lon="-2.508274">
      <ele>410.7</ele>
    </trkpt>
    <trkpt lat="42.521747" lon="-2.507796">
      <ele>415.3</ele>
    </trkpt>
    <trkpt lat="42.521814" lon="-2.507663">
      <ele>416.3</ele>
    </trkpt>
    <trkpt lat="42.521945" lon="-2.506939">
      <ele>420</ele>
    </trkpt>
    <trkpt lat="42.521856" lon="-2.506373">
      <ele>422</ele>
    </trkpt>
    <trkpt lat="42.521738" lon="-2.505213">
      <ele>424.1</ele>
    </trkpt>
    <trkpt lat="42.521742" lon="-2.505042">
      <ele>424.4</ele>
    </trkpt>
    <trkpt lat="42.521821" lon="-2.504569">
      <ele>425.1</ele>
    </trkpt>
    <trkpt lat="42.521741" lon="-2.50418">
      <ele>425.8</ele>
    </trkpt>
    <trkpt lat="42.521873" lon="-2.50375">
      <ele>426.7</ele>
    </trkpt>
    <trkpt lat="42.521898" lon="-2.50352">
      <ele>427.2</ele>
    </trkpt>
    <trkpt lat="42.521893" lon="-2.503367">
      <ele>427.5</ele>
    </trkpt>
    <trkpt lat="42.521927" lon="-2.503193">
      <ele>427.8</ele>
    </trkpt>
    <trkpt lat="42.522201" lon="-2.50293">
      <ele>428.6</ele>
    </trkpt>
    <trkpt lat="42.522291" lon="-2.502811">
      <ele>428.8</ele>
    </trkpt>
    <trkpt lat="42.522404" lon="-2.502596">
      <ele>429.1</ele>
    </trkpt>
    <trkpt lat="42.522411" lon="-2.502425">
      <ele>429.3</ele>
    </trkpt>
    <trkpt lat="42.522407" lon="-2.502413">
      <ele>429.3</ele>
    </trkpt>
    <trkpt lat="42.522318" lon="-2.502172">
      <ele>429.5</ele>
    </trkpt>
    <trkpt lat="42.522188" lon="-2.501975">
      <ele>429.7</ele>
    </trkpt>
    <trkpt lat="42.521781" lon="-2.501535">
      <ele>430</ele>
    </trkpt>
    <trkpt lat="42.52156" lon="-2.501399">
      <ele>430.1</ele>
    </trkpt>
    <trkpt lat="42.521456" lon="-2.501259">
      <ele>430.1</ele>
    </trkpt>
    <trkpt lat="42.5214" lon="-2.501141">
      <ele>430.2</ele>
    </trkpt>
    <trkpt lat="42.521296" lon="-2.500751">
      <ele>430.4</ele>
    </trkpt>
    <trkpt lat="42.521319" lon="-2.500617">
      <ele>430.5</ele>
    </trkpt>
    <trkpt lat="42.521733" lon="-2.500367">
      <ele>430.9</ele>
    </trkpt>
    <trkpt lat="42.521772" lon="-2.500284">
      <ele>431</ele>
    </trkpt>
    <trkpt lat="42.521757" lon="-2.500192">
      <ele>431.1</ele>
    </trkpt>
    <trkpt lat="42.521566" lon="-2.499662">
      <ele>431.5</ele>
    </trkpt>
    <trkpt lat="42.521204" lon="-2.499065">
      <ele>432</ele>
    </trkpt>
    <trkpt lat="42.521127" lon="-2.498993">
      <ele>432.2</ele>
    </trkpt>
    <trkpt lat="42.520939" lon="-2.49886">
      <ele>432.8</ele>
    </trkpt>
    <trkpt lat="42.520641" lon="-2.498872">
      <ele>433.9</ele>
    </trkpt>
    <trkpt lat="42.520646" lon="-2.498711">
      <ele>434.5</ele>
    </trkpt>
    <trkpt lat="42.52059" lon="-2.49823">
      <ele>436.5</ele>
    </trkpt>
    <trkpt lat="42.520639" lon="-2.498079">
      <ele>437.2</ele>
    </trkpt>
    <trkpt lat="42.520918" lon="-2.497834">
      <ele>439.4</ele>
    </trkpt>
    <trkpt lat="42.521001" lon="-2.497574">
      <ele>441</ele>
    </trkpt>
    <trkpt lat="42.521052" lon="-2.497133">
      <ele>443.7</ele>
    </trkpt>
    <trkpt lat="42.52104" lon="-2.496979">
      <ele>444.7</ele>
    </trkpt>
    <trkpt lat="42.520846" lon="-2.496697">
      <ele>447.1</ele>
    </trkpt>
    <trkpt lat="42.520824" lon="-2.496576">
      <ele>447.9</ele>
    </trkpt>
    <trkpt lat="42.520849" lon="-2.496151">
      <ele>450.6</ele>
    </trkpt>
    <trkpt lat="42.521009" lon="-2.495752">
      <ele>453.4</ele>
    </trkpt>
    <trkpt lat="42.521017" lon="-2.495611">
      <ele>454.3</ele>
    </trkpt>
    <trkpt lat="42.520898" lon="-2.495276">
      <ele>456.7</ele>
    </trkpt>
    <trkpt lat="42.52098" lon="-2.494666">
      <ele>460.5</ele>
    </trkpt>
    <trkpt lat="42.521051" lon="-2.49448">
      <ele>461.7</ele>
    </trkpt>
    <trkpt lat="42.521157" lon="-2.494375">
      <ele>462.7</ele>
    </trkpt>
    <trkpt lat="42.521293" lon="-2.49432">
      <ele>463.8</ele>
    </trkpt>
    <trkpt lat="42.521597" lon="-2.49437">
      <ele>465.9</ele>
    </trkpt>
    <trkpt lat="42.521694" lon="-2.494322">
      <ele>466.6</ele>
    </trkpt>
    <trkpt lat="42.521767" lon="-2.494214">
      <ele>467.3</ele>
    </trkpt>
    <trkpt lat="42.521835" lon="-2.493807">
      <ele>469.1</ele>
    </trkpt>
    <trkpt lat="42.521906" lon="-2.493696">
      <ele>469.7</ele>
    </trkpt>
    <trkpt lat="42.522045" lon="-2.493564">
      <ele>470.5</ele>
    </trkpt>
    <trkpt lat="42.523106" lon="-2.4929">
      <ele>474.7</ele>
    </trkpt>
    <trkpt lat="42.523381" lon="-2.492699">
      <ele>475</ele>
    </trkpt>
    <trkpt lat="42.523795" lon="-2.49281">
      <ele>474.7</ele>
    </trkpt>
    <trkpt lat="42.524149" lon="-2.492844">
      <ele>474.1</ele>
    </trkpt>
    <trkpt lat="42.524868" lon="-2.493059">
      <ele>472.3</ele>
    </trkpt>
    <trkpt lat="42.525291" lon="-2.493247">
      <ele>471.6</ele>
    </trkpt>
    <trkpt lat="42.525678" lon="-2.493336">
      <ele>471.1</ele>
    </trkpt>
    <trkpt lat="42.525845" lon="-2.49341">
      <ele>471</ele>
    </trkpt>
    <trkpt lat="42.526284" lon="-2.494046">
      <ele>470.8</ele>
    </trkpt>
    <trkpt lat="42.526509" lon="-2.494443">
      <ele>470.8</ele>
    </trkpt>
    <trkpt lat="42.526715" lon="-2.494733">
      <ele>470.7</ele>
    </trkpt>
    <trkpt lat="42.526904" lon="-2.49484">
      <ele>470.8</ele>
    </trkpt>
    <trkpt lat="42.527252" lon="-2.494953">
      <ele>470.9</ele>
    </trkpt>
    <trkpt lat="42.527794" lon="-2.495207">
      <ele>471.7</ele>
    </trkpt>
    <trkpt lat="42.528444" lon="-2.495205">
      <ele>473.6</ele>
    </trkpt>
    <trkpt lat="42.528877" lon="-2.495119">
      <ele>475.2</ele>
    </trkpt>
    <trkpt lat="42.529051" lon="-2.49513">
      <ele>475.9</ele>
    </trkpt>
    <trkpt lat="42.529344" lon="-2.495213">
      <ele>477.1</ele>
    </trkpt>
    <trkpt lat="42.530269" lon="-2.495806">
      <ele>480</ele>
    </trkpt>
    <trkpt lat="42.530395" lon="-2.495913">
      <ele>480.1</ele>
    </trkpt>
    <trkpt lat="42.530672" lon="-2.49623">
      <ele>480.1</ele>
    </trkpt>
    <trkpt lat="42.531008" lon="-2.496508">
      <ele>480.1</ele>
    </trkpt>
    <trkpt lat="42.531581" lon="-2.496685">
      <ele>480.1</ele>
    </trkpt>
    <trkpt lat="42.53185" lon="-2.496857">
      <ele>480.3</ele>
    </trkpt>
    <trkpt lat="42.531976" lon="-2.496895">
      <ele>480.4</ele>
    </trkpt>
    <trkpt lat="42.532636" lon="-2.49683">
      <ele>481.3</ele>
    </trkpt>
    <trkpt lat="42.532969" lon="-2.496734">
      <ele>481.7</ele>
    </trkpt>
    <trkpt lat="42.533328" lon="-2.49646">
      <ele>482.3</ele>
    </trkpt>
    <trkpt lat="42.533486" lon="-2.496428">
      <ele>482.5</ele>
    </trkpt>
    <trkpt lat="42.533601" lon="-2.496466">
      <ele>482.5</ele>
    </trkpt>
    <trkpt lat="42.53374" lon="-2.496561">
      <ele>482.5</ele>
    </trkpt>
    <trkpt lat="42.534418" lon="-2.4971">
      <ele>481</ele>
    </trkpt>
    <trkpt lat="42.534826" lon="-2.497742">
      <ele>478.6</ele>
    </trkpt>
    <trkpt lat="42.534941" lon="-2.497978">
      <ele>477.6</ele>
    </trkpt>
    <trkpt lat="42.535099" lon="-2.498461">
      <ele>475.4</ele>
    </trkpt>
    <trkpt lat="42.53534" lon="-2.498794">
      <ele>473.6</ele>
    </trkpt>
    <trkpt lat="42.535672" lon="-2.499464">
      <ele>471.1</ele>
    </trkpt>
    <trkpt lat="42.535815" lon="-2.4997">
      <ele>470.3</ele>
    </trkpt>
    <trkpt lat="42.535898" lon="-2.499792">
      <ele>470</ele>
    </trkpt>
    <trkpt lat="42.536174" lon="-2.499985">
      <ele>469.2</ele>
    </trkpt>
    <trkpt lat="42.536222" lon="-2.50007">
      <ele>469</ele>
    </trkpt>
    <trkpt lat="42.536313" lon="-2.500382">
      <ele>468.5</ele>
    </trkpt>
    <trkpt lat="42.536336" lon="-2.500569">
      <ele>468.2</ele>
    </trkpt>
    <trkpt lat="42.536336" lon="-2.501052">
      <ele>467.6</ele>
    </trkpt>
    <trkpt lat="42.536356" lon="-2.501272">
      <ele>467.4</ele>
    </trkpt>
    <trkpt lat="42.536546" lon="-2.501878">
      <ele>466.8</ele>
    </trkpt>
    <trkpt lat="42.536601" lon="-2.502554">
      <ele>466.5</ele>
    </trkpt>
    <trkpt lat="42.536649" lon="-2.50279">
      <ele>466.5</ele>
    </trkpt>
    <trkpt lat="42.536945" lon="-2.503439">
      <ele>466.8</ele>
    </trkpt>
    <trkpt lat="42.537083" lon="-2.503933">
      <ele>467.2</ele>
    </trkpt>
    <trkpt lat="42.537143" lon="-2.504072">
      <ele>467.3</ele>
    </trkpt>
    <trkpt lat="42.537475" lon="-2.504464">
      <ele>466.9</ele>
    </trkpt>
    <trkpt lat="42.537804" lon="-2.50472">
      <ele>466.3</ele>
    </trkpt>
    <trkpt lat="42.538012" lon="-2.50485">
      <ele>465.8</ele>
    </trkpt>
    <trkpt lat="42.538115" lon="-2.504963">
      <ele>465.4</ele>
    </trkpt>
    <trkpt lat="42.538234" lon="-2.505279">
      <ele>464.6</ele>
    </trkpt>
    <trkpt lat="42.538321" lon="-2.505365">
      <ele>464.1</ele>
    </trkpt>
    <trkpt lat="42.538443" lon="-2.505397">
      <ele>463.5</ele>
    </trkpt>
    <trkpt lat="42.538558" lon="-2.50536">
      <ele>462.9</ele>
    </trkpt>
    <trkpt lat="42.538886" lon="-2.505049">
      <ele>460.4</ele>
    </trkpt>
    <trkpt lat="42.538989" lon="-2.505016">
      <ele>459.7</ele>
    </trkpt>
    <trkpt lat="42.539103" lon="-2.50507">
      <ele>458.9</ele>
    </trkpt>
    <trkpt lat="42.539427" lon="-2.505671">
      <ele>455.4</ele>
    </trkpt>
    <trkpt lat="42.539514" lon="-2.505805">
      <ele>454.5</ele>
    </trkpt>
    <trkpt lat="42.539609" lon="-2.505869">
      <ele>453.8</ele>
    </trkpt>
    <trkpt lat="42.539933" lon="-2.50588">
      <ele>451.4</ele>
    </trkpt>
    <trkpt lat="42.540439" lon="-2.505741">
      <ele>447.5</ele>
    </trkpt>
    <trkpt lat="42.540562" lon="-2.505741">
      <ele>446.6</ele>
    </trkpt>
    <trkpt lat="42.540794" lon="-2.505797">
      <ele>445.2</ele>
    </trkpt>
    <trkpt lat="42.540914" lon="-2.505826">
      <ele>444.5</ele>
    </trkpt>
    <trkpt lat="42.541044" lon="-2.505891">
      <ele>443.7</ele>
    </trkpt>
    <trkpt lat="42.541325" lon="-2.506164">
      <ele>442.1</ele>
    </trkpt>
    <trkpt lat="42.541864" lon="-2.507039">
      <ele>440.8</ele>
    </trkpt>
    <trkpt lat="42.541901" lon="-2.50728">
      <ele>441</ele>
    </trkpt>
    <trkpt lat="42.541874" lon="-2.508003">
      <ele>443.1</ele>
    </trkpt>
    <trkpt lat="42.541876" lon="-2.508186">
      <ele>443.9</ele>
    </trkpt>
    <trkpt lat="42.541902" lon="-2.508256">
      <ele>444.4</ele>
    </trkpt>
    <trkpt lat="42.541948" lon="-2.508295">
      <ele>444.8</ele>
    </trkpt>
    <trkpt lat="42.542063" lon="-2.508322">
      <ele>445.7</ele>
    </trkpt>
    <trkpt lat="42.542177" lon="-2.508323">
      <ele>446.8</ele>
    </trkpt>
    <trkpt lat="42.542417" lon="-2.508266">
      <ele>449.2</ele>
    </trkpt>
    <trkpt lat="42.542406" lon="-2.508408">
      <ele>450.4</ele>
    </trkpt>
    <trkpt lat="42.54236" lon="-2.508526">
      <ele>451.5</ele>
    </trkpt>
    <trkpt lat="42.54202" lon="-2.508784">
      <ele>456.1</ele>
    </trkpt>
    <trkpt lat="42.541909" lon="-2.5089">
      <ele>457.6</ele>
    </trkpt>
    <trkpt lat="42.54183" lon="-2.509089">
      <ele>459.3</ele>
    </trkpt>
    <trkpt lat="42.541855" lon="-2.509398">
      <ele>461.7</ele>
    </trkpt>
    <trkpt lat="42.541891" lon="-2.509494">
      <ele>462.4</ele>
    </trkpt>
    <trkpt lat="42.542058" lon="-2.509627">
      <ele>464</ele>
    </trkpt>
    <trkpt lat="42.54209" lon="-2.509817">
      <ele>465</ele>
    </trkpt>
    <trkpt lat="42.542158" lon="-2.509967">
      <ele>465.8</ele>
    </trkpt>
    <trkpt lat="42.542232" lon="-2.51004">
      <ele>466.2</ele>
    </trkpt>
    <trkpt lat="42.542366" lon="-2.510071">
      <ele>466.7</ele>
    </trkpt>
    <trkpt lat="42.542652" lon="-2.510048">
      <ele>467.3</ele>
    </trkpt>
    <trkpt lat="42.542983" lon="-2.510169">
      <ele>466.9</ele>
    </trkpt>
    <trkpt lat="42.543189" lon="-2.510358">
      <ele>466.3</ele>
    </trkpt>
    <trkpt lat="42.543342" lon="-2.510644">
      <ele>465.5</ele>
    </trkpt>
    <trkpt lat="42.543436" lon="-2.510887">
      <ele>464.8</ele>
    </trkpt>
    <trkpt lat="42.543587" lon="-2.511123">
      <ele>464</ele>
    </trkpt>
    <trkpt lat="42.543681" lon="-2.511199">
      <ele>463.7</ele>
    </trkpt>
    <trkpt lat="42.544083" lon="-2.511385">
      <ele>462.3</ele>
    </trkpt>
    <trkpt lat="42.544335" lon="-2.511611">
      <ele>461.6</ele>
    </trkpt>
    <trkpt lat="42.544757" lon="-2.511855">
      <ele>460.8</ele>
    </trkpt>
    <trkpt lat="42.545102" lon="-2.512146">
      <ele>460.3</ele>
    </trkpt>
    <trkpt lat="42.545224" lon="-2.512202">
      <ele>460.2</ele>
    </trkpt>
    <trkpt lat="42.545809" lon="-2.512196">
      <ele>459.6</ele>
    </trkpt>
    <trkpt lat="42.545919" lon="-2.512216">
      <ele>459.6</ele>
    </trkpt>
    <trkpt lat="42.546098" lon="-2.512303">
      <ele>459.5</ele>
    </trkpt>
    <trkpt lat="42.546228" lon="-2.512411">
      <ele>459.5</ele>
    </trkpt>
    <trkpt lat="42.54643" lon="-2.512714">
      <ele>459.5</ele>
    </trkpt>
    <trkpt lat="42.546736" lon="-2.512917">
      <ele>459.8</ele>
    </trkpt>
    <trkpt lat="42.547207" lon="-2.51354">
      <ele>460.7</ele>
    </trkpt>
    <trkpt lat="42.54741" lon="-2.513736">
      <ele>461.2</ele>
    </trkpt>
    <trkpt lat="42.547544" lon="-2.51382">
      <ele>461.5</ele>
    </trkpt>
    <trkpt lat="42.548007" lon="-2.513948">
      <ele>462.5</ele>
    </trkpt>
    <trkpt lat="42.548561" lon="-2.514181">
      <ele>463.7</ele>
    </trkpt>
    <trkpt lat="42.548722" lon="-2.514204">
      <ele>463.8</ele>
    </trkpt>
    <trkpt lat="42.548801" lon="-2.514196">
      <ele>463.7</ele>
    </trkpt>
    <trkpt lat="42.549124" lon="-2.513999">
      <ele>463.3</ele>
    </trkpt>
    <trkpt lat="42.549588" lon="-2.513987">
      <ele>462.6</ele>
    </trkpt>
    <trkpt lat="42.550078" lon="-2.513759">
      <ele>462.2</ele>
    </trkpt>
    <trkpt lat="42.550516" lon="-2.513327">
      <ele>462.1</ele>
    </trkpt>
    <trkpt lat="42.551055" lon="-2.512588">
      <ele>462.3</ele>
    </trkpt>
    <trkpt lat="42.551212" lon="-2.512436">
      <ele>462.4</ele>
    </trkpt>
    <trkpt lat="42.551354" lon="-2.5124">
      <ele>462.6</ele>
    </trkpt>
    <trkpt lat="42.55189" lon="-2.512436">
      <ele>462.8</ele>
    </trkpt>
    <trkpt lat="42.552222" lon="-2.512567">
      <ele>462.7</ele>
    </trkpt>
    <trkpt lat="42.552815" lon="-2.512932">
      <ele>463</ele>
    </trkpt>
    <trkpt lat="42.553214" lon="-2.513109">
      <ele>464.1</ele>
    </trkpt>
    <trkpt lat="42.55348" lon="-2.513396">
      <ele>465.4</ele>
    </trkpt>
    <trkpt lat="42.553835" lon="-2.513884">
      <ele>468</ele>
    </trkpt>
    <trkpt lat="42.554002" lon="-2.513964">
      <ele>469</ele>
    </trkpt>
    <trkpt lat="42.554208" lon="-2.513975">
      <ele>470.3</ele>
    </trkpt>
    <trkpt lat="42.5544" lon="-2.51404">
      <ele>471.6</ele>
    </trkpt>
    <trkpt lat="42.554459" lon="-2.514095">
      <ele>472.1</ele>
    </trkpt>
    <trkpt lat="42.554611" lon="-2.514378">
      <ele>473.9</ele>
    </trkpt>
    <trkpt lat="42.554961" lon="-2.514709">
      <ele>476.8</ele>
    </trkpt>
    <trkpt lat="42.555131" lon="-2.514723">
      <ele>478</ele>
    </trkpt>
    <trkpt lat="42.556277" lon="-2.514591">
      <ele>485.7</ele>
    </trkpt>
    <trkpt lat="42.557346" lon="-2.514788">
      <ele>493.6</ele>
    </trkpt>
    <trkpt lat="42.557976" lon="-2.514865">
      <ele>498.8</ele>
    </trkpt>
    <trkpt lat="42.558344" lon="-2.514834">
      <ele>502</ele>
    </trkpt>
    <trkpt lat="42.558859" lon="-2.514849">
      <ele>507.2</ele>
    </trkpt>
    <trkpt lat="42.559503" lon="-2.514553">
      <ele>516.1</ele>
    </trkpt>
    <trkpt lat="42.559751" lon="-2.514376">
      <ele>519.9</ele>
    </trkpt>
    <trkpt lat="42.560473" lon="-2.514181">
      <ele>529.1</ele>
    </trkpt>
    <trkpt lat="42.560818" lon="-2.513967">
      <ele>533.5</ele>
    </trkpt>
    <trkpt lat="42.560995" lon="-2.513937">
      <ele>535.4</ele>
    </trkpt>
    <trkpt lat="42.561232" lon="-2.513942">
      <ele>537.7</ele>
    </trkpt>
    <trkpt lat="42.561433" lon="-2.513821">
      <ele>539.6</ele>
    </trkpt>
    <trkpt lat="42.56194" lon="-2.513973">
      <ele>542.8</ele>
    </trkpt>
    <trkpt lat="42.56212" lon="-2.514001">
      <ele>543.8</ele>
    </trkpt>
    <trkpt lat="42.562267" lon="-2.514118">
      <ele>544.8</ele>
    </trkpt>
    <trkpt lat="42.562416" lon="-2.514209">
      <ele>545.8</ele>
    </trkpt>
    <trkpt lat="42.562601" lon="-2.514261">
      <ele>547</ele>
    </trkpt>
    <trkpt lat="42.562717" lon="-2.514257">
      <ele>547.8</ele>
    </trkpt>
    <trkpt lat="42.562711" lon="-2.514342">
      <ele>548.3</ele>
    </trkpt>
    <trkpt lat="42.562792" lon="-2.514549">
      <ele>549.6</ele>
    </trkpt>
    <trkpt lat="42.562895" lon="-2.514897">
      <ele>551.9</ele>
    </trkpt>
    <trkpt lat="42.562817" lon="-2.515357">
      <ele>554.8</ele>
    </trkpt>
    <trkpt lat="42.562689" lon="-2.515781">
      <ele>558</ele>
    </trkpt>
    <trkpt lat="42.562664" lon="-2.516078">
      <ele>560.3</ele>
    </trkpt>
    <trkpt lat="42.562699" lon="-2.516493">
      <ele>563.7</ele>
    </trkpt>
    <trkpt lat="42.562731" lon="-2.516872">
      <ele>566.5</ele>
    </trkpt>
    <trkpt lat="42.562759" lon="-2.517324">
      <ele>569.6</ele>
    </trkpt>
    <trkpt lat="42.562862" lon="-2.51791">
      <ele>572.4</ele>
    </trkpt>
    <trkpt lat="42.56292" lon="-2.518105">
      <ele>573.1</ele>
    </trkpt>
    <trkpt lat="42.563022" lon="-2.518354">
      <ele>573.8</ele>
    </trkpt>
    <trkpt lat="42.563138" lon="-2.518563">
      <ele>574.2</ele>
    </trkpt>
    <trkpt lat="42.563335" lon="-2.518837">
      <ele>574.3</ele>
    </trkpt>
    <trkpt lat="42.563511" lon="-2.519172">
      <ele>574.2</ele>
    </trkpt>
    <trkpt lat="42.563872" lon="-2.51964">
      <ele>573</ele>
    </trkpt>
    <trkpt lat="42.564247" lon="-2.520058">
      <ele>571</ele>
    </trkpt>
    <trkpt lat="42.565077" lon="-2.520448">
      <ele>567.1</ele>
    </trkpt>
    <trkpt lat="42.565342" lon="-2.520642">
      <ele>565.8</ele>
    </trkpt>
    <trkpt lat="42.566013" lon="-2.521">
      <ele>562.8</ele>
    </trkpt>
    <trkpt lat="42.566401" lon="-2.521044">
      <ele>560.9</ele>
    </trkpt>
    <trkpt lat="42.566653" lon="-2.521024">
      <ele>559.6</ele>
    </trkpt>
    <trkpt lat="42.567017" lon="-2.521062">
      <ele>557.2</ele>
    </trkpt>
    <trkpt lat="42.567281" lon="-2.521042">
      <ele>555.1</ele>
    </trkpt>
    <trkpt lat="42.567751" lon="-2.521142">
      <ele>550.2</ele>
    </trkpt>
    <trkpt lat="42.568291" lon="-2.521109">
      <ele>543.6</ele>
    </trkpt>
    <trkpt lat="42.568368" lon="-2.521127">
      <ele>542.6</ele>
    </trkpt>
    <trkpt lat="42.569083" lon="-2.521541">
      <ele>533.7</ele>
    </trkpt>
    <trkpt lat="42.569514" lon="-2.521887">
      <ele>529.3</ele>
    </trkpt>
    <trkpt lat="42.570052" lon="-2.52208">
      <ele>527.3</ele>
    </trkpt>
    <trkpt lat="42.570119" lon="-2.522137">
      <ele>527.2</ele>
    </trkpt>
    <trkpt lat="42.570142" lon="-2.522173">
      <ele>527.2</ele>
    </trkpt>
    <trkpt lat="42.570217" lon="-2.522308">
      <ele>527.3</ele>
    </trkpt>
    <trkpt lat="42.570237" lon="-2.522435">
      <ele>527.5</ele>
    </trkpt>
    <trkpt lat="42.570371" lon="-2.5233">
      <ele>529.9</ele>
    </trkpt>
    <trkpt lat="42.571124" lon="-2.525148">
      <ele>542.6</ele>
    </trkpt>
    <trkpt lat="42.571487" lon="-2.526006">
      <ele>551.1</ele>
    </trkpt>
    <trkpt lat="42.571649" lon="-2.526303">
      <ele>554.5</ele>
    </trkpt>
    <trkpt lat="42.571804" lon="-2.526518">
      <ele>557.2</ele>
    </trkpt>
    <trkpt lat="42.572013" lon="-2.526679">
      <ele>559.9</ele>
    </trkpt>
    <trkpt lat="42.572043" lon="-2.526746">
      <ele>560.5</ele>
    </trkpt>
    <trkpt lat="42.572027" lon="-2.526815">
      <ele>561</ele>
    </trkpt>
    <trkpt lat="42.571965" lon="-2.526841">
      <ele>561.7</ele>
    </trkpt>
    <trkpt lat="42.571884" lon="-2.526812">
      <ele>562.4</ele>
    </trkpt>
    <trkpt lat="42.571281" lon="-2.526543">
      <ele>567.3</ele>
    </trkpt>
    <trkpt lat="42.570843" lon="-2.526263">
      <ele>569.9</ele>
    </trkpt>
    <trkpt lat="42.57045" lon="-2.52592">
      <ele>572.2</ele>
    </trkpt>
    <trkpt lat="42.569857" lon="-2.525496">
      <ele>575.9</ele>
    </trkpt>
    <trkpt lat="42.569441" lon="-2.525058">
      <ele>579.9</ele>
    </trkpt>
    <trkpt lat="42.56934" lon="-2.524962">
      <ele>580.8</ele>
    </trkpt>
    <trkpt lat="42.569265" lon="-2.524939">
      <ele>581.4</ele>
    </trkpt>
    <trkpt lat="42.569226" lon="-2.524959">
      <ele>581.7</ele>
    </trkpt>
    <trkpt lat="42.569178" lon="-2.525037">
      <ele>582.3</ele>
    </trkpt>
    <trkpt lat="42.569106" lon="-2.525315">
      <ele>583.8</ele>
    </trkpt>
    <trkpt lat="42.568936" lon="-2.52575">
      <ele>586</ele>
    </trkpt>
    <trkpt lat="42.568849" lon="-2.526225">
      <ele>587.8</ele>
    </trkpt>
    <trkpt lat="42.568833" lon="-2.526504">
      <ele>588.7</ele>
    </trkpt>
    <trkpt lat="42.568883" lon="-2.527199">
      <ele>590.6</ele>
    </trkpt>
    <trkpt lat="42.568928" lon="-2.527413">
      <ele>591.1</ele>
    </trkpt>
    <trkpt lat="42.569014" lon="-2.527403">
      <ele>591.4</ele>
    </trkpt>
    <trkpt lat="42.569995" lon="-2.528213">
      <ele>594.8</ele>
    </trkpt>
    <trkpt lat="42.570677" lon="-2.528806">
      <ele>596.7</ele>
    </trkpt>
    <trkpt lat="42.570825" lon="-2.529023">
      <ele>597</ele>
    </trkpt>
    <trkpt lat="42.571683" lon="-2.530825">
      <ele>595.9</ele>
    </trkpt>
    <trkpt lat="42.571578" lon="-2.532466">
      <ele>594.3</ele>
    </trkpt>
    <trkpt lat="42.572061" lon="-2.532683">
      <ele>594.3</ele>
    </trkpt>
    <trkpt lat="42.571998" lon="-2.532761">
      <ele>594.3</ele>
    </trkpt>
    <trkpt lat="42.572061" lon="-2.532683">
      <ele>594.4</ele>
    </trkpt>
    <trkpt lat="42.574004" lon="-2.533726">
      <ele>599.4</ele>
    </trkpt>
    <trkpt lat="42.57406" lon="-2.533784">
      <ele>599.6</ele>
    </trkpt>
    <trkpt lat="42.574111" lon="-2.533873">
      <ele>599.9</ele>
    </trkpt>
    <trkpt lat="42.574243" lon="-2.535043">
      <ele>601.6</ele>
    </trkpt>
    <trkpt lat="42.574641" lon="-2.53867">
      <ele>594.8</ele>
    </trkpt>
    <trkpt lat="42.574739" lon="-2.539545">
      <ele>592.6</ele>
    </trkpt>
    <trkpt lat="42.574751" lon="-2.539657">
      <ele>592.3</ele>
    </trkpt>
    <trkpt lat="42.574795" lon="-2.539927">
      <ele>591.6</ele>
    </trkpt>
    <trkpt lat="42.573731" lon="-2.540959">
      <ele>586.8</ele>
    </trkpt>
    <trkpt lat="42.573396" lon="-2.541222">
      <ele>585.1</ele>
    </trkpt>
    <trkpt lat="42.57323" lon="-2.54131">
      <ele>584.4</ele>
    </trkpt>
    <trkpt lat="42.572896" lon="-2.541414">
      <ele>582.8</ele>
    </trkpt>
    <trkpt lat="42.572686" lon="-2.54146">
      <ele>581.9</ele>
    </trkpt>
    <trkpt lat="42.571272" lon="-2.541682">
      <ele>574</ele>
    </trkpt>
    <trkpt lat="42.569814" lon="-2.541749">
      <ele>563.8</ele>
    </trkpt>
    <trkpt lat="42.567007" lon="-2.541807">
      <ele>558.4</ele>
    </trkpt>
    <trkpt lat="42.566812" lon="-2.541835">
      <ele>558.1</ele>
    </trkpt>
    <trkpt lat="42.566583" lon="-2.542084">
      <ele>557.5</ele>
    </trkpt>
    <trkpt lat="42.566543" lon="-2.542244">
      <ele>557.2</ele>
    </trkpt>
    <trkpt lat="42.566448" lon="-2.542322">
      <ele>556.9</ele>
    </trkpt>
    <trkpt lat="42.566427" lon="-2.542331">
      <ele>556.8</ele>
    </trkpt>
    <trkpt lat="42.566431" lon="-2.542625">
      <ele>556.2</ele>
    </trkpt>
    <trkpt lat="42.566458" lon="-2.542706">
      <ele>556</ele>
    </trkpt>
    <trkpt lat="42.566932" lon="-2.543718">
      <ele>552</ele>
    </trkpt>
    <trkpt lat="42.567171" lon="-2.544344">
      <ele>549.5</ele>
    </trkpt>
    <trkpt lat="42.567394" lon="-2.544957">
      <ele>547</ele>
    </trkpt>
    <trkpt lat="42.567703" lon="-2.545491">
      <ele>544.6</ele>
    </trkpt>
    <trkpt lat="42.567818" lon="-2.545745">
      <ele>543.8</ele>
    </trkpt>
    <trkpt lat="42.567895" lon="-2.546091">
      <ele>542.9</ele>
    </trkpt>
    <trkpt lat="42.567923" lon="-2.546528">
      <ele>541.9</ele>
    </trkpt>
    <trkpt lat="42.567963" lon="-2.546751">
      <ele>541.4</ele>
    </trkpt>
    <trkpt lat="42.568039" lon="-2.546961">
      <ele>541.1</ele>
    </trkpt>
    <trkpt lat="42.568318" lon="-2.547468">
      <ele>541.1</ele>
    </trkpt>
    <trkpt lat="42.568357" lon="-2.547641">
      <ele>541.4</ele>
    </trkpt>
    <trkpt lat="42.568335" lon="-2.547886">
      <ele>541.9</ele>
    </trkpt>
    <trkpt lat="42.56829" lon="-2.548011">
      <ele>542.3</ele>
    </trkpt>
    <trkpt lat="42.568213" lon="-2.54814">
      <ele>542.8</ele>
    </trkpt>
    <trkpt lat="42.56814" lon="-2.548206">
      <ele>543.2</ele>
    </trkpt>
    <trkpt lat="42.569151" lon="-2.548916">
      <ele>551.5</ele>
    </trkpt>
    <trkpt lat="42.569671" lon="-2.549168">
      <ele>556.7</ele>
    </trkpt>
    <trkpt lat="42.57008" lon="-2.549277">
      <ele>560.6</ele>
    </trkpt>
    <trkpt lat="42.570024" lon="-2.549371">
      <ele>561.5</ele>
    </trkpt>
    <trkpt lat="42.569224" lon="-2.549512">
      <ele>569.6</ele>
    </trkpt>
    <trkpt lat="42.569031" lon="-2.549547">
      <ele>571.7</ele>
    </trkpt>
    <trkpt lat="42.568583" lon="-2.549705">
      <ele>576.8</ele>
    </trkpt>
    <trkpt lat="42.568302" lon="-2.549979">
      <ele>580.3</ele>
    </trkpt>
    <trkpt lat="42.568072" lon="-2.55048">
      <ele>584.2</ele>
    </trkpt>
    <trkpt lat="42.568034" lon="-2.550639">
      <ele>585.1</ele>
    </trkpt>
    <trkpt lat="42.568018" lon="-2.551091">
      <ele>587.5</ele>
    </trkpt>
    <trkpt lat="42.567942" lon="-2.554087">
      <ele>592.9</ele>
    </trkpt>
    <trkpt lat="42.567881" lon="-2.55406">
      <ele>592.8</ele>
    </trkpt>
    <trkpt lat="42.567838" lon="-2.554118">
      <ele>592.7</ele>
    </trkpt>
    <trkpt lat="42.56781" lon="-2.554157">
      <ele>592.6</ele>
    </trkpt>
    <trkpt lat="42.567808" lon="-2.554268">
      <ele>592.5</ele>
    </trkpt>
    <trkpt lat="42.566969" lon="-2.554395">
      <ele>589.5</ele>
    </trkpt>
    <trkpt lat="42.566763" lon="-2.55436">
      <ele>588.4</ele>
    </trkpt>
    <trkpt lat="42.566673" lon="-2.554266">
      <ele>587.6</ele>
    </trkpt>
    <trkpt lat="42.566618" lon="-2.554165">
      <ele>587</ele>
    </trkpt>
    <trkpt lat="42.566271" lon="-2.553408">
      <ele>581.7</ele>
    </trkpt>
    <trkpt lat="42.566025" lon="-2.554587">
      <ele>573.1</ele>
    </trkpt>
    <trkpt lat="42.565877" lon="-2.554913">
      <ele>570.2</ele>
    </trkpt>
    <trkpt lat="42.565709" lon="-2.555757">
      <ele>563.5</ele>
    </trkpt>
    <trkpt lat="42.56534" lon="-2.556558">
      <ele>556.2</ele>
    </trkpt>
    <trkpt lat="42.56534" lon="-2.556656">
      <ele>555.4</ele>
    </trkpt>
    <trkpt lat="42.565678" lon="-2.55726">
      <ele>549.1</ele>
    </trkpt>
    <trkpt lat="42.565813" lon="-2.557675">
      <ele>545.4</ele>
    </trkpt>
    <trkpt lat="42.565918" lon="-2.558343">
      <ele>539.8</ele>
    </trkpt>
    <trkpt lat="42.566009" lon="-2.558532">
      <ele>538.2</ele>
    </trkpt>
    <trkpt lat="42.566283" lon="-2.558763">
      <ele>535.8</ele>
    </trkpt>
    <trkpt lat="42.566317" lon="-2.558849">
      <ele>535.4</ele>
    </trkpt>
    <trkpt lat="42.56625" lon="-2.55892">
      <ele>534.9</ele>
    </trkpt>
    <trkpt lat="42.566208" lon="-2.55917">
      <ele>534.2</ele>
    </trkpt>
    <trkpt lat="42.566086" lon="-2.559436">
      <ele>533.7</ele>
    </trkpt>
    <trkpt lat="42.566142" lon="-2.559542">
      <ele>533.7</ele>
    </trkpt>
    <trkpt lat="42.566329" lon="-2.55993">
      <ele>534</ele>
    </trkpt>
    <trkpt lat="42.566362" lon="-2.560104">
      <ele>534.2</ele>
    </trkpt>
    <trkpt lat="42.566359" lon="-2.560198">
      <ele>534.4</ele>
    </trkpt>
    <trkpt lat="42.566312" lon="-2.560383">
      <ele>534.8</ele>
    </trkpt>
    <trkpt lat="42.566224" lon="-2.560533">
      <ele>535.3</ele>
    </trkpt>
    <trkpt lat="42.566173" lon="-2.560582">
      <ele>535.6</ele>
    </trkpt>
    <trkpt lat="42.566071" lon="-2.560614">
      <ele>536.2</ele>
    </trkpt>
    <trkpt lat="42.565967" lon="-2.560583">
      <ele>536.7</ele>
    </trkpt>
    <trkpt lat="42.565823" lon="-2.560463">
      <ele>537.7</ele>
    </trkpt>
    <trkpt lat="42.565294" lon="-2.559825">
      <ele>541.4</ele>
    </trkpt>
    <trkpt lat="42.564945" lon="-2.559451">
      <ele>543.8</ele>
    </trkpt>
    <trkpt lat="42.564794" lon="-2.559371">
      <ele>544.7</ele>
    </trkpt>
    <trkpt lat="42.564724" lon="-2.559364">
      <ele>545.1</ele>
    </trkpt>
    <trkpt lat="42.56457" lon="-2.559386">
      <ele>546.1</ele>
    </trkpt>
    <trkpt lat="42.564425" lon="-2.559462">
      <ele>547.2</ele>
    </trkpt>
    <trkpt lat="42.564248" lon="-2.559683">
      <ele>548.9</ele>
    </trkpt>
    <trkpt lat="42.564187" lon="-2.559846">
      <ele>549.9</ele>
    </trkpt>
    <trkpt lat="42.564158" lon="-2.560096">
      <ele>551.5</ele>
    </trkpt>
    <trkpt lat="42.564148" lon="-2.560662">
      <ele>555.1</ele>
    </trkpt>
    <trkpt lat="42.564061" lon="-2.561018">
      <ele>557.5</ele>
    </trkpt>
    <trkpt lat="42.563912" lon="-2.561297">
      <ele>559.3</ele>
    </trkpt>
    <trkpt lat="42.563592" lon="-2.561716">
      <ele>561.5</ele>
    </trkpt>
    <trkpt lat="42.563383" lon="-2.562116">
      <ele>562.3</ele>
    </trkpt>
    <trkpt lat="42.563026" lon="-2.563388">
      <ele>564.5</ele>
    </trkpt>
    <trkpt lat="42.565067" lon="-2.564984">
      <ele>582.9</ele>
    </trkpt>
    <trkpt lat="42.565195" lon="-2.565047">
      <ele>583.9</ele>
    </trkpt>
    <trkpt lat="42.569495" lon="-2.56625">
      <ele>607.7</ele>
    </trkpt>
    <trkpt lat="42.569824" lon="-2.566342">
      <ele>608.6</ele>
    </trkpt>
    <trkpt lat="42.570497" lon="-2.566542">
      <ele>609.4</ele>
    </trkpt>
    <trkpt lat="42.570639" lon="-2.566622">
      <ele>609.3</ele>
    </trkpt>
    <trkpt lat="42.572457" lon="-2.568537">
      <ele>606</ele>
    </trkpt>
    <trkpt lat="42.575117" lon="-2.567019">
      <ele>610.2</ele>
    </trkpt>
    <trkpt lat="42.575289" lon="-2.566987">
      <ele>611.5</ele>
    </trkpt>
    <trkpt lat="42.575376" lon="-2.567021">
      <ele>612.2</ele>
    </trkpt>
    <trkpt lat="42.575454" lon="-2.56708">
      <ele>612.9</ele>
    </trkpt>
    <trkpt lat="42.575605" lon="-2.567276">
      <ele>614.8</ele>
    </trkpt>
    <trkpt lat="42.576591" lon="-2.56884">
      <ele>629.4</ele>
    </trkpt>
    <trkpt lat="42.576819" lon="-2.56951">
      <ele>630.4</ele>
    </trkpt>
    <trkpt lat="42.577165" lon="-2.570835">
      <ele>625.5</ele>
    </trkpt>
    <trkpt lat="42.577023" lon="-2.570972">
      <ele>624.2</ele>
    </trkpt>
    <trkpt lat="42.576899" lon="-2.571178">
      <ele>622.8</ele>
    </trkpt>
    <trkpt lat="42.575846" lon="-2.573182">
      <ele>613.3</ele>
    </trkpt>
    <trkpt lat="42.574576" lon="-2.577708">
      <ele>607.6</ele>
    </trkpt>
    <trkpt lat="42.574135" lon="-2.579271">
      <ele>600.4</ele>
    </trkpt>
    <trkpt lat="42.574084" lon="-2.579542">
      <ele>599.3</ele>
    </trkpt>
    <trkpt lat="42.574052" lon="-2.579706">
      <ele>598.8</ele>
    </trkpt>
    <trkpt lat="42.574114" lon="-2.580932">
      <ele>597.8</ele>
    </trkpt>
    <trkpt lat="42.574187" lon="-2.583543">
      <ele>607</ele>
    </trkpt>
    <trkpt lat="42.574179" lon="-2.583831">
      <ele>608.1</ele>
    </trkpt>
    <trkpt lat="42.573874" lon="-2.586366">
      <ele>615.6</ele>
    </trkpt>
    <trkpt lat="42.573745" lon="-2.586324">
      <ele>615.9</ele>
    </trkpt>
    <trkpt lat="42.573317" lon="-2.586022">
      <ele>616.6</ele>
    </trkpt>
    <trkpt lat="42.572157" lon="-2.585918">
      <ele>616.5</ele>
    </trkpt>
    <trkpt lat="42.571753" lon="-2.585779">
      <ele>616.2</ele>
    </trkpt>
    <trkpt lat="42.570402" lon="-2.585818">
      <ele>613.2</ele>
    </trkpt>
    <trkpt lat="42.570177" lon="-2.585879">
      <ele>612.2</ele>
    </trkpt>
    <trkpt lat="42.569967" lon="-2.586042">
      <ele>611</ele>
    </trkpt>
    <trkpt lat="42.569797" lon="-2.586084">
      <ele>610.2</ele>
    </trkpt>
    <trkpt lat="42.569661" lon="-2.586045">
      <ele>609.4</ele>
    </trkpt>
    <trkpt lat="42.569369" lon="-2.585788">
      <ele>607.5</ele>
    </trkpt>
    <trkpt lat="42.569226" lon="-2.585691">
      <ele>606.5</ele>
    </trkpt>
    <trkpt lat="42.569094" lon="-2.585646">
      <ele>605.8</ele>
    </trkpt>
    <trkpt lat="42.5688" lon="-2.585441">
      <ele>604.1</ele>
    </trkpt>
    <trkpt lat="42.568613" lon="-2.585379">
      <ele>603.2</ele>
    </trkpt>
    <trkpt lat="42.568144" lon="-2.585367">
      <ele>601.4</ele>
    </trkpt>
    <trkpt lat="42.567029" lon="-2.590343">
      <ele>592.3</ele>
    </trkpt>
    <trkpt lat="42.566749" lon="-2.591566">
      <ele>590.7</ele>
    </trkpt>
    <trkpt lat="42.566693" lon="-2.591524">
      <ele>590.6</ele>
    </trkpt>
    <trkpt lat="42.565591" lon="-2.59064">
      <ele>586</ele>
    </trkpt>
    <trkpt lat="42.564531" lon="-2.589886">
      <ele>581.7</ele>
    </trkpt>
    <trkpt lat="42.564228" lon="-2.5897">
      <ele>581.2</ele>
    </trkpt>
    <trkpt lat="42.564077" lon="-2.589666">
      <ele>581</ele>
    </trkpt>
    <trkpt lat="42.563864" lon="-2.589676">
      <ele>580.8</ele>
    </trkpt>
    <trkpt lat="42.562802" lon="-2.589808">
      <ele>581.3</ele>
    </trkpt>
    <trkpt lat="42.562633" lon="-2.589793">
      <ele>581.6</ele>
    </trkpt>
    <trkpt lat="42.562153" lon="-2.58961">
      <ele>582.6</ele>
    </trkpt>
    <trkpt lat="42.561268" lon="-2.589218">
      <ele>585.2</ele>
    </trkpt>
    <trkpt lat="42.561051" lon="-2.589097">
      <ele>586</ele>
    </trkpt>
    <trkpt lat="42.5609" lon="-2.588949">
      <ele>586.7</ele>
    </trkpt>
    <trkpt lat="42.560768" lon="-2.588718">
      <ele>587.4</ele>
    </trkpt>
    <trkpt lat="42.560136" lon="-2.587395">
      <ele>591.6</ele>
    </trkpt>
    <trkpt lat="42.559863" lon="-2.586839">
      <ele>593.1</ele>
    </trkpt>
    <trkpt lat="42.559793" lon="-2.586603">
      <ele>593.6</ele>
    </trkpt>
    <trkpt lat="42.55977" lon="-2.58561">
      <ele>595.7</ele>
    </trkpt>
    <trkpt lat="42.559305" lon="-2.585698">
      <ele>596.9</ele>
    </trkpt>
    <trkpt lat="42.558974" lon="-2.585722">
      <ele>598.1</ele>
    </trkpt>
    <trkpt lat="42.558721" lon="-2.585666">
      <ele>599.2</ele>
    </trkpt>
    <trkpt lat="42.558376" lon="-2.585541">
      <ele>600.6</ele>
    </trkpt>
    <trkpt lat="42.558371" lon="-2.585675">
      <ele>601.1</ele>
    </trkpt>
    <trkpt lat="42.558301" lon="-2.585965">
      <ele>602.3</ele>
    </trkpt>
    <trkpt lat="42.558229" lon="-2.586034">
      <ele>602.8</ele>
    </trkpt>
    <trkpt lat="42.558118" lon="-2.586053">
      <ele>603.4</ele>
    </trkpt>
    <trkpt lat="42.558074" lon="-2.585954">
      <ele>603.9</ele>
    </trkpt>
    <trkpt lat="42.557898" lon="-2.585556">
      <ele>606.1</ele>
    </trkpt>
    <trkpt lat="42.557738" lon="-2.585287">
      <ele>608</ele>
    </trkpt>
    <trkpt lat="42.557623" lon="-2.58517">
      <ele>609</ele>
    </trkpt>
    <trkpt lat="42.556968" lon="-2.584859">
      <ele>613.8</ele>
    </trkpt>
    <trkpt lat="42.55637" lon="-2.584694">
      <ele>618.7</ele>
    </trkpt>
    <trkpt lat="42.556356" lon="-2.58469">
      <ele>618.8</ele>
    </trkpt>
    <trkpt lat="42.555055" lon="-2.584387">
      <ele>627.5</ele>
    </trkpt>
    <trkpt lat="42.55495" lon="-2.584368">
      <ele>627.9</ele>
    </trkpt>
    <trkpt lat="42.554772" lon="-2.584336">
      <ele>628.6</ele>
    </trkpt>
    <trkpt lat="42.553894" lon="-2.584211">
      <ele>630.2</ele>
    </trkpt>
    </trkseg>
  </trk>
</gpx>
