<?xml version="1.0" encoding="UTF-8"?>
<gpx version="1.1" creator="fitAI Komoot downloader" xmlns="http://www.topografix.com/GPX/1/1">
  <metadata>
    <name>Iglesia de San Miguel - Recorrido circular desde Foncea</name>
    <desc>94 visitas · Dificultad: difficult · Distancia: 16.3 km · Desnivel +: 487 m</desc>
    <link href="https://www.komoot.com/smarttour/e31456908"><text>Komoot</text></link>
  </metadata>
  <trk>
    <name>Iglesia de San Miguel - Recorrido circular desde Foncea</name>
    <type>jogging</type>
    <trkseg>
    <trkpt lat="42.614755" lon="-3.037661">
      <ele>687.8</ele>
    </trkpt>
    <trkpt lat="42.615213" lon="-3.038297">
      <ele>690.9</ele>
    </trkpt>
    <trkpt lat="42.615311" lon="-3.038144">
      <ele>691.8</ele>
    </trkpt>
    <trkpt lat="42.615442" lon="-3.03794">
      <ele>693.1</ele>
    </trkpt>
    <trkpt lat="42.615975" lon="-3.038817">
      <ele>699</ele>
    </trkpt>
    <trkpt lat="42.616124" lon="-3.039005">
      <ele>700.4</ele>
    </trkpt>
    <trkpt lat="42.616218" lon="-3.038885">
      <ele>701.2</ele>
    </trkpt>
    <trkpt lat="42.616738" lon="-3.039562">
      <ele>704.9</ele>
    </trkpt>
    <trkpt lat="42.61679" lon="-3.039541">
      <ele>705.2</ele>
    </trkpt>
    <trkpt lat="42.616689" lon="-3.039851">
      <ele>706.6</ele>
    </trkpt>
    <trkpt lat="42.616466" lon="-3.040221">
      <ele>708.6</ele>
    </trkpt>
    <trkpt lat="42.616449" lon="-3.040468">
      <ele>709.9</ele>
    </trkpt>
    <trkpt lat="42.61637" lon="-3.040895">
      <ele>712.4</ele>
    </trkpt>
    <trkpt lat="42.616475" lon="-3.041045">
      <ele>713.8</ele>
    </trkpt>
    <trkpt lat="42.616596" lon="-3.041342">
      <ele>716.2</ele>
    </trkpt>
    <trkpt lat="42.616743" lon="-3.042025">
      <ele>721.8</ele>
    </trkpt>
    <trkpt lat="42.616863" lon="-3.042342">
      <ele>724.6</ele>
    </trkpt>
    <trkpt lat="42.616872" lon="-3.042414">
      <ele>725.1</ele>
    </trkpt>
    <trkpt lat="42.616761" lon="-3.042628">
      <ele>727.1</ele>
    </trkpt>
    <trkpt lat="42.616737" lon="-3.042794">
      <ele>728.4</ele>
    </trkpt>
    <trkpt lat="42.616728" lon="-3.042887">
      <ele>729.1</ele>
    </trkpt>
    <trkpt lat="42.616568" lon="-3.043202">
      <ele>731.8</ele>
    </trkpt>
    <trkpt lat="42.616161" lon="-3.044232">
      <ele>739.6</ele>
    </trkpt>
    <trkpt lat="42.616183" lon="-3.044249">
      <ele>739.9</ele>
    </trkpt>
    <trkpt lat="42.616805" lon="-3.044743">
      <ele>747.8</ele>
    </trkpt>
    <trkpt lat="42.616911" lon="-3.044782">
      <ele>749.4</ele>
    </trkpt>
    <trkpt lat="42.617365" lon="-3.044703">
      <ele>756.9</ele>
    </trkpt>
    <trkpt lat="42.617561" lon="-3.044911">
      <ele>761.6</ele>
    </trkpt>
    <trkpt lat="42.617605" lon="-3.04504">
      <ele>763.7</ele>
    </trkpt>
    <trkpt lat="42.617598" lon="-3.045344">
      <ele>768.5</ele>
    </trkpt>
    <trkpt lat="42.617661" lon="-3.045961">
      <ele>778.8</ele>
    </trkpt>
    <trkpt lat="42.617893" lon="-3.04666">
      <ele>791.1</ele>
    </trkpt>
    <trkpt lat="42.617921" lon="-3.046931">
      <ele>795.1</ele>
    </trkpt>
    <trkpt lat="42.617922" lon="-3.047284">
      <ele>799.5</ele>
    </trkpt>
    <trkpt lat="42.6179" lon="-3.047443">
      <ele>801.3</ele>
    </trkpt>
    <trkpt lat="42.617667" lon="-3.048335">
      <ele>808.7</ele>
    </trkpt>
    <trkpt lat="42.617658" lon="-3.048765">
      <ele>810.3</ele>
    </trkpt>
    <trkpt lat="42.617801" lon="-3.049348">
      <ele>811.4</ele>
    </trkpt>
    <trkpt lat="42.617829" lon="-3.049783">
      <ele>811.4</ele>
    </trkpt>
    <trkpt lat="42.617922" lon="-3.050057">
      <ele>811</ele>
    </trkpt>
    <trkpt lat="42.618014" lon="-3.050073">
      <ele>810.7</ele>
    </trkpt>
    <trkpt lat="42.61807" lon="-3.050238">
      <ele>810.3</ele>
    </trkpt>
    <trkpt lat="42.618082" lon="-3.050368">
      <ele>810</ele>
    </trkpt>
    <trkpt lat="42.618166" lon="-3.050693">
      <ele>809.9</ele>
    </trkpt>
    <trkpt lat="42.618219" lon="-3.051318">
      <ele>810.1</ele>
    </trkpt>
    <trkpt lat="42.618282" lon="-3.051559">
      <ele>810.5</ele>
    </trkpt>
    <trkpt lat="42.618374" lon="-3.051727">
      <ele>811</ele>
    </trkpt>
    <trkpt lat="42.618472" lon="-3.051791">
      <ele>811.5</ele>
    </trkpt>
    <trkpt lat="42.618586" lon="-3.051799">
      <ele>812.1</ele>
    </trkpt>
    <trkpt lat="42.618705" lon="-3.051856">
      <ele>812.8</ele>
    </trkpt>
    <trkpt lat="42.618865" lon="-3.051957">
      <ele>814.1</ele>
    </trkpt>
    <trkpt lat="42.618899" lon="-3.052036">
      <ele>814.6</ele>
    </trkpt>
    <trkpt lat="42.618892" lon="-3.052161">
      <ele>815.6</ele>
    </trkpt>
    <trkpt lat="42.618952" lon="-3.052484">
      <ele>818.4</ele>
    </trkpt>
    <trkpt lat="42.619151" lon="-3.053009">
      <ele>824.6</ele>
    </trkpt>
    <trkpt lat="42.619261" lon="-3.053496">
      <ele>830.2</ele>
    </trkpt>
    <trkpt lat="42.619289" lon="-3.053963">
      <ele>835.5</ele>
    </trkpt>
    <trkpt lat="42.619626" lon="-3.055134">
      <ele>850.9</ele>
    </trkpt>
    <trkpt lat="42.619527" lon="-3.055563">
      <ele>856.4</ele>
    </trkpt>
    <trkpt lat="42.619584" lon="-3.055799">
      <ele>859.3</ele>
    </trkpt>
    <trkpt lat="42.619743" lon="-3.056252">
      <ele>864.4</ele>
    </trkpt>
    <trkpt lat="42.619917" lon="-3.056411">
      <ele>866.9</ele>
    </trkpt>
    <trkpt lat="42.620102" lon="-3.05654">
      <ele>868.9</ele>
    </trkpt>
    <trkpt lat="42.620449" lon="-3.056555">
      <ele>871.1</ele>
    </trkpt>
    <trkpt lat="42.620719" lon="-3.056403">
      <ele>871.8</ele>
    </trkpt>
    <trkpt lat="42.62089" lon="-3.05638">
      <ele>871.6</ele>
    </trkpt>
    <trkpt lat="42.621113" lon="-3.056487">
      <ele>870.6</ele>
    </trkpt>
    <trkpt lat="42.621258" lon="-3.056676">
      <ele>869.2</ele>
    </trkpt>
    <trkpt lat="42.621601" lon="-3.05701">
      <ele>865.4</ele>
    </trkpt>
    <trkpt lat="42.621674" lon="-3.057231">
      <ele>863.8</ele>
    </trkpt>
    <trkpt lat="42.621739" lon="-3.057346">
      <ele>862.8</ele>
    </trkpt>
    <trkpt lat="42.621836" lon="-3.057761">
      <ele>860.2</ele>
    </trkpt>
    <trkpt lat="42.622043" lon="-3.057898">
      <ele>858.8</ele>
    </trkpt>
    <trkpt lat="42.622189" lon="-3.058113">
      <ele>858</ele>
    </trkpt>
    <trkpt lat="42.62246" lon="-3.05835">
      <ele>857.6</ele>
    </trkpt>
    <trkpt lat="42.622575" lon="-3.05841">
      <ele>857.7</ele>
    </trkpt>
    <trkpt lat="42.622901" lon="-3.058732">
      <ele>859</ele>
    </trkpt>
    <trkpt lat="42.623132" lon="-3.059031">
      <ele>860.5</ele>
    </trkpt>
    <trkpt lat="42.623268" lon="-3.059264">
      <ele>861.4</ele>
    </trkpt>
    <trkpt lat="42.623461" lon="-3.059414">
      <ele>862.1</ele>
    </trkpt>
    <trkpt lat="42.623799" lon="-3.059781">
      <ele>862.5</ele>
    </trkpt>
    <trkpt lat="42.623872" lon="-3.05983">
      <ele>862.5</ele>
    </trkpt>
    <trkpt lat="42.62408" lon="-3.059872">
      <ele>862.2</ele>
    </trkpt>
    <trkpt lat="42.624119" lon="-3.059994">
      <ele>862</ele>
    </trkpt>
    <trkpt lat="42.624232" lon="-3.060134">
      <ele>861.6</ele>
    </trkpt>
    <trkpt lat="42.624319" lon="-3.060186">
      <ele>861.4</ele>
    </trkpt>
    <trkpt lat="42.624341" lon="-3.060324">
      <ele>861.2</ele>
    </trkpt>
    <trkpt lat="42.624465" lon="-3.060499">
      <ele>860.9</ele>
    </trkpt>
    <trkpt lat="42.624554" lon="-3.06068">
      <ele>860.7</ele>
    </trkpt>
    <trkpt lat="42.624675" lon="-3.061125">
      <ele>860.6</ele>
    </trkpt>
    <trkpt lat="42.624797" lon="-3.061354">
      <ele>860.9</ele>
    </trkpt>
    <trkpt lat="42.625061" lon="-3.062013">
      <ele>863.1</ele>
    </trkpt>
    <trkpt lat="42.625105" lon="-3.062303">
      <ele>864.4</ele>
    </trkpt>
    <trkpt lat="42.625137" lon="-3.062724">
      <ele>866.5</ele>
    </trkpt>
    <trkpt lat="42.625103" lon="-3.063051">
      <ele>868.1</ele>
    </trkpt>
    <trkpt lat="42.625104" lon="-3.063719">
      <ele>871</ele>
    </trkpt>
    <trkpt lat="42.625087" lon="-3.063876">
      <ele>871.6</ele>
    </trkpt>
    <trkpt lat="42.624947" lon="-3.064322">
      <ele>873</ele>
    </trkpt>
    <trkpt lat="42.624943" lon="-3.064507">
      <ele>873.5</ele>
    </trkpt>
    <trkpt lat="42.625009" lon="-3.064739">
      <ele>874</ele>
    </trkpt>
    <trkpt lat="42.625161" lon="-3.06509">
      <ele>874.6</ele>
    </trkpt>
    <trkpt lat="42.625206" lon="-3.065413">
      <ele>875.1</ele>
    </trkpt>
    <trkpt lat="42.625255" lon="-3.065563">
      <ele>875.4</ele>
    </trkpt>
    <trkpt lat="42.625426" lon="-3.065886">
      <ele>876</ele>
    </trkpt>
    <trkpt lat="42.625559" lon="-3.066215">
      <ele>876.6</ele>
    </trkpt>
    <trkpt lat="42.625529" lon="-3.066324">
      <ele>876.8</ele>
    </trkpt>
    <trkpt lat="42.625508" lon="-3.0666">
      <ele>877.2</ele>
    </trkpt>
    <trkpt lat="42.625521" lon="-3.066867">
      <ele>877.7</ele>
    </trkpt>
    <trkpt lat="42.62573" lon="-3.067909">
      <ele>880.3</ele>
    </trkpt>
    <trkpt lat="42.625824" lon="-3.069067">
      <ele>883.9</ele>
    </trkpt>
    <trkpt lat="42.625805" lon="-3.069342">
      <ele>884.8</ele>
    </trkpt>
    <trkpt lat="42.625881" lon="-3.070295">
      <ele>888.4</ele>
    </trkpt>
    <trkpt lat="42.625923" lon="-3.070481">
      <ele>889.3</ele>
    </trkpt>
    <trkpt lat="42.626294" lon="-3.071321">
      <ele>894.2</ele>
    </trkpt>
    <trkpt lat="42.626483" lon="-3.07167">
      <ele>896.8</ele>
    </trkpt>
    <trkpt lat="42.62649" lon="-3.072096">
      <ele>899.4</ele>
    </trkpt>
    <trkpt lat="42.626465" lon="-3.072319">
      <ele>900.8</ele>
    </trkpt>
    <trkpt lat="42.626498" lon="-3.072609">
      <ele>902.6</ele>
    </trkpt>
    <trkpt lat="42.626589" lon="-3.073056">
      <ele>905.3</ele>
    </trkpt>
    <trkpt lat="42.626812" lon="-3.073767">
      <ele>908.6</ele>
    </trkpt>
    <trkpt lat="42.626956" lon="-3.074169">
      <ele>909.6</ele>
    </trkpt>
    <trkpt lat="42.627169" lon="-3.074653">
      <ele>909.5</ele>
    </trkpt>
    <trkpt lat="42.62744" lon="-3.075009">
      <ele>908.5</ele>
    </trkpt>
    <trkpt lat="42.627668" lon="-3.075128">
      <ele>907.7</ele>
    </trkpt>
    <trkpt lat="42.627789" lon="-3.075139">
      <ele>907.2</ele>
    </trkpt>
    <trkpt lat="42.628105" lon="-3.075096">
      <ele>906</ele>
    </trkpt>
    <trkpt lat="42.628196" lon="-3.075123">
      <ele>905.7</ele>
    </trkpt>
    <trkpt lat="42.62851" lon="-3.075356">
      <ele>905</ele>
    </trkpt>
    <trkpt lat="42.628844" lon="-3.07566">
      <ele>905</ele>
    </trkpt>
    <trkpt lat="42.628929" lon="-3.075898">
      <ele>905.5</ele>
    </trkpt>
    <trkpt lat="42.628922" lon="-3.076077">
      <ele>906</ele>
    </trkpt>
    <trkpt lat="42.628859" lon="-3.076242">
      <ele>906.7</ele>
    </trkpt>
    <trkpt lat="42.62843" lon="-3.076781">
      <ele>910.8</ele>
    </trkpt>
    <trkpt lat="42.628137" lon="-3.077282">
      <ele>915.1</ele>
    </trkpt>
    <trkpt lat="42.628025" lon="-3.077607">
      <ele>917.6</ele>
    </trkpt>
    <trkpt lat="42.628042" lon="-3.077839">
      <ele>919.1</ele>
    </trkpt>
    <trkpt lat="42.628145" lon="-3.07827">
      <ele>921.9</ele>
    </trkpt>
    <trkpt lat="42.628237" lon="-3.078516">
      <ele>923.3</ele>
    </trkpt>
    <trkpt lat="42.628308" lon="-3.078884">
      <ele>924.7</ele>
    </trkpt>
    <trkpt lat="42.628501" lon="-3.079418">
      <ele>925.9</ele>
    </trkpt>
    <trkpt lat="42.628564" lon="-3.079537">
      <ele>926</ele>
    </trkpt>
    <trkpt lat="42.629008" lon="-3.07925">
      <ele>925.2</ele>
    </trkpt>
    <trkpt lat="42.629281" lon="-3.078949">
      <ele>923.8</ele>
    </trkpt>
    <trkpt lat="42.62945" lon="-3.078715">
      <ele>922.7</ele>
    </trkpt>
    <trkpt lat="42.629631" lon="-3.078538">
      <ele>921.8</ele>
    </trkpt>
    <trkpt lat="42.629801" lon="-3.078201">
      <ele>921</ele>
    </trkpt>
    <trkpt lat="42.629875" lon="-3.077897">
      <ele>920.9</ele>
    </trkpt>
    <trkpt lat="42.629909" lon="-3.077832">
      <ele>920.9</ele>
    </trkpt>
    <trkpt lat="42.63013" lon="-3.077613">
      <ele>921.6</ele>
    </trkpt>
    <trkpt lat="42.630234" lon="-3.077539">
      <ele>922.2</ele>
    </trkpt>
    <trkpt lat="42.630487" lon="-3.07736">
      <ele>923.5</ele>
    </trkpt>
    <trkpt lat="42.630794" lon="-3.077428">
      <ele>925.3</ele>
    </trkpt>
    <trkpt lat="42.630895" lon="-3.077393">
      <ele>925.9</ele>
    </trkpt>
    <trkpt lat="42.630941" lon="-3.077273">
      <ele>926.6</ele>
    </trkpt>
    <trkpt lat="42.630927" lon="-3.077121">
      <ele>927.3</ele>
    </trkpt>
    <trkpt lat="42.630944" lon="-3.076856">
      <ele>928.5</ele>
    </trkpt>
    <trkpt lat="42.631057" lon="-3.076107">
      <ele>931.1</ele>
    </trkpt>
    <trkpt lat="42.630935" lon="-3.075673">
      <ele>931.6</ele>
    </trkpt>
    <trkpt lat="42.630929" lon="-3.075153">
      <ele>931.1</ele>
    </trkpt>
    <trkpt lat="42.630873" lon="-3.074765">
      <ele>930.6</ele>
    </trkpt>
    <trkpt lat="42.630645" lon="-3.073913">
      <ele>928.9</ele>
    </trkpt>
    <trkpt lat="42.63056" lon="-3.073694">
      <ele>928.4</ele>
    </trkpt>
    <trkpt lat="42.630406" lon="-3.073166">
      <ele>927.4</ele>
    </trkpt>
    <trkpt lat="42.630196" lon="-3.072083">
      <ele>926.1</ele>
    </trkpt>
    <trkpt lat="42.630162" lon="-3.071792">
      <ele>926</ele>
    </trkpt>
    <trkpt lat="42.630123" lon="-3.070948">
      <ele>926.9</ele>
    </trkpt>
    <trkpt lat="42.630163" lon="-3.070746">
      <ele>927.3</ele>
    </trkpt>
    <trkpt lat="42.630159" lon="-3.070506">
      <ele>928</ele>
    </trkpt>
    <trkpt lat="42.6301" lon="-3.069499">
      <ele>932.2</ele>
    </trkpt>
    <trkpt lat="42.630107" lon="-3.069248">
      <ele>933.5</ele>
    </trkpt>
    <trkpt lat="42.630128" lon="-3.069085">
      <ele>934.4</ele>
    </trkpt>
    <trkpt lat="42.630223" lon="-3.06876">
      <ele>936.3</ele>
    </trkpt>
    <trkpt lat="42.630305" lon="-3.068238">
      <ele>939</ele>
    </trkpt>
    <trkpt lat="42.630316" lon="-3.067755">
      <ele>941.1</ele>
    </trkpt>
    <trkpt lat="42.63042" lon="-3.067242">
      <ele>942.7</ele>
    </trkpt>
    <trkpt lat="42.630418" lon="-3.067137">
      <ele>943</ele>
    </trkpt>
    <trkpt lat="42.630317" lon="-3.066735">
      <ele>943.7</ele>
    </trkpt>
    <trkpt lat="42.630262" lon="-3.066363">
      <ele>944.1</ele>
    </trkpt>
    <trkpt lat="42.629913" lon="-3.065167">
      <ele>942.9</ele>
    </trkpt>
    <trkpt lat="42.629466" lon="-3.063996">
      <ele>940.6</ele>
    </trkpt>
    <trkpt lat="42.629381" lon="-3.063562">
      <ele>939.9</ele>
    </trkpt>
    <trkpt lat="42.629179" lon="-3.062894">
      <ele>939</ele>
    </trkpt>
    <trkpt lat="42.629118" lon="-3.062601">
      <ele>938.7</ele>
    </trkpt>
    <trkpt lat="42.6291" lon="-3.062249">
      <ele>938.5</ele>
    </trkpt>
    <trkpt lat="42.629108" lon="-3.061818">
      <ele>938.4</ele>
    </trkpt>
    <trkpt lat="42.629099" lon="-3.061168">
      <ele>938.5</ele>
    </trkpt>
    <trkpt lat="42.629224" lon="-3.059936">
      <ele>938.3</ele>
    </trkpt>
    <trkpt lat="42.629303" lon="-3.059472">
      <ele>936.6</ele>
    </trkpt>
    <trkpt lat="42.629397" lon="-3.059132">
      <ele>934.9</ele>
    </trkpt>
    <trkpt lat="42.629418" lon="-3.058982">
      <ele>934.1</ele>
    </trkpt>
    <trkpt lat="42.62941" lon="-3.058842">
      <ele>933.3</ele>
    </trkpt>
    <trkpt lat="42.629652" lon="-3.058707">
      <ele>931.1</ele>
    </trkpt>
    <trkpt lat="42.629995" lon="-3.058636">
      <ele>927.7</ele>
    </trkpt>
    <trkpt lat="42.630051" lon="-3.059166">
      <ele>923.3</ele>
    </trkpt>
    <trkpt lat="42.630313" lon="-3.059775">
      <ele>917.6</ele>
    </trkpt>
    <trkpt lat="42.63081" lon="-3.06028">
      <ele>913.4</ele>
    </trkpt>
    <trkpt lat="42.631149" lon="-3.060805">
      <ele>910.9</ele>
    </trkpt>
    <trkpt lat="42.631402" lon="-3.062136">
      <ele>906.1</ele>
    </trkpt>
    <trkpt lat="42.631947" lon="-3.063112">
      <ele>900.9</ele>
    </trkpt>
    <trkpt lat="42.632176" lon="-3.06352">
      <ele>899</ele>
    </trkpt>
    <trkpt lat="42.632602" lon="-3.063455">
      <ele>897.6</ele>
    </trkpt>
    <trkpt lat="42.632452" lon="-3.064347">
      <ele>897</ele>
    </trkpt>
    <trkpt lat="42.632422" lon="-3.065011">
      <ele>897.5</ele>
    </trkpt>
    <trkpt lat="42.632733" lon="-3.066358">
      <ele>897.8</ele>
    </trkpt>
    <trkpt lat="42.632992" lon="-3.067786">
      <ele>896.9</ele>
    </trkpt>
    <trkpt lat="42.633672" lon="-3.07026">
      <ele>896.2</ele>
    </trkpt>
    <trkpt lat="42.633835" lon="-3.070964">
      <ele>896.5</ele>
    </trkpt>
    <trkpt lat="42.633807" lon="-3.073292">
      <ele>898.6</ele>
    </trkpt>
    <trkpt lat="42.633783" lon="-3.075217">
      <ele>900.8</ele>
    </trkpt>
    <trkpt lat="42.633946" lon="-3.075569">
      <ele>901.5</ele>
    </trkpt>
    <trkpt lat="42.634153" lon="-3.076906">
      <ele>904.2</ele>
    </trkpt>
    <trkpt lat="42.634715" lon="-3.078465">
      <ele>908</ele>
    </trkpt>
    <trkpt lat="42.635559" lon="-3.080034">
      <ele>913</ele>
    </trkpt>
    <trkpt lat="42.635943" lon="-3.080969">
      <ele>918.2</ele>
    </trkpt>
    <trkpt lat="42.636361" lon="-3.081373">
      <ele>923.3</ele>
    </trkpt>
    <trkpt lat="42.636476" lon="-3.081514">
      <ele>925</ele>
    </trkpt>
    <trkpt lat="42.636598" lon="-3.081952">
      <ele>928.9</ele>
    </trkpt>
    <trkpt lat="42.636435" lon="-3.082233">
      <ele>931.7</ele>
    </trkpt>
    <trkpt lat="42.636457" lon="-3.082374">
      <ele>932.8</ele>
    </trkpt>
    <trkpt lat="42.63662" lon="-3.082525">
      <ele>934.5</ele>
    </trkpt>
    <trkpt lat="42.636877" lon="-3.083276">
      <ele>937.6</ele>
    </trkpt>
    <trkpt lat="42.637037" lon="-3.08284">
      <ele>937.7</ele>
    </trkpt>
    <trkpt lat="42.636969" lon="-3.081887">
      <ele>935.3</ele>
    </trkpt>
    <trkpt lat="42.636837" lon="-3.080749">
      <ele>930.4</ele>
    </trkpt>
    <trkpt lat="42.63668" lon="-3.080016">
      <ele>927.7</ele>
    </trkpt>
    <trkpt lat="42.636404" lon="-3.079219">
      <ele>924.6</ele>
    </trkpt>
    <trkpt lat="42.636158" lon="-3.078913">
      <ele>923.1</ele>
    </trkpt>
    <trkpt lat="42.635822" lon="-3.078347">
      <ele>921</ele>
    </trkpt>
    <trkpt lat="42.635554" lon="-3.077839">
      <ele>919.7</ele>
    </trkpt>
    <trkpt lat="42.635337" lon="-3.077255">
      <ele>918.9</ele>
    </trkpt>
    <trkpt lat="42.63529" lon="-3.075536">
      <ele>918.7</ele>
    </trkpt>
    <trkpt lat="42.635196" lon="-3.074566">
      <ele>918.9</ele>
    </trkpt>
    <trkpt lat="42.635044" lon="-3.073584">
      <ele>919</ele>
    </trkpt>
    <trkpt lat="42.635069" lon="-3.072977">
      <ele>919.2</ele>
    </trkpt>
    <trkpt lat="42.635264" lon="-3.072284">
      <ele>919.2</ele>
    </trkpt>
    <trkpt lat="42.635276" lon="-3.07175">
      <ele>918.9</ele>
    </trkpt>
    <trkpt lat="42.635228" lon="-3.071126">
      <ele>918.1</ele>
    </trkpt>
    <trkpt lat="42.635023" lon="-3.070032">
      <ele>915.3</ele>
    </trkpt>
    <trkpt lat="42.634764" lon="-3.069169">
      <ele>912.4</ele>
    </trkpt>
    <trkpt lat="42.63439" lon="-3.068966">
      <ele>910.9</ele>
    </trkpt>
    <trkpt lat="42.634255" lon="-3.068958">
      <ele>910.4</ele>
    </trkpt>
    <trkpt lat="42.634234" lon="-3.068893">
      <ele>910.3</ele>
    </trkpt>
    <trkpt lat="42.633986" lon="-3.06812">
      <ele>908.8</ele>
    </trkpt>
    <trkpt lat="42.633565" lon="-3.066345">
      <ele>907.3</ele>
    </trkpt>
    <trkpt lat="42.633397" lon="-3.065438">
      <ele>905.5</ele>
    </trkpt>
    <trkpt lat="42.633207" lon="-3.064813">
      <ele>903.5</ele>
    </trkpt>
    <trkpt lat="42.633016" lon="-3.064066">
      <ele>900.9</ele>
    </trkpt>
    <trkpt lat="42.63301" lon="-3.063022">
      <ele>899.1</ele>
    </trkpt>
    <trkpt lat="42.632885" lon="-3.062654">
      <ele>899.2</ele>
    </trkpt>
    <trkpt lat="42.632318" lon="-3.061447">
      <ele>902.4</ele>
    </trkpt>
    <trkpt lat="42.631887" lon="-3.060589">
      <ele>905.8</ele>
    </trkpt>
    <trkpt lat="42.631211" lon="-3.059766">
      <ele>910.8</ele>
    </trkpt>
    <trkpt lat="42.630405" lon="-3.058882">
      <ele>917.8</ele>
    </trkpt>
    <trkpt lat="42.630083" lon="-3.058663">
      <ele>919</ele>
    </trkpt>
    <trkpt lat="42.629995" lon="-3.058636">
      <ele>919.2</ele>
    </trkpt>
    <trkpt lat="42.630051" lon="-3.059166">
      <ele>919</ele>
    </trkpt>
    <trkpt lat="42.630313" lon="-3.059775">
      <ele>917.2</ele>
    </trkpt>
    <trkpt lat="42.63081" lon="-3.06028">
      <ele>913.4</ele>
    </trkpt>
    <trkpt lat="42.631149" lon="-3.060805">
      <ele>910.9</ele>
    </trkpt>
    <trkpt lat="42.631402" lon="-3.062136">
      <ele>906.1</ele>
    </trkpt>
    <trkpt lat="42.632176" lon="-3.06352">
      <ele>898.8</ele>
    </trkpt>
    <trkpt lat="42.632602" lon="-3.063455">
      <ele>897.1</ele>
    </trkpt>
    <trkpt lat="42.633257" lon="-3.062887">
      <ele>895.6</ele>
    </trkpt>
    <trkpt lat="42.633573" lon="-3.062801">
      <ele>895.4</ele>
    </trkpt>
    <trkpt lat="42.633983" lon="-3.062436">
      <ele>895</ele>
    </trkpt>
    <trkpt lat="42.634283" lon="-3.062436">
      <ele>894.7</ele>
    </trkpt>
    <trkpt lat="42.634598" lon="-3.062825">
      <ele>894.4</ele>
    </trkpt>
    <trkpt lat="42.634993" lon="-3.062847">
      <ele>893.8</ele>
    </trkpt>
    <trkpt lat="42.635096" lon="-3.063305">
      <ele>892.5</ele>
    </trkpt>
    <trkpt lat="42.635361" lon="-3.063735">
      <ele>890.3</ele>
    </trkpt>
    <trkpt lat="42.635719" lon="-3.063924">
      <ele>887.8</ele>
    </trkpt>
    <trkpt lat="42.636383" lon="-3.064047">
      <ele>881.4</ele>
    </trkpt>
    <trkpt lat="42.636481" lon="-3.064136">
      <ele>880</ele>
    </trkpt>
    <trkpt lat="42.636371" lon="-3.063631">
      <ele>875.2</ele>
    </trkpt>
    <trkpt lat="42.636216" lon="-3.062546">
      <ele>865.8</ele>
    </trkpt>
    <trkpt lat="42.636122" lon="-3.061152">
      <ele>853.9</ele>
    </trkpt>
    <trkpt lat="42.63604" lon="-3.060884">
      <ele>851.6</ele>
    </trkpt>
    <trkpt lat="42.635967" lon="-3.060447">
      <ele>848</ele>
    </trkpt>
    <trkpt lat="42.635926" lon="-3.059687">
      <ele>842</ele>
    </trkpt>
    <trkpt lat="42.635988" lon="-3.058292">
      <ele>828.6</ele>
    </trkpt>
    <trkpt lat="42.635957" lon="-3.057644">
      <ele>820.8</ele>
    </trkpt>
    <trkpt lat="42.63577" lon="-3.057123">
      <ele>813.7</ele>
    </trkpt>
    <trkpt lat="42.635428" lon="-3.056475">
      <ele>805.3</ele>
    </trkpt>
    <trkpt lat="42.635252" lon="-3.05587">
      <ele>800.5</ele>
    </trkpt>
    <trkpt lat="42.634724" lon="-3.055497">
      <ele>798.1</ele>
    </trkpt>
    <trkpt lat="42.634622" lon="-3.054929">
      <ele>798.7</ele>
    </trkpt>
    <trkpt lat="42.634393" lon="-3.054585">
      <ele>800</ele>
    </trkpt>
    <trkpt lat="42.63429" lon="-3.054178">
      <ele>801.7</ele>
    </trkpt>
    <trkpt lat="42.633778" lon="-3.053402">
      <ele>807</ele>
    </trkpt>
    <trkpt lat="42.633477" lon="-3.053062">
      <ele>810.1</ele>
    </trkpt>
    <trkpt lat="42.633467" lon="-3.053032">
      <ele>810.3</ele>
    </trkpt>
    <trkpt lat="42.633307" lon="-3.052576">
      <ele>813.7</ele>
    </trkpt>
    <trkpt lat="42.633217" lon="-3.052319">
      <ele>815.8</ele>
    </trkpt>
    <trkpt lat="42.632648" lon="-3.051678">
      <ele>823.4</ele>
    </trkpt>
    <trkpt lat="42.632064" lon="-3.050519">
      <ele>835.2</ele>
    </trkpt>
    <trkpt lat="42.632009" lon="-3.050111">
      <ele>838.6</ele>
    </trkpt>
    <trkpt lat="42.631243" lon="-3.049296">
      <ele>847.2</ele>
    </trkpt>
    <trkpt lat="42.631378" lon="-3.048338">
      <ele>851.8</ele>
    </trkpt>
    <trkpt lat="42.631749" lon="-3.047751">
      <ele>855</ele>
    </trkpt>
    <trkpt lat="42.631891" lon="-3.046708">
      <ele>859.5</ele>
    </trkpt>
    <trkpt lat="42.632152" lon="-3.046268">
      <ele>861.6</ele>
    </trkpt>
    <trkpt lat="42.632523" lon="-3.045989">
      <ele>864</ele>
    </trkpt>
    <trkpt lat="42.633059" lon="-3.045853">
      <ele>867.9</ele>
    </trkpt>
    <trkpt lat="42.633001" lon="-3.045544">
      <ele>870</ele>
    </trkpt>
    <trkpt lat="42.632989" lon="-3.045474">
      <ele>870.5</ele>
    </trkpt>
    <trkpt lat="42.632689" lon="-3.045163">
      <ele>874.6</ele>
    </trkpt>
    <trkpt lat="42.632654" lon="-3.045157">
      <ele>875</ele>
    </trkpt>
    <trkpt lat="42.631614" lon="-3.045322">
      <ele>892.3</ele>
    </trkpt>
    <trkpt lat="42.630284" lon="-3.045334">
      <ele>916.5</ele>
    </trkpt>
    <trkpt lat="42.629747" lon="-3.045238">
      <ele>924.7</ele>
    </trkpt>
    <trkpt lat="42.629651" lon="-3.044832">
      <ele>928.4</ele>
    </trkpt>
    <trkpt lat="42.629285" lon="-3.044373">
      <ele>932</ele>
    </trkpt>
    <trkpt lat="42.629132" lon="-3.044352">
      <ele>932.5</ele>
    </trkpt>
    <trkpt lat="42.628965" lon="-3.044424">
      <ele>932.8</ele>
    </trkpt>
    <trkpt lat="42.628716" lon="-3.044531">
      <ele>932.8</ele>
    </trkpt>
    <trkpt lat="42.628069" lon="-3.044571">
      <ele>929.8</ele>
    </trkpt>
    <trkpt lat="42.6278" lon="-3.044512">
      <ele>927.4</ele>
    </trkpt>
    <trkpt lat="42.62728" lon="-3.044641">
      <ele>921.8</ele>
    </trkpt>
    <trkpt lat="42.626971" lon="-3.044583">
      <ele>918.1</ele>
    </trkpt>
    <trkpt lat="42.626741" lon="-3.04459">
      <ele>915.3</ele>
    </trkpt>
    <trkpt lat="42.626251" lon="-3.044387">
      <ele>908.8</ele>
    </trkpt>
    <trkpt lat="42.626095" lon="-3.044211">
      <ele>906.2</ele>
    </trkpt>
    <trkpt lat="42.626004" lon="-3.04415">
      <ele>904.9</ele>
    </trkpt>
    <trkpt lat="42.625918" lon="-3.044145">
      <ele>903.8</ele>
    </trkpt>
    <trkpt lat="42.625834" lon="-3.044189">
      <ele>902.7</ele>
    </trkpt>
    <trkpt lat="42.625234" lon="-3.043971">
      <ele>895.1</ele>
    </trkpt>
    <trkpt lat="42.625056" lon="-3.043755">
      <ele>892.2</ele>
    </trkpt>
    <trkpt lat="42.62468" lon="-3.043493">
      <ele>886.9</ele>
    </trkpt>
    <trkpt lat="42.624534" lon="-3.04348">
      <ele>885</ele>
    </trkpt>
    <trkpt lat="42.624286" lon="-3.043378">
      <ele>881.4</ele>
    </trkpt>
    <trkpt lat="42.623985" lon="-3.043097">
      <ele>875.9</ele>
    </trkpt>
    <trkpt lat="42.623752" lon="-3.043032">
      <ele>872</ele>
    </trkpt>
    <trkpt lat="42.623556" lon="-3.042915">
      <ele>868.4</ele>
    </trkpt>
    <trkpt lat="42.62305" lon="-3.042974">
      <ele>858.9</ele>
    </trkpt>
    <trkpt lat="42.622723" lon="-3.042765">
      <ele>851.8</ele>
    </trkpt>
    <trkpt lat="42.622634" lon="-3.042592">
      <ele>848.6</ele>
    </trkpt>
    <trkpt lat="42.622347" lon="-3.042306">
      <ele>841</ele>
    </trkpt>
    <trkpt lat="42.622298" lon="-3.042091">
      <ele>837.3</ele>
    </trkpt>
    <trkpt lat="42.622255" lon="-3.042075">
      <ele>836.4</ele>
    </trkpt>
    <trkpt lat="42.622187" lon="-3.041889">
      <ele>833</ele>
    </trkpt>
    <trkpt lat="42.622047" lon="-3.041816">
      <ele>829.5</ele>
    </trkpt>
    <trkpt lat="42.621906" lon="-3.041579">
      <ele>824.3</ele>
    </trkpt>
    <trkpt lat="42.621631" lon="-3.041428">
      <ele>817.3</ele>
    </trkpt>
    <trkpt lat="42.621195" lon="-3.040601">
      <ele>799.4</ele>
    </trkpt>
    <trkpt lat="42.621124" lon="-3.040625">
      <ele>797.6</ele>
    </trkpt>
    <trkpt lat="42.620489" lon="-3.04063">
      <ele>781.9</ele>
    </trkpt>
    <trkpt lat="42.620009" lon="-3.040544">
      <ele>770</ele>
    </trkpt>
    <trkpt lat="42.619579" lon="-3.040119">
      <ele>757.5</ele>
    </trkpt>
    <trkpt lat="42.619526" lon="-3.039968">
      <ele>754.7</ele>
    </trkpt>
    <trkpt lat="42.619279" lon="-3.039823">
      <ele>748.6</ele>
    </trkpt>
    <trkpt lat="42.618848" lon="-3.039589">
      <ele>738.8</ele>
    </trkpt>
    <trkpt lat="42.618713" lon="-3.039438">
      <ele>735.3</ele>
    </trkpt>
    <trkpt lat="42.618483" lon="-3.039528">
      <ele>730.9</ele>
    </trkpt>
    <trkpt lat="42.618393" lon="-3.039509">
      <ele>729.3</ele>
    </trkpt>
    <trkpt lat="42.618291" lon="-3.039532">
      <ele>727.4</ele>
    </trkpt>
    <trkpt lat="42.617898" lon="-3.039422">
      <ele>720.8</ele>
    </trkpt>
    <trkpt lat="42.617792" lon="-3.039434">
      <ele>719.2</ele>
    </trkpt>
    <trkpt lat="42.617549" lon="-3.039571">
      <ele>715.7</ele>
    </trkpt>
    <trkpt lat="42.617356" lon="-3.039449">
      <ele>713.2</ele>
    </trkpt>
    <trkpt lat="42.617288" lon="-3.039312">
      <ele>711.9</ele>
    </trkpt>
    <trkpt lat="42.617221" lon="-3.039293">
      <ele>711.2</ele>
    </trkpt>
    <trkpt lat="42.617004" lon="-3.03908">
      <ele>708.7</ele>
    </trkpt>
    <trkpt lat="42.616848" lon="-3.039517">
      <ele>705.9</ele>
    </trkpt>
    <trkpt lat="42.61679" lon="-3.039541">
      <ele>705.5</ele>
    </trkpt>
    <trkpt lat="42.616738" lon="-3.039562">
      <ele>705.1</ele>
    </trkpt>
    <trkpt lat="42.616218" lon="-3.038885">
      <ele>701.3</ele>
    </trkpt>
    <trkpt lat="42.616124" lon="-3.039005">
      <ele>700.7</ele>
    </trkpt>
    <trkpt lat="42.615975" lon="-3.038817">
      <ele>699.3</ele>
    </trkpt>
    <trkpt lat="42.615795" lon="-3.039103">
      <ele>697.4</ele>
    </trkpt>
    <trkpt lat="42.615278" lon="-3.038378">
      <ele>692</ele>
    </trkpt>
    <trkpt lat="42.615213" lon="-3.038297">
      <ele>691.5</ele>
    </trkpt>
    <trkpt lat="42.614755" lon="-3.037661">
      <ele>688</ele>
    </trkpt>
    </trkseg>
  </trk>
</gpx>
