<?xml version="1.0" encoding="UTF-8"?>
<gpx version="1.1" creator="fitAI Komoot downloader" xmlns="http://www.topografix.com/GPX/1/1">
  <metadata>
    <name>Iglesia de San Francisco y Colegiata de San Miguel - Recorrido circular desde Alfaro</name>
    <desc>56 visitas · Dificultad: moderate · Distancia: 64.9 km · Desnivel +: 555 m</desc>
    <link href="https://www.komoot.com/smarttour/e31476515"><text>Komoot</text></link>
  </metadata>
  <trk>
    <name>Iglesia de San Francisco y Colegiata de San Miguel - Recorrido circular desde Alfaro</name>
    <type>racebike</type>
    <trkseg>
    <trkpt lat="42.186274" lon="-1.74815">
      <ele>282.4</ele>
    </trkpt>
    <trkpt lat="42.186274" lon="-1.748152">
      <ele>282.4</ele>
    </trkpt>
    <trkpt lat="42.186204" lon="-1.748198">
      <ele>282.4</ele>
    </trkpt>
    <trkpt lat="42.186149" lon="-1.748132">
      <ele>282.4</ele>
    </trkpt>
    <trkpt lat="42.18592" lon="-1.748203">
      <ele>282.4</ele>
    </trkpt>
    <trkpt lat="42.185588" lon="-1.748192">
      <ele>282.4</ele>
    </trkpt>
    <trkpt lat="42.185033" lon="-1.748152">
      <ele>282.5</ele>
    </trkpt>
    <trkpt lat="42.184179" lon="-1.748133">
      <ele>282.6</ele>
    </trkpt>
    <trkpt lat="42.18393" lon="-1.748182">
      <ele>282.8</ele>
    </trkpt>
    <trkpt lat="42.183287" lon="-1.7484">
      <ele>284</ele>
    </trkpt>
    <trkpt lat="42.182998" lon="-1.748532">
      <ele>284.9</ele>
    </trkpt>
    <trkpt lat="42.182435" lon="-1.748787">
      <ele>287.6</ele>
    </trkpt>
    <trkpt lat="42.182324" lon="-1.748916">
      <ele>288.3</ele>
    </trkpt>
    <trkpt lat="42.182279" lon="-1.74897">
      <ele>288.6</ele>
    </trkpt>
    <trkpt lat="42.182025" lon="-1.749108">
      <ele>289.9</ele>
    </trkpt>
    <trkpt lat="42.181947" lon="-1.749109">
      <ele>290.3</ele>
    </trkpt>
    <trkpt lat="42.181818" lon="-1.749134">
      <ele>290.9</ele>
    </trkpt>
    <trkpt lat="42.181353" lon="-1.749601">
      <ele>293.2</ele>
    </trkpt>
    <trkpt lat="42.181253" lon="-1.749702">
      <ele>293.7</ele>
    </trkpt>
    <trkpt lat="42.180586" lon="-1.750365">
      <ele>296.4</ele>
    </trkpt>
    <trkpt lat="42.180333" lon="-1.749843">
      <ele>298.3</ele>
    </trkpt>
    <trkpt lat="42.180042" lon="-1.749035">
      <ele>300.7</ele>
    </trkpt>
    <trkpt lat="42.179831" lon="-1.749153">
      <ele>301.3</ele>
    </trkpt>
    <trkpt lat="42.179796" lon="-1.749207">
      <ele>301.4</ele>
    </trkpt>
    <trkpt lat="42.179697" lon="-1.749263">
      <ele>301.6</ele>
    </trkpt>
    <trkpt lat="42.179595" lon="-1.74932">
      <ele>301.7</ele>
    </trkpt>
    <trkpt lat="42.1796" lon="-1.749362">
      <ele>301.7</ele>
    </trkpt>
    <trkpt lat="42.179368" lon="-1.749417">
      <ele>302</ele>
    </trkpt>
    <trkpt lat="42.179596" lon="-1.750165">
      <ele>301.4</ele>
    </trkpt>
    <trkpt lat="42.179696" lon="-1.750492">
      <ele>300.9</ele>
    </trkpt>
    <trkpt lat="42.179739" lon="-1.750757">
      <ele>300.8</ele>
    </trkpt>
    <trkpt lat="42.17976" lon="-1.75102">
      <ele>300.5</ele>
    </trkpt>
    <trkpt lat="42.179766" lon="-1.75111">
      <ele>300.4</ele>
    </trkpt>
    <trkpt lat="42.179034" lon="-1.751871">
      <ele>301.7</ele>
    </trkpt>
    <trkpt lat="42.178908" lon="-1.75204">
      <ele>302.3</ele>
    </trkpt>
    <trkpt lat="42.178927" lon="-1.751866">
      <ele>302.8</ele>
    </trkpt>
    <trkpt lat="42.178957" lon="-1.751593">
      <ele>303.6</ele>
    </trkpt>
    <trkpt lat="42.179116" lon="-1.750759">
      <ele>305.7</ele>
    </trkpt>
    <trkpt lat="42.17918" lon="-1.750325">
      <ele>307</ele>
    </trkpt>
    <trkpt lat="42.179055" lon="-1.750043">
      <ele>307.5</ele>
    </trkpt>
    <trkpt lat="42.178779" lon="-1.74972">
      <ele>307.5</ele>
    </trkpt>
    <trkpt lat="42.178626" lon="-1.749542">
      <ele>307.5</ele>
    </trkpt>
    <trkpt lat="42.178471" lon="-1.749353">
      <ele>307.5</ele>
    </trkpt>
    <trkpt lat="42.178673" lon="-1.7491">
      <ele>307.3</ele>
    </trkpt>
    <trkpt lat="42.178717" lon="-1.749042">
      <ele>307.3</ele>
    </trkpt>
    <trkpt lat="42.178942" lon="-1.748744">
      <ele>307.3</ele>
    </trkpt>
    <trkpt lat="42.178977" lon="-1.748693">
      <ele>307.4</ele>
    </trkpt>
    <trkpt lat="42.178972" lon="-1.748656">
      <ele>307.5</ele>
    </trkpt>
    <trkpt lat="42.178951" lon="-1.748462">
      <ele>307.6</ele>
    </trkpt>
    <trkpt lat="42.179303" lon="-1.747854">
      <ele>307.6</ele>
    </trkpt>
    <trkpt lat="42.179328" lon="-1.747738">
      <ele>307.8</ele>
    </trkpt>
    <trkpt lat="42.179366" lon="-1.747428">
      <ele>308.1</ele>
    </trkpt>
    <trkpt lat="42.179123" lon="-1.74738">
      <ele>308.4</ele>
    </trkpt>
    <trkpt lat="42.178831" lon="-1.747165">
      <ele>308.6</ele>
    </trkpt>
    <trkpt lat="42.178655" lon="-1.747171">
      <ele>308.6</ele>
    </trkpt>
    <trkpt lat="42.178665" lon="-1.747357">
      <ele>308.5</ele>
    </trkpt>
    <trkpt lat="42.178676" lon="-1.747565">
      <ele>308.4</ele>
    </trkpt>
    <trkpt lat="42.178693" lon="-1.74789">
      <ele>308</ele>
    </trkpt>
    <trkpt lat="42.178674" lon="-1.748276">
      <ele>307.4</ele>
    </trkpt>
    <trkpt lat="42.178802" lon="-1.748468">
      <ele>306.9</ele>
    </trkpt>
    <trkpt lat="42.178972" lon="-1.748656">
      <ele>306.2</ele>
    </trkpt>
    <trkpt lat="42.178977" lon="-1.748693">
      <ele>306.1</ele>
    </trkpt>
    <trkpt lat="42.179499" lon="-1.748684">
      <ele>304.8</ele>
    </trkpt>
    <trkpt lat="42.179595" lon="-1.74932">
      <ele>303.4</ele>
    </trkpt>
    <trkpt lat="42.1796" lon="-1.749362">
      <ele>303.3</ele>
    </trkpt>
    <trkpt lat="42.179368" lon="-1.749417">
      <ele>302.8</ele>
    </trkpt>
    <trkpt lat="42.179596" lon="-1.750165">
      <ele>301.4</ele>
    </trkpt>
    <trkpt lat="42.179696" lon="-1.750492">
      <ele>300.9</ele>
    </trkpt>
    <trkpt lat="42.179739" lon="-1.750757">
      <ele>300.8</ele>
    </trkpt>
    <trkpt lat="42.17976" lon="-1.75102">
      <ele>300.5</ele>
    </trkpt>
    <trkpt lat="42.179766" lon="-1.75111">
      <ele>300.4</ele>
    </trkpt>
    <trkpt lat="42.179034" lon="-1.751871">
      <ele>300</ele>
    </trkpt>
    <trkpt lat="42.178908" lon="-1.75204">
      <ele>299.8</ele>
    </trkpt>
    <trkpt lat="42.178687" lon="-1.752401">
      <ele>299.2</ele>
    </trkpt>
    <trkpt lat="42.178646" lon="-1.752607">
      <ele>298.8</ele>
    </trkpt>
    <trkpt lat="42.178671" lon="-1.752752">
      <ele>298.5</ele>
    </trkpt>
    <trkpt lat="42.178758" lon="-1.752939">
      <ele>298</ele>
    </trkpt>
    <trkpt lat="42.178872" lon="-1.753184">
      <ele>297.2</ele>
    </trkpt>
    <trkpt lat="42.178898" lon="-1.753239">
      <ele>297.1</ele>
    </trkpt>
    <trkpt lat="42.179066" lon="-1.753574">
      <ele>295.8</ele>
    </trkpt>
    <trkpt lat="42.179221" lon="-1.753883">
      <ele>294.4</ele>
    </trkpt>
    <trkpt lat="42.179357" lon="-1.75423">
      <ele>293.1</ele>
    </trkpt>
    <trkpt lat="42.179443" lon="-1.754572">
      <ele>292.5</ele>
    </trkpt>
    <trkpt lat="42.179451" lon="-1.754731">
      <ele>292.2</ele>
    </trkpt>
    <trkpt lat="42.179403" lon="-1.754963">
      <ele>292</ele>
    </trkpt>
    <trkpt lat="42.179267" lon="-1.755205">
      <ele>291.9</ele>
    </trkpt>
    <trkpt lat="42.178723" lon="-1.7558">
      <ele>291.9</ele>
    </trkpt>
    <trkpt lat="42.178531" lon="-1.756016">
      <ele>292.2</ele>
    </trkpt>
    <trkpt lat="42.178422" lon="-1.756177">
      <ele>292.3</ele>
    </trkpt>
    <trkpt lat="42.178447" lon="-1.756228">
      <ele>292.3</ele>
    </trkpt>
    <trkpt lat="42.178457" lon="-1.756307">
      <ele>292.4</ele>
    </trkpt>
    <trkpt lat="42.178407" lon="-1.756418">
      <ele>292.4</ele>
    </trkpt>
    <trkpt lat="42.178756" lon="-1.756989">
      <ele>292.5</ele>
    </trkpt>
    <trkpt lat="42.178978" lon="-1.757361">
      <ele>292.2</ele>
    </trkpt>
    <trkpt lat="42.179949" lon="-1.758967">
      <ele>291.1</ele>
    </trkpt>
    <trkpt lat="42.180196" lon="-1.759387">
      <ele>291.2</ele>
    </trkpt>
    <trkpt lat="42.180245" lon="-1.759467">
      <ele>291.2</ele>
    </trkpt>
    <trkpt lat="42.180272" lon="-1.759512">
      <ele>291.2</ele>
    </trkpt>
    <trkpt lat="42.180716" lon="-1.759974">
      <ele>291.4</ele>
    </trkpt>
    <trkpt lat="42.180787" lon="-1.760108">
      <ele>291.5</ele>
    </trkpt>
    <trkpt lat="42.180761" lon="-1.760269">
      <ele>291.5</ele>
    </trkpt>
    <trkpt lat="42.180677" lon="-1.760348">
      <ele>291.6</ele>
    </trkpt>
    <trkpt lat="42.180625" lon="-1.760355">
      <ele>291.6</ele>
    </trkpt>
    <trkpt lat="42.180574" lon="-1.760337">
      <ele>291.7</ele>
    </trkpt>
    <trkpt lat="42.180138" lon="-1.76042">
      <ele>292</ele>
    </trkpt>
    <trkpt lat="42.179805" lon="-1.760532">
      <ele>292.2</ele>
    </trkpt>
    <trkpt lat="42.17994" lon="-1.761407">
      <ele>292.4</ele>
    </trkpt>
    <trkpt lat="42.179892" lon="-1.761696">
      <ele>292.6</ele>
    </trkpt>
    <trkpt lat="42.179786" lon="-1.761956">
      <ele>292.8</ele>
    </trkpt>
    <trkpt lat="42.177422" lon="-1.766215">
      <ele>294.4</ele>
    </trkpt>
    <trkpt lat="42.176412" lon="-1.768032">
      <ele>295.2</ele>
    </trkpt>
    <trkpt lat="42.175872" lon="-1.768978">
      <ele>295.3</ele>
    </trkpt>
    <trkpt lat="42.17319" lon="-1.773759">
      <ele>297.4</ele>
    </trkpt>
    <trkpt lat="42.170028" lon="-1.779396">
      <ele>303.9</ele>
    </trkpt>
    <trkpt lat="42.167608" lon="-1.783709">
      <ele>305.9</ele>
    </trkpt>
    <trkpt lat="42.16603" lon="-1.786523">
      <ele>305.3</ele>
    </trkpt>
    <trkpt lat="42.165787" lon="-1.786957">
      <ele>304.9</ele>
    </trkpt>
    <trkpt lat="42.164568" lon="-1.789128">
      <ele>302.6</ele>
    </trkpt>
    <trkpt lat="42.161436" lon="-1.794712">
      <ele>304.4</ele>
    </trkpt>
    <trkpt lat="42.158065" lon="-1.80072">
      <ele>308.3</ele>
    </trkpt>
    <trkpt lat="42.157894" lon="-1.801025">
      <ele>308.7</ele>
    </trkpt>
    <trkpt lat="42.157718" lon="-1.801338">
      <ele>309.2</ele>
    </trkpt>
    <trkpt lat="42.157209" lon="-1.802247">
      <ele>311.2</ele>
    </trkpt>
    <trkpt lat="42.157118" lon="-1.802408">
      <ele>311.5</ele>
    </trkpt>
    <trkpt lat="42.155145" lon="-1.805924">
      <ele>317.6</ele>
    </trkpt>
    <trkpt lat="42.154422" lon="-1.807479">
      <ele>319.9</ele>
    </trkpt>
    <trkpt lat="42.153815" lon="-1.808549">
      <ele>321.2</ele>
    </trkpt>
    <trkpt lat="42.153172" lon="-1.809599">
      <ele>322.4</ele>
    </trkpt>
    <trkpt lat="42.152212" lon="-1.811054">
      <ele>324.5</ele>
    </trkpt>
    <trkpt lat="42.152287" lon="-1.811149">
      <ele>324.6</ele>
    </trkpt>
    <trkpt lat="42.152342" lon="-1.811329">
      <ele>324.7</ele>
    </trkpt>
    <trkpt lat="42.152339" lon="-1.811466">
      <ele>324.8</ele>
    </trkpt>
    <trkpt lat="42.152311" lon="-1.811571">
      <ele>324.8</ele>
    </trkpt>
    <trkpt lat="42.152248" lon="-1.81168">
      <ele>324.9</ele>
    </trkpt>
    <trkpt lat="42.152162" lon="-1.811753">
      <ele>324.9</ele>
    </trkpt>
    <trkpt lat="42.152067" lon="-1.811782">
      <ele>325</ele>
    </trkpt>
    <trkpt lat="42.151965" lon="-1.811765">
      <ele>325</ele>
    </trkpt>
    <trkpt lat="42.151871" lon="-1.811703">
      <ele>325</ele>
    </trkpt>
    <trkpt lat="42.15179" lon="-1.811569">
      <ele>325</ele>
    </trkpt>
    <trkpt lat="42.151757" lon="-1.811406">
      <ele>325</ele>
    </trkpt>
    <trkpt lat="42.151801" lon="-1.811176">
      <ele>325</ele>
    </trkpt>
    <trkpt lat="42.149728" lon="-1.809735">
      <ele>324.2</ele>
    </trkpt>
    <trkpt lat="42.149268" lon="-1.809373">
      <ele>324</ele>
    </trkpt>
    <trkpt lat="42.148969" lon="-1.809091">
      <ele>323.8</ele>
    </trkpt>
    <trkpt lat="42.146083" lon="-1.806368">
      <ele>321</ele>
    </trkpt>
    <trkpt lat="42.139233" lon="-1.799946">
      <ele>320.3</ele>
    </trkpt>
    <trkpt lat="42.138692" lon="-1.799456">
      <ele>320.6</ele>
    </trkpt>
    <trkpt lat="42.138406" lon="-1.799197">
      <ele>320.8</ele>
    </trkpt>
    <trkpt lat="42.13502" lon="-1.7972">
      <ele>325.5</ele>
    </trkpt>
    <trkpt lat="42.133799" lon="-1.796514">
      <ele>328.8</ele>
    </trkpt>
    <trkpt lat="42.132719" lon="-1.795862">
      <ele>332.7</ele>
    </trkpt>
    <trkpt lat="42.132312" lon="-1.79566">
      <ele>334.5</ele>
    </trkpt>
    <trkpt lat="42.131885" lon="-1.795607">
      <ele>335.9</ele>
    </trkpt>
    <trkpt lat="42.131784" lon="-1.795639">
      <ele>336.2</ele>
    </trkpt>
    <trkpt lat="42.131681" lon="-1.795626">
      <ele>336.6</ele>
    </trkpt>
    <trkpt lat="42.131586" lon="-1.795569">
      <ele>336.9</ele>
    </trkpt>
    <trkpt lat="42.13151" lon="-1.795473">
      <ele>337.3</ele>
    </trkpt>
    <trkpt lat="42.13146" lon="-1.795351">
      <ele>337.6</ele>
    </trkpt>
    <trkpt lat="42.131116" lon="-1.794964">
      <ele>339.1</ele>
    </trkpt>
    <trkpt lat="42.130734" lon="-1.794744">
      <ele>340.4</ele>
    </trkpt>
    <trkpt lat="42.129216" lon="-1.79387">
      <ele>346.5</ele>
    </trkpt>
    <trkpt lat="42.126623" lon="-1.792386">
      <ele>358.5</ele>
    </trkpt>
    <trkpt lat="42.126303" lon="-1.792248">
      <ele>359.7</ele>
    </trkpt>
    <trkpt lat="42.125842" lon="-1.792172">
      <ele>361.1</ele>
    </trkpt>
    <trkpt lat="42.125384" lon="-1.792227">
      <ele>362.2</ele>
    </trkpt>
    <trkpt lat="42.125363" lon="-1.792231">
      <ele>362.3</ele>
    </trkpt>
    <trkpt lat="42.123909" lon="-1.792518">
      <ele>365.2</ele>
    </trkpt>
    <trkpt lat="42.123127" lon="-1.792672">
      <ele>366.4</ele>
    </trkpt>
    <trkpt lat="42.122822" lon="-1.792731">
      <ele>366.8</ele>
    </trkpt>
    <trkpt lat="42.122363" lon="-1.792886">
      <ele>367.6</ele>
    </trkpt>
    <trkpt lat="42.122239" lon="-1.79295">
      <ele>367.7</ele>
    </trkpt>
    <trkpt lat="42.120276" lon="-1.794517">
      <ele>374.1</ele>
    </trkpt>
    <trkpt lat="42.119829" lon="-1.794831">
      <ele>375.9</ele>
    </trkpt>
    <trkpt lat="42.119418" lon="-1.795163">
      <ele>377.3</ele>
    </trkpt>
    <trkpt lat="42.119282" lon="-1.795275">
      <ele>377.7</ele>
    </trkpt>
    <trkpt lat="42.119296" lon="-1.795342">
      <ele>377.8</ele>
    </trkpt>
    <trkpt lat="42.119259" lon="-1.795436">
      <ele>378</ele>
    </trkpt>
    <trkpt lat="42.119181" lon="-1.795452">
      <ele>378.1</ele>
    </trkpt>
    <trkpt lat="42.119133" lon="-1.795407">
      <ele>378.3</ele>
    </trkpt>
    <trkpt lat="42.11911" lon="-1.795319">
      <ele>378.4</ele>
    </trkpt>
    <trkpt lat="42.119143" lon="-1.79526">
      <ele>378.5</ele>
    </trkpt>
    <trkpt lat="42.119007" lon="-1.795104">
      <ele>378.8</ele>
    </trkpt>
    <trkpt lat="42.118987" lon="-1.795141">
      <ele>378.8</ele>
    </trkpt>
    <trkpt lat="42.119054" lon="-1.795206">
      <ele>379</ele>
    </trkpt>
    <trkpt lat="42.119065" lon="-1.795257">
      <ele>379</ele>
    </trkpt>
    <trkpt lat="42.119025" lon="-1.795321">
      <ele>379.1</ele>
    </trkpt>
    <trkpt lat="42.118695" lon="-1.795479">
      <ele>379.4</ele>
    </trkpt>
    <trkpt lat="42.117446" lon="-1.796029">
      <ele>380</ele>
    </trkpt>
    <trkpt lat="42.117356" lon="-1.796031">
      <ele>380.1</ele>
    </trkpt>
    <trkpt lat="42.117314" lon="-1.796051">
      <ele>380.1</ele>
    </trkpt>
    <trkpt lat="42.117298" lon="-1.796091">
      <ele>380.1</ele>
    </trkpt>
    <trkpt lat="42.116847" lon="-1.796293">
      <ele>380.3</ele>
    </trkpt>
    <trkpt lat="42.116616" lon="-1.796377">
      <ele>380.5</ele>
    </trkpt>
    <trkpt lat="42.116412" lon="-1.796488">
      <ele>380.6</ele>
    </trkpt>
    <trkpt lat="42.115948" lon="-1.796692">
      <ele>380.9</ele>
    </trkpt>
    <trkpt lat="42.115905" lon="-1.796666">
      <ele>380.9</ele>
    </trkpt>
    <trkpt lat="42.115872" lon="-1.796684">
      <ele>380.9</ele>
    </trkpt>
    <trkpt lat="42.115748" lon="-1.796781">
      <ele>381</ele>
    </trkpt>
    <trkpt lat="42.114514" lon="-1.797327">
      <ele>381.7</ele>
    </trkpt>
    <trkpt lat="42.114329" lon="-1.79741">
      <ele>381.8</ele>
    </trkpt>
    <trkpt lat="42.114235" lon="-1.797405">
      <ele>381.8</ele>
    </trkpt>
    <trkpt lat="42.114145" lon="-1.797488">
      <ele>381.8</ele>
    </trkpt>
    <trkpt lat="42.114027" lon="-1.79754">
      <ele>381.9</ele>
    </trkpt>
    <trkpt lat="42.112986" lon="-1.798004">
      <ele>382.2</ele>
    </trkpt>
    <trkpt lat="42.112901" lon="-1.797999">
      <ele>382.3</ele>
    </trkpt>
    <trkpt lat="42.112841" lon="-1.798069">
      <ele>382.3</ele>
    </trkpt>
    <trkpt lat="42.11156" lon="-1.798641">
      <ele>382.6</ele>
    </trkpt>
    <trkpt lat="42.111572" lon="-1.798685">
      <ele>382.6</ele>
    </trkpt>
    <trkpt lat="42.111604" lon="-1.798807">
      <ele>382.7</ele>
    </trkpt>
    <trkpt lat="42.111476" lon="-1.798865">
      <ele>382.8</ele>
    </trkpt>
    <trkpt lat="42.111271" lon="-1.799006">
      <ele>382.9</ele>
    </trkpt>
    <trkpt lat="42.111263" lon="-1.799046">
      <ele>382.9</ele>
    </trkpt>
    <trkpt lat="42.111196" lon="-1.799123">
      <ele>383</ele>
    </trkpt>
    <trkpt lat="42.111137" lon="-1.799117">
      <ele>383</ele>
    </trkpt>
    <trkpt lat="42.111091" lon="-1.799068">
      <ele>383.1</ele>
    </trkpt>
    <trkpt lat="42.110875" lon="-1.798988">
      <ele>383.2</ele>
    </trkpt>
    <trkpt lat="42.109172" lon="-1.799753">
      <ele>384.2</ele>
    </trkpt>
    <trkpt lat="42.105737" lon="-1.801268">
      <ele>384.4</ele>
    </trkpt>
    <trkpt lat="42.105401" lon="-1.80143">
      <ele>384.3</ele>
    </trkpt>
    <trkpt lat="42.104818" lon="-1.801787">
      <ele>383.9</ele>
    </trkpt>
    <trkpt lat="42.10472" lon="-1.801845">
      <ele>383.8</ele>
    </trkpt>
    <trkpt lat="42.102904" lon="-1.802913">
      <ele>383.3</ele>
    </trkpt>
    <trkpt lat="42.102744" lon="-1.803">
      <ele>383.4</ele>
    </trkpt>
    <trkpt lat="42.102264" lon="-1.803274">
      <ele>383.7</ele>
    </trkpt>
    <trkpt lat="42.101379" lon="-1.803795">
      <ele>383.6</ele>
    </trkpt>
    <trkpt lat="42.101074" lon="-1.803919">
      <ele>383.1</ele>
    </trkpt>
    <trkpt lat="42.099692" lon="-1.804443">
      <ele>379.7</ele>
    </trkpt>
    <trkpt lat="42.099158" lon="-1.804645">
      <ele>378.6</ele>
    </trkpt>
    <trkpt lat="42.098476" lon="-1.804904">
      <ele>377.6</ele>
    </trkpt>
    <trkpt lat="42.098299" lon="-1.804971">
      <ele>377.4</ele>
    </trkpt>
    <trkpt lat="42.098" lon="-1.805084">
      <ele>377.3</ele>
    </trkpt>
    <trkpt lat="42.097818" lon="-1.805189">
      <ele>377.2</ele>
    </trkpt>
    <trkpt lat="42.097558" lon="-1.805428">
      <ele>377</ele>
    </trkpt>
    <trkpt lat="42.096734" lon="-1.806454">
      <ele>376.5</ele>
    </trkpt>
    <trkpt lat="42.096439" lon="-1.806741">
      <ele>376.6</ele>
    </trkpt>
    <trkpt lat="42.096291" lon="-1.806873">
      <ele>376.7</ele>
    </trkpt>
    <trkpt lat="42.095404" lon="-1.807492">
      <ele>377.3</ele>
    </trkpt>
    <trkpt lat="42.09536" lon="-1.807522">
      <ele>377.4</ele>
    </trkpt>
    <trkpt lat="42.095232" lon="-1.807612">
      <ele>377.5</ele>
    </trkpt>
    <trkpt lat="42.095012" lon="-1.807767">
      <ele>377.8</ele>
    </trkpt>
    <trkpt lat="42.094719" lon="-1.807975">
      <ele>378</ele>
    </trkpt>
    <trkpt lat="42.094426" lon="-1.808232">
      <ele>378.2</ele>
    </trkpt>
    <trkpt lat="42.094209" lon="-1.808493">
      <ele>378.4</ele>
    </trkpt>
    <trkpt lat="42.093928" lon="-1.808923">
      <ele>378.8</ele>
    </trkpt>
    <trkpt lat="42.093743" lon="-1.809108">
      <ele>378.9</ele>
    </trkpt>
    <trkpt lat="42.093037" lon="-1.809543">
      <ele>379.8</ele>
    </trkpt>
    <trkpt lat="42.091523" lon="-1.810472">
      <ele>382.9</ele>
    </trkpt>
    <trkpt lat="42.091137" lon="-1.810761">
      <ele>383.8</ele>
    </trkpt>
    <trkpt lat="42.090938" lon="-1.810951">
      <ele>384.3</ele>
    </trkpt>
    <trkpt lat="42.090597" lon="-1.811324">
      <ele>385.1</ele>
    </trkpt>
    <trkpt lat="42.089157" lon="-1.813379">
      <ele>387.2</ele>
    </trkpt>
    <trkpt lat="42.089019" lon="-1.813522">
      <ele>387</ele>
    </trkpt>
    <trkpt lat="42.08888" lon="-1.81362">
      <ele>386.8</ele>
    </trkpt>
    <trkpt lat="42.088831" lon="-1.813653">
      <ele>386.7</ele>
    </trkpt>
    <trkpt lat="42.088144" lon="-1.814043">
      <ele>385.8</ele>
    </trkpt>
    <trkpt lat="42.087986" lon="-1.814184">
      <ele>385.6</ele>
    </trkpt>
    <trkpt lat="42.087852" lon="-1.814318">
      <ele>385.5</ele>
    </trkpt>
    <trkpt lat="42.086722" lon="-1.815782">
      <ele>387.6</ele>
    </trkpt>
    <trkpt lat="42.086317" lon="-1.816178">
      <ele>388.9</ele>
    </trkpt>
    <trkpt lat="42.086049" lon="-1.816329">
      <ele>389.5</ele>
    </trkpt>
    <trkpt lat="42.085559" lon="-1.816539">
      <ele>390.4</ele>
    </trkpt>
    <trkpt lat="42.085376" lon="-1.816646">
      <ele>390.6</ele>
    </trkpt>
    <trkpt lat="42.084738" lon="-1.817258">
      <ele>391.5</ele>
    </trkpt>
    <trkpt lat="42.084581" lon="-1.817523">
      <ele>392</ele>
    </trkpt>
    <trkpt lat="42.084499" lon="-1.817816">
      <ele>392.5</ele>
    </trkpt>
    <trkpt lat="42.084432" lon="-1.818227">
      <ele>393.4</ele>
    </trkpt>
    <trkpt lat="42.084384" lon="-1.818374">
      <ele>393.7</ele>
    </trkpt>
    <trkpt lat="42.084249" lon="-1.818644">
      <ele>394.5</ele>
    </trkpt>
    <trkpt lat="42.083851" lon="-1.819259">
      <ele>396.7</ele>
    </trkpt>
    <trkpt lat="42.083602" lon="-1.819711">
      <ele>398</ele>
    </trkpt>
    <trkpt lat="42.083494" lon="-1.819908">
      <ele>398.4</ele>
    </trkpt>
    <trkpt lat="42.080921" lon="-1.824582">
      <ele>403.5</ele>
    </trkpt>
    <trkpt lat="42.080666" lon="-1.825">
      <ele>403.4</ele>
    </trkpt>
    <trkpt lat="42.080286" lon="-1.825578">
      <ele>403.5</ele>
    </trkpt>
    <trkpt lat="42.079876" lon="-1.82616">
      <ele>403.4</ele>
    </trkpt>
    <trkpt lat="42.079772" lon="-1.826307">
      <ele>403.3</ele>
    </trkpt>
    <trkpt lat="42.07897" lon="-1.827445">
      <ele>403.7</ele>
    </trkpt>
    <trkpt lat="42.078087" lon="-1.828698">
      <ele>403.4</ele>
    </trkpt>
    <trkpt lat="42.07716" lon="-1.830039">
      <ele>403.3</ele>
    </trkpt>
    <trkpt lat="42.076736" lon="-1.830875">
      <ele>403.3</ele>
    </trkpt>
    <trkpt lat="42.075698" lon="-1.833332">
      <ele>404.8</ele>
    </trkpt>
    <trkpt lat="42.07533" lon="-1.834202">
      <ele>406.3</ele>
    </trkpt>
    <trkpt lat="42.075183" lon="-1.834505">
      <ele>407</ele>
    </trkpt>
    <trkpt lat="42.074828" lon="-1.835169">
      <ele>408.6</ele>
    </trkpt>
    <trkpt lat="42.072593" lon="-1.838692">
      <ele>416.4</ele>
    </trkpt>
    <trkpt lat="42.072319" lon="-1.839081">
      <ele>417.6</ele>
    </trkpt>
    <trkpt lat="42.072057" lon="-1.839359">
      <ele>418.7</ele>
    </trkpt>
    <trkpt lat="42.071706" lon="-1.839637">
      <ele>420.1</ele>
    </trkpt>
    <trkpt lat="42.071278" lon="-1.839922">
      <ele>421.6</ele>
    </trkpt>
    <trkpt lat="42.070922" lon="-1.84016">
      <ele>422.9</ele>
    </trkpt>
    <trkpt lat="42.070602" lon="-1.840473">
      <ele>424</ele>
    </trkpt>
    <trkpt lat="42.069942" lon="-1.841211">
      <ele>425.8</ele>
    </trkpt>
    <trkpt lat="42.06939" lon="-1.841951">
      <ele>427.1</ele>
    </trkpt>
    <trkpt lat="42.068978" lon="-1.842552">
      <ele>427.7</ele>
    </trkpt>
    <trkpt lat="42.067968" lon="-1.844036">
      <ele>428.2</ele>
    </trkpt>
    <trkpt lat="42.067632" lon="-1.844592">
      <ele>428.3</ele>
    </trkpt>
    <trkpt lat="42.067475" lon="-1.844917">
      <ele>428.4</ele>
    </trkpt>
    <trkpt lat="42.067214" lon="-1.845579">
      <ele>428.9</ele>
    </trkpt>
    <trkpt lat="42.067075" lon="-1.846038">
      <ele>429.3</ele>
    </trkpt>
    <trkpt lat="42.066698" lon="-1.847328">
      <ele>431.2</ele>
    </trkpt>
    <trkpt lat="42.066519" lon="-1.847817">
      <ele>431.9</ele>
    </trkpt>
    <trkpt lat="42.066212" lon="-1.848499">
      <ele>432.9</ele>
    </trkpt>
    <trkpt lat="42.066045" lon="-1.848784">
      <ele>433.4</ele>
    </trkpt>
    <trkpt lat="42.065272" lon="-1.849933">
      <ele>436.3</ele>
    </trkpt>
    <trkpt lat="42.065103" lon="-1.850183">
      <ele>437.1</ele>
    </trkpt>
    <trkpt lat="42.064841" lon="-1.850656">
      <ele>438.6</ele>
    </trkpt>
    <trkpt lat="42.064622" lon="-1.851115">
      <ele>439.9</ele>
    </trkpt>
    <trkpt lat="42.064538" lon="-1.851292">
      <ele>440.4</ele>
    </trkpt>
    <trkpt lat="42.064315" lon="-1.851758">
      <ele>441.4</ele>
    </trkpt>
    <trkpt lat="42.064012" lon="-1.852392">
      <ele>442.5</ele>
    </trkpt>
    <trkpt lat="42.063781" lon="-1.852976">
      <ele>443.5</ele>
    </trkpt>
    <trkpt lat="42.063597" lon="-1.853544">
      <ele>444.5</ele>
    </trkpt>
    <trkpt lat="42.06324" lon="-1.854973">
      <ele>446.7</ele>
    </trkpt>
    <trkpt lat="42.06308" lon="-1.855556">
      <ele>446.8</ele>
    </trkpt>
    <trkpt lat="42.062777" lon="-1.856108">
      <ele>446.4</ele>
    </trkpt>
    <trkpt lat="42.062401" lon="-1.856728">
      <ele>445.4</ele>
    </trkpt>
    <trkpt lat="42.061908" lon="-1.857539">
      <ele>443.7</ele>
    </trkpt>
    <trkpt lat="42.061842" lon="-1.857628">
      <ele>443.5</ele>
    </trkpt>
    <trkpt lat="42.061573" lon="-1.857979">
      <ele>442.6</ele>
    </trkpt>
    <trkpt lat="42.061528" lon="-1.858019">
      <ele>442.6</ele>
    </trkpt>
    <trkpt lat="42.06121" lon="-1.858259">
      <ele>441.8</ele>
    </trkpt>
    <trkpt lat="42.060978" lon="-1.858491">
      <ele>441</ele>
    </trkpt>
    <trkpt lat="42.060883" lon="-1.858727">
      <ele>440.5</ele>
    </trkpt>
    <trkpt lat="42.06077" lon="-1.859139">
      <ele>439.6</ele>
    </trkpt>
    <trkpt lat="42.060718" lon="-1.859239">
      <ele>439.3</ele>
    </trkpt>
    <trkpt lat="42.06063" lon="-1.859344">
      <ele>439</ele>
    </trkpt>
    <trkpt lat="42.060432" lon="-1.859461">
      <ele>438.4</ele>
    </trkpt>
    <trkpt lat="42.059847" lon="-1.859593">
      <ele>436.7</ele>
    </trkpt>
    <trkpt lat="42.059128" lon="-1.859747">
      <ele>434.1</ele>
    </trkpt>
    <trkpt lat="42.058967" lon="-1.859757">
      <ele>433.5</ele>
    </trkpt>
    <trkpt lat="42.057991" lon="-1.859501">
      <ele>430.2</ele>
    </trkpt>
    <trkpt lat="42.057499" lon="-1.859411">
      <ele>429.1</ele>
    </trkpt>
    <trkpt lat="42.057215" lon="-1.859359">
      <ele>428.5</ele>
    </trkpt>
    <trkpt lat="42.057251" lon="-1.859107">
      <ele>428.1</ele>
    </trkpt>
    <trkpt lat="42.057272" lon="-1.859071">
      <ele>428</ele>
    </trkpt>
    <trkpt lat="42.05731" lon="-1.858764">
      <ele>427.6</ele>
    </trkpt>
    <trkpt lat="42.057334" lon="-1.858567">
      <ele>427.3</ele>
    </trkpt>
    <trkpt lat="42.057394" lon="-1.858106">
      <ele>426.5</ele>
    </trkpt>
    <trkpt lat="42.056829" lon="-1.857969">
      <ele>425.1</ele>
    </trkpt>
    <trkpt lat="42.056963" lon="-1.857001">
      <ele>423.5</ele>
    </trkpt>
    <trkpt lat="42.056789" lon="-1.856967">
      <ele>423.2</ele>
    </trkpt>
    <trkpt lat="42.056717" lon="-1.856938">
      <ele>423.1</ele>
    </trkpt>
    <trkpt lat="42.056746" lon="-1.856671">
      <ele>422.9</ele>
    </trkpt>
    <trkpt lat="42.056705" lon="-1.856655">
      <ele>422.9</ele>
    </trkpt>
    <trkpt lat="42.056717" lon="-1.856539">
      <ele>422.9</ele>
    </trkpt>
    <trkpt lat="42.056644" lon="-1.856524">
      <ele>422.9</ele>
    </trkpt>
    <trkpt lat="42.056717" lon="-1.856539">
      <ele>422.9</ele>
    </trkpt>
    <trkpt lat="42.056705" lon="-1.856655">
      <ele>422.9</ele>
    </trkpt>
    <trkpt lat="42.056746" lon="-1.856671">
      <ele>422.9</ele>
    </trkpt>
    <trkpt lat="42.056717" lon="-1.856938">
      <ele>423.1</ele>
    </trkpt>
    <trkpt lat="42.056789" lon="-1.856967">
      <ele>423.2</ele>
    </trkpt>
    <trkpt lat="42.056963" lon="-1.857001">
      <ele>423.5</ele>
    </trkpt>
    <trkpt lat="42.056829" lon="-1.857969">
      <ele>425</ele>
    </trkpt>
    <trkpt lat="42.056745" lon="-1.858508">
      <ele>425.7</ele>
    </trkpt>
    <trkpt lat="42.056705" lon="-1.85872">
      <ele>425.8</ele>
    </trkpt>
    <trkpt lat="42.05668" lon="-1.859052">
      <ele>425.7</ele>
    </trkpt>
    <trkpt lat="42.056671" lon="-1.859134">
      <ele>425.7</ele>
    </trkpt>
    <trkpt lat="42.056664" lon="-1.859297">
      <ele>425.6</ele>
    </trkpt>
    <trkpt lat="42.056285" lon="-1.859259">
      <ele>425.3</ele>
    </trkpt>
    <trkpt lat="42.05621" lon="-1.859253">
      <ele>425.1</ele>
    </trkpt>
    <trkpt lat="42.055943" lon="-1.859265">
      <ele>424.6</ele>
    </trkpt>
    <trkpt lat="42.055862" lon="-1.859368">
      <ele>424.3</ele>
    </trkpt>
    <trkpt lat="42.055823" lon="-1.859931">
      <ele>423.3</ele>
    </trkpt>
    <trkpt lat="42.055907" lon="-1.86054">
      <ele>422.4</ele>
    </trkpt>
    <trkpt lat="42.05591" lon="-1.860772">
      <ele>422.2</ele>
    </trkpt>
    <trkpt lat="42.055777" lon="-1.862031">
      <ele>421.6</ele>
    </trkpt>
    <trkpt lat="42.055766" lon="-1.862285">
      <ele>421.6</ele>
    </trkpt>
    <trkpt lat="42.05578" lon="-1.862408">
      <ele>421.6</ele>
    </trkpt>
    <trkpt lat="42.05579" lon="-1.862497">
      <ele>421.6</ele>
    </trkpt>
    <trkpt lat="42.055809" lon="-1.862571">
      <ele>421.6</ele>
    </trkpt>
    <trkpt lat="42.05579" lon="-1.862647">
      <ele>421.6</ele>
    </trkpt>
    <trkpt lat="42.055765" lon="-1.862818">
      <ele>421.6</ele>
    </trkpt>
    <trkpt lat="42.055766" lon="-1.864122">
      <ele>422.5</ele>
    </trkpt>
    <trkpt lat="42.055766" lon="-1.864137">
      <ele>422.5</ele>
    </trkpt>
    <trkpt lat="42.055768" lon="-1.865452">
      <ele>425</ele>
    </trkpt>
    <trkpt lat="42.055796" lon="-1.866337">
      <ele>427.6</ele>
    </trkpt>
    <trkpt lat="42.055859" lon="-1.866603">
      <ele>428.5</ele>
    </trkpt>
    <trkpt lat="42.056015" lon="-1.867155">
      <ele>430.6</ele>
    </trkpt>
    <trkpt lat="42.056293" lon="-1.868366">
      <ele>435.2</ele>
    </trkpt>
    <trkpt lat="42.056519" lon="-1.869111">
      <ele>438</ele>
    </trkpt>
    <trkpt lat="42.056966" lon="-1.870271">
      <ele>441.5</ele>
    </trkpt>
    <trkpt lat="42.057047" lon="-1.870644">
      <ele>442.3</ele>
    </trkpt>
    <trkpt lat="42.05708" lon="-1.871222">
      <ele>443.1</ele>
    </trkpt>
    <trkpt lat="42.057066" lon="-1.872394">
      <ele>444.2</ele>
    </trkpt>
    <trkpt lat="42.057002" lon="-1.87282">
      <ele>444.6</ele>
    </trkpt>
    <trkpt lat="42.056929" lon="-1.873088">
      <ele>444.8</ele>
    </trkpt>
    <trkpt lat="42.056533" lon="-1.874058">
      <ele>445.3</ele>
    </trkpt>
    <trkpt lat="42.056461" lon="-1.874346">
      <ele>445.4</ele>
    </trkpt>
    <trkpt lat="42.056404" lon="-1.874808">
      <ele>445.3</ele>
    </trkpt>
    <trkpt lat="42.056423" lon="-1.875893">
      <ele>444.6</ele>
    </trkpt>
    <trkpt lat="42.056367" lon="-1.876432">
      <ele>444.2</ele>
    </trkpt>
    <trkpt lat="42.056243" lon="-1.876937">
      <ele>444</ele>
    </trkpt>
    <trkpt lat="42.055716" lon="-1.878396">
      <ele>444.1</ele>
    </trkpt>
    <trkpt lat="42.055605" lon="-1.878936">
      <ele>444.4</ele>
    </trkpt>
    <trkpt lat="42.055567" lon="-1.879571">
      <ele>444.8</ele>
    </trkpt>
    <trkpt lat="42.05563" lon="-1.880257">
      <ele>445.3</ele>
    </trkpt>
    <trkpt lat="42.055785" lon="-1.88113">
      <ele>445.7</ele>
    </trkpt>
    <trkpt lat="42.056051" lon="-1.882254">
      <ele>445.8</ele>
    </trkpt>
    <trkpt lat="42.056134" lon="-1.882896">
      <ele>445.6</ele>
    </trkpt>
    <trkpt lat="42.056146" lon="-1.883182">
      <ele>445.5</ele>
    </trkpt>
    <trkpt lat="42.056117" lon="-1.883772">
      <ele>445.3</ele>
    </trkpt>
    <trkpt lat="42.056035" lon="-1.884682">
      <ele>445.5</ele>
    </trkpt>
    <trkpt lat="42.056009" lon="-1.885422">
      <ele>446.3</ele>
    </trkpt>
    <trkpt lat="42.056043" lon="-1.886077">
      <ele>447.3</ele>
    </trkpt>
    <trkpt lat="42.056111" lon="-1.88675">
      <ele>448.4</ele>
    </trkpt>
    <trkpt lat="42.056416" lon="-1.889318">
      <ele>450</ele>
    </trkpt>
    <trkpt lat="42.056536" lon="-1.889899">
      <ele>449.7</ele>
    </trkpt>
    <trkpt lat="42.05678" lon="-1.890823">
      <ele>449.1</ele>
    </trkpt>
    <trkpt lat="42.056884" lon="-1.891262">
      <ele>449</ele>
    </trkpt>
    <trkpt lat="42.057011" lon="-1.891999">
      <ele>449.1</ele>
    </trkpt>
    <trkpt lat="42.05705" lon="-1.892351">
      <ele>449.3</ele>
    </trkpt>
    <trkpt lat="42.057086" lon="-1.893086">
      <ele>450</ele>
    </trkpt>
    <trkpt lat="42.057136" lon="-1.894533">
      <ele>451</ele>
    </trkpt>
    <trkpt lat="42.05719" lon="-1.895227">
      <ele>450.9</ele>
    </trkpt>
    <trkpt lat="42.057283" lon="-1.895804">
      <ele>450.6</ele>
    </trkpt>
    <trkpt lat="42.057403" lon="-1.896289">
      <ele>450.2</ele>
    </trkpt>
    <trkpt lat="42.057572" lon="-1.896794">
      <ele>449.8</ele>
    </trkpt>
    <trkpt lat="42.057882" lon="-1.897682">
      <ele>449.7</ele>
    </trkpt>
    <trkpt lat="42.057949" lon="-1.898106">
      <ele>449.8</ele>
    </trkpt>
    <trkpt lat="42.05799" lon="-1.898957">
      <ele>449.7</ele>
    </trkpt>
    <trkpt lat="42.058004" lon="-1.899645">
      <ele>449.7</ele>
    </trkpt>
    <trkpt lat="42.057963" lon="-1.900036">
      <ele>449.8</ele>
    </trkpt>
    <trkpt lat="42.057872" lon="-1.900426">
      <ele>449.8</ele>
    </trkpt>
    <trkpt lat="42.057697" lon="-1.901217">
      <ele>449.9</ele>
    </trkpt>
    <trkpt lat="42.057571" lon="-1.902292">
      <ele>451</ele>
    </trkpt>
    <trkpt lat="42.057305" lon="-1.903418">
      <ele>451.4</ele>
    </trkpt>
    <trkpt lat="42.057062" lon="-1.904698">
      <ele>451.5</ele>
    </trkpt>
    <trkpt lat="42.057043" lon="-1.904799">
      <ele>451.6</ele>
    </trkpt>
    <trkpt lat="42.056856" lon="-1.905747">
      <ele>451.8</ele>
    </trkpt>
    <trkpt lat="42.056706" lon="-1.906351">
      <ele>452.2</ele>
    </trkpt>
    <trkpt lat="42.05668" lon="-1.906525">
      <ele>452.3</ele>
    </trkpt>
    <trkpt lat="42.056679" lon="-1.907204">
      <ele>452.9</ele>
    </trkpt>
    <trkpt lat="42.056664" lon="-1.907306">
      <ele>453</ele>
    </trkpt>
    <trkpt lat="42.056643" lon="-1.907411">
      <ele>453.1</ele>
    </trkpt>
    <trkpt lat="42.056608" lon="-1.907555">
      <ele>453.2</ele>
    </trkpt>
    <trkpt lat="42.056577" lon="-1.90766">
      <ele>453.3</ele>
    </trkpt>
    <trkpt lat="42.056487" lon="-1.907992">
      <ele>453.5</ele>
    </trkpt>
    <trkpt lat="42.056467" lon="-1.908063">
      <ele>453.5</ele>
    </trkpt>
    <trkpt lat="42.056447" lon="-1.908141">
      <ele>453.6</ele>
    </trkpt>
    <trkpt lat="42.056283" lon="-1.908742">
      <ele>454</ele>
    </trkpt>
    <trkpt lat="42.056238" lon="-1.908904">
      <ele>454.1</ele>
    </trkpt>
    <trkpt lat="42.056109" lon="-1.909301">
      <ele>454.4</ele>
    </trkpt>
    <trkpt lat="42.055935" lon="-1.909648">
      <ele>454.5</ele>
    </trkpt>
    <trkpt lat="42.055692" lon="-1.909993">
      <ele>454.5</ele>
    </trkpt>
    <trkpt lat="42.055119" lon="-1.910689">
      <ele>454.6</ele>
    </trkpt>
    <trkpt lat="42.054645" lon="-1.911122">
      <ele>454.5</ele>
    </trkpt>
    <trkpt lat="42.054159" lon="-1.911691">
      <ele>454.5</ele>
    </trkpt>
    <trkpt lat="42.053908" lon="-1.912146">
      <ele>454.5</ele>
    </trkpt>
    <trkpt lat="42.053581" lon="-1.912943">
      <ele>455.1</ele>
    </trkpt>
    <trkpt lat="42.053568" lon="-1.913029">
      <ele>455.1</ele>
    </trkpt>
    <trkpt lat="42.053585" lon="-1.913191">
      <ele>455.2</ele>
    </trkpt>
    <trkpt lat="42.053678" lon="-1.913392">
      <ele>455.3</ele>
    </trkpt>
    <trkpt lat="42.053689" lon="-1.913628">
      <ele>455.4</ele>
    </trkpt>
    <trkpt lat="42.053643" lon="-1.913793">
      <ele>455.5</ele>
    </trkpt>
    <trkpt lat="42.053556" lon="-1.913924">
      <ele>455.6</ele>
    </trkpt>
    <trkpt lat="42.053435" lon="-1.914008">
      <ele>455.6</ele>
    </trkpt>
    <trkpt lat="42.053234" lon="-1.914009">
      <ele>455.8</ele>
    </trkpt>
    <trkpt lat="42.05303" lon="-1.914142">
      <ele>455.9</ele>
    </trkpt>
    <trkpt lat="42.052322" lon="-1.914992">
      <ele>455.6</ele>
    </trkpt>
    <trkpt lat="42.052228" lon="-1.915065">
      <ele>455.6</ele>
    </trkpt>
    <trkpt lat="42.051802" lon="-1.915623">
      <ele>455.8</ele>
    </trkpt>
    <trkpt lat="42.051607" lon="-1.915966">
      <ele>456</ele>
    </trkpt>
    <trkpt lat="42.051414" lon="-1.916384">
      <ele>456.3</ele>
    </trkpt>
    <trkpt lat="42.051102" lon="-1.917263">
      <ele>457.2</ele>
    </trkpt>
    <trkpt lat="42.050846" lon="-1.918243">
      <ele>458.1</ele>
    </trkpt>
    <trkpt lat="42.050626" lon="-1.918781">
      <ele>458.6</ele>
    </trkpt>
    <trkpt lat="42.050225" lon="-1.919625">
      <ele>459.3</ele>
    </trkpt>
    <trkpt lat="42.050115" lon="-1.920012">
      <ele>459.6</ele>
    </trkpt>
    <trkpt lat="42.05002" lon="-1.920483">
      <ele>460</ele>
    </trkpt>
    <trkpt lat="42.049936" lon="-1.92481">
      <ele>463.7</ele>
    </trkpt>
    <trkpt lat="42.049988" lon="-1.925236">
      <ele>464.4</ele>
    </trkpt>
    <trkpt lat="42.050056" lon="-1.925506">
      <ele>464.8</ele>
    </trkpt>
    <trkpt lat="42.050084" lon="-1.925528">
      <ele>464.9</ele>
    </trkpt>
    <trkpt lat="42.050167" lon="-1.925734">
      <ele>465.3</ele>
    </trkpt>
    <trkpt lat="42.050169" lon="-1.925886">
      <ele>465.5</ele>
    </trkpt>
    <trkpt lat="42.050144" lon="-1.925959">
      <ele>465.7</ele>
    </trkpt>
    <trkpt lat="42.050114" lon="-1.926193">
      <ele>466.1</ele>
    </trkpt>
    <trkpt lat="42.050123" lon="-1.926471">
      <ele>466.6</ele>
    </trkpt>
    <trkpt lat="42.050669" lon="-1.928522">
      <ele>469.7</ele>
    </trkpt>
    <trkpt lat="42.050685" lon="-1.929416">
      <ele>470.9</ele>
    </trkpt>
    <trkpt lat="42.05092" lon="-1.930232">
      <ele>472.4</ele>
    </trkpt>
    <trkpt lat="42.052034" lon="-1.93279">
      <ele>478.5</ele>
    </trkpt>
    <trkpt lat="42.052725" lon="-1.935818">
      <ele>485.3</ele>
    </trkpt>
    <trkpt lat="42.052882" lon="-1.938109">
      <ele>488</ele>
    </trkpt>
    <trkpt lat="42.053991" lon="-1.943402">
      <ele>488.9</ele>
    </trkpt>
    <trkpt lat="42.054075" lon="-1.943813">
      <ele>489.4</ele>
    </trkpt>
    <trkpt lat="42.054327" lon="-1.945046">
      <ele>490.9</ele>
    </trkpt>
    <trkpt lat="42.054513" lon="-1.94564">
      <ele>491.4</ele>
    </trkpt>
    <trkpt lat="42.054714" lon="-1.946164">
      <ele>491.7</ele>
    </trkpt>
    <trkpt lat="42.055496" lon="-1.947804">
      <ele>492.4</ele>
    </trkpt>
    <trkpt lat="42.055777" lon="-1.948336">
      <ele>493.1</ele>
    </trkpt>
    <trkpt lat="42.056127" lon="-1.94878">
      <ele>494.2</ele>
    </trkpt>
    <trkpt lat="42.056456" lon="-1.949063">
      <ele>495.4</ele>
    </trkpt>
    <trkpt lat="42.057008" lon="-1.949595">
      <ele>497.8</ele>
    </trkpt>
    <trkpt lat="42.057013" lon="-1.949599">
      <ele>497.8</ele>
    </trkpt>
    <trkpt lat="42.057211" lon="-1.949853">
      <ele>498.9</ele>
    </trkpt>
    <trkpt lat="42.058501" lon="-1.953046">
      <ele>509</ele>
    </trkpt>
    <trkpt lat="42.058835" lon="-1.954237">
      <ele>511.9</ele>
    </trkpt>
    <trkpt lat="42.059801" lon="-1.95827">
      <ele>519.9</ele>
    </trkpt>
    <trkpt lat="42.060733" lon="-1.959611">
      <ele>523.2</ele>
    </trkpt>
    <trkpt lat="42.061217" lon="-1.960117">
      <ele>524.7</ele>
    </trkpt>
    <trkpt lat="42.062364" lon="-1.960878">
      <ele>528.5</ele>
    </trkpt>
    <trkpt lat="42.06285" lon="-1.961329">
      <ele>530.9</ele>
    </trkpt>
    <trkpt lat="42.063363" lon="-1.962114">
      <ele>534.9</ele>
    </trkpt>
    <trkpt lat="42.06379" lon="-1.962885">
      <ele>539</ele>
    </trkpt>
    <trkpt lat="42.064022" lon="-1.963966">
      <ele>543.4</ele>
    </trkpt>
    <trkpt lat="42.06418" lon="-1.968496">
      <ele>555.2</ele>
    </trkpt>
    <trkpt lat="42.064364" lon="-1.97001">
      <ele>556.7</ele>
    </trkpt>
    <trkpt lat="42.064477" lon="-1.970385">
      <ele>556.9</ele>
    </trkpt>
    <trkpt lat="42.064738" lon="-1.970945">
      <ele>557.1</ele>
    </trkpt>
    <trkpt lat="42.065255" lon="-1.971908">
      <ele>557.7</ele>
    </trkpt>
    <trkpt lat="42.065497" lon="-1.972313">
      <ele>558.2</ele>
    </trkpt>
    <trkpt lat="42.066548" lon="-1.973427">
      <ele>562.4</ele>
    </trkpt>
    <trkpt lat="42.067191" lon="-1.974353">
      <ele>568.9</ele>
    </trkpt>
    <trkpt lat="42.067616" lon="-1.974778">
      <ele>573.3</ele>
    </trkpt>
    <trkpt lat="42.067957" lon="-1.975057">
      <ele>576</ele>
    </trkpt>
    <trkpt lat="42.068353" lon="-1.975143">
      <ele>578</ele>
    </trkpt>
    <trkpt lat="42.068668" lon="-1.975122">
      <ele>579</ele>
    </trkpt>
    <trkpt lat="42.070486" lon="-1.974196">
      <ele>575.9</ele>
    </trkpt>
    <trkpt lat="42.071199" lon="-1.974057">
      <ele>573.3</ele>
    </trkpt>
    <trkpt lat="42.07165" lon="-1.974152">
      <ele>572.4</ele>
    </trkpt>
    <trkpt lat="42.0724" lon="-1.974368">
      <ele>572.8</ele>
    </trkpt>
    <trkpt lat="42.074283" lon="-1.974023">
      <ele>582.4</ele>
    </trkpt>
    <trkpt lat="42.074987" lon="-1.973709">
      <ele>585.8</ele>
    </trkpt>
    <trkpt lat="42.075131" lon="-1.973689">
      <ele>586.4</ele>
    </trkpt>
    <trkpt lat="42.075276" lon="-1.973705">
      <ele>587.1</ele>
    </trkpt>
    <trkpt lat="42.075962" lon="-1.974149">
      <ele>590.6</ele>
    </trkpt>
    <trkpt lat="42.07684" lon="-1.974525">
      <ele>595.7</ele>
    </trkpt>
    <trkpt lat="42.077098" lon="-1.974558">
      <ele>597.3</ele>
    </trkpt>
    <trkpt lat="42.077421" lon="-1.974494">
      <ele>599.5</ele>
    </trkpt>
    <trkpt lat="42.078802" lon="-1.973851">
      <ele>610</ele>
    </trkpt>
    <trkpt lat="42.080182" lon="-1.973584">
      <ele>617.2</ele>
    </trkpt>
    <trkpt lat="42.080998" lon="-1.974007">
      <ele>618.2</ele>
    </trkpt>
    <trkpt lat="42.081704" lon="-1.974243">
      <ele>618.8</ele>
    </trkpt>
    <trkpt lat="42.081831" lon="-1.974537">
      <ele>619.4</ele>
    </trkpt>
    <trkpt lat="42.082147" lon="-1.975416">
      <ele>622.2</ele>
    </trkpt>
    <trkpt lat="42.082433" lon="-1.975899">
      <ele>624.7</ele>
    </trkpt>
    <trkpt lat="42.082903" lon="-1.976451">
      <ele>628.4</ele>
    </trkpt>
    <trkpt lat="42.083134" lon="-1.976803">
      <ele>630.4</ele>
    </trkpt>
    <trkpt lat="42.083277" lon="-1.977304">
      <ele>632.8</ele>
    </trkpt>
    <trkpt lat="42.083405" lon="-1.977605">
      <ele>634.5</ele>
    </trkpt>
    <trkpt lat="42.083692" lon="-1.977798">
      <ele>636.7</ele>
    </trkpt>
    <trkpt lat="42.083917" lon="-1.978024">
      <ele>638.5</ele>
    </trkpt>
    <trkpt lat="42.08423" lon="-1.978793">
      <ele>642.4</ele>
    </trkpt>
    <trkpt lat="42.084607" lon="-1.979311">
      <ele>645.5</ele>
    </trkpt>
    <trkpt lat="42.085109" lon="-1.979373">
      <ele>648.3</ele>
    </trkpt>
    <trkpt lat="42.08547" lon="-1.979499">
      <ele>650.1</ele>
    </trkpt>
    <trkpt lat="42.085894" lon="-1.980142">
      <ele>653.2</ele>
    </trkpt>
    <trkpt lat="42.086088" lon="-1.980266">
      <ele>654.2</ele>
    </trkpt>
    <trkpt lat="42.086423" lon="-1.980308">
      <ele>655.8</ele>
    </trkpt>
    <trkpt lat="42.086662" lon="-1.980409">
      <ele>656.9</ele>
    </trkpt>
    <trkpt lat="42.086845" lon="-1.98063">
      <ele>657.9</ele>
    </trkpt>
    <trkpt lat="42.086996" lon="-1.980877">
      <ele>659</ele>
    </trkpt>
    <trkpt lat="42.087353" lon="-1.981162">
      <ele>660.8</ele>
    </trkpt>
    <trkpt lat="42.088953" lon="-1.981868">
      <ele>670.1</ele>
    </trkpt>
    <trkpt lat="42.089807" lon="-1.982073">
      <ele>676.2</ele>
    </trkpt>
    <trkpt lat="42.092028" lon="-1.983108">
      <ele>692.5</ele>
    </trkpt>
    <trkpt lat="42.092205" lon="-1.98315">
      <ele>693.6</ele>
    </trkpt>
    <trkpt lat="42.092813" lon="-1.983296">
      <ele>697</ele>
    </trkpt>
    <trkpt lat="42.093645" lon="-1.983751">
      <ele>701.2</ele>
    </trkpt>
    <trkpt lat="42.095684" lon="-1.986512">
      <ele>712.6</ele>
    </trkpt>
    <trkpt lat="42.098198" lon="-1.989522">
      <ele>721.2</ele>
    </trkpt>
    <trkpt lat="42.09981" lon="-1.991302">
      <ele>725.2</ele>
    </trkpt>
    <trkpt lat="42.100128" lon="-1.99164">
      <ele>725</ele>
    </trkpt>
    <trkpt lat="42.100152" lon="-1.991659">
      <ele>725</ele>
    </trkpt>
    <trkpt lat="42.100467" lon="-1.991946">
      <ele>724.3</ele>
    </trkpt>
    <trkpt lat="42.100783" lon="-1.992255">
      <ele>723.1</ele>
    </trkpt>
    <trkpt lat="42.102556" lon="-1.993275">
      <ele>714.2</ele>
    </trkpt>
    <trkpt lat="42.105123" lon="-1.995565">
      <ele>708.6</ele>
    </trkpt>
    <trkpt lat="42.106704" lon="-1.996907">
      <ele>714.2</ele>
    </trkpt>
    <trkpt lat="42.106827" lon="-1.997105">
      <ele>715.2</ele>
    </trkpt>
    <trkpt lat="42.107125" lon="-1.997561">
      <ele>717.8</ele>
    </trkpt>
    <trkpt lat="42.107707" lon="-1.998531">
      <ele>723</ele>
    </trkpt>
    <trkpt lat="42.107811" lon="-1.998611">
      <ele>723.4</ele>
    </trkpt>
    <trkpt lat="42.107857" lon="-1.998646">
      <ele>723.6</ele>
    </trkpt>
    <trkpt lat="42.107959" lon="-1.998649">
      <ele>724</ele>
    </trkpt>
    <trkpt lat="42.10785" lon="-1.998119">
      <ele>724.8</ele>
    </trkpt>
    <trkpt lat="42.107701" lon="-1.997571">
      <ele>724.6</ele>
    </trkpt>
    <trkpt lat="42.107693" lon="-1.99747">
      <ele>724.5</ele>
    </trkpt>
    <trkpt lat="42.107704" lon="-1.997086">
      <ele>723.7</ele>
    </trkpt>
    <trkpt lat="42.108315" lon="-1.995315">
      <ele>718.9</ele>
    </trkpt>
    <trkpt lat="42.108365" lon="-1.995104">
      <ele>718.4</ele>
    </trkpt>
    <trkpt lat="42.108545" lon="-1.994351">
      <ele>716.5</ele>
    </trkpt>
    <trkpt lat="42.108778" lon="-1.993077">
      <ele>713.5</ele>
    </trkpt>
    <trkpt lat="42.10892" lon="-1.992296">
      <ele>711.9</ele>
    </trkpt>
    <trkpt lat="42.109008" lon="-1.991584">
      <ele>710.6</ele>
    </trkpt>
    <trkpt lat="42.109067" lon="-1.99111">
      <ele>709.8</ele>
    </trkpt>
    <trkpt lat="42.109845" lon="-1.984834">
      <ele>696.7</ele>
    </trkpt>
    <trkpt lat="42.110471" lon="-1.979776">
      <ele>688.3</ele>
    </trkpt>
    <trkpt lat="42.110613" lon="-1.978627">
      <ele>686.7</ele>
    </trkpt>
    <trkpt lat="42.112149" lon="-1.966232">
      <ele>675.8</ele>
    </trkpt>
    <trkpt lat="42.112245" lon="-1.965706">
      <ele>675</ele>
    </trkpt>
    <trkpt lat="42.11241" lon="-1.96527">
      <ele>674.2</ele>
    </trkpt>
    <trkpt lat="42.113303" lon="-1.963927">
      <ele>672.4</ele>
    </trkpt>
    <trkpt lat="42.11354" lon="-1.963519">
      <ele>672.2</ele>
    </trkpt>
    <trkpt lat="42.113667" lon="-1.963172">
      <ele>672.1</ele>
    </trkpt>
    <trkpt lat="42.113743" lon="-1.962792">
      <ele>671.9</ele>
    </trkpt>
    <trkpt lat="42.113853" lon="-1.958943">
      <ele>665.5</ele>
    </trkpt>
    <trkpt lat="42.113874" lon="-1.958592">
      <ele>664.5</ele>
    </trkpt>
    <trkpt lat="42.113944" lon="-1.958216">
      <ele>663.2</ele>
    </trkpt>
    <trkpt lat="42.11398" lon="-1.957853">
      <ele>661.9</ele>
    </trkpt>
    <trkpt lat="42.113954" lon="-1.957538">
      <ele>660.6</ele>
    </trkpt>
    <trkpt lat="42.113832" lon="-1.957159">
      <ele>658.7</ele>
    </trkpt>
    <trkpt lat="42.113709" lon="-1.95694">
      <ele>657.2</ele>
    </trkpt>
    <trkpt lat="42.113114" lon="-1.956207">
      <ele>650.4</ele>
    </trkpt>
    <trkpt lat="42.112859" lon="-1.95581">
      <ele>647</ele>
    </trkpt>
    <trkpt lat="42.112748" lon="-1.95546">
      <ele>644.7</ele>
    </trkpt>
    <trkpt lat="42.112736" lon="-1.955125">
      <ele>642.9</ele>
    </trkpt>
    <trkpt lat="42.112798" lon="-1.954985">
      <ele>642</ele>
    </trkpt>
    <trkpt lat="42.112881" lon="-1.954852">
      <ele>641.2</ele>
    </trkpt>
    <trkpt lat="42.113142" lon="-1.95461">
      <ele>639.3</ele>
    </trkpt>
    <trkpt lat="42.113175" lon="-1.95449">
      <ele>638.8</ele>
    </trkpt>
    <trkpt lat="42.113138" lon="-1.954098">
      <ele>637.7</ele>
    </trkpt>
    <trkpt lat="42.112998" lon="-1.953497">
      <ele>636.7</ele>
    </trkpt>
    <trkpt lat="42.112919" lon="-1.95327">
      <ele>636.5</ele>
    </trkpt>
    <trkpt lat="42.112594" lon="-1.952535">
      <ele>636.1</ele>
    </trkpt>
    <trkpt lat="42.112547" lon="-1.95235">
      <ele>636.1</ele>
    </trkpt>
    <trkpt lat="42.112557" lon="-1.952156">
      <ele>636</ele>
    </trkpt>
    <trkpt lat="42.112713" lon="-1.951685">
      <ele>635.9</ele>
    </trkpt>
    <trkpt lat="42.112783" lon="-1.951194">
      <ele>635.7</ele>
    </trkpt>
    <trkpt lat="42.112766" lon="-1.951032">
      <ele>635.5</ele>
    </trkpt>
    <trkpt lat="42.112636" lon="-1.950949">
      <ele>635.3</ele>
    </trkpt>
    <trkpt lat="42.112429" lon="-1.950908">
      <ele>634.9</ele>
    </trkpt>
    <trkpt lat="42.112336" lon="-1.950762">
      <ele>634.5</ele>
    </trkpt>
    <trkpt lat="42.112261" lon="-1.950415">
      <ele>633.6</ele>
    </trkpt>
    <trkpt lat="42.112189" lon="-1.950253">
      <ele>633.1</ele>
    </trkpt>
    <trkpt lat="42.112092" lon="-1.950157">
      <ele>632.6</ele>
    </trkpt>
    <trkpt lat="42.111707" lon="-1.949924">
      <ele>630.8</ele>
    </trkpt>
    <trkpt lat="42.11151" lon="-1.949733">
      <ele>629.6</ele>
    </trkpt>
    <trkpt lat="42.109608" lon="-1.946779">
      <ele>616.8</ele>
    </trkpt>
    <trkpt lat="42.108355" lon="-1.94551">
      <ele>618.8</ele>
    </trkpt>
    <trkpt lat="42.1082" lon="-1.945257">
      <ele>618.6</ele>
    </trkpt>
    <trkpt lat="42.107751" lon="-1.944243">
      <ele>615.1</ele>
    </trkpt>
    <trkpt lat="42.107518" lon="-1.943851">
      <ele>612.6</ele>
    </trkpt>
    <trkpt lat="42.106948" lon="-1.943151">
      <ele>607.8</ele>
    </trkpt>
    <trkpt lat="42.106345" lon="-1.942482">
      <ele>605.9</ele>
    </trkpt>
    <trkpt lat="42.105449" lon="-1.941658">
      <ele>604.5</ele>
    </trkpt>
    <trkpt lat="42.105263" lon="-1.941419">
      <ele>603.9</ele>
    </trkpt>
    <trkpt lat="42.105207" lon="-1.941283">
      <ele>603.5</ele>
    </trkpt>
    <trkpt lat="42.105169" lon="-1.941098">
      <ele>603</ele>
    </trkpt>
    <trkpt lat="42.105185" lon="-1.940866">
      <ele>602.3</ele>
    </trkpt>
    <trkpt lat="42.105172" lon="-1.940719">
      <ele>601.8</ele>
    </trkpt>
    <trkpt lat="42.10507" lon="-1.940508">
      <ele>600.9</ele>
    </trkpt>
    <trkpt lat="42.10385" lon="-1.938934">
      <ele>595.3</ele>
    </trkpt>
    <trkpt lat="42.103756" lon="-1.938765">
      <ele>595.2</ele>
    </trkpt>
    <trkpt lat="42.103409" lon="-1.937909">
      <ele>595.1</ele>
    </trkpt>
    <trkpt lat="42.103361" lon="-1.93771">
      <ele>595.2</ele>
    </trkpt>
    <trkpt lat="42.103399" lon="-1.937517">
      <ele>595.3</ele>
    </trkpt>
    <trkpt lat="42.103587" lon="-1.937199">
      <ele>595.8</ele>
    </trkpt>
    <trkpt lat="42.103684" lon="-1.936951">
      <ele>596.2</ele>
    </trkpt>
    <trkpt lat="42.103708" lon="-1.936728">
      <ele>596.5</ele>
    </trkpt>
    <trkpt lat="42.103697" lon="-1.936497">
      <ele>596.9</ele>
    </trkpt>
    <trkpt lat="42.103296" lon="-1.935389">
      <ele>597.4</ele>
    </trkpt>
    <trkpt lat="42.103215" lon="-1.935117">
      <ele>597.1</ele>
    </trkpt>
    <trkpt lat="42.103183" lon="-1.934672">
      <ele>596.2</ele>
    </trkpt>
    <trkpt lat="42.10229" lon="-1.931857">
      <ele>579.6</ele>
    </trkpt>
    <trkpt lat="42.102043" lon="-1.931425">
      <ele>577.7</ele>
    </trkpt>
    <trkpt lat="42.10138" lon="-1.93037">
      <ele>574.5</ele>
    </trkpt>
    <trkpt lat="42.100047" lon="-1.928544">
      <ele>568.2</ele>
    </trkpt>
    <trkpt lat="42.098756" lon="-1.927253">
      <ele>563.6</ele>
    </trkpt>
    <trkpt lat="42.098634" lon="-1.927074">
      <ele>563.2</ele>
    </trkpt>
    <trkpt lat="42.098618" lon="-1.926927">
      <ele>563</ele>
    </trkpt>
    <trkpt lat="42.098682" lon="-1.926584">
      <ele>562.4</ele>
    </trkpt>
    <trkpt lat="42.098653" lon="-1.926427">
      <ele>562.2</ele>
    </trkpt>
    <trkpt lat="42.098292" lon="-1.926">
      <ele>561.3</ele>
    </trkpt>
    <trkpt lat="42.096113" lon="-1.923732">
      <ele>555</ele>
    </trkpt>
    <trkpt lat="42.095925" lon="-1.923413">
      <ele>554.2</ele>
    </trkpt>
    <trkpt lat="42.09506" lon="-1.921177">
      <ele>549.1</ele>
    </trkpt>
    <trkpt lat="42.094954" lon="-1.920807">
      <ele>548.4</ele>
    </trkpt>
    <trkpt lat="42.094592" lon="-1.918542">
      <ele>544.7</ele>
    </trkpt>
    <trkpt lat="42.093189" lon="-1.909862">
      <ele>531.7</ele>
    </trkpt>
    <trkpt lat="42.093184" lon="-1.909521">
      <ele>531.3</ele>
    </trkpt>
    <trkpt lat="42.093261" lon="-1.909204">
      <ele>531.1</ele>
    </trkpt>
    <trkpt lat="42.093773" lon="-1.908067">
      <ele>529.1</ele>
    </trkpt>
    <trkpt lat="42.093806" lon="-1.907886">
      <ele>528.8</ele>
    </trkpt>
    <trkpt lat="42.09381" lon="-1.907663">
      <ele>528.4</ele>
    </trkpt>
    <trkpt lat="42.093761" lon="-1.907487">
      <ele>528</ele>
    </trkpt>
    <trkpt lat="42.09368" lon="-1.907333">
      <ele>527.5</ele>
    </trkpt>
    <trkpt lat="42.094585" lon="-1.906554">
      <ele>524.1</ele>
    </trkpt>
    <trkpt lat="42.095015" lon="-1.906138">
      <ele>523</ele>
    </trkpt>
    <trkpt lat="42.095583" lon="-1.905414">
      <ele>521.9</ele>
    </trkpt>
    <trkpt lat="42.097202" lon="-1.903212">
      <ele>521.2</ele>
    </trkpt>
    <trkpt lat="42.097672" lon="-1.902521">
      <ele>522.3</ele>
    </trkpt>
    <trkpt lat="42.097967" lon="-1.902016">
      <ele>522.4</ele>
    </trkpt>
    <trkpt lat="42.09827" lon="-1.901342">
      <ele>521.1</ele>
    </trkpt>
    <trkpt lat="42.099132" lon="-1.899162">
      <ele>509.3</ele>
    </trkpt>
    <trkpt lat="42.100162" lon="-1.896451">
      <ele>500.3</ele>
    </trkpt>
    <trkpt lat="42.100709" lon="-1.895051">
      <ele>497.8</ele>
    </trkpt>
    <trkpt lat="42.102806" lon="-1.889607">
      <ele>491.6</ele>
    </trkpt>
    <trkpt lat="42.103608" lon="-1.887764">
      <ele>491.7</ele>
    </trkpt>
    <trkpt lat="42.10372" lon="-1.887425">
      <ele>491.7</ele>
    </trkpt>
    <trkpt lat="42.10391" lon="-1.886776">
      <ele>491.2</ele>
    </trkpt>
    <trkpt lat="42.105885" lon="-1.87753">
      <ele>465.8</ele>
    </trkpt>
    <trkpt lat="42.105979" lon="-1.877118">
      <ele>464.4</ele>
    </trkpt>
    <trkpt lat="42.106063" lon="-1.876902">
      <ele>463.6</ele>
    </trkpt>
    <trkpt lat="42.106173" lon="-1.876727">
      <ele>462.8</ele>
    </trkpt>
    <trkpt lat="42.106326" lon="-1.876578">
      <ele>461.9</ele>
    </trkpt>
    <trkpt lat="42.106534" lon="-1.876497">
      <ele>460.8</ele>
    </trkpt>
    <trkpt lat="42.106781" lon="-1.876472">
      <ele>459.5</ele>
    </trkpt>
    <trkpt lat="42.107736" lon="-1.876466">
      <ele>454.3</ele>
    </trkpt>
    <trkpt lat="42.108501" lon="-1.876618">
      <ele>450.2</ele>
    </trkpt>
    <trkpt lat="42.108995" lon="-1.876708">
      <ele>447.8</ele>
    </trkpt>
    <trkpt lat="42.109455" lon="-1.876661">
      <ele>445.9</ele>
    </trkpt>
    <trkpt lat="42.113352" lon="-1.875906">
      <ele>435.6</ele>
    </trkpt>
    <trkpt lat="42.114976" lon="-1.875552">
      <ele>433</ele>
    </trkpt>
    <trkpt lat="42.115439" lon="-1.875359">
      <ele>432.4</ele>
    </trkpt>
    <trkpt lat="42.115839" lon="-1.875118">
      <ele>431.8</ele>
    </trkpt>
    <trkpt lat="42.116219" lon="-1.874784">
      <ele>431.2</ele>
    </trkpt>
    <trkpt lat="42.116445" lon="-1.874529">
      <ele>430.7</ele>
    </trkpt>
    <trkpt lat="42.116864" lon="-1.873943">
      <ele>429.7</ele>
    </trkpt>
    <trkpt lat="42.119683" lon="-1.868937">
      <ele>421</ele>
    </trkpt>
    <trkpt lat="42.12249" lon="-1.863951">
      <ele>409.5</ele>
    </trkpt>
    <trkpt lat="42.130941" lon="-1.848939">
      <ele>385.6</ele>
    </trkpt>
    <trkpt lat="42.13393" lon="-1.843631">
      <ele>377</ele>
    </trkpt>
    <trkpt lat="42.135933" lon="-1.840068">
      <ele>371</ele>
    </trkpt>
    <trkpt lat="42.137793" lon="-1.836759">
      <ele>364.8</ele>
    </trkpt>
    <trkpt lat="42.138303" lon="-1.835851">
      <ele>364.1</ele>
    </trkpt>
    <trkpt lat="42.142139" lon="-1.829017">
      <ele>349.4</ele>
    </trkpt>
    <trkpt lat="42.145062" lon="-1.82381">
      <ele>339.4</ele>
    </trkpt>
    <trkpt lat="42.145246" lon="-1.823493">
      <ele>338.9</ele>
    </trkpt>
    <trkpt lat="42.14933" lon="-1.816246">
      <ele>330.5</ele>
    </trkpt>
    <trkpt lat="42.150963" lon="-1.813272">
      <ele>326.7</ele>
    </trkpt>
    <trkpt lat="42.151871" lon="-1.811703">
      <ele>325.3</ele>
    </trkpt>
    <trkpt lat="42.15179" lon="-1.811569">
      <ele>325.2</ele>
    </trkpt>
    <trkpt lat="42.151757" lon="-1.811406">
      <ele>325.1</ele>
    </trkpt>
    <trkpt lat="42.151801" lon="-1.811176">
      <ele>324.9</ele>
    </trkpt>
    <trkpt lat="42.151869" lon="-1.811074">
      <ele>324.8</ele>
    </trkpt>
    <trkpt lat="42.151975" lon="-1.811002">
      <ele>324.7</ele>
    </trkpt>
    <trkpt lat="42.152077" lon="-1.81099">
      <ele>324.6</ele>
    </trkpt>
    <trkpt lat="42.152212" lon="-1.811054">
      <ele>324.4</ele>
    </trkpt>
    <trkpt lat="42.153172" lon="-1.809599">
      <ele>322.4</ele>
    </trkpt>
    <trkpt lat="42.153815" lon="-1.808549">
      <ele>321.2</ele>
    </trkpt>
    <trkpt lat="42.154422" lon="-1.807479">
      <ele>319.9</ele>
    </trkpt>
    <trkpt lat="42.155145" lon="-1.805924">
      <ele>317.6</ele>
    </trkpt>
    <trkpt lat="42.157118" lon="-1.802408">
      <ele>311.5</ele>
    </trkpt>
    <trkpt lat="42.157209" lon="-1.802247">
      <ele>311.2</ele>
    </trkpt>
    <trkpt lat="42.157718" lon="-1.801338">
      <ele>309.2</ele>
    </trkpt>
    <trkpt lat="42.157894" lon="-1.801025">
      <ele>308.7</ele>
    </trkpt>
    <trkpt lat="42.158065" lon="-1.80072">
      <ele>308.3</ele>
    </trkpt>
    <trkpt lat="42.161436" lon="-1.794712">
      <ele>304.4</ele>
    </trkpt>
    <trkpt lat="42.164568" lon="-1.789128">
      <ele>302.6</ele>
    </trkpt>
    <trkpt lat="42.165787" lon="-1.786957">
      <ele>304.9</ele>
    </trkpt>
    <trkpt lat="42.16603" lon="-1.786523">
      <ele>305.3</ele>
    </trkpt>
    <trkpt lat="42.167608" lon="-1.783709">
      <ele>305.9</ele>
    </trkpt>
    <trkpt lat="42.170028" lon="-1.779396">
      <ele>303.9</ele>
    </trkpt>
    <trkpt lat="42.17319" lon="-1.773759">
      <ele>297.4</ele>
    </trkpt>
    <trkpt lat="42.175872" lon="-1.768978">
      <ele>295.3</ele>
    </trkpt>
    <trkpt lat="42.176412" lon="-1.768032">
      <ele>295.2</ele>
    </trkpt>
    <trkpt lat="42.177422" lon="-1.766215">
      <ele>294.4</ele>
    </trkpt>
    <trkpt lat="42.179786" lon="-1.761956">
      <ele>292.8</ele>
    </trkpt>
    <trkpt lat="42.179892" lon="-1.761696">
      <ele>292.6</ele>
    </trkpt>
    <trkpt lat="42.17994" lon="-1.761407">
      <ele>292.4</ele>
    </trkpt>
    <trkpt lat="42.179805" lon="-1.760532">
      <ele>292.1</ele>
    </trkpt>
    <trkpt lat="42.180138" lon="-1.76042">
      <ele>291.7</ele>
    </trkpt>
    <trkpt lat="42.180296" lon="-1.760335">
      <ele>291.5</ele>
    </trkpt>
    <trkpt lat="42.180486" lon="-1.760172">
      <ele>291.4</ele>
    </trkpt>
    <trkpt lat="42.180525" lon="-1.760012">
      <ele>291.3</ele>
    </trkpt>
    <trkpt lat="42.180272" lon="-1.759512">
      <ele>291.2</ele>
    </trkpt>
    <trkpt lat="42.180245" lon="-1.759467">
      <ele>291.2</ele>
    </trkpt>
    <trkpt lat="42.180196" lon="-1.759387">
      <ele>291.2</ele>
    </trkpt>
    <trkpt lat="42.179949" lon="-1.758967">
      <ele>291.2</ele>
    </trkpt>
    <trkpt lat="42.178978" lon="-1.757361">
      <ele>292.2</ele>
    </trkpt>
    <trkpt lat="42.178756" lon="-1.756989">
      <ele>292.4</ele>
    </trkpt>
    <trkpt lat="42.178407" lon="-1.756418">
      <ele>292.6</ele>
    </trkpt>
    <trkpt lat="42.178307" lon="-1.756436">
      <ele>292.6</ele>
    </trkpt>
    <trkpt lat="42.17823" lon="-1.756323">
      <ele>292.5</ele>
    </trkpt>
    <trkpt lat="42.178258" lon="-1.756185">
      <ele>292.4</ele>
    </trkpt>
    <trkpt lat="42.178339" lon="-1.756134">
      <ele>292.4</ele>
    </trkpt>
    <trkpt lat="42.178422" lon="-1.756177">
      <ele>292.3</ele>
    </trkpt>
    <trkpt lat="42.178531" lon="-1.756016">
      <ele>292.1</ele>
    </trkpt>
    <trkpt lat="42.178723" lon="-1.7558">
      <ele>291.8</ele>
    </trkpt>
    <trkpt lat="42.179267" lon="-1.755205">
      <ele>291.9</ele>
    </trkpt>
    <trkpt lat="42.179403" lon="-1.754963">
      <ele>292</ele>
    </trkpt>
    <trkpt lat="42.179451" lon="-1.754731">
      <ele>292.2</ele>
    </trkpt>
    <trkpt lat="42.179443" lon="-1.754572">
      <ele>292.5</ele>
    </trkpt>
    <trkpt lat="42.179357" lon="-1.75423">
      <ele>293.1</ele>
    </trkpt>
    <trkpt lat="42.179221" lon="-1.753883">
      <ele>294.4</ele>
    </trkpt>
    <trkpt lat="42.179066" lon="-1.753574">
      <ele>295.8</ele>
    </trkpt>
    <trkpt lat="42.178898" lon="-1.753239">
      <ele>297.1</ele>
    </trkpt>
    <trkpt lat="42.178872" lon="-1.753184">
      <ele>297.2</ele>
    </trkpt>
    <trkpt lat="42.178758" lon="-1.752939">
      <ele>298</ele>
    </trkpt>
    <trkpt lat="42.178671" lon="-1.752752">
      <ele>298.5</ele>
    </trkpt>
    <trkpt lat="42.178646" lon="-1.752607">
      <ele>298.8</ele>
    </trkpt>
    <trkpt lat="42.178687" lon="-1.752401">
      <ele>299.2</ele>
    </trkpt>
    <trkpt lat="42.178908" lon="-1.75204">
      <ele>299.8</ele>
    </trkpt>
    <trkpt lat="42.179034" lon="-1.751871">
      <ele>299.9</ele>
    </trkpt>
    <trkpt lat="42.179766" lon="-1.75111">
      <ele>298.2</ele>
    </trkpt>
    <trkpt lat="42.180586" lon="-1.750365">
      <ele>295.7</ele>
    </trkpt>
    <trkpt lat="42.181253" lon="-1.749702">
      <ele>294.2</ele>
    </trkpt>
    <trkpt lat="42.181353" lon="-1.749601">
      <ele>293.9</ele>
    </trkpt>
    <trkpt lat="42.181818" lon="-1.749134">
      <ele>291.8</ele>
    </trkpt>
    <trkpt lat="42.181859" lon="-1.749">
      <ele>291.4</ele>
    </trkpt>
    <trkpt lat="42.181853" lon="-1.748887">
      <ele>291</ele>
    </trkpt>
    <trkpt lat="42.181932" lon="-1.748791">
      <ele>290.5</ele>
    </trkpt>
    <trkpt lat="42.181999" lon="-1.748762">
      <ele>290.2</ele>
    </trkpt>
    <trkpt lat="42.182203" lon="-1.748703">
      <ele>289.3</ele>
    </trkpt>
    <trkpt lat="42.182297" lon="-1.748721">
      <ele>288.8</ele>
    </trkpt>
    <trkpt lat="42.182309" lon="-1.748747">
      <ele>288.7</ele>
    </trkpt>
    <trkpt lat="42.182435" lon="-1.748787">
      <ele>288.1</ele>
    </trkpt>
    <trkpt lat="42.182998" lon="-1.748532">
      <ele>285.3</ele>
    </trkpt>
    <trkpt lat="42.183287" lon="-1.7484">
      <ele>284</ele>
    </trkpt>
    <trkpt lat="42.18393" lon="-1.748182">
      <ele>282.8</ele>
    </trkpt>
    <trkpt lat="42.184179" lon="-1.748133">
      <ele>282.6</ele>
    </trkpt>
    <trkpt lat="42.185033" lon="-1.748152">
      <ele>282.5</ele>
    </trkpt>
    <trkpt lat="42.185588" lon="-1.748192">
      <ele>282.4</ele>
    </trkpt>
    <trkpt lat="42.18592" lon="-1.748203">
      <ele>282.4</ele>
    </trkpt>
    <trkpt lat="42.186149" lon="-1.748132">
      <ele>282.4</ele>
    </trkpt>
    <trkpt lat="42.186154" lon="-1.748061">
      <ele>282.4</ele>
    </trkpt>
    <trkpt lat="42.186195" lon="-1.748017">
      <ele>282.4</ele>
    </trkpt>
    <trkpt lat="42.186272" lon="-1.748057">
      <ele>282.4</ele>
    </trkpt>
    <trkpt lat="42.186274" lon="-1.74815">
      <ele>282.4</ele>
    </trkpt>
    </trkseg>
  </trk>
</gpx>
