<?xml version="1.0" encoding="UTF-8"?>
<gpx version="1.1" creator="fitAI Komoot downloader" xmlns="http://www.topografix.com/GPX/1/1">
  <metadata>
    <name>Mirador de Clavijo y Castillo de Clavijo - Recorrido circular desde Lardero</name>
    <desc>34 visitas · Dificultad: difficult · Distancia: 39.4 km · Desnivel +: 1103 m</desc>
    <link href="https://www.komoot.com/smarttour/e44634434"><text>Komoot</text></link>
  </metadata>
  <trk>
    <name>Mirador de Clavijo y Castillo de Clavijo - Recorrido circular desde Lardero</name>
    <type>mtb</type>
    <trkseg>
    <trkpt lat="42.430057" lon="-2.455509">
      <ele>422.5</ele>
    </trkpt>
    <trkpt lat="42.429555" lon="-2.455666">
      <ele>422.9</ele>
    </trkpt>
    <trkpt lat="42.42948" lon="-2.455711">
      <ele>423</ele>
    </trkpt>
    <trkpt lat="42.429001" lon="-2.455859">
      <ele>423.8</ele>
    </trkpt>
    <trkpt lat="42.428697" lon="-2.455973">
      <ele>424.4</ele>
    </trkpt>
    <trkpt lat="42.428269" lon="-2.456093">
      <ele>425.1</ele>
    </trkpt>
    <trkpt lat="42.428222" lon="-2.456119">
      <ele>425.2</ele>
    </trkpt>
    <trkpt lat="42.428143" lon="-2.456104">
      <ele>425.3</ele>
    </trkpt>
    <trkpt lat="42.428115" lon="-2.456077">
      <ele>425.3</ele>
    </trkpt>
    <trkpt lat="42.428073" lon="-2.456149">
      <ele>425.4</ele>
    </trkpt>
    <trkpt lat="42.427988" lon="-2.456193">
      <ele>425.6</ele>
    </trkpt>
    <trkpt lat="42.427026" lon="-2.456459">
      <ele>426.5</ele>
    </trkpt>
    <trkpt lat="42.426991" lon="-2.456501">
      <ele>426.5</ele>
    </trkpt>
    <trkpt lat="42.426946" lon="-2.456495">
      <ele>426.5</ele>
    </trkpt>
    <trkpt lat="42.426916" lon="-2.456438">
      <ele>426.5</ele>
    </trkpt>
    <trkpt lat="42.426921" lon="-2.456391">
      <ele>426.5</ele>
    </trkpt>
    <trkpt lat="42.426982" lon="-2.456347">
      <ele>426.5</ele>
    </trkpt>
    <trkpt lat="42.426961" lon="-2.456221">
      <ele>426.5</ele>
    </trkpt>
    <trkpt lat="42.42655" lon="-2.453687">
      <ele>425.7</ele>
    </trkpt>
    <trkpt lat="42.426565" lon="-2.45281">
      <ele>425.4</ele>
    </trkpt>
    <trkpt lat="42.426446" lon="-2.451119">
      <ele>425.1</ele>
    </trkpt>
    <trkpt lat="42.426361" lon="-2.451114">
      <ele>425.1</ele>
    </trkpt>
    <trkpt lat="42.425928" lon="-2.451267">
      <ele>425.1</ele>
    </trkpt>
    <trkpt lat="42.425844" lon="-2.451241">
      <ele>425.1</ele>
    </trkpt>
    <trkpt lat="42.425786" lon="-2.451169">
      <ele>425.1</ele>
    </trkpt>
    <trkpt lat="42.425517" lon="-2.450624">
      <ele>425.2</ele>
    </trkpt>
    <trkpt lat="42.425365" lon="-2.450425">
      <ele>425.3</ele>
    </trkpt>
    <trkpt lat="42.42509" lon="-2.449908">
      <ele>425.4</ele>
    </trkpt>
    <trkpt lat="42.424824" lon="-2.449619">
      <ele>425.4</ele>
    </trkpt>
    <trkpt lat="42.424499" lon="-2.449357">
      <ele>425.5</ele>
    </trkpt>
    <trkpt lat="42.424422" lon="-2.449238">
      <ele>425.6</ele>
    </trkpt>
    <trkpt lat="42.424348" lon="-2.449094">
      <ele>425.6</ele>
    </trkpt>
    <trkpt lat="42.424243" lon="-2.448673">
      <ele>425.7</ele>
    </trkpt>
    <trkpt lat="42.424064" lon="-2.448393">
      <ele>425.8</ele>
    </trkpt>
    <trkpt lat="42.423929" lon="-2.448058">
      <ele>426</ele>
    </trkpt>
    <trkpt lat="42.423832" lon="-2.44777">
      <ele>426.2</ele>
    </trkpt>
    <trkpt lat="42.423759" lon="-2.447653">
      <ele>426.2</ele>
    </trkpt>
    <trkpt lat="42.423641" lon="-2.447575">
      <ele>426.3</ele>
    </trkpt>
    <trkpt lat="42.423083" lon="-2.447393">
      <ele>426.7</ele>
    </trkpt>
    <trkpt lat="42.423016" lon="-2.447349">
      <ele>426.7</ele>
    </trkpt>
    <trkpt lat="42.422865" lon="-2.447161">
      <ele>426.8</ele>
    </trkpt>
    <trkpt lat="42.422688" lon="-2.446823">
      <ele>426.9</ele>
    </trkpt>
    <trkpt lat="42.422577" lon="-2.446674">
      <ele>427</ele>
    </trkpt>
    <trkpt lat="42.422382" lon="-2.446462">
      <ele>427.1</ele>
    </trkpt>
    <trkpt lat="42.421853" lon="-2.446054">
      <ele>427.4</ele>
    </trkpt>
    <trkpt lat="42.421761" lon="-2.445933">
      <ele>427.4</ele>
    </trkpt>
    <trkpt lat="42.421765" lon="-2.445652">
      <ele>427.6</ele>
    </trkpt>
    <trkpt lat="42.421723" lon="-2.445518">
      <ele>427.6</ele>
    </trkpt>
    <trkpt lat="42.421596" lon="-2.445404">
      <ele>427.7</ele>
    </trkpt>
    <trkpt lat="42.421262" lon="-2.445296">
      <ele>428</ele>
    </trkpt>
    <trkpt lat="42.420838" lon="-2.444827">
      <ele>428.7</ele>
    </trkpt>
    <trkpt lat="42.420769" lon="-2.44469">
      <ele>428.8</ele>
    </trkpt>
    <trkpt lat="42.420339" lon="-2.444311">
      <ele>429.4</ele>
    </trkpt>
    <trkpt lat="42.420271" lon="-2.444197">
      <ele>429.5</ele>
    </trkpt>
    <trkpt lat="42.42019" lon="-2.443862">
      <ele>429.7</ele>
    </trkpt>
    <trkpt lat="42.420021" lon="-2.443001">
      <ele>430.1</ele>
    </trkpt>
    <trkpt lat="42.41998" lon="-2.442941">
      <ele>430.2</ele>
    </trkpt>
    <trkpt lat="42.419278" lon="-2.44284">
      <ele>430.3</ele>
    </trkpt>
    <trkpt lat="42.419164" lon="-2.442772">
      <ele>430.3</ele>
    </trkpt>
    <trkpt lat="42.41908" lon="-2.442581">
      <ele>430.3</ele>
    </trkpt>
    <trkpt lat="42.419013" lon="-2.44234">
      <ele>430.2</ele>
    </trkpt>
    <trkpt lat="42.41878" lon="-2.442105">
      <ele>430.1</ele>
    </trkpt>
    <trkpt lat="42.418358" lon="-2.441568">
      <ele>429.9</ele>
    </trkpt>
    <trkpt lat="42.418" lon="-2.441053">
      <ele>430</ele>
    </trkpt>
    <trkpt lat="42.417479" lon="-2.441406">
      <ele>430.4</ele>
    </trkpt>
    <trkpt lat="42.416627" lon="-2.441639">
      <ele>431.4</ele>
    </trkpt>
    <trkpt lat="42.416061" lon="-2.441854">
      <ele>432</ele>
    </trkpt>
    <trkpt lat="42.415781" lon="-2.442207">
      <ele>432.2</ele>
    </trkpt>
    <trkpt lat="42.414553" lon="-2.442285">
      <ele>432.5</ele>
    </trkpt>
    <trkpt lat="42.414353" lon="-2.442351">
      <ele>432.6</ele>
    </trkpt>
    <trkpt lat="42.41372" lon="-2.44281">
      <ele>433.4</ele>
    </trkpt>
    <trkpt lat="42.412429" lon="-2.443198">
      <ele>435.4</ele>
    </trkpt>
    <trkpt lat="42.41213" lon="-2.443">
      <ele>435.7</ele>
    </trkpt>
    <trkpt lat="42.411571" lon="-2.443327">
      <ele>435.9</ele>
    </trkpt>
    <trkpt lat="42.4111" lon="-2.443353">
      <ele>435.9</ele>
    </trkpt>
    <trkpt lat="42.410865" lon="-2.443095">
      <ele>435.9</ele>
    </trkpt>
    <trkpt lat="42.410381" lon="-2.442922">
      <ele>436</ele>
    </trkpt>
    <trkpt lat="42.409243" lon="-2.443241">
      <ele>437</ele>
    </trkpt>
    <trkpt lat="42.408611" lon="-2.443662">
      <ele>438</ele>
    </trkpt>
    <trkpt lat="42.408284" lon="-2.443831">
      <ele>438.4</ele>
    </trkpt>
    <trkpt lat="42.40813" lon="-2.443847">
      <ele>438.6</ele>
    </trkpt>
    <trkpt lat="42.408023" lon="-2.443895">
      <ele>438.8</ele>
    </trkpt>
    <trkpt lat="42.407924" lon="-2.444003">
      <ele>438.9</ele>
    </trkpt>
    <trkpt lat="42.407765" lon="-2.444266">
      <ele>439.2</ele>
    </trkpt>
    <trkpt lat="42.407646" lon="-2.444405">
      <ele>439.4</ele>
    </trkpt>
    <trkpt lat="42.407536" lon="-2.444679">
      <ele>439.7</ele>
    </trkpt>
    <trkpt lat="42.407449" lon="-2.44499">
      <ele>440</ele>
    </trkpt>
    <trkpt lat="42.407279" lon="-2.444692">
      <ele>440.2</ele>
    </trkpt>
    <trkpt lat="42.406861" lon="-2.443949">
      <ele>440.7</ele>
    </trkpt>
    <trkpt lat="42.406818" lon="-2.443871">
      <ele>440.8</ele>
    </trkpt>
    <trkpt lat="42.406969" lon="-2.443842">
      <ele>440.9</ele>
    </trkpt>
    <trkpt lat="42.407098" lon="-2.4442">
      <ele>441.1</ele>
    </trkpt>
    <trkpt lat="42.40619" lon="-2.44485">
      <ele>441.6</ele>
    </trkpt>
    <trkpt lat="42.406154" lon="-2.444875">
      <ele>441.6</ele>
    </trkpt>
    <trkpt lat="42.405425" lon="-2.444969">
      <ele>441.5</ele>
    </trkpt>
    <trkpt lat="42.405631" lon="-2.444825">
      <ele>441.4</ele>
    </trkpt>
    <trkpt lat="42.405898" lon="-2.444749">
      <ele>441.2</ele>
    </trkpt>
    <trkpt lat="42.406042" lon="-2.444667">
      <ele>441.1</ele>
    </trkpt>
    <trkpt lat="42.406284" lon="-2.444194">
      <ele>441</ele>
    </trkpt>
    <trkpt lat="42.406426" lon="-2.443718">
      <ele>441.1</ele>
    </trkpt>
    <trkpt lat="42.406544" lon="-2.443469">
      <ele>441.1</ele>
    </trkpt>
    <trkpt lat="42.406668" lon="-2.443292">
      <ele>441.1</ele>
    </trkpt>
    <trkpt lat="42.406765" lon="-2.443224">
      <ele>441.1</ele>
    </trkpt>
    <trkpt lat="42.406776" lon="-2.442991">
      <ele>441.2</ele>
    </trkpt>
    <trkpt lat="42.40668" lon="-2.442541">
      <ele>441.7</ele>
    </trkpt>
    <trkpt lat="42.406419" lon="-2.442716">
      <ele>442.4</ele>
    </trkpt>
    <trkpt lat="42.406289" lon="-2.442727">
      <ele>442.8</ele>
    </trkpt>
    <trkpt lat="42.406256" lon="-2.442692">
      <ele>442.9</ele>
    </trkpt>
    <trkpt lat="42.406084" lon="-2.44215">
      <ele>444.6</ele>
    </trkpt>
    <trkpt lat="42.406035" lon="-2.441968">
      <ele>445.2</ele>
    </trkpt>
    <trkpt lat="42.405823" lon="-2.441695">
      <ele>446.5</ele>
    </trkpt>
    <trkpt lat="42.405758" lon="-2.441575">
      <ele>447</ele>
    </trkpt>
    <trkpt lat="42.405644" lon="-2.441324">
      <ele>448.1</ele>
    </trkpt>
    <trkpt lat="42.405593" lon="-2.44092">
      <ele>449.6</ele>
    </trkpt>
    <trkpt lat="42.405463" lon="-2.440912">
      <ele>450.3</ele>
    </trkpt>
    <trkpt lat="42.405251" lon="-2.44064">
      <ele>451.5</ele>
    </trkpt>
    <trkpt lat="42.405254" lon="-2.440538">
      <ele>451.8</ele>
    </trkpt>
    <trkpt lat="42.405125" lon="-2.440292">
      <ele>452.5</ele>
    </trkpt>
    <trkpt lat="42.405037" lon="-2.440121">
      <ele>453</ele>
    </trkpt>
    <trkpt lat="42.404732" lon="-2.439626">
      <ele>454.2</ele>
    </trkpt>
    <trkpt lat="42.404541" lon="-2.439385">
      <ele>454.7</ele>
    </trkpt>
    <trkpt lat="42.40453" lon="-2.439371">
      <ele>454.7</ele>
    </trkpt>
    <trkpt lat="42.404478" lon="-2.439263">
      <ele>454.8</ele>
    </trkpt>
    <trkpt lat="42.404458" lon="-2.439087">
      <ele>455.1</ele>
    </trkpt>
    <trkpt lat="42.404445" lon="-2.438598">
      <ele>455.7</ele>
    </trkpt>
    <trkpt lat="42.404484" lon="-2.438142">
      <ele>456.4</ele>
    </trkpt>
    <trkpt lat="42.404488" lon="-2.438091">
      <ele>456.4</ele>
    </trkpt>
    <trkpt lat="42.404539" lon="-2.437734">
      <ele>457.1</ele>
    </trkpt>
    <trkpt lat="42.404606" lon="-2.437457">
      <ele>457.6</ele>
    </trkpt>
    <trkpt lat="42.404703" lon="-2.437149">
      <ele>458.1</ele>
    </trkpt>
    <trkpt lat="42.404767" lon="-2.436897">
      <ele>458.5</ele>
    </trkpt>
    <trkpt lat="42.404799" lon="-2.436478">
      <ele>459.1</ele>
    </trkpt>
    <trkpt lat="42.40453" lon="-2.43467">
      <ele>462.4</ele>
    </trkpt>
    <trkpt lat="42.4045" lon="-2.434335">
      <ele>463.2</ele>
    </trkpt>
    <trkpt lat="42.404552" lon="-2.433314">
      <ele>466.5</ele>
    </trkpt>
    <trkpt lat="42.404675" lon="-2.431386">
      <ele>475.9</ele>
    </trkpt>
    <trkpt lat="42.404761" lon="-2.430926">
      <ele>478.5</ele>
    </trkpt>
    <trkpt lat="42.404829" lon="-2.430601">
      <ele>480.3</ele>
    </trkpt>
    <trkpt lat="42.404849" lon="-2.430362">
      <ele>481.6</ele>
    </trkpt>
    <trkpt lat="42.404883" lon="-2.429949">
      <ele>483.9</ele>
    </trkpt>
    <trkpt lat="42.404869" lon="-2.429759">
      <ele>484.9</ele>
    </trkpt>
    <trkpt lat="42.404684" lon="-2.428863">
      <ele>489.6</ele>
    </trkpt>
    <trkpt lat="42.404575" lon="-2.428405">
      <ele>491.5</ele>
    </trkpt>
    <trkpt lat="42.404492" lon="-2.427977">
      <ele>493</ele>
    </trkpt>
    <trkpt lat="42.404257" lon="-2.426776">
      <ele>495.8</ele>
    </trkpt>
    <trkpt lat="42.404227" lon="-2.426487">
      <ele>496</ele>
    </trkpt>
    <trkpt lat="42.404079" lon="-2.426417">
      <ele>496.1</ele>
    </trkpt>
    <trkpt lat="42.403755" lon="-2.425987">
      <ele>496.4</ele>
    </trkpt>
    <trkpt lat="42.403611" lon="-2.425797">
      <ele>496.5</ele>
    </trkpt>
    <trkpt lat="42.403284" lon="-2.425539">
      <ele>496.7</ele>
    </trkpt>
    <trkpt lat="42.403138" lon="-2.425471">
      <ele>496.8</ele>
    </trkpt>
    <trkpt lat="42.402831" lon="-2.425404">
      <ele>496.9</ele>
    </trkpt>
    <trkpt lat="42.40262" lon="-2.425427">
      <ele>497</ele>
    </trkpt>
    <trkpt lat="42.400597" lon="-2.42615">
      <ele>498.4</ele>
    </trkpt>
    <trkpt lat="42.400177" lon="-2.426383">
      <ele>498.8</ele>
    </trkpt>
    <trkpt lat="42.399966" lon="-2.426538">
      <ele>499</ele>
    </trkpt>
    <trkpt lat="42.399543" lon="-2.42687">
      <ele>499.5</ele>
    </trkpt>
    <trkpt lat="42.399122" lon="-2.427184">
      <ele>500.2</ele>
    </trkpt>
    <trkpt lat="42.398942" lon="-2.427276">
      <ele>500.6</ele>
    </trkpt>
    <trkpt lat="42.398803" lon="-2.427323">
      <ele>501</ele>
    </trkpt>
    <trkpt lat="42.398469" lon="-2.427353">
      <ele>501.8</ele>
    </trkpt>
    <trkpt lat="42.398132" lon="-2.427262">
      <ele>502.8</ele>
    </trkpt>
    <trkpt lat="42.397899" lon="-2.427135">
      <ele>503.6</ele>
    </trkpt>
    <trkpt lat="42.397332" lon="-2.426728">
      <ele>505.6</ele>
    </trkpt>
    <trkpt lat="42.396444" lon="-2.427259">
      <ele>508.7</ele>
    </trkpt>
    <trkpt lat="42.396011" lon="-2.427346">
      <ele>510</ele>
    </trkpt>
    <trkpt lat="42.3946" lon="-2.427288">
      <ele>514.7</ele>
    </trkpt>
    <trkpt lat="42.392671" lon="-2.427">
      <ele>523.1</ele>
    </trkpt>
    <trkpt lat="42.392416" lon="-2.427">
      <ele>524.2</ele>
    </trkpt>
    <trkpt lat="42.392224" lon="-2.42725">
      <ele>525.3</ele>
    </trkpt>
    <trkpt lat="42.391399" lon="-2.427897">
      <ele>529.4</ele>
    </trkpt>
    <trkpt lat="42.39118" lon="-2.428204">
      <ele>530.5</ele>
    </trkpt>
    <trkpt lat="42.39087" lon="-2.428415">
      <ele>531.6</ele>
    </trkpt>
    <trkpt lat="42.390676" lon="-2.428695">
      <ele>532.5</ele>
    </trkpt>
    <trkpt lat="42.390215" lon="-2.428829">
      <ele>533.9</ele>
    </trkpt>
    <trkpt lat="42.389978" lon="-2.429039">
      <ele>534.6</ele>
    </trkpt>
    <trkpt lat="42.389845" lon="-2.429324">
      <ele>535.2</ele>
    </trkpt>
    <trkpt lat="42.389733" lon="-2.429639">
      <ele>535.8</ele>
    </trkpt>
    <trkpt lat="42.389496" lon="-2.429867">
      <ele>536.5</ele>
    </trkpt>
    <trkpt lat="42.389246" lon="-2.430042">
      <ele>537.3</ele>
    </trkpt>
    <trkpt lat="42.389066" lon="-2.43003">
      <ele>537.9</ele>
    </trkpt>
    <trkpt lat="42.388833" lon="-2.429919">
      <ele>538.7</ele>
    </trkpt>
    <trkpt lat="42.388536" lon="-2.429931">
      <ele>539.7</ele>
    </trkpt>
    <trkpt lat="42.388148" lon="-2.430024">
      <ele>541.2</ele>
    </trkpt>
    <trkpt lat="42.387899" lon="-2.430094">
      <ele>542.2</ele>
    </trkpt>
    <trkpt lat="42.38767" lon="-2.430275">
      <ele>543.3</ele>
    </trkpt>
    <trkpt lat="42.387193" lon="-2.430397">
      <ele>545.3</ele>
    </trkpt>
    <trkpt lat="42.387171" lon="-2.43041">
      <ele>545.4</ele>
    </trkpt>
    <trkpt lat="42.386409" lon="-2.430852">
      <ele>548.7</ele>
    </trkpt>
    <trkpt lat="42.386228" lon="-2.431038">
      <ele>549.6</ele>
    </trkpt>
    <trkpt lat="42.385255" lon="-2.43175">
      <ele>554.4</ele>
    </trkpt>
    <trkpt lat="42.385078" lon="-2.431808">
      <ele>555.1</ele>
    </trkpt>
    <trkpt lat="42.384794" lon="-2.431796">
      <ele>556.3</ele>
    </trkpt>
    <trkpt lat="42.384523" lon="-2.431872">
      <ele>557.4</ele>
    </trkpt>
    <trkpt lat="42.383989" lon="-2.431866">
      <ele>559.5</ele>
    </trkpt>
    <trkpt lat="42.383167" lon="-2.432041">
      <ele>562.6</ele>
    </trkpt>
    <trkpt lat="42.382077" lon="-2.432432">
      <ele>567.5</ele>
    </trkpt>
    <trkpt lat="42.382017" lon="-2.432385">
      <ele>567.8</ele>
    </trkpt>
    <trkpt lat="42.381806" lon="-2.432507">
      <ele>568.7</ele>
    </trkpt>
    <trkpt lat="42.381388" lon="-2.43256">
      <ele>570.5</ele>
    </trkpt>
    <trkpt lat="42.381197" lon="-2.432522">
      <ele>571.3</ele>
    </trkpt>
    <trkpt lat="42.380848" lon="-2.432709">
      <ele>572.9</ele>
    </trkpt>
    <trkpt lat="42.380554" lon="-2.432961">
      <ele>574.4</ele>
    </trkpt>
    <trkpt lat="42.379791" lon="-2.433002">
      <ele>577.7</ele>
    </trkpt>
    <trkpt lat="42.378914" lon="-2.433327">
      <ele>581.1</ele>
    </trkpt>
    <trkpt lat="42.379293" lon="-2.435742">
      <ele>585.6</ele>
    </trkpt>
    <trkpt lat="42.379275" lon="-2.43597">
      <ele>586</ele>
    </trkpt>
    <trkpt lat="42.379125" lon="-2.436001">
      <ele>586.4</ele>
    </trkpt>
    <trkpt lat="42.378913" lon="-2.435751">
      <ele>587.1</ele>
    </trkpt>
    <trkpt lat="42.37816" lon="-2.435391">
      <ele>588.9</ele>
    </trkpt>
    <trkpt lat="42.378017" lon="-2.435273">
      <ele>589.2</ele>
    </trkpt>
    <trkpt lat="42.377015" lon="-2.43412">
      <ele>591.4</ele>
    </trkpt>
    <trkpt lat="42.376618" lon="-2.433718">
      <ele>592.6</ele>
    </trkpt>
    <trkpt lat="42.376159" lon="-2.433702">
      <ele>593.9</ele>
    </trkpt>
    <trkpt lat="42.375842" lon="-2.433557">
      <ele>595</ele>
    </trkpt>
    <trkpt lat="42.37539" lon="-2.433412">
      <ele>597</ele>
    </trkpt>
    <trkpt lat="42.374653" lon="-2.433353">
      <ele>600.3</ele>
    </trkpt>
    <trkpt lat="42.374249" lon="-2.433267">
      <ele>602.3</ele>
    </trkpt>
    <trkpt lat="42.373951" lon="-2.433251">
      <ele>603.8</ele>
    </trkpt>
    <trkpt lat="42.373111" lon="-2.433369">
      <ele>608.5</ele>
    </trkpt>
    <trkpt lat="42.372889" lon="-2.433353">
      <ele>609.7</ele>
    </trkpt>
    <trkpt lat="42.372636" lon="-2.433289">
      <ele>611.2</ele>
    </trkpt>
    <trkpt lat="42.372398" lon="-2.433069">
      <ele>612.9</ele>
    </trkpt>
    <trkpt lat="42.372208" lon="-2.43294">
      <ele>614.1</ele>
    </trkpt>
    <trkpt lat="42.37197" lon="-2.432859">
      <ele>615.5</ele>
    </trkpt>
    <trkpt lat="42.3713" lon="-2.432666">
      <ele>619.4</ele>
    </trkpt>
    <trkpt lat="42.370852" lon="-2.432495">
      <ele>621.8</ele>
    </trkpt>
    <trkpt lat="42.370725" lon="-2.432468">
      <ele>622.5</ele>
    </trkpt>
    <trkpt lat="42.370345" lon="-2.432495">
      <ele>624.4</ele>
    </trkpt>
    <trkpt lat="42.36996" lon="-2.432382">
      <ele>626.3</ele>
    </trkpt>
    <trkpt lat="42.369885" lon="-2.432339">
      <ele>626.7</ele>
    </trkpt>
    <trkpt lat="42.369754" lon="-2.432328">
      <ele>627.3</ele>
    </trkpt>
    <trkpt lat="42.369326" lon="-2.432334">
      <ele>629.3</ele>
    </trkpt>
    <trkpt lat="42.369001" lon="-2.432371">
      <ele>630.9</ele>
    </trkpt>
    <trkpt lat="42.368795" lon="-2.432409">
      <ele>631.9</ele>
    </trkpt>
    <trkpt lat="42.368518" lon="-2.432511">
      <ele>633.5</ele>
    </trkpt>
    <trkpt lat="42.368145" lon="-2.432538">
      <ele>635.7</ele>
    </trkpt>
    <trkpt lat="42.367111" lon="-2.432881">
      <ele>642.5</ele>
    </trkpt>
    <trkpt lat="42.366872" lon="-2.432924">
      <ele>644.1</ele>
    </trkpt>
    <trkpt lat="42.366544" lon="-2.432908">
      <ele>646.2</ele>
    </trkpt>
    <trkpt lat="42.365827" lon="-2.432741">
      <ele>650.6</ele>
    </trkpt>
    <trkpt lat="42.365351" lon="-2.432479">
      <ele>653.6</ele>
    </trkpt>
    <trkpt lat="42.364697" lon="-2.432216">
      <ele>657.9</ele>
    </trkpt>
    <trkpt lat="42.364495" lon="-2.432173">
      <ele>659.2</ele>
    </trkpt>
    <trkpt lat="42.364277" lon="-2.432055">
      <ele>660.7</ele>
    </trkpt>
    <trkpt lat="42.364138" lon="-2.431921">
      <ele>661.8</ele>
    </trkpt>
    <trkpt lat="42.363801" lon="-2.431722">
      <ele>664.2</ele>
    </trkpt>
    <trkpt lat="42.363643" lon="-2.431502">
      <ele>665.8</ele>
    </trkpt>
    <trkpt lat="42.363429" lon="-2.431315">
      <ele>667.6</ele>
    </trkpt>
    <trkpt lat="42.363274" lon="-2.431132">
      <ele>669.1</ele>
    </trkpt>
    <trkpt lat="42.362941" lon="-2.430606">
      <ele>673</ele>
    </trkpt>
    <trkpt lat="42.361895" lon="-2.429464">
      <ele>684</ele>
    </trkpt>
    <trkpt lat="42.361796" lon="-2.429389">
      <ele>684.9</ele>
    </trkpt>
    <trkpt lat="42.361645" lon="-2.429351">
      <ele>686.1</ele>
    </trkpt>
    <trkpt lat="42.360884" lon="-2.429292">
      <ele>692.1</ele>
    </trkpt>
    <trkpt lat="42.360309" lon="-2.429147">
      <ele>696.3</ele>
    </trkpt>
    <trkpt lat="42.359818" lon="-2.429185">
      <ele>699.7</ele>
    </trkpt>
    <trkpt lat="42.359568" lon="-2.429249">
      <ele>701.5</ele>
    </trkpt>
    <trkpt lat="42.359279" lon="-2.42933">
      <ele>703.6</ele>
    </trkpt>
    <trkpt lat="42.358799" lon="-2.429539">
      <ele>707.1</ele>
    </trkpt>
    <trkpt lat="42.35824" lon="-2.429507">
      <ele>711.4</ele>
    </trkpt>
    <trkpt lat="42.357598" lon="-2.429399">
      <ele>717</ele>
    </trkpt>
    <trkpt lat="42.357225" lon="-2.429378">
      <ele>720.2</ele>
    </trkpt>
    <trkpt lat="42.356551" lon="-2.429458">
      <ele>726.1</ele>
    </trkpt>
    <trkpt lat="42.355648" lon="-2.429448">
      <ele>734.2</ele>
    </trkpt>
    <trkpt lat="42.355421" lon="-2.429394">
      <ele>736.3</ele>
    </trkpt>
    <trkpt lat="42.35495" lon="-2.429163">
      <ele>741.1</ele>
    </trkpt>
    <trkpt lat="42.354403" lon="-2.429029">
      <ele>746.7</ele>
    </trkpt>
    <trkpt lat="42.354129" lon="-2.428815">
      <ele>750.3</ele>
    </trkpt>
    <trkpt lat="42.35376" lon="-2.428584">
      <ele>755</ele>
    </trkpt>
    <trkpt lat="42.353578" lon="-2.428418">
      <ele>757.6</ele>
    </trkpt>
    <trkpt lat="42.353321" lon="-2.42838">
      <ele>760.8</ele>
    </trkpt>
    <trkpt lat="42.353063" lon="-2.428423">
      <ele>764</ele>
    </trkpt>
    <trkpt lat="42.352639" lon="-2.428353">
      <ele>769.6</ele>
    </trkpt>
    <trkpt lat="42.352579" lon="-2.428251">
      <ele>771</ele>
    </trkpt>
    <trkpt lat="42.352569" lon="-2.428047">
      <ele>773.2</ele>
    </trkpt>
    <trkpt lat="42.352526" lon="-2.427999">
      <ele>773.9</ele>
    </trkpt>
    <trkpt lat="42.352456" lon="-2.427975">
      <ele>775</ele>
    </trkpt>
    <trkpt lat="42.352335" lon="-2.428002">
      <ele>776.7</ele>
    </trkpt>
    <trkpt lat="42.352095" lon="-2.428141">
      <ele>780.2</ele>
    </trkpt>
    <trkpt lat="42.35206" lon="-2.428147">
      <ele>780.8</ele>
    </trkpt>
    <trkpt lat="42.352046" lon="-2.428109">
      <ele>781.2</ele>
    </trkpt>
    <trkpt lat="42.352025" lon="-2.428195">
      <ele>782.1</ele>
    </trkpt>
    <trkpt lat="42.351965" lon="-2.428281">
      <ele>783.3</ele>
    </trkpt>
    <trkpt lat="42.35177" lon="-2.428327">
      <ele>785.9</ele>
    </trkpt>
    <trkpt lat="42.351586" lon="-2.428472">
      <ele>788.7</ele>
    </trkpt>
    <trkpt lat="42.35115" lon="-2.428714">
      <ele>795.1</ele>
    </trkpt>
    <trkpt lat="42.35096" lon="-2.428714">
      <ele>797.7</ele>
    </trkpt>
    <trkpt lat="42.350775" lon="-2.428788">
      <ele>800.1</ele>
    </trkpt>
    <trkpt lat="42.350359" lon="-2.42913">
      <ele>806.1</ele>
    </trkpt>
    <trkpt lat="42.349241" lon="-2.429297">
      <ele>821.1</ele>
    </trkpt>
    <trkpt lat="42.34921" lon="-2.429302">
      <ele>821.5</ele>
    </trkpt>
    <trkpt lat="42.348639" lon="-2.429442">
      <ele>829.1</ele>
    </trkpt>
    <trkpt lat="42.348396" lon="-2.42956">
      <ele>832.5</ele>
    </trkpt>
    <trkpt lat="42.348139" lon="-2.430013">
      <ele>838.3</ele>
    </trkpt>
    <trkpt lat="42.348153" lon="-2.429855">
      <ele>839.7</ele>
    </trkpt>
    <trkpt lat="42.348096" lon="-2.429636">
      <ele>841.6</ele>
    </trkpt>
    <trkpt lat="42.347729" lon="-2.428931">
      <ele>847.1</ele>
    </trkpt>
    <trkpt lat="42.347719" lon="-2.428824">
      <ele>847.7</ele>
    </trkpt>
    <trkpt lat="42.347779" lon="-2.428316">
      <ele>850.8</ele>
    </trkpt>
    <trkpt lat="42.348244" lon="-2.427964">
      <ele>855.1</ele>
    </trkpt>
    <trkpt lat="42.348908" lon="-2.427634">
      <ele>860.5</ele>
    </trkpt>
    <trkpt lat="42.348933" lon="-2.427616">
      <ele>860.8</ele>
    </trkpt>
    <trkpt lat="42.348922" lon="-2.427531">
      <ele>861.3</ele>
    </trkpt>
    <trkpt lat="42.349107" lon="-2.426997">
      <ele>864.7</ele>
    </trkpt>
    <trkpt lat="42.349252" lon="-2.426657">
      <ele>866.6</ele>
    </trkpt>
    <trkpt lat="42.349328" lon="-2.426509">
      <ele>867.5</ele>
    </trkpt>
    <trkpt lat="42.349196" lon="-2.426472">
      <ele>868.2</ele>
    </trkpt>
    <trkpt lat="42.348776" lon="-2.426111">
      <ele>869.5</ele>
    </trkpt>
    <trkpt lat="42.348648" lon="-2.42598">
      <ele>869.5</ele>
    </trkpt>
    <trkpt lat="42.348479" lon="-2.425808">
      <ele>869.3</ele>
    </trkpt>
    <trkpt lat="42.348377" lon="-2.425707">
      <ele>869</ele>
    </trkpt>
    <trkpt lat="42.348143" lon="-2.425831">
      <ele>868</ele>
    </trkpt>
    <trkpt lat="42.348064" lon="-2.42594">
      <ele>867.6</ele>
    </trkpt>
    <trkpt lat="42.347869" lon="-2.426158">
      <ele>866.8</ele>
    </trkpt>
    <trkpt lat="42.347852" lon="-2.426173">
      <ele>866.8</ele>
    </trkpt>
    <trkpt lat="42.3477" lon="-2.426348">
      <ele>866.4</ele>
    </trkpt>
    <trkpt lat="42.347667" lon="-2.426466">
      <ele>866.2</ele>
    </trkpt>
    <trkpt lat="42.347702" lon="-2.426889">
      <ele>865.8</ele>
    </trkpt>
    <trkpt lat="42.347528" lon="-2.426866">
      <ele>865.8</ele>
    </trkpt>
    <trkpt lat="42.347389" lon="-2.426907">
      <ele>866</ele>
    </trkpt>
    <trkpt lat="42.346698" lon="-2.427379">
      <ele>870.3</ele>
    </trkpt>
    <trkpt lat="42.346555" lon="-2.427431">
      <ele>872</ele>
    </trkpt>
    <trkpt lat="42.346229" lon="-2.427448">
      <ele>875.7</ele>
    </trkpt>
    <trkpt lat="42.346168" lon="-2.427502">
      <ele>876.6</ele>
    </trkpt>
    <trkpt lat="42.34611" lon="-2.427621">
      <ele>877.8</ele>
    </trkpt>
    <trkpt lat="42.345969" lon="-2.428103">
      <ele>882</ele>
    </trkpt>
    <trkpt lat="42.345977" lon="-2.428339">
      <ele>883.8</ele>
    </trkpt>
    <trkpt lat="42.34601" lon="-2.428546">
      <ele>885.3</ele>
    </trkpt>
    <trkpt lat="42.346055" lon="-2.428749">
      <ele>886.8</ele>
    </trkpt>
    <trkpt lat="42.346196" lon="-2.429129">
      <ele>889.6</ele>
    </trkpt>
    <trkpt lat="42.346224" lon="-2.429316">
      <ele>890.5</ele>
    </trkpt>
    <trkpt lat="42.346179" lon="-2.429784">
      <ele>892.2</ele>
    </trkpt>
    <trkpt lat="42.346081" lon="-2.430161">
      <ele>892.8</ele>
    </trkpt>
    <trkpt lat="42.345843" lon="-2.430568">
      <ele>893.1</ele>
    </trkpt>
    <trkpt lat="42.345664" lon="-2.430734">
      <ele>893</ele>
    </trkpt>
    <trkpt lat="42.345475" lon="-2.431004">
      <ele>893</ele>
    </trkpt>
    <trkpt lat="42.345438" lon="-2.431294">
      <ele>893.1</ele>
    </trkpt>
    <trkpt lat="42.345321" lon="-2.431719">
      <ele>893.7</ele>
    </trkpt>
    <trkpt lat="42.344977" lon="-2.432031">
      <ele>895</ele>
    </trkpt>
    <trkpt lat="42.344451" lon="-2.432668">
      <ele>898.8</ele>
    </trkpt>
    <trkpt lat="42.343873" lon="-2.433216">
      <ele>903</ele>
    </trkpt>
    <trkpt lat="42.343777" lon="-2.433381">
      <ele>903.8</ele>
    </trkpt>
    <trkpt lat="42.343507" lon="-2.433973">
      <ele>906.3</ele>
    </trkpt>
    <trkpt lat="42.343106" lon="-2.434671">
      <ele>910.2</ele>
    </trkpt>
    <trkpt lat="42.343007" lon="-2.434792">
      <ele>911.3</ele>
    </trkpt>
    <trkpt lat="42.342939" lon="-2.434971">
      <ele>912.6</ele>
    </trkpt>
    <trkpt lat="42.3429" lon="-2.435231">
      <ele>914.5</ele>
    </trkpt>
    <trkpt lat="42.342808" lon="-2.43548">
      <ele>916.4</ele>
    </trkpt>
    <trkpt lat="42.342569" lon="-2.435884">
      <ele>919.5</ele>
    </trkpt>
    <trkpt lat="42.342409" lon="-2.436295">
      <ele>922.1</ele>
    </trkpt>
    <trkpt lat="42.342359" lon="-2.436381">
      <ele>922.7</ele>
    </trkpt>
    <trkpt lat="42.342321" lon="-2.436374">
      <ele>922.9</ele>
    </trkpt>
    <trkpt lat="42.341973" lon="-2.435894">
      <ele>925.8</ele>
    </trkpt>
    <trkpt lat="42.341885" lon="-2.435855">
      <ele>926.2</ele>
    </trkpt>
    <trkpt lat="42.341713" lon="-2.435925">
      <ele>926.8</ele>
    </trkpt>
    <trkpt lat="42.341247" lon="-2.436268">
      <ele>926.4</ele>
    </trkpt>
    <trkpt lat="42.341054" lon="-2.436374">
      <ele>925.6</ele>
    </trkpt>
    <trkpt lat="42.340917" lon="-2.436397">
      <ele>925</ele>
    </trkpt>
    <trkpt lat="42.340788" lon="-2.436378">
      <ele>924.4</ele>
    </trkpt>
    <trkpt lat="42.340668" lon="-2.43627">
      <ele>923.5</ele>
    </trkpt>
    <trkpt lat="42.340361" lon="-2.435894">
      <ele>919.9</ele>
    </trkpt>
    <trkpt lat="42.340293" lon="-2.435848">
      <ele>919.1</ele>
    </trkpt>
    <trkpt lat="42.340205" lon="-2.435788">
      <ele>918</ele>
    </trkpt>
    <trkpt lat="42.339995" lon="-2.435722">
      <ele>915.4</ele>
    </trkpt>
    <trkpt lat="42.339908" lon="-2.435748">
      <ele>914.3</ele>
    </trkpt>
    <trkpt lat="42.339879" lon="-2.435775">
      <ele>913.8</ele>
    </trkpt>
    <trkpt lat="42.33983" lon="-2.435821">
      <ele>913</ele>
    </trkpt>
    <trkpt lat="42.339614" lon="-2.436127">
      <ele>908.8</ele>
    </trkpt>
    <trkpt lat="42.339508" lon="-2.436225">
      <ele>907.1</ele>
    </trkpt>
    <trkpt lat="42.339402" lon="-2.436283">
      <ele>905.6</ele>
    </trkpt>
    <trkpt lat="42.339084" lon="-2.436299">
      <ele>901.7</ele>
    </trkpt>
    <trkpt lat="42.338993" lon="-2.43636">
      <ele>900.6</ele>
    </trkpt>
    <trkpt lat="42.338944" lon="-2.436474">
      <ele>899.6</ele>
    </trkpt>
    <trkpt lat="42.338909" lon="-2.43711">
      <ele>895.6</ele>
    </trkpt>
    <trkpt lat="42.338851" lon="-2.437369">
      <ele>894.6</ele>
    </trkpt>
    <trkpt lat="42.338753" lon="-2.437593">
      <ele>893.9</ele>
    </trkpt>
    <trkpt lat="42.338441" lon="-2.438093">
      <ele>894</ele>
    </trkpt>
    <trkpt lat="42.338408" lon="-2.438194">
      <ele>894.3</ele>
    </trkpt>
    <trkpt lat="42.338365" lon="-2.438458">
      <ele>895.2</ele>
    </trkpt>
    <trkpt lat="42.338381" lon="-2.439107">
      <ele>898</ele>
    </trkpt>
    <trkpt lat="42.338348" lon="-2.439279">
      <ele>898.8</ele>
    </trkpt>
    <trkpt lat="42.338089" lon="-2.439707">
      <ele>901.1</ele>
    </trkpt>
    <trkpt lat="42.337997" lon="-2.439959">
      <ele>901.7</ele>
    </trkpt>
    <trkpt lat="42.337885" lon="-2.440115">
      <ele>901.9</ele>
    </trkpt>
    <trkpt lat="42.33777" lon="-2.439837">
      <ele>901.8</ele>
    </trkpt>
    <trkpt lat="42.337697" lon="-2.439467">
      <ele>901.1</ele>
    </trkpt>
    <trkpt lat="42.337636" lon="-2.439305">
      <ele>900.6</ele>
    </trkpt>
    <trkpt lat="42.33755" lon="-2.439179">
      <ele>900.1</ele>
    </trkpt>
    <trkpt lat="42.337453" lon="-2.439098">
      <ele>899.5</ele>
    </trkpt>
    <trkpt lat="42.33723" lon="-2.43889">
      <ele>898.2</ele>
    </trkpt>
    <trkpt lat="42.337055" lon="-2.438782">
      <ele>897.3</ele>
    </trkpt>
    <trkpt lat="42.336909" lon="-2.438755">
      <ele>896.6</ele>
    </trkpt>
    <trkpt lat="42.33654" lon="-2.438873">
      <ele>895.1</ele>
    </trkpt>
    <trkpt lat="42.336223" lon="-2.439067">
      <ele>894.4</ele>
    </trkpt>
    <trkpt lat="42.336092" lon="-2.439179">
      <ele>894.4</ele>
    </trkpt>
    <trkpt lat="42.335648" lon="-2.439388">
      <ele>895.3</ele>
    </trkpt>
    <trkpt lat="42.335445" lon="-2.439421">
      <ele>896</ele>
    </trkpt>
    <trkpt lat="42.335303" lon="-2.439356">
      <ele>896.6</ele>
    </trkpt>
    <trkpt lat="42.335049" lon="-2.439335">
      <ele>897</ele>
    </trkpt>
    <trkpt lat="42.334938" lon="-2.439426">
      <ele>897</ele>
    </trkpt>
    <trkpt lat="42.334609" lon="-2.440011">
      <ele>895.9</ele>
    </trkpt>
    <trkpt lat="42.334549" lon="-2.440059">
      <ele>895.7</ele>
    </trkpt>
    <trkpt lat="42.334502" lon="-2.440054">
      <ele>895.6</ele>
    </trkpt>
    <trkpt lat="42.33447" lon="-2.439936">
      <ele>895.3</ele>
    </trkpt>
    <trkpt lat="42.334525" lon="-2.439555">
      <ele>894.3</ele>
    </trkpt>
    <trkpt lat="42.33441" lon="-2.439128">
      <ele>892.7</ele>
    </trkpt>
    <trkpt lat="42.334297" lon="-2.438925">
      <ele>891.4</ele>
    </trkpt>
    <trkpt lat="42.333854" lon="-2.438908">
      <ele>887.6</ele>
    </trkpt>
    <trkpt lat="42.333724" lon="-2.438868">
      <ele>886.6</ele>
    </trkpt>
    <trkpt lat="42.333595" lon="-2.438981">
      <ele>885.8</ele>
    </trkpt>
    <trkpt lat="42.333424" lon="-2.438862">
      <ele>885</ele>
    </trkpt>
    <trkpt lat="42.333256" lon="-2.43867">
      <ele>884.2</ele>
    </trkpt>
    <trkpt lat="42.333085" lon="-2.438676">
      <ele>883.6</ele>
    </trkpt>
    <trkpt lat="42.333006" lon="-2.438913">
      <ele>883.1</ele>
    </trkpt>
    <trkpt lat="42.333043" lon="-2.439055">
      <ele>882.9</ele>
    </trkpt>
    <trkpt lat="42.332855" lon="-2.439207">
      <ele>882.4</ele>
    </trkpt>
    <trkpt lat="42.332692" lon="-2.439597">
      <ele>881.4</ele>
    </trkpt>
    <trkpt lat="42.332588" lon="-2.439643">
      <ele>880.9</ele>
    </trkpt>
    <trkpt lat="42.332462" lon="-2.439891">
      <ele>879.7</ele>
    </trkpt>
    <trkpt lat="42.332375" lon="-2.440208">
      <ele>878.1</ele>
    </trkpt>
    <trkpt lat="42.332278" lon="-2.4404">
      <ele>876.7</ele>
    </trkpt>
    <trkpt lat="42.332157" lon="-2.440406">
      <ele>875.6</ele>
    </trkpt>
    <trkpt lat="42.331576" lon="-2.439462">
      <ele>866.8</ele>
    </trkpt>
    <trkpt lat="42.331242" lon="-2.439366">
      <ele>864.6</ele>
    </trkpt>
    <trkpt lat="42.331029" lon="-2.439405">
      <ele>863.8</ele>
    </trkpt>
    <trkpt lat="42.330933" lon="-2.439535">
      <ele>863.7</ele>
    </trkpt>
    <trkpt lat="42.330803" lon="-2.439987">
      <ele>864.4</ele>
    </trkpt>
    <trkpt lat="42.330582" lon="-2.440485">
      <ele>867.4</ele>
    </trkpt>
    <trkpt lat="42.330243" lon="-2.4407">
      <ele>871.4</ele>
    </trkpt>
    <trkpt lat="42.329708" lon="-2.441293">
      <ele>879.1</ele>
    </trkpt>
    <trkpt lat="42.329404" lon="-2.441494">
      <ele>883.1</ele>
    </trkpt>
    <trkpt lat="42.329236" lon="-2.441604">
      <ele>885.4</ele>
    </trkpt>
    <trkpt lat="42.328793" lon="-2.441972">
      <ele>891.6</ele>
    </trkpt>
    <trkpt lat="42.32835" lon="-2.442238">
      <ele>896.8</ele>
    </trkpt>
    <trkpt lat="42.327877" lon="-2.442452">
      <ele>901.6</ele>
    </trkpt>
    <trkpt lat="42.327464" lon="-2.442565">
      <ele>905.1</ele>
    </trkpt>
    <trkpt lat="42.326745" lon="-2.442548">
      <ele>910.8</ele>
    </trkpt>
    <trkpt lat="42.326452" lon="-2.442661">
      <ele>913.6</ele>
    </trkpt>
    <trkpt lat="42.326285" lon="-2.44282">
      <ele>915.7</ele>
    </trkpt>
    <trkpt lat="42.325926" lon="-2.4433">
      <ele>921.6</ele>
    </trkpt>
    <trkpt lat="42.325378" lon="-2.444425">
      <ele>935.7</ele>
    </trkpt>
    <trkpt lat="42.325031" lon="-2.444634">
      <ele>940.8</ele>
    </trkpt>
    <trkpt lat="42.324739" lon="-2.444849">
      <ele>945</ele>
    </trkpt>
    <trkpt lat="42.324622" lon="-2.445048">
      <ele>947.4</ele>
    </trkpt>
    <trkpt lat="42.324547" lon="-2.445225">
      <ele>949.2</ele>
    </trkpt>
    <trkpt lat="42.325023" lon="-2.445327">
      <ele>955.3</ele>
    </trkpt>
    <trkpt lat="42.325554" lon="-2.445606">
      <ele>962.9</ele>
    </trkpt>
    <trkpt lat="42.326169" lon="-2.445584">
      <ele>972.6</ele>
    </trkpt>
    <trkpt lat="42.326316" lon="-2.445633">
      <ele>975</ele>
    </trkpt>
    <trkpt lat="42.326593" lon="-2.445772">
      <ele>979.5</ele>
    </trkpt>
    <trkpt lat="42.326605" lon="-2.44593">
      <ele>981.2</ele>
    </trkpt>
    <trkpt lat="42.326588" lon="-2.446079">
      <ele>982.8</ele>
    </trkpt>
    <trkpt lat="42.326321" lon="-2.446525">
      <ele>988</ele>
    </trkpt>
    <trkpt lat="42.325867" lon="-2.447024">
      <ele>993.4</ele>
    </trkpt>
    <trkpt lat="42.325732" lon="-2.447207">
      <ele>994.6</ele>
    </trkpt>
    <trkpt lat="42.32513" lon="-2.44756">
      <ele>998.6</ele>
    </trkpt>
    <trkpt lat="42.324976" lon="-2.44773">
      <ele>999.9</ele>
    </trkpt>
    <trkpt lat="42.324557" lon="-2.447903">
      <ele>1002.9</ele>
    </trkpt>
    <trkpt lat="42.324436" lon="-2.447922">
      <ele>1003.8</ele>
    </trkpt>
    <trkpt lat="42.324224" lon="-2.44811">
      <ele>1005.8</ele>
    </trkpt>
    <trkpt lat="42.324053" lon="-2.448714">
      <ele>1010.3</ele>
    </trkpt>
    <trkpt lat="42.323979" lon="-2.449137">
      <ele>1013.8</ele>
    </trkpt>
    <trkpt lat="42.324007" lon="-2.449321">
      <ele>1015.4</ele>
    </trkpt>
    <trkpt lat="42.323732" lon="-2.44939">
      <ele>1018.7</ele>
    </trkpt>
    <trkpt lat="42.323408" lon="-2.449542">
      <ele>1023.1</ele>
    </trkpt>
    <trkpt lat="42.322884" lon="-2.450263">
      <ele>1033.4</ele>
    </trkpt>
    <trkpt lat="42.322785" lon="-2.450465">
      <ele>1035.9</ele>
    </trkpt>
    <trkpt lat="42.322555" lon="-2.45082">
      <ele>1040.3</ele>
    </trkpt>
    <trkpt lat="42.322511" lon="-2.450848">
      <ele>1040.9</ele>
    </trkpt>
    <trkpt lat="42.322469" lon="-2.45083">
      <ele>1041.4</ele>
    </trkpt>
    <trkpt lat="42.322471" lon="-2.450758">
      <ele>1042.1</ele>
    </trkpt>
    <trkpt lat="42.32253" lon="-2.450555">
      <ele>1044</ele>
    </trkpt>
    <trkpt lat="42.322567" lon="-2.450251">
      <ele>1046.6</ele>
    </trkpt>
    <trkpt lat="42.322528" lon="-2.450026">
      <ele>1048.5</ele>
    </trkpt>
    <trkpt lat="42.322448" lon="-2.449761">
      <ele>1050.7</ele>
    </trkpt>
    <trkpt lat="42.322364" lon="-2.449594">
      <ele>1052.3</ele>
    </trkpt>
    <trkpt lat="42.322368" lon="-2.449508">
      <ele>1053.1</ele>
    </trkpt>
    <trkpt lat="42.322295" lon="-2.449303">
      <ele>1055</ele>
    </trkpt>
    <trkpt lat="42.322208" lon="-2.449278">
      <ele>1056</ele>
    </trkpt>
    <trkpt lat="42.322135" lon="-2.449318">
      <ele>1057</ele>
    </trkpt>
    <trkpt lat="42.321997" lon="-2.44958">
      <ele>1059.9</ele>
    </trkpt>
    <trkpt lat="42.321942" lon="-2.449575">
      <ele>1060.6</ele>
    </trkpt>
    <trkpt lat="42.321729" lon="-2.4497">
      <ele>1063.7</ele>
    </trkpt>
    <trkpt lat="42.321417" lon="-2.44977">
      <ele>1068.4</ele>
    </trkpt>
    <trkpt lat="42.321081" lon="-2.449733">
      <ele>1073.6</ele>
    </trkpt>
    <trkpt lat="42.320974" lon="-2.449747">
      <ele>1075.2</ele>
    </trkpt>
    <trkpt lat="42.320843" lon="-2.449729">
      <ele>1077.2</ele>
    </trkpt>
    <trkpt lat="42.320721" lon="-2.449579">
      <ele>1079.6</ele>
    </trkpt>
    <trkpt lat="42.32048" lon="-2.449122">
      <ele>1084.9</ele>
    </trkpt>
    <trkpt lat="42.320226" lon="-2.448908">
      <ele>1087.8</ele>
    </trkpt>
    <trkpt lat="42.320134" lon="-2.448909">
      <ele>1088.5</ele>
    </trkpt>
    <trkpt lat="42.319906" lon="-2.449036">
      <ele>1090.3</ele>
    </trkpt>
    <trkpt lat="42.319779" lon="-2.449064">
      <ele>1091.2</ele>
    </trkpt>
    <trkpt lat="42.319697" lon="-2.449045">
      <ele>1091.7</ele>
    </trkpt>
    <trkpt lat="42.319546" lon="-2.44898">
      <ele>1092.7</ele>
    </trkpt>
    <trkpt lat="42.31944" lon="-2.448901">
      <ele>1093.4</ele>
    </trkpt>
    <trkpt lat="42.319267" lon="-2.448661">
      <ele>1094.7</ele>
    </trkpt>
    <trkpt lat="42.319183" lon="-2.448594">
      <ele>1095.2</ele>
    </trkpt>
    <trkpt lat="42.319108" lon="-2.448484">
      <ele>1095.7</ele>
    </trkpt>
    <trkpt lat="42.319017" lon="-2.448455">
      <ele>1096.3</ele>
    </trkpt>
    <trkpt lat="42.3188" lon="-2.448461">
      <ele>1097.6</ele>
    </trkpt>
    <trkpt lat="42.318448" lon="-2.448355">
      <ele>1100.5</ele>
    </trkpt>
    <trkpt lat="42.31819" lon="-2.448358">
      <ele>1103.1</ele>
    </trkpt>
    <trkpt lat="42.317709" lon="-2.448403">
      <ele>1108.8</ele>
    </trkpt>
    <trkpt lat="42.317391" lon="-2.448365">
      <ele>1112.9</ele>
    </trkpt>
    <trkpt lat="42.316815" lon="-2.448485">
      <ele>1121</ele>
    </trkpt>
    <trkpt lat="42.316405" lon="-2.448521">
      <ele>1126.9</ele>
    </trkpt>
    <trkpt lat="42.316053" lon="-2.448632">
      <ele>1132.6</ele>
    </trkpt>
    <trkpt lat="42.315771" lon="-2.448689">
      <ele>1137.3</ele>
    </trkpt>
    <trkpt lat="42.31553" lon="-2.44868">
      <ele>1141.4</ele>
    </trkpt>
    <trkpt lat="42.314958" lon="-2.448566">
      <ele>1151.1</ele>
    </trkpt>
    <trkpt lat="42.314692" lon="-2.448553">
      <ele>1155.1</ele>
    </trkpt>
    <trkpt lat="42.314101" lon="-2.448696">
      <ele>1162.1</ele>
    </trkpt>
    <trkpt lat="42.31391" lon="-2.448794">
      <ele>1164</ele>
    </trkpt>
    <trkpt lat="42.313719" lon="-2.448834">
      <ele>1165.8</ele>
    </trkpt>
    <trkpt lat="42.313509" lon="-2.448954">
      <ele>1167.5</ele>
    </trkpt>
    <trkpt lat="42.313217" lon="-2.449119">
      <ele>1169</ele>
    </trkpt>
    <trkpt lat="42.312729" lon="-2.449397">
      <ele>1169.9</ele>
    </trkpt>
    <trkpt lat="42.312224" lon="-2.451024">
      <ele>1167.2</ele>
    </trkpt>
    <trkpt lat="42.311777" lon="-2.452735">
      <ele>1152</ele>
    </trkpt>
    <trkpt lat="42.311631" lon="-2.452843">
      <ele>1149.4</ele>
    </trkpt>
    <trkpt lat="42.311494" lon="-2.45289">
      <ele>1147.1</ele>
    </trkpt>
    <trkpt lat="42.311154" lon="-2.452839">
      <ele>1141.2</ele>
    </trkpt>
    <trkpt lat="42.311181" lon="-2.452873">
      <ele>1140.5</ele>
    </trkpt>
    <trkpt lat="42.311104" lon="-2.452955">
      <ele>1138.7</ele>
    </trkpt>
    <trkpt lat="42.311121" lon="-2.453167">
      <ele>1135.6</ele>
    </trkpt>
    <trkpt lat="42.31107" lon="-2.453199">
      <ele>1134.5</ele>
    </trkpt>
    <trkpt lat="42.310949" lon="-2.453184">
      <ele>1132</ele>
    </trkpt>
    <trkpt lat="42.310934" lon="-2.453221">
      <ele>1131.3</ele>
    </trkpt>
    <trkpt lat="42.31097" lon="-2.453369">
      <ele>1128.9</ele>
    </trkpt>
    <trkpt lat="42.310483" lon="-2.453133">
      <ele>1117.9</ele>
    </trkpt>
    <trkpt lat="42.310578" lon="-2.453257">
      <ele>1114.9</ele>
    </trkpt>
    <trkpt lat="42.310521" lon="-2.453487">
      <ele>1110.9</ele>
    </trkpt>
    <trkpt lat="42.310375" lon="-2.453697">
      <ele>1106</ele>
    </trkpt>
    <trkpt lat="42.310144" lon="-2.453755">
      <ele>1100.4</ele>
    </trkpt>
    <trkpt lat="42.310108" lon="-2.453987">
      <ele>1096.1</ele>
    </trkpt>
    <trkpt lat="42.310056" lon="-2.454086">
      <ele>1093.8</ele>
    </trkpt>
    <trkpt lat="42.310067" lon="-2.454198">
      <ele>1091.7</ele>
    </trkpt>
    <trkpt lat="42.310084" lon="-2.454363">
      <ele>1088.6</ele>
    </trkpt>
    <trkpt lat="42.310167" lon="-2.454468">
      <ele>1085.8</ele>
    </trkpt>
    <trkpt lat="42.310232" lon="-2.454608">
      <ele>1082.8</ele>
    </trkpt>
    <trkpt lat="42.310252" lon="-2.45473">
      <ele>1080.5</ele>
    </trkpt>
    <trkpt lat="42.310414" lon="-2.455188">
      <ele>1071.5</ele>
    </trkpt>
    <trkpt lat="42.310457" lon="-2.455387">
      <ele>1067.9</ele>
    </trkpt>
    <trkpt lat="42.310416" lon="-2.455636">
      <ele>1063.4</ele>
    </trkpt>
    <trkpt lat="42.310437" lon="-2.455778">
      <ele>1060.9</ele>
    </trkpt>
    <trkpt lat="42.310484" lon="-2.455814">
      <ele>1059.6</ele>
    </trkpt>
    <trkpt lat="42.310564" lon="-2.455997">
      <ele>1056</ele>
    </trkpt>
    <trkpt lat="42.310627" lon="-2.456029">
      <ele>1054.5</ele>
    </trkpt>
    <trkpt lat="42.310729" lon="-2.456293">
      <ele>1049.3</ele>
    </trkpt>
    <trkpt lat="42.310868" lon="-2.456388">
      <ele>1045.8</ele>
    </trkpt>
    <trkpt lat="42.310878" lon="-2.456418">
      <ele>1045.3</ele>
    </trkpt>
    <trkpt lat="42.310846" lon="-2.456461">
      <ele>1044.3</ele>
    </trkpt>
    <trkpt lat="42.310846" lon="-2.456512">
      <ele>1043.5</ele>
    </trkpt>
    <trkpt lat="42.310964" lon="-2.456639">
      <ele>1040.2</ele>
    </trkpt>
    <trkpt lat="42.311045" lon="-2.456851">
      <ele>1036.3</ele>
    </trkpt>
    <trkpt lat="42.311121" lon="-2.45697">
      <ele>1033.5</ele>
    </trkpt>
    <trkpt lat="42.311381" lon="-2.457281">
      <ele>1025</ele>
    </trkpt>
    <trkpt lat="42.31148" lon="-2.457433">
      <ele>1021.2</ele>
    </trkpt>
    <trkpt lat="42.311628" lon="-2.457536">
      <ele>1017.1</ele>
    </trkpt>
    <trkpt lat="42.31175" lon="-2.457741">
      <ele>1012.4</ele>
    </trkpt>
    <trkpt lat="42.311816" lon="-2.457822">
      <ele>1010.2</ele>
    </trkpt>
    <trkpt lat="42.311839" lon="-2.457923">
      <ele>1008.4</ele>
    </trkpt>
    <trkpt lat="42.311904" lon="-2.458007">
      <ele>1006.3</ele>
    </trkpt>
    <trkpt lat="42.311907" lon="-2.458084">
      <ele>1005</ele>
    </trkpt>
    <trkpt lat="42.311953" lon="-2.458142">
      <ele>1003.6</ele>
    </trkpt>
    <trkpt lat="42.312258" lon="-2.458284">
      <ele>996.8</ele>
    </trkpt>
    <trkpt lat="42.312293" lon="-2.458378">
      <ele>995.3</ele>
    </trkpt>
    <trkpt lat="42.312267" lon="-2.45843">
      <ele>994.4</ele>
    </trkpt>
    <trkpt lat="42.312151" lon="-2.458494">
      <ele>991.9</ele>
    </trkpt>
    <trkpt lat="42.312153" lon="-2.458518">
      <ele>991.5</ele>
    </trkpt>
    <trkpt lat="42.312198" lon="-2.458515">
      <ele>990.7</ele>
    </trkpt>
    <trkpt lat="42.312407" lon="-2.458896">
      <ele>984.7</ele>
    </trkpt>
    <trkpt lat="42.312568" lon="-2.459042">
      <ele>982</ele>
    </trkpt>
    <trkpt lat="42.312771" lon="-2.459132">
      <ele>979.2</ele>
    </trkpt>
    <trkpt lat="42.31291" lon="-2.459125">
      <ele>977.3</ele>
    </trkpt>
    <trkpt lat="42.313158" lon="-2.459204">
      <ele>973.8</ele>
    </trkpt>
    <trkpt lat="42.313239" lon="-2.459239">
      <ele>972.6</ele>
    </trkpt>
    <trkpt lat="42.313499" lon="-2.459218">
      <ele>968.8</ele>
    </trkpt>
    <trkpt lat="42.31366" lon="-2.459276">
      <ele>966.5</ele>
    </trkpt>
    <trkpt lat="42.313864" lon="-2.459749">
      <ele>961.9</ele>
    </trkpt>
    <trkpt lat="42.313941" lon="-2.459926">
      <ele>960.6</ele>
    </trkpt>
    <trkpt lat="42.313985" lon="-2.460167">
      <ele>959.4</ele>
    </trkpt>
    <trkpt lat="42.313933" lon="-2.460349">
      <ele>958.5</ele>
    </trkpt>
    <trkpt lat="42.313893" lon="-2.460378">
      <ele>958.2</ele>
    </trkpt>
    <trkpt lat="42.314041" lon="-2.460405">
      <ele>957.4</ele>
    </trkpt>
    <trkpt lat="42.314243" lon="-2.460342">
      <ele>956.7</ele>
    </trkpt>
    <trkpt lat="42.314415" lon="-2.460176">
      <ele>956.3</ele>
    </trkpt>
    <trkpt lat="42.314484" lon="-2.459962">
      <ele>956.3</ele>
    </trkpt>
    <trkpt lat="42.314519" lon="-2.459574">
      <ele>957</ele>
    </trkpt>
    <trkpt lat="42.314594" lon="-2.459301">
      <ele>957.9</ele>
    </trkpt>
    <trkpt lat="42.31465" lon="-2.459264">
      <ele>958.2</ele>
    </trkpt>
    <trkpt lat="42.314941" lon="-2.459382">
      <ele>959.7</ele>
    </trkpt>
    <trkpt lat="42.315085" lon="-2.459325">
      <ele>960.4</ele>
    </trkpt>
    <trkpt lat="42.315607" lon="-2.458998">
      <ele>963.1</ele>
    </trkpt>
    <trkpt lat="42.315766" lon="-2.458863">
      <ele>964.1</ele>
    </trkpt>
    <trkpt lat="42.315997" lon="-2.458609">
      <ele>966.1</ele>
    </trkpt>
    <trkpt lat="42.316085" lon="-2.458371">
      <ele>967.6</ele>
    </trkpt>
    <trkpt lat="42.316106" lon="-2.458101">
      <ele>969.4</ele>
    </trkpt>
    <trkpt lat="42.316097" lon="-2.457934">
      <ele>970.4</ele>
    </trkpt>
    <trkpt lat="42.316041" lon="-2.457781">
      <ele>971.4</ele>
    </trkpt>
    <trkpt lat="42.315931" lon="-2.457683">
      <ele>972.2</ele>
    </trkpt>
    <trkpt lat="42.315848" lon="-2.457542">
      <ele>973</ele>
    </trkpt>
    <trkpt lat="42.315832" lon="-2.457462">
      <ele>973.3</ele>
    </trkpt>
    <trkpt lat="42.316003" lon="-2.457056">
      <ele>974.1</ele>
    </trkpt>
    <trkpt lat="42.316114" lon="-2.456904">
      <ele>974</ele>
    </trkpt>
    <trkpt lat="42.316198" lon="-2.456924">
      <ele>973.8</ele>
    </trkpt>
    <trkpt lat="42.316259" lon="-2.457">
      <ele>973.7</ele>
    </trkpt>
    <trkpt lat="42.31631" lon="-2.457175">
      <ele>973.5</ele>
    </trkpt>
    <trkpt lat="42.316277" lon="-2.457431">
      <ele>973.1</ele>
    </trkpt>
    <trkpt lat="42.316395" lon="-2.457578">
      <ele>972.8</ele>
    </trkpt>
    <trkpt lat="42.316608" lon="-2.458154">
      <ele>971.9</ele>
    </trkpt>
    <trkpt lat="42.316684" lon="-2.457879">
      <ele>971.6</ele>
    </trkpt>
    <trkpt lat="42.316868" lon="-2.457764">
      <ele>971.8</ele>
    </trkpt>
    <trkpt lat="42.317317" lon="-2.457373">
      <ele>974.2</ele>
    </trkpt>
    <trkpt lat="42.317415" lon="-2.457342">
      <ele>975.1</ele>
    </trkpt>
    <trkpt lat="42.317481" lon="-2.457358">
      <ele>975.7</ele>
    </trkpt>
    <trkpt lat="42.317594" lon="-2.457521">
      <ele>977.4</ele>
    </trkpt>
    <trkpt lat="42.317806" lon="-2.457742">
      <ele>980</ele>
    </trkpt>
    <trkpt lat="42.317971" lon="-2.457992">
      <ele>982.3</ele>
    </trkpt>
    <trkpt lat="42.318134" lon="-2.45808">
      <ele>983.9</ele>
    </trkpt>
    <trkpt lat="42.318245" lon="-2.458179">
      <ele>985.1</ele>
    </trkpt>
    <trkpt lat="42.31848" lon="-2.458208">
      <ele>987.1</ele>
    </trkpt>
    <trkpt lat="42.318632" lon="-2.458281">
      <ele>988.4</ele>
    </trkpt>
    <trkpt lat="42.318804" lon="-2.458267">
      <ele>989.7</ele>
    </trkpt>
    <trkpt lat="42.31874" lon="-2.458319">
      <ele>990.2</ele>
    </trkpt>
    <trkpt lat="42.318682" lon="-2.458423">
      <ele>990.9</ele>
    </trkpt>
    <trkpt lat="42.31866" lon="-2.458577">
      <ele>991.7</ele>
    </trkpt>
    <trkpt lat="42.318719" lon="-2.458759">
      <ele>992.7</ele>
    </trkpt>
    <trkpt lat="42.31878" lon="-2.458802">
      <ele>993.2</ele>
    </trkpt>
    <trkpt lat="42.318844" lon="-2.458764">
      <ele>993.6</ele>
    </trkpt>
    <trkpt lat="42.318948" lon="-2.458593">
      <ele>994.6</ele>
    </trkpt>
    <trkpt lat="42.319224" lon="-2.458297">
      <ele>996.8</ele>
    </trkpt>
    <trkpt lat="42.31944" lon="-2.457928">
      <ele>999.2</ele>
    </trkpt>
    <trkpt lat="42.319498" lon="-2.457726">
      <ele>1000.4</ele>
    </trkpt>
    <trkpt lat="42.319536" lon="-2.457401">
      <ele>1002.5</ele>
    </trkpt>
    <trkpt lat="42.319465" lon="-2.457136">
      <ele>1004.5</ele>
    </trkpt>
    <trkpt lat="42.319392" lon="-2.456867">
      <ele>1006.7</ele>
    </trkpt>
    <trkpt lat="42.319299" lon="-2.45668">
      <ele>1008.5</ele>
    </trkpt>
    <trkpt lat="42.319231" lon="-2.456475">
      <ele>1010.3</ele>
    </trkpt>
    <trkpt lat="42.319209" lon="-2.456266">
      <ele>1012</ele>
    </trkpt>
    <trkpt lat="42.319083" lon="-2.455652">
      <ele>1016.9</ele>
    </trkpt>
    <trkpt lat="42.319081" lon="-2.455342">
      <ele>1019.2</ele>
    </trkpt>
    <trkpt lat="42.319038" lon="-2.455281">
      <ele>1019.8</ele>
    </trkpt>
    <trkpt lat="42.318875" lon="-2.455176">
      <ele>1021.4</ele>
    </trkpt>
    <trkpt lat="42.318852" lon="-2.454898">
      <ele>1023.3</ele>
    </trkpt>
    <trkpt lat="42.318785" lon="-2.454689">
      <ele>1024.8</ele>
    </trkpt>
    <trkpt lat="42.318681" lon="-2.454509">
      <ele>1026.4</ele>
    </trkpt>
    <trkpt lat="42.318619" lon="-2.45428">
      <ele>1028.1</ele>
    </trkpt>
    <trkpt lat="42.318616" lon="-2.454066">
      <ele>1029.7</ele>
    </trkpt>
    <trkpt lat="42.318487" lon="-2.453875">
      <ele>1031.7</ele>
    </trkpt>
    <trkpt lat="42.318507" lon="-2.45372">
      <ele>1032.9</ele>
    </trkpt>
    <trkpt lat="42.318503" lon="-2.453412">
      <ele>1035.3</ele>
    </trkpt>
    <trkpt lat="42.319014" lon="-2.453594">
      <ele>1041</ele>
    </trkpt>
    <trkpt lat="42.319299" lon="-2.453799">
      <ele>1044.4</ele>
    </trkpt>
    <trkpt lat="42.319366" lon="-2.453791">
      <ele>1045.1</ele>
    </trkpt>
    <trkpt lat="42.319469" lon="-2.453651">
      <ele>1046.5</ele>
    </trkpt>
    <trkpt lat="42.319522" lon="-2.453316">
      <ele>1048.6</ele>
    </trkpt>
    <trkpt lat="42.319659" lon="-2.452902">
      <ele>1050.8</ele>
    </trkpt>
    <trkpt lat="42.319861" lon="-2.45265">
      <ele>1052.1</ele>
    </trkpt>
    <trkpt lat="42.319893" lon="-2.452536">
      <ele>1052.4</ele>
    </trkpt>
    <trkpt lat="42.31999" lon="-2.4525">
      <ele>1052.7</ele>
    </trkpt>
    <trkpt lat="42.320246" lon="-2.452313">
      <ele>1053.2</ele>
    </trkpt>
    <trkpt lat="42.32038" lon="-2.452307">
      <ele>1053.2</ele>
    </trkpt>
    <trkpt lat="42.320506" lon="-2.452171">
      <ele>1053.1</ele>
    </trkpt>
    <trkpt lat="42.320745" lon="-2.452109">
      <ele>1052.4</ele>
    </trkpt>
    <trkpt lat="42.321412" lon="-2.452126">
      <ele>1047.8</ele>
    </trkpt>
    <trkpt lat="42.321717" lon="-2.452041">
      <ele>1044.1</ele>
    </trkpt>
    <trkpt lat="42.321847" lon="-2.452114">
      <ele>1042</ele>
    </trkpt>
    <trkpt lat="42.322007" lon="-2.452041">
      <ele>1039.3</ele>
    </trkpt>
    <trkpt lat="42.322711" lon="-2.452181">
      <ele>1027.8</ele>
    </trkpt>
    <trkpt lat="42.322929" lon="-2.452092">
      <ele>1024.8</ele>
    </trkpt>
    <trkpt lat="42.323062" lon="-2.451869">
      <ele>1022.3</ele>
    </trkpt>
    <trkpt lat="42.32316" lon="-2.451644">
      <ele>1020.5</ele>
    </trkpt>
    <trkpt lat="42.32334" lon="-2.450975">
      <ele>1017.1</ele>
    </trkpt>
    <trkpt lat="42.323499" lon="-2.450198">
      <ele>1015.6</ele>
    </trkpt>
    <trkpt lat="42.323625" lon="-2.449886">
      <ele>1015.2</ele>
    </trkpt>
    <trkpt lat="42.323868" lon="-2.449602">
      <ele>1014.1</ele>
    </trkpt>
    <trkpt lat="42.323935" lon="-2.449375">
      <ele>1013.2</ele>
    </trkpt>
    <trkpt lat="42.324007" lon="-2.449321">
      <ele>1012.7</ele>
    </trkpt>
    <trkpt lat="42.323979" lon="-2.449137">
      <ele>1011.8</ele>
    </trkpt>
    <trkpt lat="42.324053" lon="-2.448714">
      <ele>1009.4</ele>
    </trkpt>
    <trkpt lat="42.324224" lon="-2.44811">
      <ele>1005.7</ele>
    </trkpt>
    <trkpt lat="42.324436" lon="-2.447922">
      <ele>1003.8</ele>
    </trkpt>
    <trkpt lat="42.324557" lon="-2.447903">
      <ele>1002.9</ele>
    </trkpt>
    <trkpt lat="42.324976" lon="-2.44773">
      <ele>999.9</ele>
    </trkpt>
    <trkpt lat="42.32513" lon="-2.44756">
      <ele>998.6</ele>
    </trkpt>
    <trkpt lat="42.325732" lon="-2.447207">
      <ele>994.6</ele>
    </trkpt>
    <trkpt lat="42.325867" lon="-2.447024">
      <ele>993.4</ele>
    </trkpt>
    <trkpt lat="42.326321" lon="-2.446525">
      <ele>990.1</ele>
    </trkpt>
    <trkpt lat="42.326588" lon="-2.446079">
      <ele>988.3</ele>
    </trkpt>
    <trkpt lat="42.326605" lon="-2.44593">
      <ele>987.8</ele>
    </trkpt>
    <trkpt lat="42.327289" lon="-2.445714">
      <ele>986.6</ele>
    </trkpt>
    <trkpt lat="42.327477" lon="-2.445596">
      <ele>986.6</ele>
    </trkpt>
    <trkpt lat="42.327674" lon="-2.445563">
      <ele>986.8</ele>
    </trkpt>
    <trkpt lat="42.327791" lon="-2.445709">
      <ele>987</ele>
    </trkpt>
    <trkpt lat="42.327912" lon="-2.44579">
      <ele>987</ele>
    </trkpt>
    <trkpt lat="42.328102" lon="-2.446129">
      <ele>986.6</ele>
    </trkpt>
    <trkpt lat="42.328249" lon="-2.44617">
      <ele>986</ele>
    </trkpt>
    <trkpt lat="42.328341" lon="-2.44617">
      <ele>985.5</ele>
    </trkpt>
    <trkpt lat="42.328405" lon="-2.446122">
      <ele>985</ele>
    </trkpt>
    <trkpt lat="42.328735" lon="-2.446007">
      <ele>982.2</ele>
    </trkpt>
    <trkpt lat="42.328893" lon="-2.445895">
      <ele>980.4</ele>
    </trkpt>
    <trkpt lat="42.329089" lon="-2.445592">
      <ele>976.9</ele>
    </trkpt>
    <trkpt lat="42.329259" lon="-2.445236">
      <ele>972.7</ele>
    </trkpt>
    <trkpt lat="42.329495" lon="-2.444837">
      <ele>967.3</ele>
    </trkpt>
    <trkpt lat="42.329851" lon="-2.444532">
      <ele>961.6</ele>
    </trkpt>
    <trkpt lat="42.330194" lon="-2.444316">
      <ele>957.3</ele>
    </trkpt>
    <trkpt lat="42.33054" lon="-2.444167">
      <ele>953.9</ele>
    </trkpt>
    <trkpt lat="42.330959" lon="-2.443483">
      <ele>949.2</ele>
    </trkpt>
    <trkpt lat="42.331423" lon="-2.443022">
      <ele>947</ele>
    </trkpt>
    <trkpt lat="42.331645" lon="-2.442745">
      <ele>946.9</ele>
    </trkpt>
    <trkpt lat="42.331846" lon="-2.442624">
      <ele>947.3</ele>
    </trkpt>
    <trkpt lat="42.332058" lon="-2.44261">
      <ele>947.8</ele>
    </trkpt>
    <trkpt lat="42.332346" lon="-2.442764">
      <ele>948.9</ele>
    </trkpt>
    <trkpt lat="42.332486" lon="-2.442892">
      <ele>949.4</ele>
    </trkpt>
    <trkpt lat="42.332837" lon="-2.443119">
      <ele>949.8</ele>
    </trkpt>
    <trkpt lat="42.333081" lon="-2.443349">
      <ele>949.8</ele>
    </trkpt>
    <trkpt lat="42.333196" lon="-2.443205">
      <ele>949.7</ele>
    </trkpt>
    <trkpt lat="42.333266" lon="-2.443042">
      <ele>949.4</ele>
    </trkpt>
    <trkpt lat="42.333542" lon="-2.44265">
      <ele>947.9</ele>
    </trkpt>
    <trkpt lat="42.333715" lon="-2.442528">
      <ele>946.8</ele>
    </trkpt>
    <trkpt lat="42.334047" lon="-2.442382">
      <ele>944</ele>
    </trkpt>
    <trkpt lat="42.33431" lon="-2.442493">
      <ele>941.3</ele>
    </trkpt>
    <trkpt lat="42.334401" lon="-2.442268">
      <ele>939.4</ele>
    </trkpt>
    <trkpt lat="42.33456" lon="-2.442029">
      <ele>937.1</ele>
    </trkpt>
    <trkpt lat="42.334778" lon="-2.441776">
      <ele>933.9</ele>
    </trkpt>
    <trkpt lat="42.334974" lon="-2.44149">
      <ele>930.5</ele>
    </trkpt>
    <trkpt lat="42.335209" lon="-2.441015">
      <ele>925.2</ele>
    </trkpt>
    <trkpt lat="42.33526" lon="-2.440834">
      <ele>923.4</ele>
    </trkpt>
    <trkpt lat="42.335347" lon="-2.440644">
      <ele>921.4</ele>
    </trkpt>
    <trkpt lat="42.335505" lon="-2.44048">
      <ele>919.1</ele>
    </trkpt>
    <trkpt lat="42.335647" lon="-2.440381">
      <ele>917.2</ele>
    </trkpt>
    <trkpt lat="42.336337" lon="-2.439652">
      <ele>908.4</ele>
    </trkpt>
    <trkpt lat="42.336851" lon="-2.439256">
      <ele>904.7</ele>
    </trkpt>
    <trkpt lat="42.337126" lon="-2.439081">
      <ele>903.8</ele>
    </trkpt>
    <trkpt lat="42.337252" lon="-2.439045">
      <ele>903.6</ele>
    </trkpt>
    <trkpt lat="42.337453" lon="-2.439098">
      <ele>903.3</ele>
    </trkpt>
    <trkpt lat="42.33755" lon="-2.439179">
      <ele>903.2</ele>
    </trkpt>
    <trkpt lat="42.337636" lon="-2.439305">
      <ele>903.1</ele>
    </trkpt>
    <trkpt lat="42.337697" lon="-2.439467">
      <ele>902.9</ele>
    </trkpt>
    <trkpt lat="42.33777" lon="-2.439837">
      <ele>902.5</ele>
    </trkpt>
    <trkpt lat="42.337885" lon="-2.440115">
      <ele>902.1</ele>
    </trkpt>
    <trkpt lat="42.337997" lon="-2.439959">
      <ele>901.7</ele>
    </trkpt>
    <trkpt lat="42.338089" lon="-2.439707">
      <ele>901.1</ele>
    </trkpt>
    <trkpt lat="42.338348" lon="-2.439279">
      <ele>898.8</ele>
    </trkpt>
    <trkpt lat="42.338381" lon="-2.439107">
      <ele>898</ele>
    </trkpt>
    <trkpt lat="42.338365" lon="-2.438458">
      <ele>895.2</ele>
    </trkpt>
    <trkpt lat="42.338408" lon="-2.438194">
      <ele>894.3</ele>
    </trkpt>
    <trkpt lat="42.338441" lon="-2.438093">
      <ele>894</ele>
    </trkpt>
    <trkpt lat="42.338753" lon="-2.437593">
      <ele>893.9</ele>
    </trkpt>
    <trkpt lat="42.338851" lon="-2.437369">
      <ele>894.6</ele>
    </trkpt>
    <trkpt lat="42.338909" lon="-2.43711">
      <ele>895.6</ele>
    </trkpt>
    <trkpt lat="42.338944" lon="-2.436474">
      <ele>899.6</ele>
    </trkpt>
    <trkpt lat="42.338993" lon="-2.43636">
      <ele>900.6</ele>
    </trkpt>
    <trkpt lat="42.339084" lon="-2.436299">
      <ele>901.7</ele>
    </trkpt>
    <trkpt lat="42.339402" lon="-2.436283">
      <ele>905.6</ele>
    </trkpt>
    <trkpt lat="42.339508" lon="-2.436225">
      <ele>907.1</ele>
    </trkpt>
    <trkpt lat="42.339614" lon="-2.436127">
      <ele>908.8</ele>
    </trkpt>
    <trkpt lat="42.33983" lon="-2.435821">
      <ele>913</ele>
    </trkpt>
    <trkpt lat="42.339879" lon="-2.435775">
      <ele>913.8</ele>
    </trkpt>
    <trkpt lat="42.339908" lon="-2.435748">
      <ele>914.3</ele>
    </trkpt>
    <trkpt lat="42.339995" lon="-2.435722">
      <ele>915.4</ele>
    </trkpt>
    <trkpt lat="42.340205" lon="-2.435788">
      <ele>918</ele>
    </trkpt>
    <trkpt lat="42.340293" lon="-2.435848">
      <ele>919.1</ele>
    </trkpt>
    <trkpt lat="42.340361" lon="-2.435894">
      <ele>919.9</ele>
    </trkpt>
    <trkpt lat="42.340668" lon="-2.43627">
      <ele>923.5</ele>
    </trkpt>
    <trkpt lat="42.340788" lon="-2.436378">
      <ele>924.4</ele>
    </trkpt>
    <trkpt lat="42.340917" lon="-2.436397">
      <ele>925</ele>
    </trkpt>
    <trkpt lat="42.341054" lon="-2.436374">
      <ele>925.6</ele>
    </trkpt>
    <trkpt lat="42.341247" lon="-2.436268">
      <ele>926.4</ele>
    </trkpt>
    <trkpt lat="42.341713" lon="-2.435925">
      <ele>926.8</ele>
    </trkpt>
    <trkpt lat="42.341885" lon="-2.435855">
      <ele>926.2</ele>
    </trkpt>
    <trkpt lat="42.341973" lon="-2.435894">
      <ele>925.8</ele>
    </trkpt>
    <trkpt lat="42.342321" lon="-2.436374">
      <ele>922.9</ele>
    </trkpt>
    <trkpt lat="42.342359" lon="-2.436381">
      <ele>922.7</ele>
    </trkpt>
    <trkpt lat="42.342409" lon="-2.436295">
      <ele>922.1</ele>
    </trkpt>
    <trkpt lat="42.342569" lon="-2.435884">
      <ele>919.5</ele>
    </trkpt>
    <trkpt lat="42.342808" lon="-2.43548">
      <ele>916.4</ele>
    </trkpt>
    <trkpt lat="42.3429" lon="-2.435231">
      <ele>914.5</ele>
    </trkpt>
    <trkpt lat="42.342939" lon="-2.434971">
      <ele>912.6</ele>
    </trkpt>
    <trkpt lat="42.343007" lon="-2.434792">
      <ele>911.3</ele>
    </trkpt>
    <trkpt lat="42.343106" lon="-2.434671">
      <ele>910.2</ele>
    </trkpt>
    <trkpt lat="42.343507" lon="-2.433973">
      <ele>906.3</ele>
    </trkpt>
    <trkpt lat="42.343777" lon="-2.433381">
      <ele>903.8</ele>
    </trkpt>
    <trkpt lat="42.343873" lon="-2.433216">
      <ele>903</ele>
    </trkpt>
    <trkpt lat="42.344451" lon="-2.432668">
      <ele>898.8</ele>
    </trkpt>
    <trkpt lat="42.344977" lon="-2.432031">
      <ele>895</ele>
    </trkpt>
    <trkpt lat="42.345321" lon="-2.431719">
      <ele>893.7</ele>
    </trkpt>
    <trkpt lat="42.345438" lon="-2.431294">
      <ele>893.1</ele>
    </trkpt>
    <trkpt lat="42.345475" lon="-2.431004">
      <ele>893</ele>
    </trkpt>
    <trkpt lat="42.345664" lon="-2.430734">
      <ele>893</ele>
    </trkpt>
    <trkpt lat="42.345843" lon="-2.430568">
      <ele>893.1</ele>
    </trkpt>
    <trkpt lat="42.346081" lon="-2.430161">
      <ele>892.8</ele>
    </trkpt>
    <trkpt lat="42.346179" lon="-2.429784">
      <ele>892.2</ele>
    </trkpt>
    <trkpt lat="42.346224" lon="-2.429316">
      <ele>890.5</ele>
    </trkpt>
    <trkpt lat="42.346196" lon="-2.429129">
      <ele>889.6</ele>
    </trkpt>
    <trkpt lat="42.346055" lon="-2.428749">
      <ele>886.8</ele>
    </trkpt>
    <trkpt lat="42.34601" lon="-2.428546">
      <ele>885.3</ele>
    </trkpt>
    <trkpt lat="42.345977" lon="-2.428339">
      <ele>883.8</ele>
    </trkpt>
    <trkpt lat="42.345969" lon="-2.428103">
      <ele>882</ele>
    </trkpt>
    <trkpt lat="42.34611" lon="-2.427621">
      <ele>877.8</ele>
    </trkpt>
    <trkpt lat="42.346168" lon="-2.427502">
      <ele>876.6</ele>
    </trkpt>
    <trkpt lat="42.346229" lon="-2.427448">
      <ele>875.7</ele>
    </trkpt>
    <trkpt lat="42.346555" lon="-2.427431">
      <ele>872</ele>
    </trkpt>
    <trkpt lat="42.346698" lon="-2.427379">
      <ele>870.3</ele>
    </trkpt>
    <trkpt lat="42.347389" lon="-2.426907">
      <ele>866</ele>
    </trkpt>
    <trkpt lat="42.347528" lon="-2.426866">
      <ele>865.9</ele>
    </trkpt>
    <trkpt lat="42.347702" lon="-2.426889">
      <ele>866</ele>
    </trkpt>
    <trkpt lat="42.347667" lon="-2.426466">
      <ele>867</ele>
    </trkpt>
    <trkpt lat="42.3477" lon="-2.426348">
      <ele>867.5</ele>
    </trkpt>
    <trkpt lat="42.347852" lon="-2.426173">
      <ele>868.7</ele>
    </trkpt>
    <trkpt lat="42.347805" lon="-2.42604">
      <ele>869.6</ele>
    </trkpt>
    <trkpt lat="42.347792" lon="-2.425802">
      <ele>871.2</ele>
    </trkpt>
    <trkpt lat="42.347841" lon="-2.425693">
      <ele>872.2</ele>
    </trkpt>
    <trkpt lat="42.347938" lon="-2.425562">
      <ele>873.8</ele>
    </trkpt>
    <trkpt lat="42.348051" lon="-2.425408">
      <ele>875.7</ele>
    </trkpt>
    <trkpt lat="42.348175" lon="-2.425322">
      <ele>877.3</ele>
    </trkpt>
    <trkpt lat="42.348047" lon="-2.424715">
      <ele>882.2</ele>
    </trkpt>
    <trkpt lat="42.348025" lon="-2.424508">
      <ele>883.8</ele>
    </trkpt>
    <trkpt lat="42.348034" lon="-2.424098">
      <ele>886.7</ele>
    </trkpt>
    <trkpt lat="42.348035" lon="-2.424063">
      <ele>886.9</ele>
    </trkpt>
    <trkpt lat="42.348057" lon="-2.423384">
      <ele>890.5</ele>
    </trkpt>
    <trkpt lat="42.34809" lon="-2.423213">
      <ele>891.2</ele>
    </trkpt>
    <trkpt lat="42.348141" lon="-2.423134">
      <ele>891.5</ele>
    </trkpt>
    <trkpt lat="42.348242" lon="-2.423106">
      <ele>891.9</ele>
    </trkpt>
    <trkpt lat="42.348371" lon="-2.423142">
      <ele>892.2</ele>
    </trkpt>
    <trkpt lat="42.348454" lon="-2.42313">
      <ele>892.4</ele>
    </trkpt>
    <trkpt lat="42.348588" lon="-2.423093">
      <ele>892.5</ele>
    </trkpt>
    <trkpt lat="42.348944" lon="-2.422919">
      <ele>892.2</ele>
    </trkpt>
    <trkpt lat="42.349154" lon="-2.422879">
      <ele>891.9</ele>
    </trkpt>
    <trkpt lat="42.349292" lon="-2.422896">
      <ele>891.7</ele>
    </trkpt>
    <trkpt lat="42.349528" lon="-2.422775">
      <ele>891.3</ele>
    </trkpt>
    <trkpt lat="42.350076" lon="-2.422821">
      <ele>890.9</ele>
    </trkpt>
    <trkpt lat="42.349528" lon="-2.422775">
      <ele>891.3</ele>
    </trkpt>
    <trkpt lat="42.349292" lon="-2.422896">
      <ele>891.7</ele>
    </trkpt>
    <trkpt lat="42.349154" lon="-2.422879">
      <ele>891.9</ele>
    </trkpt>
    <trkpt lat="42.348944" lon="-2.422919">
      <ele>892.2</ele>
    </trkpt>
    <trkpt lat="42.348588" lon="-2.423093">
      <ele>892.5</ele>
    </trkpt>
    <trkpt lat="42.348454" lon="-2.42313">
      <ele>892.4</ele>
    </trkpt>
    <trkpt lat="42.348371" lon="-2.423142">
      <ele>892.3</ele>
    </trkpt>
    <trkpt lat="42.348242" lon="-2.423106">
      <ele>892.2</ele>
    </trkpt>
    <trkpt lat="42.348141" lon="-2.423134">
      <ele>891.9</ele>
    </trkpt>
    <trkpt lat="42.34809" lon="-2.423213">
      <ele>891.7</ele>
    </trkpt>
    <trkpt lat="42.348057" lon="-2.423384">
      <ele>891.3</ele>
    </trkpt>
    <trkpt lat="42.348035" lon="-2.424063">
      <ele>888.6</ele>
    </trkpt>
    <trkpt lat="42.348034" lon="-2.424098">
      <ele>888.5</ele>
    </trkpt>
    <trkpt lat="42.348152" lon="-2.424192">
      <ele>887.6</ele>
    </trkpt>
    <trkpt lat="42.34819" lon="-2.424269">
      <ele>887.1</ele>
    </trkpt>
    <trkpt lat="42.348217" lon="-2.424456">
      <ele>886.1</ele>
    </trkpt>
    <trkpt lat="42.348554" lon="-2.425021">
      <ele>882.2</ele>
    </trkpt>
    <trkpt lat="42.348807" lon="-2.425633">
      <ele>878.2</ele>
    </trkpt>
    <trkpt lat="42.348903" lon="-2.425723">
      <ele>877.4</ele>
    </trkpt>
    <trkpt lat="42.349137" lon="-2.425851">
      <ele>875.9</ele>
    </trkpt>
    <trkpt lat="42.349332" lon="-2.425898">
      <ele>874.9</ele>
    </trkpt>
    <trkpt lat="42.349359" lon="-2.425983">
      <ele>874.6</ele>
    </trkpt>
    <trkpt lat="42.34935" lon="-2.426125">
      <ele>874.1</ele>
    </trkpt>
    <trkpt lat="42.349372" lon="-2.426267">
      <ele>873.7</ele>
    </trkpt>
    <trkpt lat="42.349394" lon="-2.426313">
      <ele>873.6</ele>
    </trkpt>
    <trkpt lat="42.349452" lon="-2.426433">
      <ele>873.2</ele>
    </trkpt>
    <trkpt lat="42.349597" lon="-2.426259">
      <ele>872.7</ele>
    </trkpt>
    <trkpt lat="42.349573" lon="-2.426464">
      <ele>872.3</ele>
    </trkpt>
    <trkpt lat="42.349666" lon="-2.426477">
      <ele>872.1</ele>
    </trkpt>
    <trkpt lat="42.349949" lon="-2.426427">
      <ele>871.3</ele>
    </trkpt>
    <trkpt lat="42.350011" lon="-2.426412">
      <ele>871.1</ele>
    </trkpt>
    <trkpt lat="42.349949" lon="-2.426427">
      <ele>870.9</ele>
    </trkpt>
    <trkpt lat="42.349666" lon="-2.426477">
      <ele>870</ele>
    </trkpt>
    <trkpt lat="42.349573" lon="-2.426464">
      <ele>869.6</ele>
    </trkpt>
    <trkpt lat="42.34948" lon="-2.426467">
      <ele>869.2</ele>
    </trkpt>
    <trkpt lat="42.349452" lon="-2.426433">
      <ele>869</ele>
    </trkpt>
    <trkpt lat="42.349328" lon="-2.426509">
      <ele>868.2</ele>
    </trkpt>
    <trkpt lat="42.349252" lon="-2.426657">
      <ele>867.2</ele>
    </trkpt>
    <trkpt lat="42.349107" lon="-2.426997">
      <ele>864.4</ele>
    </trkpt>
    <trkpt lat="42.348922" lon="-2.427531">
      <ele>858.5</ele>
    </trkpt>
    <trkpt lat="42.348933" lon="-2.427616">
      <ele>857.5</ele>
    </trkpt>
    <trkpt lat="42.348942" lon="-2.427704">
      <ele>856.4</ele>
    </trkpt>
    <trkpt lat="42.349162" lon="-2.427948">
      <ele>851.4</ele>
    </trkpt>
    <trkpt lat="42.349687" lon="-2.428254">
      <ele>841.8</ele>
    </trkpt>
    <trkpt lat="42.349806" lon="-2.4283">
      <ele>839.9</ele>
    </trkpt>
    <trkpt lat="42.349905" lon="-2.4283">
      <ele>838.5</ele>
    </trkpt>
    <trkpt lat="42.350175" lon="-2.428257">
      <ele>834.9</ele>
    </trkpt>
    <trkpt lat="42.35028" lon="-2.428206">
      <ele>833.6</ele>
    </trkpt>
    <trkpt lat="42.350383" lon="-2.428149">
      <ele>832.4</ele>
    </trkpt>
    <trkpt lat="42.351047" lon="-2.427605">
      <ele>826</ele>
    </trkpt>
    <trkpt lat="42.351435" lon="-2.427412">
      <ele>823.4</ele>
    </trkpt>
    <trkpt lat="42.35158" lon="-2.427318">
      <ele>822.5</ele>
    </trkpt>
    <trkpt lat="42.351723" lon="-2.42717">
      <ele>821.3</ele>
    </trkpt>
    <trkpt lat="42.351941" lon="-2.426808">
      <ele>818.1</ele>
    </trkpt>
    <trkpt lat="42.352016" lon="-2.426591">
      <ele>816.1</ele>
    </trkpt>
    <trkpt lat="42.352058" lon="-2.426393">
      <ele>814.1</ele>
    </trkpt>
    <trkpt lat="42.35204" lon="-2.425977">
      <ele>809.9</ele>
    </trkpt>
    <trkpt lat="42.35205" lon="-2.425926">
      <ele>809.4</ele>
    </trkpt>
    <trkpt lat="42.35208" lon="-2.425912">
      <ele>808.9</ele>
    </trkpt>
    <trkpt lat="42.352107" lon="-2.425934">
      <ele>808.4</ele>
    </trkpt>
    <trkpt lat="42.352149" lon="-2.426151">
      <ele>806</ele>
    </trkpt>
    <trkpt lat="42.352191" lon="-2.42624">
      <ele>804.9</ele>
    </trkpt>
    <trkpt lat="42.352236" lon="-2.426438">
      <ele>802.5</ele>
    </trkpt>
    <trkpt lat="42.35227" lon="-2.426739">
      <ele>798.9</ele>
    </trkpt>
    <trkpt lat="42.352224" lon="-2.427589">
      <ele>788.4</ele>
    </trkpt>
    <trkpt lat="42.352199" lon="-2.427761">
      <ele>786.2</ele>
    </trkpt>
    <trkpt lat="42.352046" lon="-2.428109">
      <ele>781.4</ele>
    </trkpt>
    <trkpt lat="42.35206" lon="-2.428147">
      <ele>781</ele>
    </trkpt>
    <trkpt lat="42.352095" lon="-2.428141">
      <ele>780.4</ele>
    </trkpt>
    <trkpt lat="42.352335" lon="-2.428002">
      <ele>776.5</ele>
    </trkpt>
    <trkpt lat="42.352456" lon="-2.427975">
      <ele>774.7</ele>
    </trkpt>
    <trkpt lat="42.352526" lon="-2.427999">
      <ele>773.6</ele>
    </trkpt>
    <trkpt lat="42.352569" lon="-2.428047">
      <ele>772.8</ele>
    </trkpt>
    <trkpt lat="42.352579" lon="-2.428251">
      <ele>770.7</ele>
    </trkpt>
    <trkpt lat="42.352639" lon="-2.428353">
      <ele>769.4</ele>
    </trkpt>
    <trkpt lat="42.353063" lon="-2.428423">
      <ele>764</ele>
    </trkpt>
    <trkpt lat="42.353321" lon="-2.42838">
      <ele>760.8</ele>
    </trkpt>
    <trkpt lat="42.353578" lon="-2.428418">
      <ele>757.6</ele>
    </trkpt>
    <trkpt lat="42.35376" lon="-2.428584">
      <ele>755</ele>
    </trkpt>
    <trkpt lat="42.354129" lon="-2.428815">
      <ele>750.3</ele>
    </trkpt>
    <trkpt lat="42.354403" lon="-2.429029">
      <ele>746.7</ele>
    </trkpt>
    <trkpt lat="42.35495" lon="-2.429163">
      <ele>741.1</ele>
    </trkpt>
    <trkpt lat="42.355421" lon="-2.429394">
      <ele>736.3</ele>
    </trkpt>
    <trkpt lat="42.355648" lon="-2.429448">
      <ele>734.2</ele>
    </trkpt>
    <trkpt lat="42.356551" lon="-2.429458">
      <ele>726.1</ele>
    </trkpt>
    <trkpt lat="42.357225" lon="-2.429378">
      <ele>720.2</ele>
    </trkpt>
    <trkpt lat="42.357598" lon="-2.429399">
      <ele>717</ele>
    </trkpt>
    <trkpt lat="42.35824" lon="-2.429507">
      <ele>711.4</ele>
    </trkpt>
    <trkpt lat="42.358799" lon="-2.429539">
      <ele>707.1</ele>
    </trkpt>
    <trkpt lat="42.359279" lon="-2.42933">
      <ele>703.6</ele>
    </trkpt>
    <trkpt lat="42.359568" lon="-2.429249">
      <ele>701.5</ele>
    </trkpt>
    <trkpt lat="42.359818" lon="-2.429185">
      <ele>699.7</ele>
    </trkpt>
    <trkpt lat="42.360309" lon="-2.429147">
      <ele>696.3</ele>
    </trkpt>
    <trkpt lat="42.360884" lon="-2.429292">
      <ele>692.1</ele>
    </trkpt>
    <trkpt lat="42.361645" lon="-2.429351">
      <ele>686.1</ele>
    </trkpt>
    <trkpt lat="42.361796" lon="-2.429389">
      <ele>684.9</ele>
    </trkpt>
    <trkpt lat="42.361895" lon="-2.429464">
      <ele>684</ele>
    </trkpt>
    <trkpt lat="42.362941" lon="-2.430606">
      <ele>673</ele>
    </trkpt>
    <trkpt lat="42.363274" lon="-2.431132">
      <ele>669.1</ele>
    </trkpt>
    <trkpt lat="42.363429" lon="-2.431315">
      <ele>667.6</ele>
    </trkpt>
    <trkpt lat="42.363643" lon="-2.431502">
      <ele>665.8</ele>
    </trkpt>
    <trkpt lat="42.363801" lon="-2.431722">
      <ele>664.2</ele>
    </trkpt>
    <trkpt lat="42.364138" lon="-2.431921">
      <ele>661.8</ele>
    </trkpt>
    <trkpt lat="42.364277" lon="-2.432055">
      <ele>660.7</ele>
    </trkpt>
    <trkpt lat="42.364495" lon="-2.432173">
      <ele>659.2</ele>
    </trkpt>
    <trkpt lat="42.364697" lon="-2.432216">
      <ele>657.9</ele>
    </trkpt>
    <trkpt lat="42.365351" lon="-2.432479">
      <ele>653.6</ele>
    </trkpt>
    <trkpt lat="42.365827" lon="-2.432741">
      <ele>650.6</ele>
    </trkpt>
    <trkpt lat="42.366544" lon="-2.432908">
      <ele>646.2</ele>
    </trkpt>
    <trkpt lat="42.366872" lon="-2.432924">
      <ele>644.1</ele>
    </trkpt>
    <trkpt lat="42.367111" lon="-2.432881">
      <ele>642.5</ele>
    </trkpt>
    <trkpt lat="42.368145" lon="-2.432538">
      <ele>635.7</ele>
    </trkpt>
    <trkpt lat="42.368518" lon="-2.432511">
      <ele>633.5</ele>
    </trkpt>
    <trkpt lat="42.368795" lon="-2.432409">
      <ele>631.9</ele>
    </trkpt>
    <trkpt lat="42.369001" lon="-2.432371">
      <ele>630.9</ele>
    </trkpt>
    <trkpt lat="42.369326" lon="-2.432334">
      <ele>629.3</ele>
    </trkpt>
    <trkpt lat="42.369754" lon="-2.432328">
      <ele>627.3</ele>
    </trkpt>
    <trkpt lat="42.369885" lon="-2.432339">
      <ele>626.7</ele>
    </trkpt>
    <trkpt lat="42.36996" lon="-2.432382">
      <ele>626.3</ele>
    </trkpt>
    <trkpt lat="42.370345" lon="-2.432495">
      <ele>624.4</ele>
    </trkpt>
    <trkpt lat="42.370725" lon="-2.432468">
      <ele>622.5</ele>
    </trkpt>
    <trkpt lat="42.370852" lon="-2.432495">
      <ele>621.8</ele>
    </trkpt>
    <trkpt lat="42.3713" lon="-2.432666">
      <ele>619.4</ele>
    </trkpt>
    <trkpt lat="42.37197" lon="-2.432859">
      <ele>615.5</ele>
    </trkpt>
    <trkpt lat="42.372208" lon="-2.43294">
      <ele>614.1</ele>
    </trkpt>
    <trkpt lat="42.372398" lon="-2.433069">
      <ele>612.9</ele>
    </trkpt>
    <trkpt lat="42.372636" lon="-2.433289">
      <ele>611.2</ele>
    </trkpt>
    <trkpt lat="42.372889" lon="-2.433353">
      <ele>609.7</ele>
    </trkpt>
    <trkpt lat="42.373111" lon="-2.433369">
      <ele>608.5</ele>
    </trkpt>
    <trkpt lat="42.373951" lon="-2.433251">
      <ele>603.8</ele>
    </trkpt>
    <trkpt lat="42.374249" lon="-2.433267">
      <ele>602.3</ele>
    </trkpt>
    <trkpt lat="42.374653" lon="-2.433353">
      <ele>600.3</ele>
    </trkpt>
    <trkpt lat="42.37539" lon="-2.433412">
      <ele>597</ele>
    </trkpt>
    <trkpt lat="42.375842" lon="-2.433557">
      <ele>595</ele>
    </trkpt>
    <trkpt lat="42.376159" lon="-2.433702">
      <ele>593.9</ele>
    </trkpt>
    <trkpt lat="42.376618" lon="-2.433718">
      <ele>592.6</ele>
    </trkpt>
    <trkpt lat="42.377015" lon="-2.43412">
      <ele>591.4</ele>
    </trkpt>
    <trkpt lat="42.378017" lon="-2.435273">
      <ele>589.2</ele>
    </trkpt>
    <trkpt lat="42.37816" lon="-2.435391">
      <ele>588.9</ele>
    </trkpt>
    <trkpt lat="42.378913" lon="-2.435751">
      <ele>586.6</ele>
    </trkpt>
    <trkpt lat="42.379125" lon="-2.436001">
      <ele>585.4</ele>
    </trkpt>
    <trkpt lat="42.37919" lon="-2.436083">
      <ele>584.9</ele>
    </trkpt>
    <trkpt lat="42.379678" lon="-2.436405">
      <ele>581.8</ele>
    </trkpt>
    <trkpt lat="42.379987" lon="-2.436502">
      <ele>579.6</ele>
    </trkpt>
    <trkpt lat="42.380276" lon="-2.436582">
      <ele>577.3</ele>
    </trkpt>
    <trkpt lat="42.380641" lon="-2.436598">
      <ele>574.3</ele>
    </trkpt>
    <trkpt lat="42.381932" lon="-2.436969">
      <ele>564.3</ele>
    </trkpt>
    <trkpt lat="42.382249" lon="-2.437022">
      <ele>562.2</ele>
    </trkpt>
    <trkpt lat="42.382642" lon="-2.43707">
      <ele>559.7</ele>
    </trkpt>
    <trkpt lat="42.383327" lon="-2.437065">
      <ele>556</ele>
    </trkpt>
    <trkpt lat="42.384108" lon="-2.437183">
      <ele>552.4</ele>
    </trkpt>
    <trkpt lat="42.385966" lon="-2.437746">
      <ele>545.4</ele>
    </trkpt>
    <trkpt lat="42.386786" lon="-2.438079">
      <ele>542.9</ele>
    </trkpt>
    <trkpt lat="42.387912" lon="-2.438626">
      <ele>539.9</ele>
    </trkpt>
    <trkpt lat="42.389001" lon="-2.43905">
      <ele>537.5</ele>
    </trkpt>
    <trkpt lat="42.389176" lon="-2.439168">
      <ele>537.2</ele>
    </trkpt>
    <trkpt lat="42.389494" lon="-2.439506">
      <ele>536.7</ele>
    </trkpt>
    <trkpt lat="42.389584" lon="-2.439635">
      <ele>536.5</ele>
    </trkpt>
    <trkpt lat="42.389762" lon="-2.439747">
      <ele>536.4</ele>
    </trkpt>
    <trkpt lat="42.390008" lon="-2.439817">
      <ele>536.4</ele>
    </trkpt>
    <trkpt lat="42.390182" lon="-2.439903">
      <ele>536.5</ele>
    </trkpt>
    <trkpt lat="42.390404" lon="-2.440069">
      <ele>536.6</ele>
    </trkpt>
    <trkpt lat="42.391076" lon="-2.440487">
      <ele>537.9</ele>
    </trkpt>
    <trkpt lat="42.391236" lon="-2.440595">
      <ele>538.4</ele>
    </trkpt>
    <trkpt lat="42.391656" lon="-2.440777">
      <ele>539.8</ele>
    </trkpt>
    <trkpt lat="42.392008" lon="-2.440852">
      <ele>541.2</ele>
    </trkpt>
    <trkpt lat="42.39265" lon="-2.440772">
      <ele>544.4</ele>
    </trkpt>
    <trkpt lat="42.393367" lon="-2.440751">
      <ele>548.6</ele>
    </trkpt>
    <trkpt lat="42.393663" lon="-2.440702">
      <ele>550.1</ele>
    </trkpt>
    <trkpt lat="42.393767" lon="-2.440691">
      <ele>550.5</ele>
    </trkpt>
    <trkpt lat="42.393938" lon="-2.440751">
      <ele>551</ele>
    </trkpt>
    <trkpt lat="42.394374" lon="-2.441005">
      <ele>550.4</ele>
    </trkpt>
    <trkpt lat="42.394644" lon="-2.441099">
      <ele>549</ele>
    </trkpt>
    <trkpt lat="42.394967" lon="-2.441195">
      <ele>546.1</ele>
    </trkpt>
    <trkpt lat="42.395154" lon="-2.441097">
      <ele>543.6</ele>
    </trkpt>
    <trkpt lat="42.395501" lon="-2.440636">
      <ele>536.1</ele>
    </trkpt>
    <trkpt lat="42.395749" lon="-2.440434">
      <ele>530.8</ele>
    </trkpt>
    <trkpt lat="42.396062" lon="-2.440369">
      <ele>524.9</ele>
    </trkpt>
    <trkpt lat="42.39634" lon="-2.440365">
      <ele>520.1</ele>
    </trkpt>
    <trkpt lat="42.396696" lon="-2.440235">
      <ele>513.9</ele>
    </trkpt>
    <trkpt lat="42.398233" lon="-2.440098">
      <ele>493.7</ele>
    </trkpt>
    <trkpt lat="42.399161" lon="-2.440123">
      <ele>485</ele>
    </trkpt>
    <trkpt lat="42.399509" lon="-2.440133">
      <ele>482.2</ele>
    </trkpt>
    <trkpt lat="42.400375" lon="-2.440362">
      <ele>476.4</ele>
    </trkpt>
    <trkpt lat="42.400587" lon="-2.440461">
      <ele>475.3</ele>
    </trkpt>
    <trkpt lat="42.400777" lon="-2.440636">
      <ele>474.2</ele>
    </trkpt>
    <trkpt lat="42.401411" lon="-2.441364">
      <ele>470.5</ele>
    </trkpt>
    <trkpt lat="42.40221" lon="-2.442119">
      <ele>465.8</ele>
    </trkpt>
    <trkpt lat="42.402281" lon="-2.442234">
      <ele>465.2</ele>
    </trkpt>
    <trkpt lat="42.402796" lon="-2.441866">
      <ele>462.2</ele>
    </trkpt>
    <trkpt lat="42.403754" lon="-2.440857">
      <ele>456.9</ele>
    </trkpt>
    <trkpt lat="42.404011" lon="-2.440721">
      <ele>456</ele>
    </trkpt>
    <trkpt lat="42.404483" lon="-2.440652">
      <ele>454.6</ele>
    </trkpt>
    <trkpt lat="42.404608" lon="-2.440651">
      <ele>454.3</ele>
    </trkpt>
    <trkpt lat="42.40479" lon="-2.440629">
      <ele>453.8</ele>
    </trkpt>
    <trkpt lat="42.404877" lon="-2.440569">
      <ele>453.5</ele>
    </trkpt>
    <trkpt lat="42.405125" lon="-2.440292">
      <ele>452.6</ele>
    </trkpt>
    <trkpt lat="42.405254" lon="-2.440538">
      <ele>451.8</ele>
    </trkpt>
    <trkpt lat="42.405251" lon="-2.44064">
      <ele>451.5</ele>
    </trkpt>
    <trkpt lat="42.405463" lon="-2.440912">
      <ele>450.2</ele>
    </trkpt>
    <trkpt lat="42.405593" lon="-2.44092">
      <ele>449.6</ele>
    </trkpt>
    <trkpt lat="42.405635" lon="-2.441255">
      <ele>448.4</ele>
    </trkpt>
    <trkpt lat="42.405644" lon="-2.441324">
      <ele>448.1</ele>
    </trkpt>
    <trkpt lat="42.405758" lon="-2.441575">
      <ele>447</ele>
    </trkpt>
    <trkpt lat="42.405823" lon="-2.441695">
      <ele>446.5</ele>
    </trkpt>
    <trkpt lat="42.406035" lon="-2.441968">
      <ele>445.2</ele>
    </trkpt>
    <trkpt lat="42.406084" lon="-2.44215">
      <ele>444.6</ele>
    </trkpt>
    <trkpt lat="42.406256" lon="-2.442692">
      <ele>442.9</ele>
    </trkpt>
    <trkpt lat="42.406289" lon="-2.442727">
      <ele>442.8</ele>
    </trkpt>
    <trkpt lat="42.406419" lon="-2.442716">
      <ele>442.4</ele>
    </trkpt>
    <trkpt lat="42.40668" lon="-2.442541">
      <ele>441.7</ele>
    </trkpt>
    <trkpt lat="42.406776" lon="-2.442991">
      <ele>441.3</ele>
    </trkpt>
    <trkpt lat="42.406765" lon="-2.443224">
      <ele>441.2</ele>
    </trkpt>
    <trkpt lat="42.406695" lon="-2.443468">
      <ele>441.1</ele>
    </trkpt>
    <trkpt lat="42.406695" lon="-2.443599">
      <ele>441.1</ele>
    </trkpt>
    <trkpt lat="42.406818" lon="-2.443871">
      <ele>440.9</ele>
    </trkpt>
    <trkpt lat="42.406861" lon="-2.443949">
      <ele>440.8</ele>
    </trkpt>
    <trkpt lat="42.407279" lon="-2.444692">
      <ele>440.1</ele>
    </trkpt>
    <trkpt lat="42.407449" lon="-2.44499">
      <ele>439.9</ele>
    </trkpt>
    <trkpt lat="42.407536" lon="-2.444679">
      <ele>439.7</ele>
    </trkpt>
    <trkpt lat="42.407646" lon="-2.444405">
      <ele>439.4</ele>
    </trkpt>
    <trkpt lat="42.407765" lon="-2.444266">
      <ele>439.2</ele>
    </trkpt>
    <trkpt lat="42.407924" lon="-2.444003">
      <ele>438.9</ele>
    </trkpt>
    <trkpt lat="42.408023" lon="-2.443895">
      <ele>438.8</ele>
    </trkpt>
    <trkpt lat="42.40813" lon="-2.443847">
      <ele>438.6</ele>
    </trkpt>
    <trkpt lat="42.408284" lon="-2.443831">
      <ele>438.4</ele>
    </trkpt>
    <trkpt lat="42.408611" lon="-2.443662">
      <ele>438</ele>
    </trkpt>
    <trkpt lat="42.409243" lon="-2.443241">
      <ele>437</ele>
    </trkpt>
    <trkpt lat="42.410381" lon="-2.442922">
      <ele>436</ele>
    </trkpt>
    <trkpt lat="42.410865" lon="-2.443095">
      <ele>435.9</ele>
    </trkpt>
    <trkpt lat="42.4111" lon="-2.443353">
      <ele>435.9</ele>
    </trkpt>
    <trkpt lat="42.411571" lon="-2.443327">
      <ele>435.9</ele>
    </trkpt>
    <trkpt lat="42.41213" lon="-2.443">
      <ele>435.7</ele>
    </trkpt>
    <trkpt lat="42.412429" lon="-2.443198">
      <ele>435.4</ele>
    </trkpt>
    <trkpt lat="42.41372" lon="-2.44281">
      <ele>433.4</ele>
    </trkpt>
    <trkpt lat="42.414353" lon="-2.442351">
      <ele>432.6</ele>
    </trkpt>
    <trkpt lat="42.414553" lon="-2.442285">
      <ele>432.5</ele>
    </trkpt>
    <trkpt lat="42.415781" lon="-2.442207">
      <ele>432.2</ele>
    </trkpt>
    <trkpt lat="42.416061" lon="-2.441854">
      <ele>432</ele>
    </trkpt>
    <trkpt lat="42.416627" lon="-2.441639">
      <ele>431.4</ele>
    </trkpt>
    <trkpt lat="42.417479" lon="-2.441406">
      <ele>430.4</ele>
    </trkpt>
    <trkpt lat="42.418" lon="-2.441053">
      <ele>430</ele>
    </trkpt>
    <trkpt lat="42.418358" lon="-2.441568">
      <ele>429.9</ele>
    </trkpt>
    <trkpt lat="42.41878" lon="-2.442105">
      <ele>430.1</ele>
    </trkpt>
    <trkpt lat="42.419013" lon="-2.44234">
      <ele>430.2</ele>
    </trkpt>
    <trkpt lat="42.41908" lon="-2.442581">
      <ele>430.3</ele>
    </trkpt>
    <trkpt lat="42.419164" lon="-2.442772">
      <ele>430.3</ele>
    </trkpt>
    <trkpt lat="42.419278" lon="-2.44284">
      <ele>430.3</ele>
    </trkpt>
    <trkpt lat="42.41998" lon="-2.442941">
      <ele>430.2</ele>
    </trkpt>
    <trkpt lat="42.420021" lon="-2.443001">
      <ele>430.1</ele>
    </trkpt>
    <trkpt lat="42.42019" lon="-2.443862">
      <ele>429.7</ele>
    </trkpt>
    <trkpt lat="42.420271" lon="-2.444197">
      <ele>429.5</ele>
    </trkpt>
    <trkpt lat="42.420339" lon="-2.444311">
      <ele>429.4</ele>
    </trkpt>
    <trkpt lat="42.420769" lon="-2.44469">
      <ele>428.8</ele>
    </trkpt>
    <trkpt lat="42.420838" lon="-2.444827">
      <ele>428.7</ele>
    </trkpt>
    <trkpt lat="42.421262" lon="-2.445296">
      <ele>428</ele>
    </trkpt>
    <trkpt lat="42.421596" lon="-2.445404">
      <ele>427.7</ele>
    </trkpt>
    <trkpt lat="42.421723" lon="-2.445518">
      <ele>427.6</ele>
    </trkpt>
    <trkpt lat="42.421765" lon="-2.445652">
      <ele>427.6</ele>
    </trkpt>
    <trkpt lat="42.421761" lon="-2.445933">
      <ele>427.4</ele>
    </trkpt>
    <trkpt lat="42.421853" lon="-2.446054">
      <ele>427.4</ele>
    </trkpt>
    <trkpt lat="42.422382" lon="-2.446462">
      <ele>427.1</ele>
    </trkpt>
    <trkpt lat="42.422577" lon="-2.446674">
      <ele>427</ele>
    </trkpt>
    <trkpt lat="42.422688" lon="-2.446823">
      <ele>426.9</ele>
    </trkpt>
    <trkpt lat="42.422865" lon="-2.447161">
      <ele>426.8</ele>
    </trkpt>
    <trkpt lat="42.423016" lon="-2.447349">
      <ele>426.7</ele>
    </trkpt>
    <trkpt lat="42.423083" lon="-2.447393">
      <ele>426.7</ele>
    </trkpt>
    <trkpt lat="42.423641" lon="-2.447575">
      <ele>426.3</ele>
    </trkpt>
    <trkpt lat="42.423759" lon="-2.447653">
      <ele>426.2</ele>
    </trkpt>
    <trkpt lat="42.423832" lon="-2.44777">
      <ele>426.2</ele>
    </trkpt>
    <trkpt lat="42.423929" lon="-2.448058">
      <ele>426</ele>
    </trkpt>
    <trkpt lat="42.424064" lon="-2.448393">
      <ele>425.8</ele>
    </trkpt>
    <trkpt lat="42.424243" lon="-2.448673">
      <ele>425.7</ele>
    </trkpt>
    <trkpt lat="42.424348" lon="-2.449094">
      <ele>425.6</ele>
    </trkpt>
    <trkpt lat="42.424422" lon="-2.449238">
      <ele>425.6</ele>
    </trkpt>
    <trkpt lat="42.424499" lon="-2.449357">
      <ele>425.5</ele>
    </trkpt>
    <trkpt lat="42.424824" lon="-2.449619">
      <ele>425.4</ele>
    </trkpt>
    <trkpt lat="42.42509" lon="-2.449908">
      <ele>425.4</ele>
    </trkpt>
    <trkpt lat="42.425365" lon="-2.450425">
      <ele>425.3</ele>
    </trkpt>
    <trkpt lat="42.425517" lon="-2.450624">
      <ele>425.2</ele>
    </trkpt>
    <trkpt lat="42.425786" lon="-2.451169">
      <ele>425.1</ele>
    </trkpt>
    <trkpt lat="42.425844" lon="-2.451241">
      <ele>425.1</ele>
    </trkpt>
    <trkpt lat="42.425928" lon="-2.451267">
      <ele>425.1</ele>
    </trkpt>
    <trkpt lat="42.426361" lon="-2.451114">
      <ele>425.1</ele>
    </trkpt>
    <trkpt lat="42.426446" lon="-2.451119">
      <ele>425.1</ele>
    </trkpt>
    <trkpt lat="42.426565" lon="-2.45281">
      <ele>425.4</ele>
    </trkpt>
    <trkpt lat="42.42655" lon="-2.453687">
      <ele>425.7</ele>
    </trkpt>
    <trkpt lat="42.426961" lon="-2.456221">
      <ele>426.3</ele>
    </trkpt>
    <trkpt lat="42.427093" lon="-2.456197">
      <ele>426.3</ele>
    </trkpt>
    <trkpt lat="42.427239" lon="-2.45623">
      <ele>426.3</ele>
    </trkpt>
    <trkpt lat="42.427908" lon="-2.456032">
      <ele>425.6</ele>
    </trkpt>
    <trkpt lat="42.428075" lon="-2.455921">
      <ele>425.3</ele>
    </trkpt>
    <trkpt lat="42.428104" lon="-2.455837">
      <ele>425.2</ele>
    </trkpt>
    <trkpt lat="42.428194" lon="-2.455777">
      <ele>425.1</ele>
    </trkpt>
    <trkpt lat="42.428259" lon="-2.455798">
      <ele>425</ele>
    </trkpt>
    <trkpt lat="42.428308" lon="-2.455859">
      <ele>424.9</ele>
    </trkpt>
    <trkpt lat="42.428472" lon="-2.455902">
      <ele>424.7</ele>
    </trkpt>
    <trkpt lat="42.428584" lon="-2.455892">
      <ele>424.5</ele>
    </trkpt>
    <trkpt lat="42.429382" lon="-2.455684">
      <ele>423.1</ele>
    </trkpt>
    <trkpt lat="42.429555" lon="-2.455666">
      <ele>422.9</ele>
    </trkpt>
    <trkpt lat="42.430057" lon="-2.455509">
      <ele>422.6</ele>
    </trkpt>
    </trkseg>
  </trk>
</gpx>
