<?xml version="1.0" encoding="UTF-8"?>
<gpx version="1.1" creator="fitAI Komoot downloader" xmlns="http://www.topografix.com/GPX/1/1">
  <metadata>
    <name>Mirador de la Peña y Vistas de Lerín - Recorrido circular desde Lerín</name>
    <desc>190 visitas · Dificultad: moderate · Distancia: 39.9 km · Desnivel +: 720 m</desc>
    <link href="https://www.komoot.com/smarttour/e24314221"><text>Komoot</text></link>
  </metadata>
  <trk>
    <name>Mirador de la Peña y Vistas de Lerín - Recorrido circular desde Lerín</name>
    <type>mtb</type>
    <trkseg>
    <trkpt lat="42.483907" lon="-1.971269">
      <ele>438.4</ele>
    </trkpt>
    <trkpt lat="42.483901" lon="-1.97134">
      <ele>438.4</ele>
    </trkpt>
    <trkpt lat="42.48385" lon="-1.971489">
      <ele>438.4</ele>
    </trkpt>
    <trkpt lat="42.483803" lon="-1.971542">
      <ele>438.4</ele>
    </trkpt>
    <trkpt lat="42.483552" lon="-1.971765">
      <ele>438.3</ele>
    </trkpt>
    <trkpt lat="42.483475" lon="-1.971834">
      <ele>438.3</ele>
    </trkpt>
    <trkpt lat="42.483155" lon="-1.972112">
      <ele>437.6</ele>
    </trkpt>
    <trkpt lat="42.483068" lon="-1.972183">
      <ele>437.2</ele>
    </trkpt>
    <trkpt lat="42.483213" lon="-1.9725">
      <ele>435.8</ele>
    </trkpt>
    <trkpt lat="42.483237" lon="-1.972551">
      <ele>435.5</ele>
    </trkpt>
    <trkpt lat="42.483258" lon="-1.972599">
      <ele>435.3</ele>
    </trkpt>
    <trkpt lat="42.48306" lon="-1.97274">
      <ele>433.8</ele>
    </trkpt>
    <trkpt lat="42.483222" lon="-1.973146">
      <ele>430.2</ele>
    </trkpt>
    <trkpt lat="42.483434" lon="-1.973575">
      <ele>425.3</ele>
    </trkpt>
    <trkpt lat="42.483484" lon="-1.973669">
      <ele>424</ele>
    </trkpt>
    <trkpt lat="42.483442" lon="-1.973709">
      <ele>423.3</ele>
    </trkpt>
    <trkpt lat="42.483419" lon="-1.973779">
      <ele>422.4</ele>
    </trkpt>
    <trkpt lat="42.483416" lon="-1.973901">
      <ele>421</ele>
    </trkpt>
    <trkpt lat="42.483452" lon="-1.974114">
      <ele>418.3</ele>
    </trkpt>
    <trkpt lat="42.483532" lon="-1.97429">
      <ele>415.6</ele>
    </trkpt>
    <trkpt lat="42.48364" lon="-1.974083">
      <ele>412.3</ele>
    </trkpt>
    <trkpt lat="42.483729" lon="-1.973991">
      <ele>410.2</ele>
    </trkpt>
    <trkpt lat="42.48377" lon="-1.974019">
      <ele>409.3</ele>
    </trkpt>
    <trkpt lat="42.483788" lon="-1.974111">
      <ele>407.9</ele>
    </trkpt>
    <trkpt lat="42.483747" lon="-1.974681">
      <ele>400.4</ele>
    </trkpt>
    <trkpt lat="42.483645" lon="-1.974995">
      <ele>396.5</ele>
    </trkpt>
    <trkpt lat="42.483554" lon="-1.975091">
      <ele>395</ele>
    </trkpt>
    <trkpt lat="42.483424" lon="-1.975174">
      <ele>393.1</ele>
    </trkpt>
    <trkpt lat="42.483392" lon="-1.975251">
      <ele>392.2</ele>
    </trkpt>
    <trkpt lat="42.483442" lon="-1.975279">
      <ele>391.4</ele>
    </trkpt>
    <trkpt lat="42.483549" lon="-1.975252">
      <ele>390</ele>
    </trkpt>
    <trkpt lat="42.483789" lon="-1.975127">
      <ele>386.5</ele>
    </trkpt>
    <trkpt lat="42.4839" lon="-1.975032">
      <ele>384.5</ele>
    </trkpt>
    <trkpt lat="42.484194" lon="-1.97466">
      <ele>378.1</ele>
    </trkpt>
    <trkpt lat="42.484305" lon="-1.974605">
      <ele>376.3</ele>
    </trkpt>
    <trkpt lat="42.484712" lon="-1.974738">
      <ele>370.2</ele>
    </trkpt>
    <trkpt lat="42.484815" lon="-1.97478">
      <ele>368.6</ele>
    </trkpt>
    <trkpt lat="42.484901" lon="-1.974878">
      <ele>366.9</ele>
    </trkpt>
    <trkpt lat="42.484944" lon="-1.975032">
      <ele>365</ele>
    </trkpt>
    <trkpt lat="42.484936" lon="-1.976036">
      <ele>354.1</ele>
    </trkpt>
    <trkpt lat="42.484959" lon="-1.976631">
      <ele>349.4</ele>
    </trkpt>
    <trkpt lat="42.4849" lon="-1.976745">
      <ele>348.5</ele>
    </trkpt>
    <trkpt lat="42.485022" lon="-1.976873">
      <ele>347.3</ele>
    </trkpt>
    <trkpt lat="42.484938" lon="-1.976859">
      <ele>346.7</ele>
    </trkpt>
    <trkpt lat="42.484905" lon="-1.977126">
      <ele>345.3</ele>
    </trkpt>
    <trkpt lat="42.484976" lon="-1.977553">
      <ele>343.3</ele>
    </trkpt>
    <trkpt lat="42.485024" lon="-1.977647">
      <ele>342.8</ele>
    </trkpt>
    <trkpt lat="42.485249" lon="-1.978">
      <ele>341</ele>
    </trkpt>
    <trkpt lat="42.485344" lon="-1.978492">
      <ele>339.6</ele>
    </trkpt>
    <trkpt lat="42.485509" lon="-1.97894">
      <ele>338.5</ele>
    </trkpt>
    <trkpt lat="42.48565" lon="-1.979153">
      <ele>338</ele>
    </trkpt>
    <trkpt lat="42.485853" lon="-1.979132">
      <ele>337.5</ele>
    </trkpt>
    <trkpt lat="42.486215" lon="-1.979089">
      <ele>337</ele>
    </trkpt>
    <trkpt lat="42.486336" lon="-1.97947">
      <ele>336.7</ele>
    </trkpt>
    <trkpt lat="42.486554" lon="-1.980195">
      <ele>336.2</ele>
    </trkpt>
    <trkpt lat="42.486589" lon="-1.980315">
      <ele>336.1</ele>
    </trkpt>
    <trkpt lat="42.486854" lon="-1.981219">
      <ele>335.2</ele>
    </trkpt>
    <trkpt lat="42.48676" lon="-1.981104">
      <ele>335.2</ele>
    </trkpt>
    <trkpt lat="42.486749" lon="-1.981224">
      <ele>335.1</ele>
    </trkpt>
    <trkpt lat="42.486893" lon="-1.983149">
      <ele>334.4</ele>
    </trkpt>
    <trkpt lat="42.486876" lon="-1.983383">
      <ele>334.4</ele>
    </trkpt>
    <trkpt lat="42.48684" lon="-1.983457">
      <ele>334.4</ele>
    </trkpt>
    <trkpt lat="42.48675" lon="-1.983639">
      <ele>334.3</ele>
    </trkpt>
    <trkpt lat="42.486163" lon="-1.984541">
      <ele>334.2</ele>
    </trkpt>
    <trkpt lat="42.485917" lon="-1.985075">
      <ele>334.3</ele>
    </trkpt>
    <trkpt lat="42.485792" lon="-1.985294">
      <ele>334.4</ele>
    </trkpt>
    <trkpt lat="42.48522" lon="-1.985811">
      <ele>335</ele>
    </trkpt>
    <trkpt lat="42.485134" lon="-1.985915">
      <ele>335.1</ele>
    </trkpt>
    <trkpt lat="42.48505" lon="-1.986087">
      <ele>335.4</ele>
    </trkpt>
    <trkpt lat="42.485033" lon="-1.986361">
      <ele>335.8</ele>
    </trkpt>
    <trkpt lat="42.485058" lon="-1.986802">
      <ele>336.6</ele>
    </trkpt>
    <trkpt lat="42.48513" lon="-1.987303">
      <ele>338</ele>
    </trkpt>
    <trkpt lat="42.485119" lon="-1.987531">
      <ele>338.8</ele>
    </trkpt>
    <trkpt lat="42.485049" lon="-1.987811">
      <ele>339.7</ele>
    </trkpt>
    <trkpt lat="42.484771" lon="-1.988758">
      <ele>343.3</ele>
    </trkpt>
    <trkpt lat="42.484417" lon="-1.989511">
      <ele>346.1</ele>
    </trkpt>
    <trkpt lat="42.484206" lon="-1.989871">
      <ele>347.1</ele>
    </trkpt>
    <trkpt lat="42.484776" lon="-1.990025">
      <ele>348.4</ele>
    </trkpt>
    <trkpt lat="42.485124" lon="-1.99027">
      <ele>349.3</ele>
    </trkpt>
    <trkpt lat="42.485678" lon="-1.990789">
      <ele>351.2</ele>
    </trkpt>
    <trkpt lat="42.48602" lon="-1.991286">
      <ele>353.4</ele>
    </trkpt>
    <trkpt lat="42.486306" lon="-1.99155">
      <ele>355.3</ele>
    </trkpt>
    <trkpt lat="42.486323" lon="-1.991565">
      <ele>355.4</ele>
    </trkpt>
    <trkpt lat="42.486568" lon="-1.991839">
      <ele>357.3</ele>
    </trkpt>
    <trkpt lat="42.487429" lon="-1.99318">
      <ele>365.4</ele>
    </trkpt>
    <trkpt lat="42.487766" lon="-1.993865">
      <ele>368.4</ele>
    </trkpt>
    <trkpt lat="42.488074" lon="-1.994287">
      <ele>370</ele>
    </trkpt>
    <trkpt lat="42.488337" lon="-1.994846">
      <ele>371.3</ele>
    </trkpt>
    <trkpt lat="42.488725" lon="-1.995508">
      <ele>372.3</ele>
    </trkpt>
    <trkpt lat="42.488907" lon="-1.99593">
      <ele>372.5</ele>
    </trkpt>
    <trkpt lat="42.489025" lon="-1.996285">
      <ele>372.6</ele>
    </trkpt>
    <trkpt lat="42.489166" lon="-1.996282">
      <ele>372.6</ele>
    </trkpt>
    <trkpt lat="42.489697" lon="-1.996079">
      <ele>372.6</ele>
    </trkpt>
    <trkpt lat="42.490184" lon="-1.996185">
      <ele>372.5</ele>
    </trkpt>
    <trkpt lat="42.490728" lon="-1.99606">
      <ele>372.6</ele>
    </trkpt>
    <trkpt lat="42.490906" lon="-1.995895">
      <ele>372.6</ele>
    </trkpt>
    <trkpt lat="42.491046" lon="-1.99544">
      <ele>372.8</ele>
    </trkpt>
    <trkpt lat="42.491551" lon="-1.995194">
      <ele>373</ele>
    </trkpt>
    <trkpt lat="42.491891" lon="-1.994832">
      <ele>373.3</ele>
    </trkpt>
    <trkpt lat="42.492027" lon="-1.994809">
      <ele>373.3</ele>
    </trkpt>
    <trkpt lat="42.492359" lon="-1.99505">
      <ele>373.5</ele>
    </trkpt>
    <trkpt lat="42.492785" lon="-1.996109">
      <ele>373.8</ele>
    </trkpt>
    <trkpt lat="42.492969" lon="-1.996749">
      <ele>374.3</ele>
    </trkpt>
    <trkpt lat="42.493159" lon="-1.997218">
      <ele>374.7</ele>
    </trkpt>
    <trkpt lat="42.493503" lon="-1.999153">
      <ele>377.4</ele>
    </trkpt>
    <trkpt lat="42.493544" lon="-2.000268">
      <ele>379.1</ele>
    </trkpt>
    <trkpt lat="42.493585" lon="-2.000527">
      <ele>379.4</ele>
    </trkpt>
    <trkpt lat="42.493662" lon="-2.000798">
      <ele>379.8</ele>
    </trkpt>
    <trkpt lat="42.493876" lon="-2.001371">
      <ele>380.7</ele>
    </trkpt>
    <trkpt lat="42.494158" lon="-2.001864">
      <ele>381.6</ele>
    </trkpt>
    <trkpt lat="42.494376" lon="-2.0024">
      <ele>382.7</ele>
    </trkpt>
    <trkpt lat="42.494603" lon="-2.003091">
      <ele>384.3</ele>
    </trkpt>
    <trkpt lat="42.494966" lon="-2.004003">
      <ele>386.6</ele>
    </trkpt>
    <trkpt lat="42.495134" lon="-2.004705">
      <ele>388.1</ele>
    </trkpt>
    <trkpt lat="42.495221" lon="-2.004835">
      <ele>388.4</ele>
    </trkpt>
    <trkpt lat="42.495648" lon="-2.005155">
      <ele>389.7</ele>
    </trkpt>
    <trkpt lat="42.49573" lon="-2.005284">
      <ele>390</ele>
    </trkpt>
    <trkpt lat="42.495789" lon="-2.005469">
      <ele>390.4</ele>
    </trkpt>
    <trkpt lat="42.495821" lon="-2.005716">
      <ele>390.8</ele>
    </trkpt>
    <trkpt lat="42.49592" lon="-2.006141">
      <ele>391.5</ele>
    </trkpt>
    <trkpt lat="42.496129" lon="-2.006634">
      <ele>392.4</ele>
    </trkpt>
    <trkpt lat="42.496384" lon="-2.007041">
      <ele>393.2</ele>
    </trkpt>
    <trkpt lat="42.496686" lon="-2.007356">
      <ele>393.9</ele>
    </trkpt>
    <trkpt lat="42.496832" lon="-2.007565">
      <ele>394.2</ele>
    </trkpt>
    <trkpt lat="42.497144" lon="-2.007871">
      <ele>394.6</ele>
    </trkpt>
    <trkpt lat="42.497398" lon="-2.008182">
      <ele>395.1</ele>
    </trkpt>
    <trkpt lat="42.49775" lon="-2.008708">
      <ele>396.6</ele>
    </trkpt>
    <trkpt lat="42.497833" lon="-2.008793">
      <ele>397</ele>
    </trkpt>
    <trkpt lat="42.497892" lon="-2.008804">
      <ele>397.2</ele>
    </trkpt>
    <trkpt lat="42.497943" lon="-2.008767">
      <ele>397.4</ele>
    </trkpt>
    <trkpt lat="42.497954" lon="-2.008938">
      <ele>398</ele>
    </trkpt>
    <trkpt lat="42.497923" lon="-2.009256">
      <ele>399.2</ele>
    </trkpt>
    <trkpt lat="42.49768" lon="-2.010023">
      <ele>402.8</ele>
    </trkpt>
    <trkpt lat="42.497468" lon="-2.010598">
      <ele>406.2</ele>
    </trkpt>
    <trkpt lat="42.497423" lon="-2.010764">
      <ele>407.1</ele>
    </trkpt>
    <trkpt lat="42.497365" lon="-2.011215">
      <ele>409.3</ele>
    </trkpt>
    <trkpt lat="42.497282" lon="-2.011533">
      <ele>410.9</ele>
    </trkpt>
    <trkpt lat="42.497138" lon="-2.012588">
      <ele>415.9</ele>
    </trkpt>
    <trkpt lat="42.4972" lon="-2.013067">
      <ele>418.1</ele>
    </trkpt>
    <trkpt lat="42.497164" lon="-2.013227">
      <ele>418.7</ele>
    </trkpt>
    <trkpt lat="42.497083" lon="-2.013431">
      <ele>419.7</ele>
    </trkpt>
    <trkpt lat="42.496837" lon="-2.013927">
      <ele>422.2</ele>
    </trkpt>
    <trkpt lat="42.496811" lon="-2.014045">
      <ele>422.8</ele>
    </trkpt>
    <trkpt lat="42.496818" lon="-2.014083">
      <ele>422.9</ele>
    </trkpt>
    <trkpt lat="42.496863" lon="-2.014093">
      <ele>423.2</ele>
    </trkpt>
    <trkpt lat="42.497" lon="-2.013961">
      <ele>424.3</ele>
    </trkpt>
    <trkpt lat="42.497248" lon="-2.013889">
      <ele>426.1</ele>
    </trkpt>
    <trkpt lat="42.497312" lon="-2.013902">
      <ele>426.6</ele>
    </trkpt>
    <trkpt lat="42.497357" lon="-2.013963">
      <ele>427.1</ele>
    </trkpt>
    <trkpt lat="42.497322" lon="-2.014063">
      <ele>427.7</ele>
    </trkpt>
    <trkpt lat="42.49711" lon="-2.014282">
      <ele>430</ele>
    </trkpt>
    <trkpt lat="42.496991" lon="-2.014503">
      <ele>431.9</ele>
    </trkpt>
    <trkpt lat="42.496758" lon="-2.015277">
      <ele>439</ele>
    </trkpt>
    <trkpt lat="42.49642" lon="-2.015955">
      <ele>447</ele>
    </trkpt>
    <trkpt lat="42.496257" lon="-2.01649">
      <ele>452.6</ele>
    </trkpt>
    <trkpt lat="42.496172" lon="-2.016681">
      <ele>454.7</ele>
    </trkpt>
    <trkpt lat="42.49609" lon="-2.016808">
      <ele>456.1</ele>
    </trkpt>
    <trkpt lat="42.495645" lon="-2.017328">
      <ele>461.5</ele>
    </trkpt>
    <trkpt lat="42.495457" lon="-2.017666">
      <ele>463.4</ele>
    </trkpt>
    <trkpt lat="42.495399" lon="-2.017733">
      <ele>463.8</ele>
    </trkpt>
    <trkpt lat="42.495121" lon="-2.01784">
      <ele>465.1</ele>
    </trkpt>
    <trkpt lat="42.494989" lon="-2.017939">
      <ele>465.6</ele>
    </trkpt>
    <trkpt lat="42.494912" lon="-2.018048">
      <ele>466</ele>
    </trkpt>
    <trkpt lat="42.494916" lon="-2.01826">
      <ele>466.4</ele>
    </trkpt>
    <trkpt lat="42.49503" lon="-2.018718">
      <ele>467.1</ele>
    </trkpt>
    <trkpt lat="42.495143" lon="-2.019314">
      <ele>467.8</ele>
    </trkpt>
    <trkpt lat="42.495543" lon="-2.020621">
      <ele>471.6</ele>
    </trkpt>
    <trkpt lat="42.495652" lon="-2.02109">
      <ele>473.2</ele>
    </trkpt>
    <trkpt lat="42.495754" lon="-2.02137">
      <ele>474.2</ele>
    </trkpt>
    <trkpt lat="42.495832" lon="-2.021614">
      <ele>474.9</ele>
    </trkpt>
    <trkpt lat="42.496039" lon="-2.022503">
      <ele>476.1</ele>
    </trkpt>
    <trkpt lat="42.496101" lon="-2.022974">
      <ele>475.7</ele>
    </trkpt>
    <trkpt lat="42.496058" lon="-2.023326">
      <ele>475</ele>
    </trkpt>
    <trkpt lat="42.49606" lon="-2.023578">
      <ele>474.4</ele>
    </trkpt>
    <trkpt lat="42.496223" lon="-2.024304">
      <ele>472.4</ele>
    </trkpt>
    <trkpt lat="42.496315" lon="-2.024872">
      <ele>472.2</ele>
    </trkpt>
    <trkpt lat="42.496463" lon="-2.02515">
      <ele>472.7</ele>
    </trkpt>
    <trkpt lat="42.496631" lon="-2.025488">
      <ele>473.9</ele>
    </trkpt>
    <trkpt lat="42.496773" lon="-2.02586">
      <ele>475.1</ele>
    </trkpt>
    <trkpt lat="42.497059" lon="-2.026729">
      <ele>477.1</ele>
    </trkpt>
    <trkpt lat="42.497173" lon="-2.027192">
      <ele>477.3</ele>
    </trkpt>
    <trkpt lat="42.497235" lon="-2.027574">
      <ele>477.1</ele>
    </trkpt>
    <trkpt lat="42.49734" lon="-2.027885">
      <ele>476.8</ele>
    </trkpt>
    <trkpt lat="42.497371" lon="-2.028046">
      <ele>476.6</ele>
    </trkpt>
    <trkpt lat="42.497397" lon="-2.028468">
      <ele>476.1</ele>
    </trkpt>
    <trkpt lat="42.497455" lon="-2.028733">
      <ele>476.2</ele>
    </trkpt>
    <trkpt lat="42.497891" lon="-2.029749">
      <ele>481.2</ele>
    </trkpt>
    <trkpt lat="42.498015" lon="-2.029923">
      <ele>483</ele>
    </trkpt>
    <trkpt lat="42.498244" lon="-2.030116">
      <ele>485.7</ele>
    </trkpt>
    <trkpt lat="42.498555" lon="-2.030279">
      <ele>488.8</ele>
    </trkpt>
    <trkpt lat="42.498732" lon="-2.030407">
      <ele>490.4</ele>
    </trkpt>
    <trkpt lat="42.498989" lon="-2.030722">
      <ele>492.9</ele>
    </trkpt>
    <trkpt lat="42.499325" lon="-2.030967">
      <ele>494.6</ele>
    </trkpt>
    <trkpt lat="42.499481" lon="-2.030959">
      <ele>495.1</ele>
    </trkpt>
    <trkpt lat="42.499566" lon="-2.03089">
      <ele>495.4</ele>
    </trkpt>
    <trkpt lat="42.499791" lon="-2.030644">
      <ele>496</ele>
    </trkpt>
    <trkpt lat="42.499996" lon="-2.030368">
      <ele>496.5</ele>
    </trkpt>
    <trkpt lat="42.500062" lon="-2.030356">
      <ele>496.6</ele>
    </trkpt>
    <trkpt lat="42.500144" lon="-2.030394">
      <ele>496.8</ele>
    </trkpt>
    <trkpt lat="42.500385" lon="-2.030582">
      <ele>497.2</ele>
    </trkpt>
    <trkpt lat="42.500441" lon="-2.030661">
      <ele>497.4</ele>
    </trkpt>
    <trkpt lat="42.500465" lon="-2.030776">
      <ele>497.6</ele>
    </trkpt>
    <trkpt lat="42.500499" lon="-2.03139">
      <ele>498.5</ele>
    </trkpt>
    <trkpt lat="42.500465" lon="-2.031479">
      <ele>498.7</ele>
    </trkpt>
    <trkpt lat="42.500244" lon="-2.031695">
      <ele>499.3</ele>
    </trkpt>
    <trkpt lat="42.500195" lon="-2.031795">
      <ele>499.5</ele>
    </trkpt>
    <trkpt lat="42.500184" lon="-2.031899">
      <ele>499.7</ele>
    </trkpt>
    <trkpt lat="42.500197" lon="-2.032037">
      <ele>499.9</ele>
    </trkpt>
    <trkpt lat="42.500398" lon="-2.032549">
      <ele>500.7</ele>
    </trkpt>
    <trkpt lat="42.5004" lon="-2.03275">
      <ele>500.9</ele>
    </trkpt>
    <trkpt lat="42.500339" lon="-2.032984">
      <ele>501.1</ele>
    </trkpt>
    <trkpt lat="42.500291" lon="-2.033104">
      <ele>501.2</ele>
    </trkpt>
    <trkpt lat="42.500244" lon="-2.033157">
      <ele>501.2</ele>
    </trkpt>
    <trkpt lat="42.50018" lon="-2.03318">
      <ele>501.3</ele>
    </trkpt>
    <trkpt lat="42.499883" lon="-2.033165">
      <ele>501.6</ele>
    </trkpt>
    <trkpt lat="42.499462" lon="-2.033389">
      <ele>502.2</ele>
    </trkpt>
    <trkpt lat="42.499391" lon="-2.033522">
      <ele>502.4</ele>
    </trkpt>
    <trkpt lat="42.499397" lon="-2.033616">
      <ele>502.5</ele>
    </trkpt>
    <trkpt lat="42.499466" lon="-2.033845">
      <ele>502.9</ele>
    </trkpt>
    <trkpt lat="42.499498" lon="-2.034184">
      <ele>503.3</ele>
    </trkpt>
    <trkpt lat="42.499536" lon="-2.034288">
      <ele>503.4</ele>
    </trkpt>
    <trkpt lat="42.499596" lon="-2.034398">
      <ele>503.6</ele>
    </trkpt>
    <trkpt lat="42.499849" lon="-2.03466">
      <ele>504</ele>
    </trkpt>
    <trkpt lat="42.499911" lon="-2.034828">
      <ele>504.2</ele>
    </trkpt>
    <trkpt lat="42.499939" lon="-2.035154">
      <ele>504.5</ele>
    </trkpt>
    <trkpt lat="42.499827" lon="-2.035368">
      <ele>504.8</ele>
    </trkpt>
    <trkpt lat="42.499789" lon="-2.035501">
      <ele>505</ele>
    </trkpt>
    <trkpt lat="42.49981" lon="-2.035615">
      <ele>505.2</ele>
    </trkpt>
    <trkpt lat="42.499934" lon="-2.035911">
      <ele>505.7</ele>
    </trkpt>
    <trkpt lat="42.499983" lon="-2.036097">
      <ele>506.1</ele>
    </trkpt>
    <trkpt lat="42.500073" lon="-2.036795">
      <ele>507.7</ele>
    </trkpt>
    <trkpt lat="42.500127" lon="-2.036886">
      <ele>508</ele>
    </trkpt>
    <trkpt lat="42.500219" lon="-2.03696">
      <ele>508.3</ele>
    </trkpt>
    <trkpt lat="42.500371" lon="-2.037024">
      <ele>508.9</ele>
    </trkpt>
    <trkpt lat="42.500801" lon="-2.037115">
      <ele>510.3</ele>
    </trkpt>
    <trkpt lat="42.500869" lon="-2.037177">
      <ele>510.6</ele>
    </trkpt>
    <trkpt lat="42.500929" lon="-2.037299">
      <ele>510.9</ele>
    </trkpt>
    <trkpt lat="42.501147" lon="-2.038127">
      <ele>511.9</ele>
    </trkpt>
    <trkpt lat="42.501169" lon="-2.03834">
      <ele>511.9</ele>
    </trkpt>
    <trkpt lat="42.501143" lon="-2.038435">
      <ele>511.8</ele>
    </trkpt>
    <trkpt lat="42.501077" lon="-2.038544">
      <ele>511.6</ele>
    </trkpt>
    <trkpt lat="42.500955" lon="-2.038661">
      <ele>511.3</ele>
    </trkpt>
    <trkpt lat="42.500736" lon="-2.038766">
      <ele>510.5</ele>
    </trkpt>
    <trkpt lat="42.500681" lon="-2.038835">
      <ele>510.2</ele>
    </trkpt>
    <trkpt lat="42.500655" lon="-2.038934">
      <ele>509.9</ele>
    </trkpt>
    <trkpt lat="42.50067" lon="-2.039046">
      <ele>509.5</ele>
    </trkpt>
    <trkpt lat="42.500762" lon="-2.039255">
      <ele>508.6</ele>
    </trkpt>
    <trkpt lat="42.500983" lon="-2.039619">
      <ele>506.9</ele>
    </trkpt>
    <trkpt lat="42.50107" lon="-2.03981">
      <ele>506.3</ele>
    </trkpt>
    <trkpt lat="42.501089" lon="-2.039917">
      <ele>506</ele>
    </trkpt>
    <trkpt lat="42.501047" lon="-2.040032">
      <ele>505.7</ele>
    </trkpt>
    <trkpt lat="42.500923" lon="-2.040157">
      <ele>505.3</ele>
    </trkpt>
    <trkpt lat="42.500794" lon="-2.04035">
      <ele>505</ele>
    </trkpt>
    <trkpt lat="42.50076" lon="-2.040444">
      <ele>504.9</ele>
    </trkpt>
    <trkpt lat="42.50076" lon="-2.040549">
      <ele>504.9</ele>
    </trkpt>
    <trkpt lat="42.500798" lon="-2.040646">
      <ele>504.9</ele>
    </trkpt>
    <trkpt lat="42.501275" lon="-2.041129">
      <ele>506.4</ele>
    </trkpt>
    <trkpt lat="42.501404" lon="-2.041191">
      <ele>507.1</ele>
    </trkpt>
    <trkpt lat="42.501661" lon="-2.041224">
      <ele>508.4</ele>
    </trkpt>
    <trkpt lat="42.501765" lon="-2.041305">
      <ele>509.1</ele>
    </trkpt>
    <trkpt lat="42.501874" lon="-2.041471">
      <ele>509.8</ele>
    </trkpt>
    <trkpt lat="42.501939" lon="-2.041621">
      <ele>510.4</ele>
    </trkpt>
    <trkpt lat="42.501992" lon="-2.042125">
      <ele>511.3</ele>
    </trkpt>
    <trkpt lat="42.50208" lon="-2.042319">
      <ele>511.4</ele>
    </trkpt>
    <trkpt lat="42.502163" lon="-2.04236">
      <ele>511.4</ele>
    </trkpt>
    <trkpt lat="42.502257" lon="-2.042357">
      <ele>511.3</ele>
    </trkpt>
    <trkpt lat="42.502876" lon="-2.042291">
      <ele>508.8</ele>
    </trkpt>
    <trkpt lat="42.503015" lon="-2.042212">
      <ele>507.8</ele>
    </trkpt>
    <trkpt lat="42.503105" lon="-2.042095">
      <ele>506.9</ele>
    </trkpt>
    <trkpt lat="42.503205" lon="-2.041881">
      <ele>505.3</ele>
    </trkpt>
    <trkpt lat="42.503524" lon="-2.040992">
      <ele>498</ele>
    </trkpt>
    <trkpt lat="42.503736" lon="-2.040207">
      <ele>491.7</ele>
    </trkpt>
    <trkpt lat="42.503806" lon="-2.040032">
      <ele>490.3</ele>
    </trkpt>
    <trkpt lat="42.503939" lon="-2.039853">
      <ele>488.4</ele>
    </trkpt>
    <trkpt lat="42.504348" lon="-2.039446">
      <ele>483.4</ele>
    </trkpt>
    <trkpt lat="42.504422" lon="-2.039398">
      <ele>482.6</ele>
    </trkpt>
    <trkpt lat="42.504728" lon="-2.039301">
      <ele>479.7</ele>
    </trkpt>
    <trkpt lat="42.505107" lon="-2.039044">
      <ele>475.7</ele>
    </trkpt>
    <trkpt lat="42.505674" lon="-2.038529">
      <ele>469.1</ele>
    </trkpt>
    <trkpt lat="42.506018" lon="-2.038264">
      <ele>465.2</ele>
    </trkpt>
    <trkpt lat="42.506703" lon="-2.037548">
      <ele>457.5</ele>
    </trkpt>
    <trkpt lat="42.507246" lon="-2.037138">
      <ele>453.5</ele>
    </trkpt>
    <trkpt lat="42.50742" lon="-2.036963">
      <ele>452.5</ele>
    </trkpt>
    <trkpt lat="42.507614" lon="-2.036598">
      <ele>451.1</ele>
    </trkpt>
    <trkpt lat="42.507694" lon="-2.036502">
      <ele>450.7</ele>
    </trkpt>
    <trkpt lat="42.507756" lon="-2.036467">
      <ele>450.5</ele>
    </trkpt>
    <trkpt lat="42.508012" lon="-2.036326">
      <ele>449.7</ele>
    </trkpt>
    <trkpt lat="42.508227" lon="-2.036294">
      <ele>449.2</ele>
    </trkpt>
    <trkpt lat="42.508283" lon="-2.035929">
      <ele>448.6</ele>
    </trkpt>
    <trkpt lat="42.508519" lon="-2.034999">
      <ele>447.3</ele>
    </trkpt>
    <trkpt lat="42.508549" lon="-2.034429">
      <ele>446.1</ele>
    </trkpt>
    <trkpt lat="42.508624" lon="-2.034079">
      <ele>445.3</ele>
    </trkpt>
    <trkpt lat="42.50863" lon="-2.033861">
      <ele>444.8</ele>
    </trkpt>
    <trkpt lat="42.508566" lon="-2.033417">
      <ele>443.5</ele>
    </trkpt>
    <trkpt lat="42.508564" lon="-2.03323">
      <ele>443</ele>
    </trkpt>
    <trkpt lat="42.508616" lon="-2.032964">
      <ele>442.1</ele>
    </trkpt>
    <trkpt lat="42.509332" lon="-2.030969">
      <ele>433.3</ele>
    </trkpt>
    <trkpt lat="42.509857" lon="-2.029747">
      <ele>427.9</ele>
    </trkpt>
    <trkpt lat="42.510086" lon="-2.029142">
      <ele>425.7</ele>
    </trkpt>
    <trkpt lat="42.510222" lon="-2.028705">
      <ele>424.3</ele>
    </trkpt>
    <trkpt lat="42.5105" lon="-2.028203">
      <ele>422.6</ele>
    </trkpt>
    <trkpt lat="42.511714" lon="-2.026334">
      <ele>416.5</ele>
    </trkpt>
    <trkpt lat="42.513243" lon="-2.024331">
      <ele>410.4</ele>
    </trkpt>
    <trkpt lat="42.513047" lon="-2.024306">
      <ele>410.3</ele>
    </trkpt>
    <trkpt lat="42.511632" lon="-2.024439">
      <ele>412.5</ele>
    </trkpt>
    <trkpt lat="42.509408" lon="-2.024439">
      <ele>416.5</ele>
    </trkpt>
    <trkpt lat="42.509386" lon="-2.024439">
      <ele>416.6</ele>
    </trkpt>
    <trkpt lat="42.507043" lon="-2.024393">
      <ele>422.6</ele>
    </trkpt>
    <trkpt lat="42.504309" lon="-2.024419">
      <ele>433.7</ele>
    </trkpt>
    <trkpt lat="42.503502" lon="-2.024633">
      <ele>436.9</ele>
    </trkpt>
    <trkpt lat="42.503077" lon="-2.024684">
      <ele>438.8</ele>
    </trkpt>
    <trkpt lat="42.502995" lon="-2.024729">
      <ele>439.3</ele>
    </trkpt>
    <trkpt lat="42.502876" lon="-2.024946">
      <ele>440.5</ele>
    </trkpt>
    <trkpt lat="42.502841" lon="-2.025091">
      <ele>441.3</ele>
    </trkpt>
    <trkpt lat="42.502766" lon="-2.025239">
      <ele>442.2</ele>
    </trkpt>
    <trkpt lat="42.502568" lon="-2.025514">
      <ele>444.3</ele>
    </trkpt>
    <trkpt lat="42.502521" lon="-2.025695">
      <ele>445.3</ele>
    </trkpt>
    <trkpt lat="42.502431" lon="-2.026337">
      <ele>449.2</ele>
    </trkpt>
    <trkpt lat="42.502268" lon="-2.026599">
      <ele>451.4</ele>
    </trkpt>
    <trkpt lat="42.502125" lon="-2.026971">
      <ele>453.8</ele>
    </trkpt>
    <trkpt lat="42.502082" lon="-2.027032">
      <ele>454.3</ele>
    </trkpt>
    <trkpt lat="42.50193" lon="-2.027154">
      <ele>455.7</ele>
    </trkpt>
    <trkpt lat="42.501598" lon="-2.027266">
      <ele>458</ele>
    </trkpt>
    <trkpt lat="42.501436" lon="-2.027452">
      <ele>459.3</ele>
    </trkpt>
    <trkpt lat="42.501226" lon="-2.0276">
      <ele>460.6</ele>
    </trkpt>
    <trkpt lat="42.500993" lon="-2.027928">
      <ele>462.5</ele>
    </trkpt>
    <trkpt lat="42.500758" lon="-2.028145">
      <ele>464</ele>
    </trkpt>
    <trkpt lat="42.50064" lon="-2.028407">
      <ele>465.2</ele>
    </trkpt>
    <trkpt lat="42.500529" lon="-2.028568">
      <ele>466</ele>
    </trkpt>
    <trkpt lat="42.500262" lon="-2.028639">
      <ele>467.2</ele>
    </trkpt>
    <trkpt lat="42.500031" lon="-2.028748">
      <ele>468.2</ele>
    </trkpt>
    <trkpt lat="42.499847" lon="-2.028764">
      <ele>468.9</ele>
    </trkpt>
    <trkpt lat="42.499684" lon="-2.028675">
      <ele>469.6</ele>
    </trkpt>
    <trkpt lat="42.49959" lon="-2.028575">
      <ele>470</ele>
    </trkpt>
    <trkpt lat="42.499523" lon="-2.028417">
      <ele>470.5</ele>
    </trkpt>
    <trkpt lat="42.499515" lon="-2.028305">
      <ele>470.7</ele>
    </trkpt>
    <trkpt lat="42.499697" lon="-2.027798">
      <ele>472.2</ele>
    </trkpt>
    <trkpt lat="42.499765" lon="-2.027312">
      <ele>473.3</ele>
    </trkpt>
    <trkpt lat="42.499752" lon="-2.027096">
      <ele>473.7</ele>
    </trkpt>
    <trkpt lat="42.49969" lon="-2.026973">
      <ele>473.9</ele>
    </trkpt>
    <trkpt lat="42.499432" lon="-2.026696">
      <ele>474.4</ele>
    </trkpt>
    <trkpt lat="42.499382" lon="-2.026596">
      <ele>474.5</ele>
    </trkpt>
    <trkpt lat="42.499348" lon="-2.026367">
      <ele>474.8</ele>
    </trkpt>
    <trkpt lat="42.499399" lon="-2.026028">
      <ele>475.4</ele>
    </trkpt>
    <trkpt lat="42.499393" lon="-2.025873">
      <ele>475.6</ele>
    </trkpt>
    <trkpt lat="42.499292" lon="-2.025463">
      <ele>476</ele>
    </trkpt>
    <trkpt lat="42.499258" lon="-2.025409">
      <ele>476</ele>
    </trkpt>
    <trkpt lat="42.499183" lon="-2.025381">
      <ele>475.9</ele>
    </trkpt>
    <trkpt lat="42.499083" lon="-2.025394">
      <ele>475.8</ele>
    </trkpt>
    <trkpt lat="42.498964" lon="-2.025535">
      <ele>475.4</ele>
    </trkpt>
    <trkpt lat="42.498835" lon="-2.025577">
      <ele>474.9</ele>
    </trkpt>
    <trkpt lat="42.498548" lon="-2.025766">
      <ele>473.3</ele>
    </trkpt>
    <trkpt lat="42.498484" lon="-2.025723">
      <ele>472.9</ele>
    </trkpt>
    <trkpt lat="42.498462" lon="-2.025654">
      <ele>472.5</ele>
    </trkpt>
    <trkpt lat="42.498462" lon="-2.025476">
      <ele>471.6</ele>
    </trkpt>
    <trkpt lat="42.498422" lon="-2.025364">
      <ele>471</ele>
    </trkpt>
    <trkpt lat="42.498424" lon="-2.025234">
      <ele>470.3</ele>
    </trkpt>
    <trkpt lat="42.49849" lon="-2.025119">
      <ele>469.4</ele>
    </trkpt>
    <trkpt lat="42.498587" lon="-2.025066">
      <ele>468.5</ele>
    </trkpt>
    <trkpt lat="42.498683" lon="-2.025078">
      <ele>467.6</ele>
    </trkpt>
    <trkpt lat="42.498753" lon="-2.025022">
      <ele>466.7</ele>
    </trkpt>
    <trkpt lat="42.498828" lon="-2.024936">
      <ele>465.6</ele>
    </trkpt>
    <trkpt lat="42.498905" lon="-2.02476">
      <ele>463.8</ele>
    </trkpt>
    <trkpt lat="42.499215" lon="-2.024548">
      <ele>459.3</ele>
    </trkpt>
    <trkpt lat="42.499337" lon="-2.024408">
      <ele>457.3</ele>
    </trkpt>
    <trkpt lat="42.499391" lon="-2.024228">
      <ele>455.6</ele>
    </trkpt>
    <trkpt lat="42.499481" lon="-2.024164">
      <ele>454.4</ele>
    </trkpt>
    <trkpt lat="42.499485" lon="-2.024024">
      <ele>453.3</ele>
    </trkpt>
    <trkpt lat="42.499528" lon="-2.023947">
      <ele>452.5</ele>
    </trkpt>
    <trkpt lat="42.499753" lon="-2.023744">
      <ele>449.8</ele>
    </trkpt>
    <trkpt lat="42.499806" lon="-2.023726">
      <ele>449.3</ele>
    </trkpt>
    <trkpt lat="42.499898" lon="-2.023542">
      <ele>447.8</ele>
    </trkpt>
    <trkpt lat="42.500039" lon="-2.023563">
      <ele>446.7</ele>
    </trkpt>
    <trkpt lat="42.500084" lon="-2.023532">
      <ele>446.3</ele>
    </trkpt>
    <trkpt lat="42.50008" lon="-2.023423">
      <ele>445.6</ele>
    </trkpt>
    <trkpt lat="42.500103" lon="-2.023382">
      <ele>445.3</ele>
    </trkpt>
    <trkpt lat="42.500185" lon="-2.023341">
      <ele>444.7</ele>
    </trkpt>
    <trkpt lat="42.500283" lon="-2.023239">
      <ele>443.8</ele>
    </trkpt>
    <trkpt lat="42.500544" lon="-2.023148">
      <ele>441.9</ele>
    </trkpt>
    <trkpt lat="42.500728" lon="-2.022924">
      <ele>440.4</ele>
    </trkpt>
    <trkpt lat="42.500903" lon="-2.022873">
      <ele>439.3</ele>
    </trkpt>
    <trkpt lat="42.500965" lon="-2.022717">
      <ele>438.6</ele>
    </trkpt>
    <trkpt lat="42.501027" lon="-2.022717">
      <ele>438.3</ele>
    </trkpt>
    <trkpt lat="42.501079" lon="-2.022679">
      <ele>437.9</ele>
    </trkpt>
    <trkpt lat="42.501106" lon="-2.022539">
      <ele>437.3</ele>
    </trkpt>
    <trkpt lat="42.501139" lon="-2.02248">
      <ele>437</ele>
    </trkpt>
    <trkpt lat="42.501455" lon="-2.022343">
      <ele>435.2</ele>
    </trkpt>
    <trkpt lat="42.501494" lon="-2.022264">
      <ele>434.8</ele>
    </trkpt>
    <trkpt lat="42.501596" lon="-2.022254">
      <ele>434.3</ele>
    </trkpt>
    <trkpt lat="42.501684" lon="-2.022149">
      <ele>433.6</ele>
    </trkpt>
    <trkpt lat="42.50178" lon="-2.022106">
      <ele>433.1</ele>
    </trkpt>
    <trkpt lat="42.501832" lon="-2.021994">
      <ele>432.6</ele>
    </trkpt>
    <trkpt lat="42.501905" lon="-2.021917">
      <ele>432.1</ele>
    </trkpt>
    <trkpt lat="42.5023" lon="-2.021775">
      <ele>429.9</ele>
    </trkpt>
    <trkpt lat="42.50261" lon="-2.021553">
      <ele>428</ele>
    </trkpt>
    <trkpt lat="42.502734" lon="-2.0215">
      <ele>427.3</ele>
    </trkpt>
    <trkpt lat="42.502993" lon="-2.021489">
      <ele>425.8</ele>
    </trkpt>
    <trkpt lat="42.503087" lon="-2.021413">
      <ele>425.2</ele>
    </trkpt>
    <trkpt lat="42.503135" lon="-2.021337">
      <ele>424.7</ele>
    </trkpt>
    <trkpt lat="42.503145" lon="-2.021171">
      <ele>424</ele>
    </trkpt>
    <trkpt lat="42.503179" lon="-2.021056">
      <ele>423.5</ele>
    </trkpt>
    <trkpt lat="42.50334" lon="-2.020804">
      <ele>422</ele>
    </trkpt>
    <trkpt lat="42.503335" lon="-2.020743">
      <ele>421.7</ele>
    </trkpt>
    <trkpt lat="42.503368" lon="-2.020657">
      <ele>421.3</ele>
    </trkpt>
    <trkpt lat="42.503442" lon="-2.020588">
      <ele>420.7</ele>
    </trkpt>
    <trkpt lat="42.503697" lon="-2.020517">
      <ele>419.1</ele>
    </trkpt>
    <trkpt lat="42.503834" lon="-2.020198">
      <ele>417.4</ele>
    </trkpt>
    <trkpt lat="42.504071" lon="-2.01988">
      <ele>415.4</ele>
    </trkpt>
    <trkpt lat="42.504241" lon="-2.019485">
      <ele>413.4</ele>
    </trkpt>
    <trkpt lat="42.504407" lon="-2.01919">
      <ele>411.9</ele>
    </trkpt>
    <trkpt lat="42.50469" lon="-2.0188">
      <ele>409.6</ele>
    </trkpt>
    <trkpt lat="42.504829" lon="-2.018647">
      <ele>408.7</ele>
    </trkpt>
    <trkpt lat="42.505032" lon="-2.018237">
      <ele>406.8</ele>
    </trkpt>
    <trkpt lat="42.505314" lon="-2.017842">
      <ele>404.9</ele>
    </trkpt>
    <trkpt lat="42.505761" lon="-2.017559">
      <ele>402.7</ele>
    </trkpt>
    <trkpt lat="42.506241" lon="-2.017172">
      <ele>400.4</ele>
    </trkpt>
    <trkpt lat="42.5065" lon="-2.017009">
      <ele>399.4</ele>
    </trkpt>
    <trkpt lat="42.506767" lon="-2.01678">
      <ele>398.3</ele>
    </trkpt>
    <trkpt lat="42.50693" lon="-2.016599">
      <ele>397.7</ele>
    </trkpt>
    <trkpt lat="42.506805" lon="-2.016024">
      <ele>396.3</ele>
    </trkpt>
    <trkpt lat="42.506574" lon="-2.015476">
      <ele>395.1</ele>
    </trkpt>
    <trkpt lat="42.506356" lon="-2.01473">
      <ele>393.6</ele>
    </trkpt>
    <trkpt lat="42.506247" lon="-2.013647">
      <ele>391.6</ele>
    </trkpt>
    <trkpt lat="42.506117" lon="-2.013179">
      <ele>390.8</ele>
    </trkpt>
    <trkpt lat="42.505971" lon="-2.012524">
      <ele>389.7</ele>
    </trkpt>
    <trkpt lat="42.505813" lon="-2.011999">
      <ele>388.8</ele>
    </trkpt>
    <trkpt lat="42.505723" lon="-2.011322">
      <ele>387.7</ele>
    </trkpt>
    <trkpt lat="42.505627" lon="-2.010968">
      <ele>387.4</ele>
    </trkpt>
    <trkpt lat="42.505333" lon="-2.010207">
      <ele>387</ele>
    </trkpt>
    <trkpt lat="42.505122" lon="-2.010462">
      <ele>387.1</ele>
    </trkpt>
    <trkpt lat="42.504117" lon="-2.01124">
      <ele>389</ele>
    </trkpt>
    <trkpt lat="42.503931" lon="-2.011347">
      <ele>389.4</ele>
    </trkpt>
    <trkpt lat="42.503354" lon="-2.011481">
      <ele>391</ele>
    </trkpt>
    <trkpt lat="42.503223" lon="-2.011562">
      <ele>391.4</ele>
    </trkpt>
    <trkpt lat="42.503061" lon="-2.011803">
      <ele>392.1</ele>
    </trkpt>
    <trkpt lat="42.502958" lon="-2.012007">
      <ele>392.6</ele>
    </trkpt>
    <trkpt lat="42.502816" lon="-2.012146">
      <ele>393.1</ele>
    </trkpt>
    <trkpt lat="42.502535" lon="-2.012296">
      <ele>393.9</ele>
    </trkpt>
    <trkpt lat="42.502353" lon="-2.012243">
      <ele>394.4</ele>
    </trkpt>
    <trkpt lat="42.502281" lon="-2.012386">
      <ele>394.7</ele>
    </trkpt>
    <trkpt lat="42.502287" lon="-2.012486">
      <ele>394.9</ele>
    </trkpt>
    <trkpt lat="42.502414" lon="-2.012738">
      <ele>395.4</ele>
    </trkpt>
    <trkpt lat="42.502884" lon="-2.013523">
      <ele>396.9</ele>
    </trkpt>
    <trkpt lat="42.503083" lon="-2.013945">
      <ele>397.6</ele>
    </trkpt>
    <trkpt lat="42.50334" lon="-2.014294">
      <ele>398.5</ele>
    </trkpt>
    <trkpt lat="42.503556" lon="-2.014717">
      <ele>399.7</ele>
    </trkpt>
    <trkpt lat="42.503357" lon="-2.015084">
      <ele>400.8</ele>
    </trkpt>
    <trkpt lat="42.50294" lon="-2.016823">
      <ele>407.2</ele>
    </trkpt>
    <trkpt lat="42.502931" lon="-2.016928">
      <ele>407.6</ele>
    </trkpt>
    <trkpt lat="42.502966" lon="-2.016997">
      <ele>408</ele>
    </trkpt>
    <trkpt lat="42.502978" lon="-2.017121">
      <ele>408.5</ele>
    </trkpt>
    <trkpt lat="42.50297" lon="-2.017264">
      <ele>409.2</ele>
    </trkpt>
    <trkpt lat="42.502919" lon="-2.01744">
      <ele>410.1</ele>
    </trkpt>
    <trkpt lat="42.502899" lon="-2.017628">
      <ele>411</ele>
    </trkpt>
    <trkpt lat="42.502936" lon="-2.01785">
      <ele>412.2</ele>
    </trkpt>
    <trkpt lat="42.502931" lon="-2.018382">
      <ele>415.3</ele>
    </trkpt>
    <trkpt lat="42.502901" lon="-2.018482">
      <ele>416</ele>
    </trkpt>
    <trkpt lat="42.502713" lon="-2.018757">
      <ele>418.5</ele>
    </trkpt>
    <trkpt lat="42.502473" lon="-2.019174">
      <ele>422.2</ele>
    </trkpt>
    <trkpt lat="42.501958" lon="-2.019656">
      <ele>428.3</ele>
    </trkpt>
    <trkpt lat="42.501646" lon="-2.019989">
      <ele>431.7</ele>
    </trkpt>
    <trkpt lat="42.501515" lon="-2.020071">
      <ele>432.8</ele>
    </trkpt>
    <trkpt lat="42.501273" lon="-2.020137">
      <ele>434.5</ele>
    </trkpt>
    <trkpt lat="42.501051" lon="-2.02028">
      <ele>435.6</ele>
    </trkpt>
    <trkpt lat="42.500816" lon="-2.020522">
      <ele>436.4</ele>
    </trkpt>
    <trkpt lat="42.500768" lon="-2.020501">
      <ele>436.5</ele>
    </trkpt>
    <trkpt lat="42.500638" lon="-2.020356">
      <ele>436.7</ele>
    </trkpt>
    <trkpt lat="42.50024" lon="-2.020382">
      <ele>436.7</ele>
    </trkpt>
    <trkpt lat="42.500102" lon="-2.020415">
      <ele>436.5</ele>
    </trkpt>
    <trkpt lat="42.500133" lon="-2.02032">
      <ele>436.3</ele>
    </trkpt>
    <trkpt lat="42.500187" lon="-2.020259">
      <ele>436.1</ele>
    </trkpt>
    <trkpt lat="42.500398" lon="-2.020129">
      <ele>435.3</ele>
    </trkpt>
    <trkpt lat="42.500495" lon="-2.019928">
      <ele>434.5</ele>
    </trkpt>
    <trkpt lat="42.500508" lon="-2.019704">
      <ele>433.6</ele>
    </trkpt>
    <trkpt lat="42.500704" lon="-2.019589">
      <ele>432.4</ele>
    </trkpt>
    <trkpt lat="42.500906" lon="-2.019406">
      <ele>430.9</ele>
    </trkpt>
    <trkpt lat="42.500976" lon="-2.019342">
      <ele>430.4</ele>
    </trkpt>
    <trkpt lat="42.500987" lon="-2.019085">
      <ele>429.3</ele>
    </trkpt>
    <trkpt lat="42.50104" lon="-2.01895">
      <ele>428.6</ele>
    </trkpt>
    <trkpt lat="42.501179" lon="-2.018795">
      <ele>427.6</ele>
    </trkpt>
    <trkpt lat="42.501348" lon="-2.01869">
      <ele>426.5</ele>
    </trkpt>
    <trkpt lat="42.501359" lon="-2.018571">
      <ele>426</ele>
    </trkpt>
    <trkpt lat="42.501335" lon="-2.018415">
      <ele>425.4</ele>
    </trkpt>
    <trkpt lat="42.501387" lon="-2.018204">
      <ele>424.6</ele>
    </trkpt>
    <trkpt lat="42.501455" lon="-2.018127">
      <ele>424.2</ele>
    </trkpt>
    <trkpt lat="42.501468" lon="-2.018059">
      <ele>424</ele>
    </trkpt>
    <trkpt lat="42.501389" lon="-2.017768">
      <ele>423</ele>
    </trkpt>
    <trkpt lat="42.501355" lon="-2.017738">
      <ele>422.8</ele>
    </trkpt>
    <trkpt lat="42.501331" lon="-2.017753">
      <ele>422.7</ele>
    </trkpt>
    <trkpt lat="42.501316" lon="-2.017827">
      <ele>422.5</ele>
    </trkpt>
    <trkpt lat="42.501213" lon="-2.01788">
      <ele>422.1</ele>
    </trkpt>
    <trkpt lat="42.501153" lon="-2.018112">
      <ele>421.6</ele>
    </trkpt>
    <trkpt lat="42.501113" lon="-2.01813">
      <ele>421.5</ele>
    </trkpt>
    <trkpt lat="42.501015" lon="-2.018079">
      <ele>421.2</ele>
    </trkpt>
    <trkpt lat="42.500927" lon="-2.017954">
      <ele>420.9</ele>
    </trkpt>
    <trkpt lat="42.500831" lon="-2.017618">
      <ele>420.2</ele>
    </trkpt>
    <trkpt lat="42.500771" lon="-2.017491">
      <ele>420</ele>
    </trkpt>
    <trkpt lat="42.500769" lon="-2.017323">
      <ele>419.6</ele>
    </trkpt>
    <trkpt lat="42.500848" lon="-2.016946">
      <ele>418.8</ele>
    </trkpt>
    <trkpt lat="42.500886" lon="-2.016319">
      <ele>417.1</ele>
    </trkpt>
    <trkpt lat="42.501074" lon="-2.015698">
      <ele>414.8</ele>
    </trkpt>
    <trkpt lat="42.501179" lon="-2.01517">
      <ele>413</ele>
    </trkpt>
    <trkpt lat="42.501188" lon="-2.014987">
      <ele>412.6</ele>
    </trkpt>
    <trkpt lat="42.501139" lon="-2.014554">
      <ele>412.2</ele>
    </trkpt>
    <trkpt lat="42.501104" lon="-2.014309">
      <ele>412.2</ele>
    </trkpt>
    <trkpt lat="42.50104" lon="-2.014129">
      <ele>412.4</ele>
    </trkpt>
    <trkpt lat="42.501014" lon="-2.014343">
      <ele>412.8</ele>
    </trkpt>
    <trkpt lat="42.500905" lon="-2.014712">
      <ele>414</ele>
    </trkpt>
    <trkpt lat="42.500818" lon="-2.014849">
      <ele>414.8</ele>
    </trkpt>
    <trkpt lat="42.500576" lon="-2.01513">
      <ele>417.1</ele>
    </trkpt>
    <trkpt lat="42.500199" lon="-2.015443">
      <ele>421.1</ele>
    </trkpt>
    <trkpt lat="42.500197" lon="-2.0157">
      <ele>422.7</ele>
    </trkpt>
    <trkpt lat="42.500157" lon="-2.015822">
      <ele>423.5</ele>
    </trkpt>
    <trkpt lat="42.500082" lon="-2.015991">
      <ele>424.6</ele>
    </trkpt>
    <trkpt lat="42.499975" lon="-2.0161">
      <ele>425.4</ele>
    </trkpt>
    <trkpt lat="42.499906" lon="-2.016151">
      <ele>425.8</ele>
    </trkpt>
    <trkpt lat="42.499804" lon="-2.016128">
      <ele>426.2</ele>
    </trkpt>
    <trkpt lat="42.499581" lon="-2.015955">
      <ele>426.8</ele>
    </trkpt>
    <trkpt lat="42.499128" lon="-2.015815">
      <ele>426.7</ele>
    </trkpt>
    <trkpt lat="42.499066" lon="-2.01582">
      <ele>426.6</ele>
    </trkpt>
    <trkpt lat="42.498952" lon="-2.015887">
      <ele>426.3</ele>
    </trkpt>
    <trkpt lat="42.49886" lon="-2.015784">
      <ele>425.9</ele>
    </trkpt>
    <trkpt lat="42.498822" lon="-2.015703">
      <ele>425.6</ele>
    </trkpt>
    <trkpt lat="42.49879" lon="-2.015527">
      <ele>425</ele>
    </trkpt>
    <trkpt lat="42.498741" lon="-2.015438">
      <ele>424.6</ele>
    </trkpt>
    <trkpt lat="42.498698" lon="-2.01544">
      <ele>424.4</ele>
    </trkpt>
    <trkpt lat="42.498663" lon="-2.015512">
      <ele>424.1</ele>
    </trkpt>
    <trkpt lat="42.498636" lon="-2.015507">
      <ele>423.9</ele>
    </trkpt>
    <trkpt lat="42.498593" lon="-2.015466">
      <ele>423.6</ele>
    </trkpt>
    <trkpt lat="42.49857" lon="-2.015392">
      <ele>423.3</ele>
    </trkpt>
    <trkpt lat="42.498663" lon="-2.015023">
      <ele>421.6</ele>
    </trkpt>
    <trkpt lat="42.498689" lon="-2.014796">
      <ele>420.5</ele>
    </trkpt>
    <trkpt lat="42.498683" lon="-2.014648">
      <ele>419.8</ele>
    </trkpt>
    <trkpt lat="42.498585" lon="-2.014029">
      <ele>417.9</ele>
    </trkpt>
    <trkpt lat="42.498642" lon="-2.013046">
      <ele>417.2</ele>
    </trkpt>
    <trkpt lat="42.498619" lon="-2.013003">
      <ele>417.2</ele>
    </trkpt>
    <trkpt lat="42.498214" lon="-2.012769">
      <ele>418.2</ele>
    </trkpt>
    <trkpt lat="42.498123" lon="-2.012774">
      <ele>418.5</ele>
    </trkpt>
    <trkpt lat="42.498056" lon="-2.012845">
      <ele>418.8</ele>
    </trkpt>
    <trkpt lat="42.498003" lon="-2.012843">
      <ele>419</ele>
    </trkpt>
    <trkpt lat="42.497876" lon="-2.013">
      <ele>419.8</ele>
    </trkpt>
    <trkpt lat="42.497789" lon="-2.013405">
      <ele>421.5</ele>
    </trkpt>
    <trkpt lat="42.497739" lon="-2.013538">
      <ele>422.2</ele>
    </trkpt>
    <trkpt lat="42.497729" lon="-2.013729">
      <ele>423.2</ele>
    </trkpt>
    <trkpt lat="42.497677" lon="-2.0138">
      <ele>423.7</ele>
    </trkpt>
    <trkpt lat="42.497481" lon="-2.01379">
      <ele>425.3</ele>
    </trkpt>
    <trkpt lat="42.497397" lon="-2.013864">
      <ele>426.1</ele>
    </trkpt>
    <trkpt lat="42.497357" lon="-2.013963">
      <ele>426.8</ele>
    </trkpt>
    <trkpt lat="42.497322" lon="-2.014063">
      <ele>427.5</ele>
    </trkpt>
    <trkpt lat="42.49711" lon="-2.014282">
      <ele>429.9</ele>
    </trkpt>
    <trkpt lat="42.497044" lon="-2.014405">
      <ele>431</ele>
    </trkpt>
    <trkpt lat="42.496991" lon="-2.014503">
      <ele>431.9</ele>
    </trkpt>
    <trkpt lat="42.496758" lon="-2.015277">
      <ele>439</ele>
    </trkpt>
    <trkpt lat="42.49642" lon="-2.015955">
      <ele>447</ele>
    </trkpt>
    <trkpt lat="42.496257" lon="-2.01649">
      <ele>452.6</ele>
    </trkpt>
    <trkpt lat="42.496172" lon="-2.016681">
      <ele>454.7</ele>
    </trkpt>
    <trkpt lat="42.49609" lon="-2.016808">
      <ele>456.1</ele>
    </trkpt>
    <trkpt lat="42.495645" lon="-2.017328">
      <ele>461.2</ele>
    </trkpt>
    <trkpt lat="42.495457" lon="-2.017666">
      <ele>462.1</ele>
    </trkpt>
    <trkpt lat="42.495399" lon="-2.017733">
      <ele>462.1</ele>
    </trkpt>
    <trkpt lat="42.495121" lon="-2.01784">
      <ele>461.6</ele>
    </trkpt>
    <trkpt lat="42.494989" lon="-2.017939">
      <ele>460.9</ele>
    </trkpt>
    <trkpt lat="42.494912" lon="-2.018048">
      <ele>460.4</ele>
    </trkpt>
    <trkpt lat="42.49483" lon="-2.017998">
      <ele>459.8</ele>
    </trkpt>
    <trkpt lat="42.494689" lon="-2.017786">
      <ele>458.4</ele>
    </trkpt>
    <trkpt lat="42.494563" lon="-2.017391">
      <ele>456</ele>
    </trkpt>
    <trkpt lat="42.494431" lon="-2.017228">
      <ele>454.5</ele>
    </trkpt>
    <trkpt lat="42.4944" lon="-2.017132">
      <ele>453.9</ele>
    </trkpt>
    <trkpt lat="42.494321" lon="-2.017022">
      <ele>453.1</ele>
    </trkpt>
    <trkpt lat="42.494184" lon="-2.01666">
      <ele>451.2</ele>
    </trkpt>
    <trkpt lat="42.494037" lon="-2.016179">
      <ele>449.9</ele>
    </trkpt>
    <trkpt lat="42.494007" lon="-2.016003">
      <ele>449.7</ele>
    </trkpt>
    <trkpt lat="42.494013" lon="-2.015644">
      <ele>449.4</ele>
    </trkpt>
    <trkpt lat="42.493992" lon="-2.015555">
      <ele>449.4</ele>
    </trkpt>
    <trkpt lat="42.494065" lon="-2.015392">
      <ele>449.3</ele>
    </trkpt>
    <trkpt lat="42.494045" lon="-2.015056">
      <ele>449.1</ele>
    </trkpt>
    <trkpt lat="42.493829" lon="-2.014781">
      <ele>448.7</ele>
    </trkpt>
    <trkpt lat="42.493823" lon="-2.014638">
      <ele>448.4</ele>
    </trkpt>
    <trkpt lat="42.493708" lon="-2.014416">
      <ele>447.6</ele>
    </trkpt>
    <trkpt lat="42.493691" lon="-2.014325">
      <ele>447.3</ele>
    </trkpt>
    <trkpt lat="42.493789" lon="-2.014167">
      <ele>446.5</ele>
    </trkpt>
    <trkpt lat="42.493738" lon="-2.013986">
      <ele>445.5</ele>
    </trkpt>
    <trkpt lat="42.493738" lon="-2.013915">
      <ele>445.1</ele>
    </trkpt>
    <trkpt lat="42.493611" lon="-2.013742">
      <ele>443.8</ele>
    </trkpt>
    <trkpt lat="42.493431" lon="-2.013645">
      <ele>442.1</ele>
    </trkpt>
    <trkpt lat="42.493357" lon="-2.013245">
      <ele>439</ele>
    </trkpt>
    <trkpt lat="42.493267" lon="-2.013247">
      <ele>438.1</ele>
    </trkpt>
    <trkpt lat="42.493171" lon="-2.013212">
      <ele>437</ele>
    </trkpt>
    <trkpt lat="42.493079" lon="-2.012988">
      <ele>434.9</ele>
    </trkpt>
    <trkpt lat="42.493046" lon="-2.012972">
      <ele>434.4</ele>
    </trkpt>
    <trkpt lat="42.493017" lon="-2.012904">
      <ele>433.8</ele>
    </trkpt>
    <trkpt lat="42.493032" lon="-2.012845">
      <ele>433.3</ele>
    </trkpt>
    <trkpt lat="42.492982" lon="-2.012774">
      <ele>432.4</ele>
    </trkpt>
    <trkpt lat="42.492786" lon="-2.012208">
      <ele>427.3</ele>
    </trkpt>
    <trkpt lat="42.492538" lon="-2.011714">
      <ele>423.9</ele>
    </trkpt>
    <trkpt lat="42.492482" lon="-2.011498">
      <ele>423</ele>
    </trkpt>
    <trkpt lat="42.492296" lon="-2.010988">
      <ele>421.5</ele>
    </trkpt>
    <trkpt lat="42.492249" lon="-2.010499">
      <ele>420.7</ele>
    </trkpt>
    <trkpt lat="42.492251" lon="-2.010242">
      <ele>420.3</ele>
    </trkpt>
    <trkpt lat="42.49221" lon="-2.009982">
      <ele>419.9</ele>
    </trkpt>
    <trkpt lat="42.492082" lon="-2.009717">
      <ele>419.4</ele>
    </trkpt>
    <trkpt lat="42.49171" lon="-2.009093">
      <ele>416.8</ele>
    </trkpt>
    <trkpt lat="42.491306" lon="-2.00809">
      <ele>409.8</ele>
    </trkpt>
    <trkpt lat="42.491252" lon="-2.007888">
      <ele>408</ele>
    </trkpt>
    <trkpt lat="42.491132" lon="-2.007657">
      <ele>405.9</ele>
    </trkpt>
    <trkpt lat="42.491053" lon="-2.00742">
      <ele>404.2</ele>
    </trkpt>
    <trkpt lat="42.490856" lon="-2.00703">
      <ele>401.4</ele>
    </trkpt>
    <trkpt lat="42.490758" lon="-2.00677">
      <ele>400</ele>
    </trkpt>
    <trkpt lat="42.490688" lon="-2.006674">
      <ele>399.3</ele>
    </trkpt>
    <trkpt lat="42.49066" lon="-2.006485">
      <ele>398.3</ele>
    </trkpt>
    <trkpt lat="42.490692" lon="-2.006409">
      <ele>397.9</ele>
    </trkpt>
    <trkpt lat="42.490754" lon="-2.006414">
      <ele>397.5</ele>
    </trkpt>
    <trkpt lat="42.490809" lon="-2.006358">
      <ele>397</ele>
    </trkpt>
    <trkpt lat="42.490835" lon="-2.00607">
      <ele>395.4</ele>
    </trkpt>
    <trkpt lat="42.490904" lon="-2.005825">
      <ele>394.1</ele>
    </trkpt>
    <trkpt lat="42.490887" lon="-2.005739">
      <ele>393.6</ele>
    </trkpt>
    <trkpt lat="42.490841" lon="-2.005698">
      <ele>393.2</ele>
    </trkpt>
    <trkpt lat="42.490786" lon="-2.005696">
      <ele>392.8</ele>
    </trkpt>
    <trkpt lat="42.490743" lon="-2.005634">
      <ele>392.4</ele>
    </trkpt>
    <trkpt lat="42.490769" lon="-2.005548">
      <ele>392</ele>
    </trkpt>
    <trkpt lat="42.490925" lon="-2.005487">
      <ele>391.3</ele>
    </trkpt>
    <trkpt lat="42.490955" lon="-2.005342">
      <ele>390.8</ele>
    </trkpt>
    <trkpt lat="42.49091" lon="-2.005311">
      <ele>390.5</ele>
    </trkpt>
    <trkpt lat="42.490702" lon="-2.005298">
      <ele>389.4</ele>
    </trkpt>
    <trkpt lat="42.490441" lon="-2.005805">
      <ele>387.6</ele>
    </trkpt>
    <trkpt lat="42.490367" lon="-2.00606">
      <ele>386.9</ele>
    </trkpt>
    <trkpt lat="42.490341" lon="-2.006671">
      <ele>386.4</ele>
    </trkpt>
    <trkpt lat="42.490585" lon="-2.007417">
      <ele>387</ele>
    </trkpt>
    <trkpt lat="42.490589" lon="-2.007563">
      <ele>387.2</ele>
    </trkpt>
    <trkpt lat="42.490662" lon="-2.008006">
      <ele>387.5</ele>
    </trkpt>
    <trkpt lat="42.490901" lon="-2.008775">
      <ele>386.7</ele>
    </trkpt>
    <trkpt lat="42.490889" lon="-2.009282">
      <ele>385.3</ele>
    </trkpt>
    <trkpt lat="42.490865" lon="-2.009307">
      <ele>385.2</ele>
    </trkpt>
    <trkpt lat="42.490788" lon="-2.009272">
      <ele>384.7</ele>
    </trkpt>
    <trkpt lat="42.490497" lon="-2.009292">
      <ele>383.2</ele>
    </trkpt>
    <trkpt lat="42.490352" lon="-2.009223">
      <ele>382.3</ele>
    </trkpt>
    <trkpt lat="42.490213" lon="-2.009241">
      <ele>381.6</ele>
    </trkpt>
    <trkpt lat="42.489883" lon="-2.009381">
      <ele>379.7</ele>
    </trkpt>
    <trkpt lat="42.48966" lon="-2.009439">
      <ele>378.5</ele>
    </trkpt>
    <trkpt lat="42.48959" lon="-2.009631">
      <ele>377.8</ele>
    </trkpt>
    <trkpt lat="42.489483" lon="-2.009803">
      <ele>377.2</ele>
    </trkpt>
    <trkpt lat="42.489411" lon="-2.009841">
      <ele>376.9</ele>
    </trkpt>
    <trkpt lat="42.489036" lon="-2.009836">
      <ele>375.9</ele>
    </trkpt>
    <trkpt lat="42.488939" lon="-2.009869">
      <ele>375.7</ele>
    </trkpt>
    <trkpt lat="42.48885" lon="-2.009967">
      <ele>375.5</ele>
    </trkpt>
    <trkpt lat="42.488581" lon="-2.009603">
      <ele>375.1</ele>
    </trkpt>
    <trkpt lat="42.488488" lon="-2.009434">
      <ele>375</ele>
    </trkpt>
    <trkpt lat="42.487855" lon="-2.007538">
      <ele>373.9</ele>
    </trkpt>
    <trkpt lat="42.487803" lon="-2.00737">
      <ele>373.8</ele>
    </trkpt>
    <trkpt lat="42.487779" lon="-2.006861">
      <ele>373.4</ele>
    </trkpt>
    <trkpt lat="42.487727" lon="-2.006646">
      <ele>373.2</ele>
    </trkpt>
    <trkpt lat="42.487555" lon="-2.00618">
      <ele>372.5</ele>
    </trkpt>
    <trkpt lat="42.487517" lon="-2.006021">
      <ele>372.2</ele>
    </trkpt>
    <trkpt lat="42.4875" lon="-2.005605">
      <ele>371.5</ele>
    </trkpt>
    <trkpt lat="42.487431" lon="-2.005404">
      <ele>371.1</ele>
    </trkpt>
    <trkpt lat="42.487128" lon="-2.004839">
      <ele>369.7</ele>
    </trkpt>
    <trkpt lat="42.486715" lon="-2.00377">
      <ele>368</ele>
    </trkpt>
    <trkpt lat="42.486484" lon="-2.003396">
      <ele>367.6</ele>
    </trkpt>
    <trkpt lat="42.486009" lon="-2.002434">
      <ele>367.2</ele>
    </trkpt>
    <trkpt lat="42.485919" lon="-2.002023">
      <ele>367</ele>
    </trkpt>
    <trkpt lat="42.485923" lon="-2.001827">
      <ele>366.9</ele>
    </trkpt>
    <trkpt lat="42.485988" lon="-2.001379">
      <ele>366.4</ele>
    </trkpt>
    <trkpt lat="42.485978" lon="-2.001005">
      <ele>366</ele>
    </trkpt>
    <trkpt lat="42.485937" lon="-2.000683">
      <ele>365.6</ele>
    </trkpt>
    <trkpt lat="42.485933" lon="-2.000671">
      <ele>365.6</ele>
    </trkpt>
    <trkpt lat="42.485813" lon="-2.000291">
      <ele>365</ele>
    </trkpt>
    <trkpt lat="42.485782" lon="-2.000076">
      <ele>364.6</ele>
    </trkpt>
    <trkpt lat="42.485413" lon="-1.998623">
      <ele>362.4</ele>
    </trkpt>
    <trkpt lat="42.485306" lon="-1.998395">
      <ele>362.1</ele>
    </trkpt>
    <trkpt lat="42.484807" lon="-1.997633">
      <ele>360.9</ele>
    </trkpt>
    <trkpt lat="42.484576" lon="-1.997204">
      <ele>360.3</ele>
    </trkpt>
    <trkpt lat="42.484518" lon="-1.997026">
      <ele>360.1</ele>
    </trkpt>
    <trkpt lat="42.48429" lon="-1.99599">
      <ele>358.6</ele>
    </trkpt>
    <trkpt lat="42.484201" lon="-1.995747">
      <ele>358.2</ele>
    </trkpt>
    <trkpt lat="42.483884" lon="-1.995088">
      <ele>357.4</ele>
    </trkpt>
    <trkpt lat="42.483709" lon="-1.994551">
      <ele>356.6</ele>
    </trkpt>
    <trkpt lat="42.483536" lon="-1.993953">
      <ele>355.5</ele>
    </trkpt>
    <trkpt lat="42.48335" lon="-1.993426">
      <ele>354.5</ele>
    </trkpt>
    <trkpt lat="42.483195" lon="-1.992865">
      <ele>353.4</ele>
    </trkpt>
    <trkpt lat="42.483033" lon="-1.992179">
      <ele>352</ele>
    </trkpt>
    <trkpt lat="42.482944" lon="-1.991754">
      <ele>351.2</ele>
    </trkpt>
    <trkpt lat="42.482899" lon="-1.99169">
      <ele>351.1</ele>
    </trkpt>
    <trkpt lat="42.483059" lon="-1.991337">
      <ele>350.5</ele>
    </trkpt>
    <trkpt lat="42.483384" lon="-1.990778">
      <ele>349.8</ele>
    </trkpt>
    <trkpt lat="42.484006" lon="-1.990025">
      <ele>349</ele>
    </trkpt>
    <trkpt lat="42.483589" lon="-1.990087">
      <ele>348.8</ele>
    </trkpt>
    <trkpt lat="42.483224" lon="-1.990099">
      <ele>348.7</ele>
    </trkpt>
    <trkpt lat="42.482734" lon="-1.989956">
      <ele>348.5</ele>
    </trkpt>
    <trkpt lat="42.482484" lon="-1.989926">
      <ele>348.3</ele>
    </trkpt>
    <trkpt lat="42.482378" lon="-1.989354">
      <ele>347.9</ele>
    </trkpt>
    <trkpt lat="42.48236" lon="-1.989008">
      <ele>347.5</ele>
    </trkpt>
    <trkpt lat="42.482396" lon="-1.98838">
      <ele>346.9</ele>
    </trkpt>
    <trkpt lat="42.482305" lon="-1.987813">
      <ele>346.3</ele>
    </trkpt>
    <trkpt lat="42.482305" lon="-1.987579">
      <ele>346.1</ele>
    </trkpt>
    <trkpt lat="42.482423" lon="-1.987098">
      <ele>345.5</ele>
    </trkpt>
    <trkpt lat="42.482399" lon="-1.986959">
      <ele>345.4</ele>
    </trkpt>
    <trkpt lat="42.482318" lon="-1.986501">
      <ele>344.9</ele>
    </trkpt>
    <trkpt lat="42.482323" lon="-1.986162">
      <ele>344.4</ele>
    </trkpt>
    <trkpt lat="42.482196" lon="-1.985595">
      <ele>343.3</ele>
    </trkpt>
    <trkpt lat="42.482292" lon="-1.985198">
      <ele>342.2</ele>
    </trkpt>
    <trkpt lat="42.482325" lon="-1.9849">
      <ele>341.3</ele>
    </trkpt>
    <trkpt lat="42.48244" lon="-1.984894">
      <ele>340.9</ele>
    </trkpt>
    <trkpt lat="42.48246" lon="-1.984843">
      <ele>340.7</ele>
    </trkpt>
    <trkpt lat="42.482518" lon="-1.984538">
      <ele>339.7</ele>
    </trkpt>
    <trkpt lat="42.482649" lon="-1.984308">
      <ele>338.8</ele>
    </trkpt>
    <trkpt lat="42.482765" lon="-1.983947">
      <ele>337.7</ele>
    </trkpt>
    <trkpt lat="42.482864" lon="-1.983805">
      <ele>337.1</ele>
    </trkpt>
    <trkpt lat="42.482969" lon="-1.983769">
      <ele>336.7</ele>
    </trkpt>
    <trkpt lat="42.483136" lon="-1.983779">
      <ele>336.2</ele>
    </trkpt>
    <trkpt lat="42.483513" lon="-1.983632">
      <ele>335.2</ele>
    </trkpt>
    <trkpt lat="42.483759" lon="-1.98357">
      <ele>334.8</ele>
    </trkpt>
    <trkpt lat="42.48383" lon="-1.983516">
      <ele>334.7</ele>
    </trkpt>
    <trkpt lat="42.484189" lon="-1.983245">
      <ele>334.3</ele>
    </trkpt>
    <trkpt lat="42.484314" lon="-1.983056">
      <ele>334.2</ele>
    </trkpt>
    <trkpt lat="42.484765" lon="-1.981957">
      <ele>334.1</ele>
    </trkpt>
    <trkpt lat="42.485026" lon="-1.98159">
      <ele>334.2</ele>
    </trkpt>
    <trkpt lat="42.485367" lon="-1.981182">
      <ele>334.2</ele>
    </trkpt>
    <trkpt lat="42.485534" lon="-1.980999">
      <ele>334.3</ele>
    </trkpt>
    <trkpt lat="42.485733" lon="-1.980868">
      <ele>334.4</ele>
    </trkpt>
    <trkpt lat="42.485805" lon="-1.98086">
      <ele>334.5</ele>
    </trkpt>
    <trkpt lat="42.485813" lon="-1.980989">
      <ele>334.5</ele>
    </trkpt>
    <trkpt lat="42.485945" lon="-1.981133">
      <ele>334.6</ele>
    </trkpt>
    <trkpt lat="42.486081" lon="-1.981286">
      <ele>334.6</ele>
    </trkpt>
    <trkpt lat="42.486376" lon="-1.980906">
      <ele>334.8</ele>
    </trkpt>
    <trkpt lat="42.486432" lon="-1.980928">
      <ele>334.9</ele>
    </trkpt>
    <trkpt lat="42.486749" lon="-1.981224">
      <ele>335.1</ele>
    </trkpt>
    <trkpt lat="42.48676" lon="-1.981104">
      <ele>335.2</ele>
    </trkpt>
    <trkpt lat="42.486854" lon="-1.981219">
      <ele>335.3</ele>
    </trkpt>
    <trkpt lat="42.486589" lon="-1.980315">
      <ele>336.1</ele>
    </trkpt>
    <trkpt lat="42.486554" lon="-1.980195">
      <ele>336.3</ele>
    </trkpt>
    <trkpt lat="42.486336" lon="-1.97947">
      <ele>337.6</ele>
    </trkpt>
    <trkpt lat="42.486215" lon="-1.979089">
      <ele>338.1</ele>
    </trkpt>
    <trkpt lat="42.48628" lon="-1.97899">
      <ele>338.3</ele>
    </trkpt>
    <trkpt lat="42.486385" lon="-1.97867">
      <ele>338.7</ele>
    </trkpt>
    <trkpt lat="42.486714" lon="-1.978212">
      <ele>339.3</ele>
    </trkpt>
    <trkpt lat="42.487099" lon="-1.977823">
      <ele>339.6</ele>
    </trkpt>
    <trkpt lat="42.487215" lon="-1.977797">
      <ele>339.5</ele>
    </trkpt>
    <trkpt lat="42.487354" lon="-1.977675">
      <ele>339.4</ele>
    </trkpt>
    <trkpt lat="42.487456" lon="-1.977542">
      <ele>339.4</ele>
    </trkpt>
    <trkpt lat="42.487645" lon="-1.977127">
      <ele>339.3</ele>
    </trkpt>
    <trkpt lat="42.487944" lon="-1.976984">
      <ele>339.5</ele>
    </trkpt>
    <trkpt lat="42.488184" lon="-1.976814">
      <ele>339.8</ele>
    </trkpt>
    <trkpt lat="42.488467" lon="-1.976706">
      <ele>340.3</ele>
    </trkpt>
    <trkpt lat="42.488524" lon="-1.976574">
      <ele>340.6</ele>
    </trkpt>
    <trkpt lat="42.488259" lon="-1.976007">
      <ele>341.8</ele>
    </trkpt>
    <trkpt lat="42.488261" lon="-1.975431">
      <ele>343.2</ele>
    </trkpt>
    <trkpt lat="42.488203" lon="-1.975093">
      <ele>344.3</ele>
    </trkpt>
    <trkpt lat="42.487997" lon="-1.974338">
      <ele>347.8</ele>
    </trkpt>
    <trkpt lat="42.487775" lon="-1.97381">
      <ele>351.7</ele>
    </trkpt>
    <trkpt lat="42.487712" lon="-1.97352">
      <ele>354.2</ele>
    </trkpt>
    <trkpt lat="42.487696" lon="-1.973256">
      <ele>356.6</ele>
    </trkpt>
    <trkpt lat="42.487765" lon="-1.972612">
      <ele>362.8</ele>
    </trkpt>
    <trkpt lat="42.487749" lon="-1.97229">
      <ele>366.2</ele>
    </trkpt>
    <trkpt lat="42.487664" lon="-1.972005">
      <ele>369.3</ele>
    </trkpt>
    <trkpt lat="42.48711" lon="-1.970991">
      <ele>380.5</ele>
    </trkpt>
    <trkpt lat="42.486762" lon="-1.970508">
      <ele>384.6</ele>
    </trkpt>
    <trkpt lat="42.486686" lon="-1.970244">
      <ele>386</ele>
    </trkpt>
    <trkpt lat="42.48609" lon="-1.968995">
      <ele>391.9</ele>
    </trkpt>
    <trkpt lat="42.486025" lon="-1.968639">
      <ele>393.2</ele>
    </trkpt>
    <trkpt lat="42.485906" lon="-1.968313">
      <ele>394.5</ele>
    </trkpt>
    <trkpt lat="42.485715" lon="-1.968046">
      <ele>395.8</ele>
    </trkpt>
    <trkpt lat="42.485575" lon="-1.967697">
      <ele>397.3</ele>
    </trkpt>
    <trkpt lat="42.485482" lon="-1.967562">
      <ele>398.1</ele>
    </trkpt>
    <trkpt lat="42.485218" lon="-1.967506">
      <ele>399.4</ele>
    </trkpt>
    <trkpt lat="42.484659" lon="-1.966925">
      <ele>402.8</ele>
    </trkpt>
    <trkpt lat="42.484288" lon="-1.965894">
      <ele>406.2</ele>
    </trkpt>
    <trkpt lat="42.48411" lon="-1.964864">
      <ele>408.9</ele>
    </trkpt>
    <trkpt lat="42.484098" lon="-1.964463">
      <ele>409.9</ele>
    </trkpt>
    <trkpt lat="42.484322" lon="-1.964058">
      <ele>411.2</ele>
    </trkpt>
    <trkpt lat="42.484439" lon="-1.96393">
      <ele>411.6</ele>
    </trkpt>
    <trkpt lat="42.484561" lon="-1.963815">
      <ele>412.1</ele>
    </trkpt>
    <trkpt lat="42.484657" lon="-1.963605">
      <ele>412.6</ele>
    </trkpt>
    <trkpt lat="42.484531" lon="-1.963151">
      <ele>413.6</ele>
    </trkpt>
    <trkpt lat="42.484424" lon="-1.963011">
      <ele>414</ele>
    </trkpt>
    <trkpt lat="42.48429" lon="-1.963314">
      <ele>414.7</ele>
    </trkpt>
    <trkpt lat="42.48409" lon="-1.963094">
      <ele>415.3</ele>
    </trkpt>
    <trkpt lat="42.483976" lon="-1.962723">
      <ele>415.9</ele>
    </trkpt>
    <trkpt lat="42.483745" lon="-1.962313">
      <ele>416.6</ele>
    </trkpt>
    <trkpt lat="42.48346" lon="-1.962131">
      <ele>417.3</ele>
    </trkpt>
    <trkpt lat="42.483232" lon="-1.961856">
      <ele>418</ele>
    </trkpt>
    <trkpt lat="42.48291" lon="-1.960673">
      <ele>420.1</ele>
    </trkpt>
    <trkpt lat="42.482557" lon="-1.959545">
      <ele>422.2</ele>
    </trkpt>
    <trkpt lat="42.482294" lon="-1.958895">
      <ele>424.4</ele>
    </trkpt>
    <trkpt lat="42.482085" lon="-1.958611">
      <ele>425.7</ele>
    </trkpt>
    <trkpt lat="42.481641" lon="-1.958451">
      <ele>428.2</ele>
    </trkpt>
    <trkpt lat="42.481318" lon="-1.958298">
      <ele>430.2</ele>
    </trkpt>
    <trkpt lat="42.480832" lon="-1.957584">
      <ele>434.7</ele>
    </trkpt>
    <trkpt lat="42.48054" lon="-1.956975">
      <ele>438.1</ele>
    </trkpt>
    <trkpt lat="42.480329" lon="-1.956711">
      <ele>440</ele>
    </trkpt>
    <trkpt lat="42.479996" lon="-1.956473">
      <ele>442.8</ele>
    </trkpt>
    <trkpt lat="42.479705" lon="-1.956192">
      <ele>445.7</ele>
    </trkpt>
    <trkpt lat="42.47953" lon="-1.955928">
      <ele>447.9</ele>
    </trkpt>
    <trkpt lat="42.478504" lon="-1.955288">
      <ele>458.1</ele>
    </trkpt>
    <trkpt lat="42.478245" lon="-1.954992">
      <ele>461</ele>
    </trkpt>
    <trkpt lat="42.477811" lon="-1.954219">
      <ele>467</ele>
    </trkpt>
    <trkpt lat="42.477642" lon="-1.953992">
      <ele>468.8</ele>
    </trkpt>
    <trkpt lat="42.477457" lon="-1.953918">
      <ele>470.2</ele>
    </trkpt>
    <trkpt lat="42.476901" lon="-1.953944">
      <ele>474</ele>
    </trkpt>
    <trkpt lat="42.476801" lon="-1.9539">
      <ele>474.7</ele>
    </trkpt>
    <trkpt lat="42.476721" lon="-1.953865">
      <ele>475.2</ele>
    </trkpt>
    <trkpt lat="42.476367" lon="-1.953542">
      <ele>477.5</ele>
    </trkpt>
    <trkpt lat="42.476203" lon="-1.953294">
      <ele>478.5</ele>
    </trkpt>
    <trkpt lat="42.475954" lon="-1.952664">
      <ele>480.1</ele>
    </trkpt>
    <trkpt lat="42.475864" lon="-1.952654">
      <ele>480.4</ele>
    </trkpt>
    <trkpt lat="42.475854" lon="-1.952786">
      <ele>480.6</ele>
    </trkpt>
    <trkpt lat="42.475908" lon="-1.953105">
      <ele>481.2</ele>
    </trkpt>
    <trkpt lat="42.475761" lon="-1.953426">
      <ele>482</ele>
    </trkpt>
    <trkpt lat="42.475658" lon="-1.953739">
      <ele>482.6</ele>
    </trkpt>
    <trkpt lat="42.475589" lon="-1.954062">
      <ele>483.2</ele>
    </trkpt>
    <trkpt lat="42.475507" lon="-1.95494">
      <ele>484.8</ele>
    </trkpt>
    <trkpt lat="42.475468" lon="-1.955068">
      <ele>485.1</ele>
    </trkpt>
    <trkpt lat="42.475055" lon="-1.954114">
      <ele>487.3</ele>
    </trkpt>
    <trkpt lat="42.474939" lon="-1.95377">
      <ele>487.8</ele>
    </trkpt>
    <trkpt lat="42.474801" lon="-1.953161">
      <ele>488</ele>
    </trkpt>
    <trkpt lat="42.474727" lon="-1.952706">
      <ele>488.2</ele>
    </trkpt>
    <trkpt lat="42.474429" lon="-1.951609">
      <ele>489.6</ele>
    </trkpt>
    <trkpt lat="42.474264" lon="-1.950982">
      <ele>491.3</ele>
    </trkpt>
    <trkpt lat="42.473828" lon="-1.950162">
      <ele>495.4</ele>
    </trkpt>
    <trkpt lat="42.473437" lon="-1.949497">
      <ele>498.4</ele>
    </trkpt>
    <trkpt lat="42.473026" lon="-1.948408">
      <ele>498.9</ele>
    </trkpt>
    <trkpt lat="42.47268" lon="-1.947671">
      <ele>497.1</ele>
    </trkpt>
    <trkpt lat="42.472542" lon="-1.947184">
      <ele>495.8</ele>
    </trkpt>
    <trkpt lat="42.472006" lon="-1.945714">
      <ele>492.7</ele>
    </trkpt>
    <trkpt lat="42.471684" lon="-1.944972">
      <ele>492</ele>
    </trkpt>
    <trkpt lat="42.471287" lon="-1.944144">
      <ele>491.4</ele>
    </trkpt>
    <trkpt lat="42.470785" lon="-1.942746">
      <ele>490.9</ele>
    </trkpt>
    <trkpt lat="42.470463" lon="-1.941685">
      <ele>491.5</ele>
    </trkpt>
    <trkpt lat="42.470326" lon="-1.941388">
      <ele>491.9</ele>
    </trkpt>
    <trkpt lat="42.470184" lon="-1.940864">
      <ele>492.5</ele>
    </trkpt>
    <trkpt lat="42.470062" lon="-1.940515">
      <ele>492.8</ele>
    </trkpt>
    <trkpt lat="42.469949" lon="-1.939906">
      <ele>493.2</ele>
    </trkpt>
    <trkpt lat="42.469675" lon="-1.939139">
      <ele>493.8</ele>
    </trkpt>
    <trkpt lat="42.469433" lon="-1.938555">
      <ele>494.7</ele>
    </trkpt>
    <trkpt lat="42.469325" lon="-1.938142">
      <ele>495.3</ele>
    </trkpt>
    <trkpt lat="42.469023" lon="-1.937554">
      <ele>496.4</ele>
    </trkpt>
    <trkpt lat="42.468773" lon="-1.936878">
      <ele>497.6</ele>
    </trkpt>
    <trkpt lat="42.468603" lon="-1.936041">
      <ele>498.6</ele>
    </trkpt>
    <trkpt lat="42.468305" lon="-1.935082">
      <ele>499.1</ele>
    </trkpt>
    <trkpt lat="42.468216" lon="-1.934526">
      <ele>499</ele>
    </trkpt>
    <trkpt lat="42.4681" lon="-1.934039">
      <ele>498.8</ele>
    </trkpt>
    <trkpt lat="42.468062" lon="-1.933497">
      <ele>498.2</ele>
    </trkpt>
    <trkpt lat="42.467965" lon="-1.932874">
      <ele>497.5</ele>
    </trkpt>
    <trkpt lat="42.467791" lon="-1.93226">
      <ele>496.8</ele>
    </trkpt>
    <trkpt lat="42.467477" lon="-1.93077">
      <ele>496.4</ele>
    </trkpt>
    <trkpt lat="42.467286" lon="-1.930074">
      <ele>496.6</ele>
    </trkpt>
    <trkpt lat="42.467198" lon="-1.929752">
      <ele>496.8</ele>
    </trkpt>
    <trkpt lat="42.466963" lon="-1.929151">
      <ele>497</ele>
    </trkpt>
    <trkpt lat="42.466807" lon="-1.928533">
      <ele>497.3</ele>
    </trkpt>
    <trkpt lat="42.466346" lon="-1.927063">
      <ele>498.6</ele>
    </trkpt>
    <trkpt lat="42.466148" lon="-1.926278">
      <ele>499.1</ele>
    </trkpt>
    <trkpt lat="42.466107" lon="-1.925985">
      <ele>499.3</ele>
    </trkpt>
    <trkpt lat="42.465596" lon="-1.924273">
      <ele>492.7</ele>
    </trkpt>
    <trkpt lat="42.465573" lon="-1.92452">
      <ele>490.3</ele>
    </trkpt>
    <trkpt lat="42.465531" lon="-1.924577">
      <ele>489.4</ele>
    </trkpt>
    <trkpt lat="42.465186" lon="-1.924492">
      <ele>484.1</ele>
    </trkpt>
    <trkpt lat="42.465004" lon="-1.924485">
      <ele>481</ele>
    </trkpt>
    <trkpt lat="42.464842" lon="-1.924432">
      <ele>478</ele>
    </trkpt>
    <trkpt lat="42.464729" lon="-1.924559">
      <ele>475.3</ele>
    </trkpt>
    <trkpt lat="42.464659" lon="-1.92457">
      <ele>473.9</ele>
    </trkpt>
    <trkpt lat="42.464549" lon="-1.924489">
      <ele>471.5</ele>
    </trkpt>
    <trkpt lat="42.46451" lon="-1.924425">
      <ele>470.3</ele>
    </trkpt>
    <trkpt lat="42.46451" lon="-1.924294">
      <ele>468.4</ele>
    </trkpt>
    <trkpt lat="42.464591" lon="-1.924142">
      <ele>465.8</ele>
    </trkpt>
    <trkpt lat="42.464565" lon="-1.924057">
      <ele>464.5</ele>
    </trkpt>
    <trkpt lat="42.464513" lon="-1.924028">
      <ele>463.5</ele>
    </trkpt>
    <trkpt lat="42.463946" lon="-1.924043">
      <ele>454.6</ele>
    </trkpt>
    <trkpt lat="42.46369" lon="-1.923997">
      <ele>451</ele>
    </trkpt>
    <trkpt lat="42.463463" lon="-1.92405">
      <ele>448</ele>
    </trkpt>
    <trkpt lat="42.463181" lon="-1.924067">
      <ele>444.7</ele>
    </trkpt>
    <trkpt lat="42.462688" lon="-1.924205">
      <ele>439.5</ele>
    </trkpt>
    <trkpt lat="42.462035" lon="-1.924478">
      <ele>434.5</ele>
    </trkpt>
    <trkpt lat="42.461949" lon="-1.924491">
      <ele>434.1</ele>
    </trkpt>
    <trkpt lat="42.461936" lon="-1.924584">
      <ele>433.8</ele>
    </trkpt>
    <trkpt lat="42.461332" lon="-1.924143">
      <ele>431.9</ele>
    </trkpt>
    <trkpt lat="42.461268" lon="-1.923747">
      <ele>431.6</ele>
    </trkpt>
    <trkpt lat="42.460972" lon="-1.922725">
      <ele>431.2</ele>
    </trkpt>
    <trkpt lat="42.460954" lon="-1.92234">
      <ele>431.3</ele>
    </trkpt>
    <trkpt lat="42.460888" lon="-1.921882">
      <ele>431.5</ele>
    </trkpt>
    <trkpt lat="42.460763" lon="-1.921491">
      <ele>431.9</ele>
    </trkpt>
    <trkpt lat="42.460621" lon="-1.920911">
      <ele>433.1</ele>
    </trkpt>
    <trkpt lat="42.460456" lon="-1.920898">
      <ele>433.6</ele>
    </trkpt>
    <trkpt lat="42.459777" lon="-1.920516">
      <ele>436.3</ele>
    </trkpt>
    <trkpt lat="42.459406" lon="-1.920127">
      <ele>437.4</ele>
    </trkpt>
    <trkpt lat="42.459192" lon="-1.92002">
      <ele>437.7</ele>
    </trkpt>
    <trkpt lat="42.458785" lon="-1.920141">
      <ele>437.6</ele>
    </trkpt>
    <trkpt lat="42.458717" lon="-1.919907">
      <ele>437.3</ele>
    </trkpt>
    <trkpt lat="42.458764" lon="-1.919752">
      <ele>437.1</ele>
    </trkpt>
    <trkpt lat="42.458665" lon="-1.9191">
      <ele>435.5</ele>
    </trkpt>
    <trkpt lat="42.458748" lon="-1.919072">
      <ele>435.2</ele>
    </trkpt>
    <trkpt lat="42.458895" lon="-1.919164">
      <ele>434.5</ele>
    </trkpt>
    <trkpt lat="42.458989" lon="-1.918902">
      <ele>433.5</ele>
    </trkpt>
    <trkpt lat="42.459255" lon="-1.918711">
      <ele>432</ele>
    </trkpt>
    <trkpt lat="42.459432" lon="-1.9184">
      <ele>430.5</ele>
    </trkpt>
    <trkpt lat="42.459415" lon="-1.918341">
      <ele>430.2</ele>
    </trkpt>
    <trkpt lat="42.45937" lon="-1.918194">
      <ele>429.6</ele>
    </trkpt>
    <trkpt lat="42.459156" lon="-1.918046">
      <ele>428.4</ele>
    </trkpt>
    <trkpt lat="42.458947" lon="-1.918067">
      <ele>427.5</ele>
    </trkpt>
    <trkpt lat="42.458769" lon="-1.917946">
      <ele>426.7</ele>
    </trkpt>
    <trkpt lat="42.45855" lon="-1.918003">
      <ele>426</ele>
    </trkpt>
    <trkpt lat="42.458456" lon="-1.918102">
      <ele>425.7</ele>
    </trkpt>
    <trkpt lat="42.458425" lon="-1.918364">
      <ele>425.2</ele>
    </trkpt>
    <trkpt lat="42.458195" lon="-1.918732">
      <ele>424.6</ele>
    </trkpt>
    <trkpt lat="42.458195" lon="-1.919029">
      <ele>424.4</ele>
    </trkpt>
    <trkpt lat="42.458216" lon="-1.919164">
      <ele>424.2</ele>
    </trkpt>
    <trkpt lat="42.458383" lon="-1.919299">
      <ele>423.9</ele>
    </trkpt>
    <trkpt lat="42.458357" lon="-1.919801">
      <ele>423.2</ele>
    </trkpt>
    <trkpt lat="42.458226" lon="-1.920077">
      <ele>422.5</ele>
    </trkpt>
    <trkpt lat="42.458315" lon="-1.920318">
      <ele>421.8</ele>
    </trkpt>
    <trkpt lat="42.458325" lon="-1.92053">
      <ele>421.1</ele>
    </trkpt>
    <trkpt lat="42.458503" lon="-1.921004">
      <ele>419.3</ele>
    </trkpt>
    <trkpt lat="42.458618" lon="-1.921528">
      <ele>417.4</ele>
    </trkpt>
    <trkpt lat="42.458592" lon="-1.921804">
      <ele>416.6</ele>
    </trkpt>
    <trkpt lat="42.458404" lon="-1.92213">
      <ele>415.8</ele>
    </trkpt>
    <trkpt lat="42.458106" lon="-1.92254">
      <ele>415.1</ele>
    </trkpt>
    <trkpt lat="42.458775" lon="-1.923185">
      <ele>415.7</ele>
    </trkpt>
    <trkpt lat="42.458884" lon="-1.923539">
      <ele>416.4</ele>
    </trkpt>
    <trkpt lat="42.458931" lon="-1.923857">
      <ele>417</ele>
    </trkpt>
    <trkpt lat="42.45902" lon="-1.924133">
      <ele>417.6</ele>
    </trkpt>
    <trkpt lat="42.459059" lon="-1.924576">
      <ele>418.7</ele>
    </trkpt>
    <trkpt lat="42.459196" lon="-1.924274">
      <ele>419.7</ele>
    </trkpt>
    <trkpt lat="42.45935" lon="-1.924089">
      <ele>420.6</ele>
    </trkpt>
    <trkpt lat="42.459493" lon="-1.92401">
      <ele>421.3</ele>
    </trkpt>
    <trkpt lat="42.459757" lon="-1.924057">
      <ele>422.5</ele>
    </trkpt>
    <trkpt lat="42.460022" lon="-1.924142">
      <ele>423.7</ele>
    </trkpt>
    <trkpt lat="42.460186" lon="-1.924227">
      <ele>424.5</ele>
    </trkpt>
    <trkpt lat="42.460413" lon="-1.924227">
      <ele>425.7</ele>
    </trkpt>
    <trkpt lat="42.460541" lon="-1.92417">
      <ele>426.3</ele>
    </trkpt>
    <trkpt lat="42.460715" lon="-1.924094">
      <ele>427.2</ele>
    </trkpt>
    <trkpt lat="42.460963" lon="-1.924057">
      <ele>428.3</ele>
    </trkpt>
    <trkpt lat="42.461332" lon="-1.924143">
      <ele>429.9</ele>
    </trkpt>
    <trkpt lat="42.461333" lon="-1.924405">
      <ele>430.6</ele>
    </trkpt>
    <trkpt lat="42.46177" lon="-1.926168">
      <ele>433.9</ele>
    </trkpt>
    <trkpt lat="42.462419" lon="-1.928314">
      <ele>431.4</ele>
    </trkpt>
    <trkpt lat="42.462659" lon="-1.929425">
      <ele>428</ele>
    </trkpt>
    <trkpt lat="42.462837" lon="-1.929818">
      <ele>426.5</ele>
    </trkpt>
    <trkpt lat="42.463054" lon="-1.930554">
      <ele>424.5</ele>
    </trkpt>
    <trkpt lat="42.463136" lon="-1.930942">
      <ele>423.7</ele>
    </trkpt>
    <trkpt lat="42.463268" lon="-1.931928">
      <ele>422.4</ele>
    </trkpt>
    <trkpt lat="42.463321" lon="-1.932736">
      <ele>422.5</ele>
    </trkpt>
    <trkpt lat="42.463415" lon="-1.933109">
      <ele>422.9</ele>
    </trkpt>
    <trkpt lat="42.463355" lon="-1.933126">
      <ele>423.1</ele>
    </trkpt>
    <trkpt lat="42.463258" lon="-1.933077">
      <ele>423.3</ele>
    </trkpt>
    <trkpt lat="42.463244" lon="-1.933238">
      <ele>423.6</ele>
    </trkpt>
    <trkpt lat="42.462504" lon="-1.933581">
      <ele>427.5</ele>
    </trkpt>
    <trkpt lat="42.462646" lon="-1.933941">
      <ele>429.9</ele>
    </trkpt>
    <trkpt lat="42.462741" lon="-1.934391">
      <ele>432.9</ele>
    </trkpt>
    <trkpt lat="42.462738" lon="-1.935824">
      <ele>440.4</ele>
    </trkpt>
    <trkpt lat="42.462797" lon="-1.936065">
      <ele>441.2</ele>
    </trkpt>
    <trkpt lat="42.46288" lon="-1.937433">
      <ele>442.2</ele>
    </trkpt>
    <trkpt lat="42.463165" lon="-1.938077">
      <ele>441</ele>
    </trkpt>
    <trkpt lat="42.463212" lon="-1.938307">
      <ele>440.4</ele>
    </trkpt>
    <trkpt lat="42.463208" lon="-1.938468">
      <ele>440</ele>
    </trkpt>
    <trkpt lat="42.463268" lon="-1.938597">
      <ele>439.6</ele>
    </trkpt>
    <trkpt lat="42.463671" lon="-1.939096">
      <ele>437</ele>
    </trkpt>
    <trkpt lat="42.463901" lon="-1.9393">
      <ele>435.6</ele>
    </trkpt>
    <trkpt lat="42.464479" lon="-1.939552">
      <ele>432.3</ele>
    </trkpt>
    <trkpt lat="42.464542" lon="-1.93967">
      <ele>431.8</ele>
    </trkpt>
    <trkpt lat="42.464684" lon="-1.940303">
      <ele>429.5</ele>
    </trkpt>
    <trkpt lat="42.464819" lon="-1.940507">
      <ele>428.8</ele>
    </trkpt>
    <trkpt lat="42.46512" lon="-1.941537">
      <ele>428.3</ele>
    </trkpt>
    <trkpt lat="42.46506" lon="-1.941649">
      <ele>428.5</ele>
    </trkpt>
    <trkpt lat="42.464645" lon="-1.941864">
      <ele>429.4</ele>
    </trkpt>
    <trkpt lat="42.464514" lon="-1.941858">
      <ele>429.6</ele>
    </trkpt>
    <trkpt lat="42.464392" lon="-1.941896">
      <ele>429.8</ele>
    </trkpt>
    <trkpt lat="42.464364" lon="-1.942003">
      <ele>430</ele>
    </trkpt>
    <trkpt lat="42.464451" lon="-1.942535">
      <ele>430.4</ele>
    </trkpt>
    <trkpt lat="42.46436" lon="-1.942856">
      <ele>430.4</ele>
    </trkpt>
    <trkpt lat="42.464384" lon="-1.942974">
      <ele>430.3</ele>
    </trkpt>
    <trkpt lat="42.464566" lon="-1.943285">
      <ele>429.7</ele>
    </trkpt>
    <trkpt lat="42.464483" lon="-1.943725">
      <ele>428.3</ele>
    </trkpt>
    <trkpt lat="42.4645" lon="-1.943756">
      <ele>428.1</ele>
    </trkpt>
    <trkpt lat="42.464601" lon="-1.943929">
      <ele>427.2</ele>
    </trkpt>
    <trkpt lat="42.464772" lon="-1.944144">
      <ele>425.6</ele>
    </trkpt>
    <trkpt lat="42.464898" lon="-1.944627">
      <ele>422.6</ele>
    </trkpt>
    <trkpt lat="42.46506" lon="-1.944863">
      <ele>420.6</ele>
    </trkpt>
    <trkpt lat="42.465381" lon="-1.945083">
      <ele>417.4</ele>
    </trkpt>
    <trkpt lat="42.465551" lon="-1.945286">
      <ele>415.4</ele>
    </trkpt>
    <trkpt lat="42.465654" lon="-1.945683">
      <ele>412.8</ele>
    </trkpt>
    <trkpt lat="42.465789" lon="-1.945995">
      <ele>411</ele>
    </trkpt>
    <trkpt lat="42.465864" lon="-1.946284">
      <ele>410</ele>
    </trkpt>
    <trkpt lat="42.466002" lon="-1.946472">
      <ele>409.3</ele>
    </trkpt>
    <trkpt lat="42.466034" lon="-1.946885">
      <ele>408.9</ele>
    </trkpt>
    <trkpt lat="42.466105" lon="-1.946939">
      <ele>408.8</ele>
    </trkpt>
    <trkpt lat="42.466213" lon="-1.94692">
      <ele>408.9</ele>
    </trkpt>
    <trkpt lat="42.466255" lon="-1.946893">
      <ele>409</ele>
    </trkpt>
    <trkpt lat="42.46648" lon="-1.946758">
      <ele>409.5</ele>
    </trkpt>
    <trkpt lat="42.466917" lon="-1.946516">
      <ele>411.5</ele>
    </trkpt>
    <trkpt lat="42.46702" lon="-1.946676">
      <ele>412.3</ele>
    </trkpt>
    <trkpt lat="42.467059" lon="-1.946813">
      <ele>412.9</ele>
    </trkpt>
    <trkpt lat="42.467103" lon="-1.94728">
      <ele>414.8</ele>
    </trkpt>
    <trkpt lat="42.467185" lon="-1.947826">
      <ele>416.6</ele>
    </trkpt>
    <trkpt lat="42.467624" lon="-1.949669">
      <ele>419.9</ele>
    </trkpt>
    <trkpt lat="42.468042" lon="-1.951145">
      <ele>419.5</ele>
    </trkpt>
    <trkpt lat="42.468371" lon="-1.952274">
      <ele>417.3</ele>
    </trkpt>
    <trkpt lat="42.468598" lon="-1.952832">
      <ele>415.8</ele>
    </trkpt>
    <trkpt lat="42.468829" lon="-1.953234">
      <ele>414.6</ele>
    </trkpt>
    <trkpt lat="42.468947" lon="-1.953698">
      <ele>413.6</ele>
    </trkpt>
    <trkpt lat="42.468996" lon="-1.954193">
      <ele>412.7</ele>
    </trkpt>
    <trkpt lat="42.469194" lon="-1.955028">
      <ele>411.7</ele>
    </trkpt>
    <trkpt lat="42.46935" lon="-1.955852">
      <ele>410.8</ele>
    </trkpt>
    <trkpt lat="42.46952" lon="-1.956281">
      <ele>410</ele>
    </trkpt>
    <trkpt lat="42.469883" lon="-1.95694">
      <ele>407.6</ele>
    </trkpt>
    <trkpt lat="42.469878" lon="-1.957064">
      <ele>407.1</ele>
    </trkpt>
    <trkpt lat="42.469369" lon="-1.957193">
      <ele>404.8</ele>
    </trkpt>
    <trkpt lat="42.469285" lon="-1.957297">
      <ele>404.4</ele>
    </trkpt>
    <trkpt lat="42.469203" lon="-1.95732">
      <ele>404.3</ele>
    </trkpt>
    <trkpt lat="42.469067" lon="-1.957359">
      <ele>404.1</ele>
    </trkpt>
    <trkpt lat="42.468995" lon="-1.957379">
      <ele>404</ele>
    </trkpt>
    <trkpt lat="42.469" lon="-1.957469">
      <ele>404</ele>
    </trkpt>
    <trkpt lat="42.46881" lon="-1.957473">
      <ele>404.2</ele>
    </trkpt>
    <trkpt lat="42.468741" lon="-1.957515">
      <ele>404.4</ele>
    </trkpt>
    <trkpt lat="42.46863" lon="-1.957654">
      <ele>404.8</ele>
    </trkpt>
    <trkpt lat="42.468521" lon="-1.957906">
      <ele>405.7</ele>
    </trkpt>
    <trkpt lat="42.468727" lon="-1.958302">
      <ele>407.7</ele>
    </trkpt>
    <trkpt lat="42.468962" lon="-1.958251">
      <ele>409.5</ele>
    </trkpt>
    <trkpt lat="42.469062" lon="-1.958276">
      <ele>410.3</ele>
    </trkpt>
    <trkpt lat="42.469114" lon="-1.958478">
      <ele>411.7</ele>
    </trkpt>
    <trkpt lat="42.469107" lon="-1.958745">
      <ele>413.3</ele>
    </trkpt>
    <trkpt lat="42.469377" lon="-1.959377">
      <ele>416.6</ele>
    </trkpt>
    <trkpt lat="42.469579" lon="-1.960199">
      <ele>418.1</ele>
    </trkpt>
    <trkpt lat="42.469882" lon="-1.96122">
      <ele>417.4</ele>
    </trkpt>
    <trkpt lat="42.470426" lon="-1.962721">
      <ele>414.6</ele>
    </trkpt>
    <trkpt lat="42.470658" lon="-1.963561">
      <ele>413.2</ele>
    </trkpt>
    <trkpt lat="42.471095" lon="-1.964767">
      <ele>410.7</ele>
    </trkpt>
    <trkpt lat="42.471352" lon="-1.965392">
      <ele>409.1</ele>
    </trkpt>
    <trkpt lat="42.471706" lon="-1.965926">
      <ele>407.2</ele>
    </trkpt>
    <trkpt lat="42.471768" lon="-1.966174">
      <ele>406.5</ele>
    </trkpt>
    <trkpt lat="42.471791" lon="-1.966502">
      <ele>405.6</ele>
    </trkpt>
    <trkpt lat="42.471884" lon="-1.966804">
      <ele>404.7</ele>
    </trkpt>
    <trkpt lat="42.47201" lon="-1.9669">
      <ele>404.2</ele>
    </trkpt>
    <trkpt lat="42.472407" lon="-1.967778">
      <ele>401.4</ele>
    </trkpt>
    <trkpt lat="42.472487" lon="-1.968029">
      <ele>400.7</ele>
    </trkpt>
    <trkpt lat="42.472917" lon="-1.968895">
      <ele>398.2</ele>
    </trkpt>
    <trkpt lat="42.473031" lon="-1.969192">
      <ele>397.4</ele>
    </trkpt>
    <trkpt lat="42.473082" lon="-1.96945">
      <ele>396.8</ele>
    </trkpt>
    <trkpt lat="42.473162" lon="-1.969586">
      <ele>396.5</ele>
    </trkpt>
    <trkpt lat="42.473345" lon="-1.970115">
      <ele>395.1</ele>
    </trkpt>
    <trkpt lat="42.473435" lon="-1.970452">
      <ele>394.1</ele>
    </trkpt>
    <trkpt lat="42.4735" lon="-1.970841">
      <ele>392.9</ele>
    </trkpt>
    <trkpt lat="42.473687" lon="-1.971183">
      <ele>391.4</ele>
    </trkpt>
    <trkpt lat="42.473784" lon="-1.971262">
      <ele>390.8</ele>
    </trkpt>
    <trkpt lat="42.473794" lon="-1.971438">
      <ele>390</ele>
    </trkpt>
    <trkpt lat="42.473772" lon="-1.971672">
      <ele>389</ele>
    </trkpt>
    <trkpt lat="42.473804" lon="-1.971885">
      <ele>387.9</ele>
    </trkpt>
    <trkpt lat="42.474124" lon="-1.972805">
      <ele>381.9</ele>
    </trkpt>
    <trkpt lat="42.474388" lon="-1.973414">
      <ele>376.5</ele>
    </trkpt>
    <trkpt lat="42.474502" lon="-1.973601">
      <ele>374.4</ele>
    </trkpt>
    <trkpt lat="42.474505" lon="-1.973866">
      <ele>372.1</ele>
    </trkpt>
    <trkpt lat="42.474592" lon="-1.974002">
      <ele>370.4</ele>
    </trkpt>
    <trkpt lat="42.474664" lon="-1.973978">
      <ele>369.6</ele>
    </trkpt>
    <trkpt lat="42.4751" lon="-1.974121">
      <ele>363.9</ele>
    </trkpt>
    <trkpt lat="42.475105" lon="-1.974203">
      <ele>363.2</ele>
    </trkpt>
    <trkpt lat="42.475005" lon="-1.974299">
      <ele>361.7</ele>
    </trkpt>
    <trkpt lat="42.474932" lon="-1.974543">
      <ele>359.7</ele>
    </trkpt>
    <trkpt lat="42.474697" lon="-1.974816">
      <ele>356.9</ele>
    </trkpt>
    <trkpt lat="42.474611" lon="-1.974812">
      <ele>356.2</ele>
    </trkpt>
    <trkpt lat="42.474578" lon="-1.974884">
      <ele>355.8</ele>
    </trkpt>
    <trkpt lat="42.47458" lon="-1.975016">
      <ele>355.2</ele>
    </trkpt>
    <trkpt lat="42.4745" lon="-1.975084">
      <ele>354.7</ele>
    </trkpt>
    <trkpt lat="42.474472" lon="-1.975196">
      <ele>354.3</ele>
    </trkpt>
    <trkpt lat="42.4745" lon="-1.975663">
      <ele>352.9</ele>
    </trkpt>
    <trkpt lat="42.47461" lon="-1.976097">
      <ele>351.7</ele>
    </trkpt>
    <trkpt lat="42.474587" lon="-1.976447">
      <ele>350.8</ele>
    </trkpt>
    <trkpt lat="42.474593" lon="-1.976643">
      <ele>350.5</ele>
    </trkpt>
    <trkpt lat="42.474555" lon="-1.976727">
      <ele>350.4</ele>
    </trkpt>
    <trkpt lat="42.474603" lon="-1.976896">
      <ele>350.1</ele>
    </trkpt>
    <trkpt lat="42.47483" lon="-1.977283">
      <ele>349.4</ele>
    </trkpt>
    <trkpt lat="42.474989" lon="-1.977624">
      <ele>348.8</ele>
    </trkpt>
    <trkpt lat="42.47503" lon="-1.977769">
      <ele>348.5</ele>
    </trkpt>
    <trkpt lat="42.475044" lon="-1.97795">
      <ele>348.1</ele>
    </trkpt>
    <trkpt lat="42.475686" lon="-1.977745">
      <ele>346.7</ele>
    </trkpt>
    <trkpt lat="42.475044" lon="-1.97795">
      <ele>348.1</ele>
    </trkpt>
    <trkpt lat="42.47503" lon="-1.977769">
      <ele>348.5</ele>
    </trkpt>
    <trkpt lat="42.474989" lon="-1.977624">
      <ele>348.8</ele>
    </trkpt>
    <trkpt lat="42.47483" lon="-1.977283">
      <ele>349.4</ele>
    </trkpt>
    <trkpt lat="42.474603" lon="-1.976896">
      <ele>350.1</ele>
    </trkpt>
    <trkpt lat="42.474555" lon="-1.976727">
      <ele>350.4</ele>
    </trkpt>
    <trkpt lat="42.474593" lon="-1.976643">
      <ele>350.5</ele>
    </trkpt>
    <trkpt lat="42.474587" lon="-1.976447">
      <ele>350.8</ele>
    </trkpt>
    <trkpt lat="42.47461" lon="-1.976097">
      <ele>351.4</ele>
    </trkpt>
    <trkpt lat="42.4745" lon="-1.975663">
      <ele>352.4</ele>
    </trkpt>
    <trkpt lat="42.474472" lon="-1.975196">
      <ele>353.1</ele>
    </trkpt>
    <trkpt lat="42.4745" lon="-1.975084">
      <ele>353.3</ele>
    </trkpt>
    <trkpt lat="42.47458" lon="-1.975016">
      <ele>353.5</ele>
    </trkpt>
    <trkpt lat="42.474779" lon="-1.97485">
      <ele>354.2</ele>
    </trkpt>
    <trkpt lat="42.474954" lon="-1.974642">
      <ele>355</ele>
    </trkpt>
    <trkpt lat="42.475226" lon="-1.974318">
      <ele>356.7</ele>
    </trkpt>
    <trkpt lat="42.475468" lon="-1.973757">
      <ele>359.5</ele>
    </trkpt>
    <trkpt lat="42.475512" lon="-1.973529">
      <ele>360.2</ele>
    </trkpt>
    <trkpt lat="42.475516" lon="-1.973202">
      <ele>361.1</ele>
    </trkpt>
    <trkpt lat="42.475478" lon="-1.973048">
      <ele>361.4</ele>
    </trkpt>
    <trkpt lat="42.475221" lon="-1.972463">
      <ele>362.5</ele>
    </trkpt>
    <trkpt lat="42.475206" lon="-1.9723">
      <ele>362.6</ele>
    </trkpt>
    <trkpt lat="42.475131" lon="-1.972048">
      <ele>362.8</ele>
    </trkpt>
    <trkpt lat="42.475119" lon="-1.971942">
      <ele>362.8</ele>
    </trkpt>
    <trkpt lat="42.475137" lon="-1.971812">
      <ele>362.8</ele>
    </trkpt>
    <trkpt lat="42.475221" lon="-1.971531">
      <ele>362.6</ele>
    </trkpt>
    <trkpt lat="42.475473" lon="-1.971214">
      <ele>362.2</ele>
    </trkpt>
    <trkpt lat="42.475548" lon="-1.971072">
      <ele>361.9</ele>
    </trkpt>
    <trkpt lat="42.475572" lon="-1.970966">
      <ele>361.8</ele>
    </trkpt>
    <trkpt lat="42.475575" lon="-1.970751">
      <ele>361.7</ele>
    </trkpt>
    <trkpt lat="42.475611" lon="-1.970629">
      <ele>361.7</ele>
    </trkpt>
    <trkpt lat="42.475671" lon="-1.970535">
      <ele>361.7</ele>
    </trkpt>
    <trkpt lat="42.475848" lon="-1.970462">
      <ele>361.7</ele>
    </trkpt>
    <trkpt lat="42.476261" lon="-1.970194">
      <ele>361.7</ele>
    </trkpt>
    <trkpt lat="42.476588" lon="-1.969877">
      <ele>362.1</ele>
    </trkpt>
    <trkpt lat="42.476711" lon="-1.969673">
      <ele>362.5</ele>
    </trkpt>
    <trkpt lat="42.476819" lon="-1.969578">
      <ele>362.7</ele>
    </trkpt>
    <trkpt lat="42.476954" lon="-1.969755">
      <ele>363.2</ele>
    </trkpt>
    <trkpt lat="42.477002" lon="-1.969952">
      <ele>363.5</ele>
    </trkpt>
    <trkpt lat="42.477153" lon="-1.970298">
      <ele>364.2</ele>
    </trkpt>
    <trkpt lat="42.477319" lon="-1.970995">
      <ele>364.9</ele>
    </trkpt>
    <trkpt lat="42.477406" lon="-1.971166">
      <ele>365.1</ele>
    </trkpt>
    <trkpt lat="42.478142" lon="-1.972053">
      <ele>366</ele>
    </trkpt>
    <trkpt lat="42.47822" lon="-1.972213">
      <ele>366.1</ele>
    </trkpt>
    <trkpt lat="42.478313" lon="-1.972297">
      <ele>366.3</ele>
    </trkpt>
    <trkpt lat="42.478903" lon="-1.972863">
      <ele>368.7</ele>
    </trkpt>
    <trkpt lat="42.479552" lon="-1.971794">
      <ele>376.2</ele>
    </trkpt>
    <trkpt lat="42.479644" lon="-1.971659">
      <ele>377.5</ele>
    </trkpt>
    <trkpt lat="42.479751" lon="-1.971517">
      <ele>379</ele>
    </trkpt>
    <trkpt lat="42.479986" lon="-1.971412">
      <ele>381.3</ele>
    </trkpt>
    <trkpt lat="42.480702" lon="-1.971196">
      <ele>388.2</ele>
    </trkpt>
    <trkpt lat="42.481268" lon="-1.971">
      <ele>392.8</ele>
    </trkpt>
    <trkpt lat="42.4817" lon="-1.9707">
      <ele>395.7</ele>
    </trkpt>
    <trkpt lat="42.481822" lon="-1.970574">
      <ele>396.5</ele>
    </trkpt>
    <trkpt lat="42.48155" lon="-1.970751">
      <ele>398</ele>
    </trkpt>
    <trkpt lat="42.481331" lon="-1.970787">
      <ele>398.9</ele>
    </trkpt>
    <trkpt lat="42.481046" lon="-1.970886">
      <ele>399.9</ele>
    </trkpt>
    <trkpt lat="42.480822" lon="-1.970872">
      <ele>400.5</ele>
    </trkpt>
    <trkpt lat="42.480678" lon="-1.970815">
      <ele>400.9</ele>
    </trkpt>
    <trkpt lat="42.48066" lon="-1.970748">
      <ele>401.1</ele>
    </trkpt>
    <trkpt lat="42.480694" lon="-1.970588">
      <ele>401.5</ele>
    </trkpt>
    <trkpt lat="42.480542" lon="-1.970503">
      <ele>402.3</ele>
    </trkpt>
    <trkpt lat="42.480122" lon="-1.970833">
      <ele>404.9</ele>
    </trkpt>
    <trkpt lat="42.479888" lon="-1.970713">
      <ele>406.2</ele>
    </trkpt>
    <trkpt lat="42.479825" lon="-1.97068">
      <ele>406.5</ele>
    </trkpt>
    <trkpt lat="42.479741" lon="-1.970482">
      <ele>407.3</ele>
    </trkpt>
    <trkpt lat="42.479598" lon="-1.970309">
      <ele>408.4</ele>
    </trkpt>
    <trkpt lat="42.479431" lon="-1.969966">
      <ele>410.2</ele>
    </trkpt>
    <trkpt lat="42.479274" lon="-1.969976">
      <ele>411.3</ele>
    </trkpt>
    <trkpt lat="42.479102" lon="-1.97005">
      <ele>412.7</ele>
    </trkpt>
    <trkpt lat="42.479102" lon="-1.969707">
      <ele>414.8</ele>
    </trkpt>
    <trkpt lat="42.479078" lon="-1.969601">
      <ele>415.6</ele>
    </trkpt>
    <trkpt lat="42.479203" lon="-1.969495">
      <ele>417</ele>
    </trkpt>
    <trkpt lat="42.479201" lon="-1.969364">
      <ele>417.8</ele>
    </trkpt>
    <trkpt lat="42.479138" lon="-1.969293">
      <ele>418.7</ele>
    </trkpt>
    <trkpt lat="42.479193" lon="-1.969205">
      <ele>419.6</ele>
    </trkpt>
    <trkpt lat="42.479266" lon="-1.969162">
      <ele>420.4</ele>
    </trkpt>
    <trkpt lat="42.479297" lon="-1.969098">
      <ele>421</ele>
    </trkpt>
    <trkpt lat="42.479449" lon="-1.968939">
      <ele>423.2</ele>
    </trkpt>
    <trkpt lat="42.479467" lon="-1.968831">
      <ele>424</ele>
    </trkpt>
    <trkpt lat="42.47965" lon="-1.969035">
      <ele>426.6</ele>
    </trkpt>
    <trkpt lat="42.479658" lon="-1.968987">
      <ele>427</ele>
    </trkpt>
    <trkpt lat="42.479918" lon="-1.968524">
      <ele>430.8</ele>
    </trkpt>
    <trkpt lat="42.479938" lon="-1.96833">
      <ele>431.8</ele>
    </trkpt>
    <trkpt lat="42.480275" lon="-1.968466">
      <ele>433.1</ele>
    </trkpt>
    <trkpt lat="42.480507" lon="-1.968736">
      <ele>433.4</ele>
    </trkpt>
    <trkpt lat="42.480662" lon="-1.968832">
      <ele>433.4</ele>
    </trkpt>
    <trkpt lat="42.48085" lon="-1.968842">
      <ele>433.2</ele>
    </trkpt>
    <trkpt lat="42.481173" lon="-1.968967">
      <ele>432</ele>
    </trkpt>
    <trkpt lat="42.481303" lon="-1.968953">
      <ele>431.3</ele>
    </trkpt>
    <trkpt lat="42.481359" lon="-1.968878">
      <ele>430.9</ele>
    </trkpt>
    <trkpt lat="42.481414" lon="-1.968692">
      <ele>430</ele>
    </trkpt>
    <trkpt lat="42.481414" lon="-1.968592">
      <ele>429.5</ele>
    </trkpt>
    <trkpt lat="42.481384" lon="-1.968283">
      <ele>428.1</ele>
    </trkpt>
    <trkpt lat="42.481618" lon="-1.968256">
      <ele>426.6</ele>
    </trkpt>
    <trkpt lat="42.48169" lon="-1.968187">
      <ele>426.2</ele>
    </trkpt>
    <trkpt lat="42.481709" lon="-1.968169">
      <ele>426</ele>
    </trkpt>
    <trkpt lat="42.481745" lon="-1.968137">
      <ele>425.8</ele>
    </trkpt>
    <trkpt lat="42.481978" lon="-1.967853">
      <ele>424.2</ele>
    </trkpt>
    <trkpt lat="42.482011" lon="-1.967921">
      <ele>423.9</ele>
    </trkpt>
    <trkpt lat="42.482168" lon="-1.968084">
      <ele>422.6</ele>
    </trkpt>
    <trkpt lat="42.48233" lon="-1.968139">
      <ele>421.5</ele>
    </trkpt>
    <trkpt lat="42.482938" lon="-1.968106">
      <ele>418</ele>
    </trkpt>
    <trkpt lat="42.483238" lon="-1.968149">
      <ele>417</ele>
    </trkpt>
    <trkpt lat="42.483794" lon="-1.967773">
      <ele>416.6</ele>
    </trkpt>
    <trkpt lat="42.48407" lon="-1.96754">
      <ele>417.1</ele>
    </trkpt>
    <trkpt lat="42.484316" lon="-1.968329">
      <ele>419.4</ele>
    </trkpt>
    <trkpt lat="42.484564" lon="-1.969234">
      <ele>423.6</ele>
    </trkpt>
    <trkpt lat="42.484548" lon="-1.969488">
      <ele>425</ele>
    </trkpt>
    <trkpt lat="42.484387" lon="-1.96991">
      <ele>427.7</ele>
    </trkpt>
    <trkpt lat="42.484127" lon="-1.97044">
      <ele>431.1</ele>
    </trkpt>
    <trkpt lat="42.484024" lon="-1.970778">
      <ele>432.9</ele>
    </trkpt>
    <trkpt lat="42.483933" lon="-1.971131">
      <ele>434.4</ele>
    </trkpt>
    <trkpt lat="42.483907" lon="-1.971269">
      <ele>435</ele>
    </trkpt>
    </trkseg>
  </trk>
</gpx>
