<?xml version="1.0" encoding="UTF-8"?>
<gpx version="1.1" creator="fitAI Komoot downloader" xmlns="http://www.topografix.com/GPX/1/1">
  <metadata>
    <name>Parque del Iregua y Vía Romana del Iregua - Recorrido circular desde Albelda de Iregua</name>
    <desc>123 visitas · Dificultad: moderate · Distancia: 53.3 km · Desnivel +: 364 m</desc>
    <link href="https://www.komoot.com/smarttour/e40368758"><text>Komoot</text></link>
  </metadata>
  <trk>
    <name>Parque del Iregua y Vía Romana del Iregua - Recorrido circular desde Albelda de Iregua</name>
    <type>racebike</type>
    <trkseg>
    <trkpt lat="42.364775" lon="-2.481193">
      <ele>505</ele>
    </trkpt>
    <trkpt lat="42.364585" lon="-2.481321">
      <ele>505</ele>
    </trkpt>
    <trkpt lat="42.364542" lon="-2.48125">
      <ele>505</ele>
    </trkpt>
    <trkpt lat="42.36454" lon="-2.481161">
      <ele>505</ele>
    </trkpt>
    <trkpt lat="42.3649" lon="-2.480908">
      <ele>505</ele>
    </trkpt>
    <trkpt lat="42.364938" lon="-2.480952">
      <ele>505</ele>
    </trkpt>
    <trkpt lat="42.365052" lon="-2.480929">
      <ele>505</ele>
    </trkpt>
    <trkpt lat="42.365049" lon="-2.481105">
      <ele>504.9</ele>
    </trkpt>
    <trkpt lat="42.365116" lon="-2.481336">
      <ele>504.9</ele>
    </trkpt>
    <trkpt lat="42.365108" lon="-2.481465">
      <ele>504.9</ele>
    </trkpt>
    <trkpt lat="42.36505" lon="-2.481586">
      <ele>505</ele>
    </trkpt>
    <trkpt lat="42.36486" lon="-2.481731">
      <ele>505</ele>
    </trkpt>
    <trkpt lat="42.364706" lon="-2.481848">
      <ele>505</ele>
    </trkpt>
    <trkpt lat="42.364667" lon="-2.481841">
      <ele>505</ele>
    </trkpt>
    <trkpt lat="42.364558" lon="-2.481598">
      <ele>505.1</ele>
    </trkpt>
    <trkpt lat="42.364499" lon="-2.481543">
      <ele>505.1</ele>
    </trkpt>
    <trkpt lat="42.364328" lon="-2.481104">
      <ele>505.2</ele>
    </trkpt>
    <trkpt lat="42.363421" lon="-2.479049">
      <ele>504.3</ele>
    </trkpt>
    <trkpt lat="42.363213" lon="-2.478859">
      <ele>503.9</ele>
    </trkpt>
    <trkpt lat="42.36312" lon="-2.478815">
      <ele>503.8</ele>
    </trkpt>
    <trkpt lat="42.362962" lon="-2.478775">
      <ele>503.5</ele>
    </trkpt>
    <trkpt lat="42.362698" lon="-2.478815">
      <ele>503.1</ele>
    </trkpt>
    <trkpt lat="42.362133" lon="-2.478947">
      <ele>502.7</ele>
    </trkpt>
    <trkpt lat="42.361876" lon="-2.478956">
      <ele>503</ele>
    </trkpt>
    <trkpt lat="42.361827" lon="-2.479064">
      <ele>503.2</ele>
    </trkpt>
    <trkpt lat="42.361731" lon="-2.479081">
      <ele>503.3</ele>
    </trkpt>
    <trkpt lat="42.361073" lon="-2.479721">
      <ele>505</ele>
    </trkpt>
    <trkpt lat="42.360802" lon="-2.479944">
      <ele>505.5</ele>
    </trkpt>
    <trkpt lat="42.360504" lon="-2.480196">
      <ele>505.9</ele>
    </trkpt>
    <trkpt lat="42.360095" lon="-2.480446">
      <ele>506.1</ele>
    </trkpt>
    <trkpt lat="42.359714" lon="-2.480571">
      <ele>506.3</ele>
    </trkpt>
    <trkpt lat="42.359423" lon="-2.480754">
      <ele>506.5</ele>
    </trkpt>
    <trkpt lat="42.35898" lon="-2.481133">
      <ele>507.4</ele>
    </trkpt>
    <trkpt lat="42.358767" lon="-2.481198">
      <ele>507.9</ele>
    </trkpt>
    <trkpt lat="42.358638" lon="-2.481275">
      <ele>508.3</ele>
    </trkpt>
    <trkpt lat="42.358342" lon="-2.481514">
      <ele>509.2</ele>
    </trkpt>
    <trkpt lat="42.357943" lon="-2.48178">
      <ele>510.1</ele>
    </trkpt>
    <trkpt lat="42.357395" lon="-2.481746">
      <ele>511</ele>
    </trkpt>
    <trkpt lat="42.356586" lon="-2.481865">
      <ele>511.6</ele>
    </trkpt>
    <trkpt lat="42.355654" lon="-2.482086">
      <ele>512.5</ele>
    </trkpt>
    <trkpt lat="42.355092" lon="-2.482462">
      <ele>513.2</ele>
    </trkpt>
    <trkpt lat="42.354926" lon="-2.482618">
      <ele>513.4</ele>
    </trkpt>
    <trkpt lat="42.354467" lon="-2.482853">
      <ele>513.8</ele>
    </trkpt>
    <trkpt lat="42.354065" lon="-2.483219">
      <ele>514.1</ele>
    </trkpt>
    <trkpt lat="42.353696" lon="-2.483421">
      <ele>514.3</ele>
    </trkpt>
    <trkpt lat="42.353434" lon="-2.483467">
      <ele>514.6</ele>
    </trkpt>
    <trkpt lat="42.353299" lon="-2.483525">
      <ele>514.8</ele>
    </trkpt>
    <trkpt lat="42.353122" lon="-2.483652">
      <ele>515.1</ele>
    </trkpt>
    <trkpt lat="42.352917" lon="-2.483849">
      <ele>515.6</ele>
    </trkpt>
    <trkpt lat="42.352443" lon="-2.484289">
      <ele>516.7</ele>
    </trkpt>
    <trkpt lat="42.352327" lon="-2.484353">
      <ele>516.9</ele>
    </trkpt>
    <trkpt lat="42.351938" lon="-2.484443">
      <ele>517.9</ele>
    </trkpt>
    <trkpt lat="42.351811" lon="-2.4845">
      <ele>518.2</ele>
    </trkpt>
    <trkpt lat="42.351283" lon="-2.484936">
      <ele>519.2</ele>
    </trkpt>
    <trkpt lat="42.350962" lon="-2.485114">
      <ele>519.6</ele>
    </trkpt>
    <trkpt lat="42.350718" lon="-2.485287">
      <ele>519.8</ele>
    </trkpt>
    <trkpt lat="42.350484" lon="-2.485412">
      <ele>520</ele>
    </trkpt>
    <trkpt lat="42.349914" lon="-2.485535">
      <ele>520.5</ele>
    </trkpt>
    <trkpt lat="42.349582" lon="-2.485679">
      <ele>520.8</ele>
    </trkpt>
    <trkpt lat="42.349099" lon="-2.486126">
      <ele>521.3</ele>
    </trkpt>
    <trkpt lat="42.348214" lon="-2.486545">
      <ele>522.3</ele>
    </trkpt>
    <trkpt lat="42.348112" lon="-2.486641">
      <ele>522.5</ele>
    </trkpt>
    <trkpt lat="42.347859" lon="-2.487069">
      <ele>523</ele>
    </trkpt>
    <trkpt lat="42.347342" lon="-2.487797">
      <ele>524.2</ele>
    </trkpt>
    <trkpt lat="42.347206" lon="-2.487958">
      <ele>524.5</ele>
    </trkpt>
    <trkpt lat="42.346871" lon="-2.488218">
      <ele>525.2</ele>
    </trkpt>
    <trkpt lat="42.346491" lon="-2.488623">
      <ele>526.1</ele>
    </trkpt>
    <trkpt lat="42.345542" lon="-2.48932">
      <ele>527.8</ele>
    </trkpt>
    <trkpt lat="42.345208" lon="-2.489748">
      <ele>528.3</ele>
    </trkpt>
    <trkpt lat="42.345118" lon="-2.489809">
      <ele>528.5</ele>
    </trkpt>
    <trkpt lat="42.344495" lon="-2.490235">
      <ele>529.4</ele>
    </trkpt>
    <trkpt lat="42.343992" lon="-2.490506">
      <ele>530.1</ele>
    </trkpt>
    <trkpt lat="42.343795" lon="-2.490688">
      <ele>530.5</ele>
    </trkpt>
    <trkpt lat="42.342531" lon="-2.492291">
      <ele>533.4</ele>
    </trkpt>
    <trkpt lat="42.342191" lon="-2.493039">
      <ele>534.4</ele>
    </trkpt>
    <trkpt lat="42.342016" lon="-2.493297">
      <ele>534.7</ele>
    </trkpt>
    <trkpt lat="42.341982" lon="-2.493385">
      <ele>534.8</ele>
    </trkpt>
    <trkpt lat="42.341983" lon="-2.4935">
      <ele>534.9</ele>
    </trkpt>
    <trkpt lat="42.341984" lon="-2.493552">
      <ele>535</ele>
    </trkpt>
    <trkpt lat="42.341903" lon="-2.493728">
      <ele>535.2</ele>
    </trkpt>
    <trkpt lat="42.34163" lon="-2.494222">
      <ele>535.8</ele>
    </trkpt>
    <trkpt lat="42.341139" lon="-2.494798">
      <ele>536.7</ele>
    </trkpt>
    <trkpt lat="42.340967" lon="-2.495174">
      <ele>537.3</ele>
    </trkpt>
    <trkpt lat="42.340564" lon="-2.4959">
      <ele>538.6</ele>
    </trkpt>
    <trkpt lat="42.340174" lon="-2.496435">
      <ele>540</ele>
    </trkpt>
    <trkpt lat="42.339946" lon="-2.496991">
      <ele>541.1</ele>
    </trkpt>
    <trkpt lat="42.339844" lon="-2.497548">
      <ele>542.2</ele>
    </trkpt>
    <trkpt lat="42.339746" lon="-2.497901">
      <ele>543</ele>
    </trkpt>
    <trkpt lat="42.339706" lon="-2.497973">
      <ele>543.2</ele>
    </trkpt>
    <trkpt lat="42.339382" lon="-2.498468">
      <ele>545</ele>
    </trkpt>
    <trkpt lat="42.339241" lon="-2.498839">
      <ele>546.1</ele>
    </trkpt>
    <trkpt lat="42.339215" lon="-2.499029">
      <ele>546.6</ele>
    </trkpt>
    <trkpt lat="42.339419" lon="-2.499425">
      <ele>548.1</ele>
    </trkpt>
    <trkpt lat="42.339748" lon="-2.500117">
      <ele>550.8</ele>
    </trkpt>
    <trkpt lat="42.339874" lon="-2.500614">
      <ele>552.3</ele>
    </trkpt>
    <trkpt lat="42.340001" lon="-2.501389">
      <ele>554.1</ele>
    </trkpt>
    <trkpt lat="42.340141" lon="-2.501717">
      <ele>554.7</ele>
    </trkpt>
    <trkpt lat="42.340301" lon="-2.501874">
      <ele>555</ele>
    </trkpt>
    <trkpt lat="42.340367" lon="-2.501888">
      <ele>555.1</ele>
    </trkpt>
    <trkpt lat="42.340488" lon="-2.501978">
      <ele>555.2</ele>
    </trkpt>
    <trkpt lat="42.340744" lon="-2.501952">
      <ele>555.1</ele>
    </trkpt>
    <trkpt lat="42.342183" lon="-2.501475">
      <ele>551.7</ele>
    </trkpt>
    <trkpt lat="42.343012" lon="-2.501108">
      <ele>549.3</ele>
    </trkpt>
    <trkpt lat="42.343643" lon="-2.500767">
      <ele>547.7</ele>
    </trkpt>
    <trkpt lat="42.34388" lon="-2.500612">
      <ele>547.1</ele>
    </trkpt>
    <trkpt lat="42.345226" lon="-2.499892">
      <ele>544.5</ele>
    </trkpt>
    <trkpt lat="42.346349" lon="-2.499333">
      <ele>542.6</ele>
    </trkpt>
    <trkpt lat="42.34855" lon="-2.498164">
      <ele>538.3</ele>
    </trkpt>
    <trkpt lat="42.351611" lon="-2.496537">
      <ele>532.1</ele>
    </trkpt>
    <trkpt lat="42.358044" lon="-2.493124">
      <ele>521</ele>
    </trkpt>
    <trkpt lat="42.360297" lon="-2.491908">
      <ele>518</ele>
    </trkpt>
    <trkpt lat="42.363896" lon="-2.489973">
      <ele>512.4</ele>
    </trkpt>
    <trkpt lat="42.364694" lon="-2.48949">
      <ele>511.1</ele>
    </trkpt>
    <trkpt lat="42.366006" lon="-2.488812">
      <ele>509.1</ele>
    </trkpt>
    <trkpt lat="42.367186" lon="-2.48817">
      <ele>506.6</ele>
    </trkpt>
    <trkpt lat="42.36734" lon="-2.488055">
      <ele>506.2</ele>
    </trkpt>
    <trkpt lat="42.367367" lon="-2.487973">
      <ele>506.1</ele>
    </trkpt>
    <trkpt lat="42.367459" lon="-2.487859">
      <ele>505.8</ele>
    </trkpt>
    <trkpt lat="42.367552" lon="-2.487828">
      <ele>505.6</ele>
    </trkpt>
    <trkpt lat="42.367654" lon="-2.487857">
      <ele>505.4</ele>
    </trkpt>
    <trkpt lat="42.367847" lon="-2.487825">
      <ele>504.9</ele>
    </trkpt>
    <trkpt lat="42.369656" lon="-2.486854">
      <ele>501.1</ele>
    </trkpt>
    <trkpt lat="42.370089" lon="-2.486593">
      <ele>500.6</ele>
    </trkpt>
    <trkpt lat="42.375904" lon="-2.483547">
      <ele>494.1</ele>
    </trkpt>
    <trkpt lat="42.378427" lon="-2.482203">
      <ele>490.9</ele>
    </trkpt>
    <trkpt lat="42.380313" lon="-2.481183">
      <ele>488.3</ele>
    </trkpt>
    <trkpt lat="42.381004" lon="-2.480815">
      <ele>487.4</ele>
    </trkpt>
    <trkpt lat="42.381546" lon="-2.480526">
      <ele>486.7</ele>
    </trkpt>
    <trkpt lat="42.388123" lon="-2.477029">
      <ele>476</ele>
    </trkpt>
    <trkpt lat="42.389565" lon="-2.4762">
      <ele>474.2</ele>
    </trkpt>
    <trkpt lat="42.39065" lon="-2.47562">
      <ele>472.8</ele>
    </trkpt>
    <trkpt lat="42.391142" lon="-2.475389">
      <ele>472.2</ele>
    </trkpt>
    <trkpt lat="42.392272" lon="-2.474786">
      <ele>470.7</ele>
    </trkpt>
    <trkpt lat="42.392426" lon="-2.474667">
      <ele>470.6</ele>
    </trkpt>
    <trkpt lat="42.392504" lon="-2.474493">
      <ele>470.4</ele>
    </trkpt>
    <trkpt lat="42.392583" lon="-2.474435">
      <ele>470.3</ele>
    </trkpt>
    <trkpt lat="42.392673" lon="-2.474423">
      <ele>470.2</ele>
    </trkpt>
    <trkpt lat="42.392755" lon="-2.474456">
      <ele>470.2</ele>
    </trkpt>
    <trkpt lat="42.39294" lon="-2.474426">
      <ele>470</ele>
    </trkpt>
    <trkpt lat="42.394867" lon="-2.473401">
      <ele>468.4</ele>
    </trkpt>
    <trkpt lat="42.395385" lon="-2.473203">
      <ele>467.8</ele>
    </trkpt>
    <trkpt lat="42.396323" lon="-2.472712">
      <ele>466.3</ele>
    </trkpt>
    <trkpt lat="42.396778" lon="-2.472534">
      <ele>465.6</ele>
    </trkpt>
    <trkpt lat="42.407889" lon="-2.466591">
      <ele>458.2</ele>
    </trkpt>
    <trkpt lat="42.408135" lon="-2.466386">
      <ele>458.1</ele>
    </trkpt>
    <trkpt lat="42.408669" lon="-2.466011">
      <ele>457.9</ele>
    </trkpt>
    <trkpt lat="42.408747" lon="-2.465966">
      <ele>457.9</ele>
    </trkpt>
    <trkpt lat="42.408986" lon="-2.46583">
      <ele>457.8</ele>
    </trkpt>
    <trkpt lat="42.41022" lon="-2.465383">
      <ele>457.1</ele>
    </trkpt>
    <trkpt lat="42.410751" lon="-2.465272">
      <ele>456.2</ele>
    </trkpt>
    <trkpt lat="42.411256" lon="-2.465329">
      <ele>455</ele>
    </trkpt>
    <trkpt lat="42.411309" lon="-2.465308">
      <ele>454.9</ele>
    </trkpt>
    <trkpt lat="42.41137" lon="-2.465065">
      <ele>454.4</ele>
    </trkpt>
    <trkpt lat="42.411411" lon="-2.464859">
      <ele>453.9</ele>
    </trkpt>
    <trkpt lat="42.411485" lon="-2.464717">
      <ele>453.6</ele>
    </trkpt>
    <trkpt lat="42.411654" lon="-2.464547">
      <ele>452.9</ele>
    </trkpt>
    <trkpt lat="42.413341" lon="-2.463441">
      <ele>448.5</ele>
    </trkpt>
    <trkpt lat="42.414371" lon="-2.462807">
      <ele>446.5</ele>
    </trkpt>
    <trkpt lat="42.419616" lon="-2.459493">
      <ele>440.6</ele>
    </trkpt>
    <trkpt lat="42.420399" lon="-2.458999">
      <ele>440.2</ele>
    </trkpt>
    <trkpt lat="42.42121" lon="-2.458512">
      <ele>439.7</ele>
    </trkpt>
    <trkpt lat="42.422012" lon="-2.458042">
      <ele>438</ele>
    </trkpt>
    <trkpt lat="42.422124" lon="-2.457994">
      <ele>437.7</ele>
    </trkpt>
    <trkpt lat="42.422168" lon="-2.457978">
      <ele>437.5</ele>
    </trkpt>
    <trkpt lat="42.422324" lon="-2.457832">
      <ele>437.1</ele>
    </trkpt>
    <trkpt lat="42.422337" lon="-2.45779">
      <ele>437</ele>
    </trkpt>
    <trkpt lat="42.422259" lon="-2.457704">
      <ele>436.7</ele>
    </trkpt>
    <trkpt lat="42.422142" lon="-2.457593">
      <ele>436.4</ele>
    </trkpt>
    <trkpt lat="42.421821" lon="-2.457244">
      <ele>435.4</ele>
    </trkpt>
    <trkpt lat="42.421205" lon="-2.456597">
      <ele>434.1</ele>
    </trkpt>
    <trkpt lat="42.420861" lon="-2.456239">
      <ele>433.9</ele>
    </trkpt>
    <trkpt lat="42.420544" lon="-2.4559">
      <ele>433.9</ele>
    </trkpt>
    <trkpt lat="42.418994" lon="-2.454257">
      <ele>434</ele>
    </trkpt>
    <trkpt lat="42.418194" lon="-2.453413">
      <ele>434.3</ele>
    </trkpt>
    <trkpt lat="42.417836" lon="-2.45303">
      <ele>434.5</ele>
    </trkpt>
    <trkpt lat="42.414959" lon="-2.450017">
      <ele>436.7</ele>
    </trkpt>
    <trkpt lat="42.414303" lon="-2.449541">
      <ele>437.4</ele>
    </trkpt>
    <trkpt lat="42.41307" lon="-2.448679">
      <ele>438.7</ele>
    </trkpt>
    <trkpt lat="42.412269" lon="-2.448191">
      <ele>439.2</ele>
    </trkpt>
    <trkpt lat="42.411341" lon="-2.447376">
      <ele>440</ele>
    </trkpt>
    <trkpt lat="42.41047" lon="-2.446612">
      <ele>441.1</ele>
    </trkpt>
    <trkpt lat="42.410394" lon="-2.446639">
      <ele>441.1</ele>
    </trkpt>
    <trkpt lat="42.409373" lon="-2.445757">
      <ele>441.1</ele>
    </trkpt>
    <trkpt lat="42.40925" lon="-2.445682">
      <ele>441</ele>
    </trkpt>
    <trkpt lat="42.408721" lon="-2.445624">
      <ele>440.6</ele>
    </trkpt>
    <trkpt lat="42.408265" lon="-2.445469">
      <ele>440.3</ele>
    </trkpt>
    <trkpt lat="42.408039" lon="-2.445336">
      <ele>440.2</ele>
    </trkpt>
    <trkpt lat="42.407449" lon="-2.44499">
      <ele>440.2</ele>
    </trkpt>
    <trkpt lat="42.407279" lon="-2.444692">
      <ele>440.2</ele>
    </trkpt>
    <trkpt lat="42.406861" lon="-2.443949">
      <ele>440.5</ele>
    </trkpt>
    <trkpt lat="42.406818" lon="-2.443871">
      <ele>440.5</ele>
    </trkpt>
    <trkpt lat="42.406695" lon="-2.443599">
      <ele>440.6</ele>
    </trkpt>
    <trkpt lat="42.406695" lon="-2.443468">
      <ele>440.6</ele>
    </trkpt>
    <trkpt lat="42.406765" lon="-2.443224">
      <ele>440.7</ele>
    </trkpt>
    <trkpt lat="42.406668" lon="-2.443292">
      <ele>440.7</ele>
    </trkpt>
    <trkpt lat="42.406544" lon="-2.443469">
      <ele>440.8</ele>
    </trkpt>
    <trkpt lat="42.406426" lon="-2.443718">
      <ele>440.8</ele>
    </trkpt>
    <trkpt lat="42.406284" lon="-2.444194">
      <ele>440.9</ele>
    </trkpt>
    <trkpt lat="42.406042" lon="-2.444667">
      <ele>441.1</ele>
    </trkpt>
    <trkpt lat="42.405898" lon="-2.444749">
      <ele>441.2</ele>
    </trkpt>
    <trkpt lat="42.405631" lon="-2.444825">
      <ele>441.4</ele>
    </trkpt>
    <trkpt lat="42.405425" lon="-2.444969">
      <ele>441.5</ele>
    </trkpt>
    <trkpt lat="42.406154" lon="-2.444875">
      <ele>441.6</ele>
    </trkpt>
    <trkpt lat="42.40619" lon="-2.44485">
      <ele>441.6</ele>
    </trkpt>
    <trkpt lat="42.407098" lon="-2.4442">
      <ele>441.3</ele>
    </trkpt>
    <trkpt lat="42.406969" lon="-2.443842">
      <ele>441.1</ele>
    </trkpt>
    <trkpt lat="42.406933" lon="-2.443744">
      <ele>441.1</ele>
    </trkpt>
    <trkpt lat="42.406968" lon="-2.44371">
      <ele>441</ele>
    </trkpt>
    <trkpt lat="42.407117" lon="-2.443562">
      <ele>440.9</ele>
    </trkpt>
    <trkpt lat="42.407255" lon="-2.443267">
      <ele>440.6</ele>
    </trkpt>
    <trkpt lat="42.407368" lon="-2.442927">
      <ele>440.2</ele>
    </trkpt>
    <trkpt lat="42.407587" lon="-2.442573">
      <ele>439.8</ele>
    </trkpt>
    <trkpt lat="42.40818" lon="-2.441735">
      <ele>438.7</ele>
    </trkpt>
    <trkpt lat="42.40805" lon="-2.441153">
      <ele>438.9</ele>
    </trkpt>
    <trkpt lat="42.407963" lon="-2.440762">
      <ele>439.3</ele>
    </trkpt>
    <trkpt lat="42.407777" lon="-2.440058">
      <ele>440.5</ele>
    </trkpt>
    <trkpt lat="42.407699" lon="-2.439805">
      <ele>440.9</ele>
    </trkpt>
    <trkpt lat="42.407535" lon="-2.439371">
      <ele>441.4</ele>
    </trkpt>
    <trkpt lat="42.407429" lon="-2.439087">
      <ele>441.6</ele>
    </trkpt>
    <trkpt lat="42.407874" lon="-2.438759">
      <ele>441.5</ele>
    </trkpt>
    <trkpt lat="42.408597" lon="-2.43827">
      <ele>439.8</ele>
    </trkpt>
    <trkpt lat="42.410207" lon="-2.437111">
      <ele>436</ele>
    </trkpt>
    <trkpt lat="42.410785" lon="-2.436696">
      <ele>434.8</ele>
    </trkpt>
    <trkpt lat="42.412701" lon="-2.435303">
      <ele>431.7</ele>
    </trkpt>
    <trkpt lat="42.413502" lon="-2.434733">
      <ele>430.8</ele>
    </trkpt>
    <trkpt lat="42.415753" lon="-2.433176">
      <ele>428.2</ele>
    </trkpt>
    <trkpt lat="42.41693" lon="-2.432325">
      <ele>427.4</ele>
    </trkpt>
    <trkpt lat="42.418731" lon="-2.431021">
      <ele>425.7</ele>
    </trkpt>
    <trkpt lat="42.419726" lon="-2.430077">
      <ele>424.7</ele>
    </trkpt>
    <trkpt lat="42.420189" lon="-2.429562">
      <ele>424</ele>
    </trkpt>
    <trkpt lat="42.420569" lon="-2.429005">
      <ele>423.3</ele>
    </trkpt>
    <trkpt lat="42.42109" lon="-2.428114">
      <ele>422.3</ele>
    </trkpt>
    <trkpt lat="42.422985" lon="-2.424947">
      <ele>421.6</ele>
    </trkpt>
    <trkpt lat="42.423056" lon="-2.424726">
      <ele>421.7</ele>
    </trkpt>
    <trkpt lat="42.423071" lon="-2.42451">
      <ele>421.8</ele>
    </trkpt>
    <trkpt lat="42.423055" lon="-2.424341">
      <ele>421.9</ele>
    </trkpt>
    <trkpt lat="42.422975" lon="-2.424093">
      <ele>422.1</ele>
    </trkpt>
    <trkpt lat="42.422883" lon="-2.42393">
      <ele>422.3</ele>
    </trkpt>
    <trkpt lat="42.422398" lon="-2.423424">
      <ele>423.2</ele>
    </trkpt>
    <trkpt lat="42.422037" lon="-2.422912">
      <ele>424.2</ele>
    </trkpt>
    <trkpt lat="42.421919" lon="-2.422685">
      <ele>424.6</ele>
    </trkpt>
    <trkpt lat="42.421612" lon="-2.422036">
      <ele>426</ele>
    </trkpt>
    <trkpt lat="42.421478" lon="-2.421675">
      <ele>426.9</ele>
    </trkpt>
    <trkpt lat="42.421366" lon="-2.421297">
      <ele>427.7</ele>
    </trkpt>
    <trkpt lat="42.421216" lon="-2.420477">
      <ele>429.3</ele>
    </trkpt>
    <trkpt lat="42.421156" lon="-2.419996">
      <ele>430.1</ele>
    </trkpt>
    <trkpt lat="42.421157" lon="-2.418804">
      <ele>431.8</ele>
    </trkpt>
    <trkpt lat="42.42119" lon="-2.417933">
      <ele>433.5</ele>
    </trkpt>
    <trkpt lat="42.421219" lon="-2.417078">
      <ele>436.2</ele>
    </trkpt>
    <trkpt lat="42.421272" lon="-2.415669">
      <ele>442</ele>
    </trkpt>
    <trkpt lat="42.421313" lon="-2.41512">
      <ele>444.6</ele>
    </trkpt>
    <trkpt lat="42.421319" lon="-2.414717">
      <ele>446.5</ele>
    </trkpt>
    <trkpt lat="42.421279" lon="-2.414236">
      <ele>448.6</ele>
    </trkpt>
    <trkpt lat="42.421263" lon="-2.41403">
      <ele>449.5</ele>
    </trkpt>
    <trkpt lat="42.421186" lon="-2.413562">
      <ele>451.7</ele>
    </trkpt>
    <trkpt lat="42.421099" lon="-2.413351">
      <ele>452.8</ele>
    </trkpt>
    <trkpt lat="42.420977" lon="-2.413195">
      <ele>453.8</ele>
    </trkpt>
    <trkpt lat="42.420946" lon="-2.413088">
      <ele>454.2</ele>
    </trkpt>
    <trkpt lat="42.420641" lon="-2.41261">
      <ele>456.2</ele>
    </trkpt>
    <trkpt lat="42.420352" lon="-2.412347">
      <ele>457.2</ele>
    </trkpt>
    <trkpt lat="42.420015" lon="-2.412087">
      <ele>457.8</ele>
    </trkpt>
    <trkpt lat="42.41936" lon="-2.411664">
      <ele>457.6</ele>
    </trkpt>
    <trkpt lat="42.418521" lon="-2.411206">
      <ele>456.4</ele>
    </trkpt>
    <trkpt lat="42.417374" lon="-2.410705">
      <ele>456.2</ele>
    </trkpt>
    <trkpt lat="42.415906" lon="-2.410115">
      <ele>457.6</ele>
    </trkpt>
    <trkpt lat="42.41569" lon="-2.410868">
      <ele>458.5</ele>
    </trkpt>
    <trkpt lat="42.415009" lon="-2.412936">
      <ele>461.6</ele>
    </trkpt>
    <trkpt lat="42.414695" lon="-2.4137">
      <ele>462.6</ele>
    </trkpt>
    <trkpt lat="42.414462" lon="-2.414158">
      <ele>463.1</ele>
    </trkpt>
    <trkpt lat="42.413635" lon="-2.415627">
      <ele>464.5</ele>
    </trkpt>
    <trkpt lat="42.413354" lon="-2.415983">
      <ele>465.1</ele>
    </trkpt>
    <trkpt lat="42.412408" lon="-2.416843">
      <ele>467.2</ele>
    </trkpt>
    <trkpt lat="42.411372" lon="-2.418344">
      <ele>470.4</ele>
    </trkpt>
    <trkpt lat="42.411051" lon="-2.418774">
      <ele>471.3</ele>
    </trkpt>
    <trkpt lat="42.410249" lon="-2.419753">
      <ele>473</ele>
    </trkpt>
    <trkpt lat="42.409555" lon="-2.420825">
      <ele>474.6</ele>
    </trkpt>
    <trkpt lat="42.409381" lon="-2.421015">
      <ele>475.1</ele>
    </trkpt>
    <trkpt lat="42.407179" lon="-2.423056">
      <ele>485.3</ele>
    </trkpt>
    <trkpt lat="42.40703" lon="-2.423162">
      <ele>485.8</ele>
    </trkpt>
    <trkpt lat="42.406764" lon="-2.423321">
      <ele>486.7</ele>
    </trkpt>
    <trkpt lat="42.404792" lon="-2.42405">
      <ele>491.1</ele>
    </trkpt>
    <trkpt lat="42.404612" lon="-2.424139">
      <ele>491.5</ele>
    </trkpt>
    <trkpt lat="42.404597" lon="-2.424238">
      <ele>491.7</ele>
    </trkpt>
    <trkpt lat="42.404571" lon="-2.424275">
      <ele>491.8</ele>
    </trkpt>
    <trkpt lat="42.404485" lon="-2.42452">
      <ele>492.2</ele>
    </trkpt>
    <trkpt lat="42.404341" lon="-2.425404">
      <ele>493.9</ele>
    </trkpt>
    <trkpt lat="42.404348" lon="-2.425445">
      <ele>494</ele>
    </trkpt>
    <trkpt lat="42.404327" lon="-2.425514">
      <ele>494.1</ele>
    </trkpt>
    <trkpt lat="42.404283" lon="-2.425543">
      <ele>494.2</ele>
    </trkpt>
    <trkpt lat="42.404277" lon="-2.425544">
      <ele>494.2</ele>
    </trkpt>
    <trkpt lat="42.40426" lon="-2.425787">
      <ele>494.6</ele>
    </trkpt>
    <trkpt lat="42.404227" lon="-2.426487">
      <ele>495.4</ele>
    </trkpt>
    <trkpt lat="42.404079" lon="-2.426417">
      <ele>495.6</ele>
    </trkpt>
    <trkpt lat="42.403755" lon="-2.425987">
      <ele>495.7</ele>
    </trkpt>
    <trkpt lat="42.403611" lon="-2.425797">
      <ele>495.5</ele>
    </trkpt>
    <trkpt lat="42.403502" lon="-2.425088">
      <ele>494.6</ele>
    </trkpt>
    <trkpt lat="42.403677" lon="-2.424936">
      <ele>494.2</ele>
    </trkpt>
    <trkpt lat="42.403872" lon="-2.424626">
      <ele>493.4</ele>
    </trkpt>
    <trkpt lat="42.404055" lon="-2.424507">
      <ele>492.9</ele>
    </trkpt>
    <trkpt lat="42.40404" lon="-2.424414">
      <ele>492.7</ele>
    </trkpt>
    <trkpt lat="42.403978" lon="-2.423995">
      <ele>491.9</ele>
    </trkpt>
    <trkpt lat="42.403819" lon="-2.421134">
      <ele>487.2</ele>
    </trkpt>
    <trkpt lat="42.403754" lon="-2.420392">
      <ele>485.9</ele>
    </trkpt>
    <trkpt lat="42.403525" lon="-2.418297">
      <ele>481.9</ele>
    </trkpt>
    <trkpt lat="42.403483" lon="-2.417907">
      <ele>481.2</ele>
    </trkpt>
    <trkpt lat="42.403316" lon="-2.414801">
      <ele>475</ele>
    </trkpt>
    <trkpt lat="42.403071" lon="-2.412172">
      <ele>470</ele>
    </trkpt>
    <trkpt lat="42.402454" lon="-2.409469">
      <ele>465.7</ele>
    </trkpt>
    <trkpt lat="42.402362" lon="-2.407316">
      <ele>462.2</ele>
    </trkpt>
    <trkpt lat="42.402296" lon="-2.405787">
      <ele>459.8</ele>
    </trkpt>
    <trkpt lat="42.40229" lon="-2.405048">
      <ele>459</ele>
    </trkpt>
    <trkpt lat="42.402322" lon="-2.404317">
      <ele>458.6</ele>
    </trkpt>
    <trkpt lat="42.406963" lon="-2.406269">
      <ele>458.9</ele>
    </trkpt>
    <trkpt lat="42.41003" lon="-2.40757">
      <ele>459.5</ele>
    </trkpt>
    <trkpt lat="42.410905" lon="-2.407944">
      <ele>459.1</ele>
    </trkpt>
    <trkpt lat="42.411138" lon="-2.408043">
      <ele>458.9</ele>
    </trkpt>
    <trkpt lat="42.413606" lon="-2.409099">
      <ele>456.4</ele>
    </trkpt>
    <trkpt lat="42.414239" lon="-2.409368">
      <ele>456.4</ele>
    </trkpt>
    <trkpt lat="42.415626" lon="-2.409984">
      <ele>457.2</ele>
    </trkpt>
    <trkpt lat="42.415906" lon="-2.410115">
      <ele>457.2</ele>
    </trkpt>
    <trkpt lat="42.417374" lon="-2.410705">
      <ele>456.2</ele>
    </trkpt>
    <trkpt lat="42.418521" lon="-2.411206">
      <ele>456.4</ele>
    </trkpt>
    <trkpt lat="42.41936" lon="-2.411664">
      <ele>457.6</ele>
    </trkpt>
    <trkpt lat="42.420015" lon="-2.412087">
      <ele>458</ele>
    </trkpt>
    <trkpt lat="42.420352" lon="-2.412347">
      <ele>457.9</ele>
    </trkpt>
    <trkpt lat="42.420641" lon="-2.41261">
      <ele>457.4</ele>
    </trkpt>
    <trkpt lat="42.420849" lon="-2.412705">
      <ele>457</ele>
    </trkpt>
    <trkpt lat="42.421055" lon="-2.412685">
      <ele>456.4</ele>
    </trkpt>
    <trkpt lat="42.421148" lon="-2.412622">
      <ele>456.1</ele>
    </trkpt>
    <trkpt lat="42.42117" lon="-2.412615">
      <ele>456</ele>
    </trkpt>
    <trkpt lat="42.421336" lon="-2.412635">
      <ele>455.4</ele>
    </trkpt>
    <trkpt lat="42.421467" lon="-2.412776">
      <ele>454.7</ele>
    </trkpt>
    <trkpt lat="42.421499" lon="-2.412861">
      <ele>454.4</ele>
    </trkpt>
    <trkpt lat="42.421514" lon="-2.413063">
      <ele>453.7</ele>
    </trkpt>
    <trkpt lat="42.421453" lon="-2.413247">
      <ele>453</ele>
    </trkpt>
    <trkpt lat="42.42139" lon="-2.413325">
      <ele>452.6</ele>
    </trkpt>
    <trkpt lat="42.421314" lon="-2.413492">
      <ele>451.9</ele>
    </trkpt>
    <trkpt lat="42.421259" lon="-2.413704">
      <ele>451</ele>
    </trkpt>
    <trkpt lat="42.421263" lon="-2.41403">
      <ele>449.6</ele>
    </trkpt>
    <trkpt lat="42.421319" lon="-2.414717">
      <ele>446.6</ele>
    </trkpt>
    <trkpt lat="42.421313" lon="-2.41512">
      <ele>444.8</ele>
    </trkpt>
    <trkpt lat="42.42131" lon="-2.415749">
      <ele>442</ele>
    </trkpt>
    <trkpt lat="42.421248" lon="-2.418044">
      <ele>433.6</ele>
    </trkpt>
    <trkpt lat="42.421188" lon="-2.419647">
      <ele>430.6</ele>
    </trkpt>
    <trkpt lat="42.421196" lon="-2.420075">
      <ele>429.9</ele>
    </trkpt>
    <trkpt lat="42.421216" lon="-2.420477">
      <ele>429.3</ele>
    </trkpt>
    <trkpt lat="42.421366" lon="-2.421297">
      <ele>427.7</ele>
    </trkpt>
    <trkpt lat="42.421478" lon="-2.421675">
      <ele>426.9</ele>
    </trkpt>
    <trkpt lat="42.421612" lon="-2.422036">
      <ele>426</ele>
    </trkpt>
    <trkpt lat="42.421919" lon="-2.422685">
      <ele>424.6</ele>
    </trkpt>
    <trkpt lat="42.422037" lon="-2.422912">
      <ele>424.2</ele>
    </trkpt>
    <trkpt lat="42.422398" lon="-2.423424">
      <ele>423.2</ele>
    </trkpt>
    <trkpt lat="42.422883" lon="-2.42393">
      <ele>422.6</ele>
    </trkpt>
    <trkpt lat="42.42306" lon="-2.42404">
      <ele>422.5</ele>
    </trkpt>
    <trkpt lat="42.423225" lon="-2.424095">
      <ele>422.5</ele>
    </trkpt>
    <trkpt lat="42.423327" lon="-2.424095">
      <ele>422.5</ele>
    </trkpt>
    <trkpt lat="42.423474" lon="-2.424022">
      <ele>422.7</ele>
    </trkpt>
    <trkpt lat="42.423592" lon="-2.423923">
      <ele>422.8</ele>
    </trkpt>
    <trkpt lat="42.423994" lon="-2.423224">
      <ele>424.3</ele>
    </trkpt>
    <trkpt lat="42.424281" lon="-2.422716">
      <ele>425.9</ele>
    </trkpt>
    <trkpt lat="42.424661" lon="-2.422081">
      <ele>427.9</ele>
    </trkpt>
    <trkpt lat="42.424787" lon="-2.421872">
      <ele>428.5</ele>
    </trkpt>
    <trkpt lat="42.425065" lon="-2.421394">
      <ele>430</ele>
    </trkpt>
    <trkpt lat="42.425238" lon="-2.42111">
      <ele>431.1</ele>
    </trkpt>
    <trkpt lat="42.425513" lon="-2.420612">
      <ele>433.7</ele>
    </trkpt>
    <trkpt lat="42.425581" lon="-2.420384">
      <ele>434.9</ele>
    </trkpt>
    <trkpt lat="42.425589" lon="-2.420287">
      <ele>435.4</ele>
    </trkpt>
    <trkpt lat="42.425565" lon="-2.41997">
      <ele>437</ele>
    </trkpt>
    <trkpt lat="42.425602" lon="-2.419721">
      <ele>438.3</ele>
    </trkpt>
    <trkpt lat="42.425661" lon="-2.419584">
      <ele>439.1</ele>
    </trkpt>
    <trkpt lat="42.425755" lon="-2.419486">
      <ele>439.8</ele>
    </trkpt>
    <trkpt lat="42.425706" lon="-2.41947">
      <ele>440.1</ele>
    </trkpt>
    <trkpt lat="42.425709" lon="-2.419111">
      <ele>441.6</ele>
    </trkpt>
    <trkpt lat="42.425766" lon="-2.418956">
      <ele>442.2</ele>
    </trkpt>
    <trkpt lat="42.425963" lon="-2.418829">
      <ele>443.1</ele>
    </trkpt>
    <trkpt lat="42.425986" lon="-2.418825">
      <ele>443.2</ele>
    </trkpt>
    <trkpt lat="42.426024" lon="-2.418819">
      <ele>443.3</ele>
    </trkpt>
    <trkpt lat="42.426056" lon="-2.418842">
      <ele>443.5</ele>
    </trkpt>
    <trkpt lat="42.426506" lon="-2.419186">
      <ele>444.3</ele>
    </trkpt>
    <trkpt lat="42.426603" lon="-2.419111">
      <ele>444.2</ele>
    </trkpt>
    <trkpt lat="42.426806" lon="-2.418956">
      <ele>443.8</ele>
    </trkpt>
    <trkpt lat="42.427121" lon="-2.418693">
      <ele>442.6</ele>
    </trkpt>
    <trkpt lat="42.427367" lon="-2.418515">
      <ele>441.4</ele>
    </trkpt>
    <trkpt lat="42.427773" lon="-2.418258">
      <ele>439.1</ele>
    </trkpt>
    <trkpt lat="42.428157" lon="-2.41806">
      <ele>436.4</ele>
    </trkpt>
    <trkpt lat="42.428183" lon="-2.418047">
      <ele>436.2</ele>
    </trkpt>
    <trkpt lat="42.428585" lon="-2.417872">
      <ele>433.1</ele>
    </trkpt>
    <trkpt lat="42.42866" lon="-2.41784">
      <ele>432.5</ele>
    </trkpt>
    <trkpt lat="42.428688" lon="-2.417832">
      <ele>432.3</ele>
    </trkpt>
    <trkpt lat="42.42922" lon="-2.41775">
      <ele>428.4</ele>
    </trkpt>
    <trkpt lat="42.429343" lon="-2.417746">
      <ele>427.6</ele>
    </trkpt>
    <trkpt lat="42.43009" lon="-2.417723">
      <ele>423.1</ele>
    </trkpt>
    <trkpt lat="42.430462" lon="-2.417716">
      <ele>421.1</ele>
    </trkpt>
    <trkpt lat="42.43073" lon="-2.417706">
      <ele>419.7</ele>
    </trkpt>
    <trkpt lat="42.430827" lon="-2.417699">
      <ele>419.2</ele>
    </trkpt>
    <trkpt lat="42.430914" lon="-2.417664">
      <ele>418.7</ele>
    </trkpt>
    <trkpt lat="42.431161" lon="-2.417672">
      <ele>417.5</ele>
    </trkpt>
    <trkpt lat="42.431271" lon="-2.417643">
      <ele>417</ele>
    </trkpt>
    <trkpt lat="42.431424" lon="-2.417734">
      <ele>416.2</ele>
    </trkpt>
    <trkpt lat="42.431437" lon="-2.417754">
      <ele>416.1</ele>
    </trkpt>
    <trkpt lat="42.431563" lon="-2.417776">
      <ele>415.6</ele>
    </trkpt>
    <trkpt lat="42.431762" lon="-2.417753">
      <ele>414.8</ele>
    </trkpt>
    <trkpt lat="42.431792" lon="-2.417743">
      <ele>414.7</ele>
    </trkpt>
    <trkpt lat="42.432114" lon="-2.417668">
      <ele>413.5</ele>
    </trkpt>
    <trkpt lat="42.432532" lon="-2.417631">
      <ele>412.1</ele>
    </trkpt>
    <trkpt lat="42.434664" lon="-2.417553">
      <ele>407.5</ele>
    </trkpt>
    <trkpt lat="42.435197" lon="-2.417529">
      <ele>406.5</ele>
    </trkpt>
    <trkpt lat="42.435821" lon="-2.417587">
      <ele>405.3</ele>
    </trkpt>
    <trkpt lat="42.436339" lon="-2.417669">
      <ele>404.4</ele>
    </trkpt>
    <trkpt lat="42.436915" lon="-2.417775">
      <ele>403.4</ele>
    </trkpt>
    <trkpt lat="42.437926" lon="-2.417988">
      <ele>402</ele>
    </trkpt>
    <trkpt lat="42.439044" lon="-2.418179">
      <ele>401.4</ele>
    </trkpt>
    <trkpt lat="42.439324" lon="-2.418248">
      <ele>401.3</ele>
    </trkpt>
    <trkpt lat="42.440032" lon="-2.41849">
      <ele>401</ele>
    </trkpt>
    <trkpt lat="42.440269" lon="-2.418431">
      <ele>400.9</ele>
    </trkpt>
    <trkpt lat="42.440409" lon="-2.418357">
      <ele>400.7</ele>
    </trkpt>
    <trkpt lat="42.440508" lon="-2.418387">
      <ele>400.6</ele>
    </trkpt>
    <trkpt lat="42.44061" lon="-2.418527">
      <ele>400.4</ele>
    </trkpt>
    <trkpt lat="42.440725" lon="-2.418718">
      <ele>400.1</ele>
    </trkpt>
    <trkpt lat="42.440805" lon="-2.418794">
      <ele>400</ele>
    </trkpt>
    <trkpt lat="42.440911" lon="-2.418824">
      <ele>399.8</ele>
    </trkpt>
    <trkpt lat="42.441283" lon="-2.418902">
      <ele>399.2</ele>
    </trkpt>
    <trkpt lat="42.441729" lon="-2.418939">
      <ele>398.5</ele>
    </trkpt>
    <trkpt lat="42.442026" lon="-2.418938">
      <ele>397.9</ele>
    </trkpt>
    <trkpt lat="42.442153" lon="-2.418852">
      <ele>397.6</ele>
    </trkpt>
    <trkpt lat="42.442194" lon="-2.418699">
      <ele>397.4</ele>
    </trkpt>
    <trkpt lat="42.442305" lon="-2.418585">
      <ele>397.1</ele>
    </trkpt>
    <trkpt lat="42.442442" lon="-2.418577">
      <ele>396.9</ele>
    </trkpt>
    <trkpt lat="42.442558" lon="-2.418674">
      <ele>396.6</ele>
    </trkpt>
    <trkpt lat="42.442603" lon="-2.418782">
      <ele>396.4</ele>
    </trkpt>
    <trkpt lat="42.442614" lon="-2.418906">
      <ele>396.2</ele>
    </trkpt>
    <trkpt lat="42.442717" lon="-2.419027">
      <ele>395.8</ele>
    </trkpt>
    <trkpt lat="42.44282" lon="-2.419094">
      <ele>395.5</ele>
    </trkpt>
    <trkpt lat="42.4431" lon="-2.41917">
      <ele>394.8</ele>
    </trkpt>
    <trkpt lat="42.443235" lon="-2.419175">
      <ele>394.3</ele>
    </trkpt>
    <trkpt lat="42.443512" lon="-2.419123">
      <ele>393.5</ele>
    </trkpt>
    <trkpt lat="42.444114" lon="-2.418906">
      <ele>391.6</ele>
    </trkpt>
    <trkpt lat="42.444396" lon="-2.418833">
      <ele>390.7</ele>
    </trkpt>
    <trkpt lat="42.445066" lon="-2.418812">
      <ele>389</ele>
    </trkpt>
    <trkpt lat="42.445484" lon="-2.418913">
      <ele>388.1</ele>
    </trkpt>
    <trkpt lat="42.446474" lon="-2.419263">
      <ele>386.4</ele>
    </trkpt>
    <trkpt lat="42.446641" lon="-2.419268">
      <ele>386.1</ele>
    </trkpt>
    <trkpt lat="42.44686" lon="-2.419179">
      <ele>385.8</ele>
    </trkpt>
    <trkpt lat="42.446964" lon="-2.419048">
      <ele>385.7</ele>
    </trkpt>
    <trkpt lat="42.447076" lon="-2.418993">
      <ele>385.5</ele>
    </trkpt>
    <trkpt lat="42.447195" lon="-2.418997">
      <ele>385.4</ele>
    </trkpt>
    <trkpt lat="42.447357" lon="-2.419117">
      <ele>385.2</ele>
    </trkpt>
    <trkpt lat="42.447438" lon="-2.4193">
      <ele>385</ele>
    </trkpt>
    <trkpt lat="42.447578" lon="-2.419413">
      <ele>384.8</ele>
    </trkpt>
    <trkpt lat="42.447828" lon="-2.419534">
      <ele>384.5</ele>
    </trkpt>
    <trkpt lat="42.449801" lon="-2.419448">
      <ele>382</ele>
    </trkpt>
    <trkpt lat="42.450365" lon="-2.419522">
      <ele>381.5</ele>
    </trkpt>
    <trkpt lat="42.450719" lon="-2.419475">
      <ele>381.2</ele>
    </trkpt>
    <trkpt lat="42.450925" lon="-2.419398">
      <ele>381.1</ele>
    </trkpt>
    <trkpt lat="42.451158" lon="-2.419145">
      <ele>381.1</ele>
    </trkpt>
    <trkpt lat="42.45121" lon="-2.418985">
      <ele>381.1</ele>
    </trkpt>
    <trkpt lat="42.451336" lon="-2.418846">
      <ele>381</ele>
    </trkpt>
    <trkpt lat="42.451498" lon="-2.418814">
      <ele>381</ele>
    </trkpt>
    <trkpt lat="42.451627" lon="-2.418877">
      <ele>380.9</ele>
    </trkpt>
    <trkpt lat="42.451723" lon="-2.419009">
      <ele>380.9</ele>
    </trkpt>
    <trkpt lat="42.451754" lon="-2.419097">
      <ele>380.8</ele>
    </trkpt>
    <trkpt lat="42.451763" lon="-2.419311">
      <ele>380.8</ele>
    </trkpt>
    <trkpt lat="42.451694" lon="-2.419504">
      <ele>380.7</ele>
    </trkpt>
    <trkpt lat="42.45165" lon="-2.419737">
      <ele>380.6</ele>
    </trkpt>
    <trkpt lat="42.451673" lon="-2.420065">
      <ele>380.6</ele>
    </trkpt>
    <trkpt lat="42.451737" lon="-2.420306">
      <ele>380.7</ele>
    </trkpt>
    <trkpt lat="42.451974" lon="-2.4212">
      <ele>382.1</ele>
    </trkpt>
    <trkpt lat="42.452062" lon="-2.421533">
      <ele>383</ele>
    </trkpt>
    <trkpt lat="42.452256" lon="-2.422274">
      <ele>384.6</ele>
    </trkpt>
    <trkpt lat="42.452334" lon="-2.422545">
      <ele>384.9</ele>
    </trkpt>
    <trkpt lat="42.452381" lon="-2.422525">
      <ele>384.9</ele>
    </trkpt>
    <trkpt lat="42.452627" lon="-2.422394">
      <ele>385</ele>
    </trkpt>
    <trkpt lat="42.452691" lon="-2.422308">
      <ele>384.9</ele>
    </trkpt>
    <trkpt lat="42.45272" lon="-2.422225">
      <ele>384.9</ele>
    </trkpt>
    <trkpt lat="42.452516" lon="-2.421866">
      <ele>384.2</ele>
    </trkpt>
    <trkpt lat="42.452206" lon="-2.421224">
      <ele>382.2</ele>
    </trkpt>
    <trkpt lat="42.45206" lon="-2.420771">
      <ele>381</ele>
    </trkpt>
    <trkpt lat="42.452112" lon="-2.420702">
      <ele>380.8</ele>
    </trkpt>
    <trkpt lat="42.452247" lon="-2.420657">
      <ele>380.5</ele>
    </trkpt>
    <trkpt lat="42.452562" lon="-2.420723">
      <ele>379.8</ele>
    </trkpt>
    <trkpt lat="42.452718" lon="-2.420669">
      <ele>379.6</ele>
    </trkpt>
    <trkpt lat="42.452861" lon="-2.42069">
      <ele>379.5</ele>
    </trkpt>
    <trkpt lat="42.453247" lon="-2.420436">
      <ele>379.6</ele>
    </trkpt>
    <trkpt lat="42.453507" lon="-2.420124">
      <ele>379.7</ele>
    </trkpt>
    <trkpt lat="42.453247" lon="-2.420436">
      <ele>379.6</ele>
    </trkpt>
    <trkpt lat="42.452861" lon="-2.42069">
      <ele>379.4</ele>
    </trkpt>
    <trkpt lat="42.452718" lon="-2.420669">
      <ele>379.4</ele>
    </trkpt>
    <trkpt lat="42.452562" lon="-2.420723">
      <ele>379.4</ele>
    </trkpt>
    <trkpt lat="42.452247" lon="-2.420657">
      <ele>379.6</ele>
    </trkpt>
    <trkpt lat="42.452112" lon="-2.420702">
      <ele>379.7</ele>
    </trkpt>
    <trkpt lat="42.45206" lon="-2.420771">
      <ele>379.7</ele>
    </trkpt>
    <trkpt lat="42.451962" lon="-2.420734">
      <ele>379.7</ele>
    </trkpt>
    <trkpt lat="42.451862" lon="-2.420726">
      <ele>379.8</ele>
    </trkpt>
    <trkpt lat="42.451807" lon="-2.420774">
      <ele>379.8</ele>
    </trkpt>
    <trkpt lat="42.45172" lon="-2.421019">
      <ele>379.8</ele>
    </trkpt>
    <trkpt lat="42.451397" lon="-2.421576">
      <ele>380.3</ele>
    </trkpt>
    <trkpt lat="42.451138" lon="-2.421859">
      <ele>380.7</ele>
    </trkpt>
    <trkpt lat="42.451075" lon="-2.422022">
      <ele>380.9</ele>
    </trkpt>
    <trkpt lat="42.450896" lon="-2.422297">
      <ele>381.3</ele>
    </trkpt>
    <trkpt lat="42.45062" lon="-2.422454">
      <ele>381.7</ele>
    </trkpt>
    <trkpt lat="42.4504" lon="-2.422776">
      <ele>382.1</ele>
    </trkpt>
    <trkpt lat="42.449677" lon="-2.423294">
      <ele>383.3</ele>
    </trkpt>
    <trkpt lat="42.449329" lon="-2.423744">
      <ele>384</ele>
    </trkpt>
    <trkpt lat="42.448581" lon="-2.424053">
      <ele>385.2</ele>
    </trkpt>
    <trkpt lat="42.448034" lon="-2.424355">
      <ele>385.6</ele>
    </trkpt>
    <trkpt lat="42.448013" lon="-2.424364">
      <ele>385.6</ele>
    </trkpt>
    <trkpt lat="42.447786" lon="-2.424459">
      <ele>385.7</ele>
    </trkpt>
    <trkpt lat="42.448013" lon="-2.424364">
      <ele>385.6</ele>
    </trkpt>
    <trkpt lat="42.448034" lon="-2.424355">
      <ele>385.6</ele>
    </trkpt>
    <trkpt lat="42.448581" lon="-2.424053">
      <ele>385.2</ele>
    </trkpt>
    <trkpt lat="42.449329" lon="-2.423744">
      <ele>384.2</ele>
    </trkpt>
    <trkpt lat="42.449677" lon="-2.423294">
      <ele>383.8</ele>
    </trkpt>
    <trkpt lat="42.450031" lon="-2.423432">
      <ele>383.8</ele>
    </trkpt>
    <trkpt lat="42.450413" lon="-2.423748">
      <ele>384</ele>
    </trkpt>
    <trkpt lat="42.450529" lon="-2.423637">
      <ele>384.2</ele>
    </trkpt>
    <trkpt lat="42.450568" lon="-2.4236">
      <ele>384.2</ele>
    </trkpt>
    <trkpt lat="42.450784" lon="-2.423398">
      <ele>384.6</ele>
    </trkpt>
    <trkpt lat="42.451791" lon="-2.422462">
      <ele>386.8</ele>
    </trkpt>
    <trkpt lat="42.451981" lon="-2.422386">
      <ele>387.3</ele>
    </trkpt>
    <trkpt lat="42.4522" lon="-2.422292">
      <ele>388</ele>
    </trkpt>
    <trkpt lat="42.452256" lon="-2.422274">
      <ele>388.1</ele>
    </trkpt>
    <trkpt lat="42.452334" lon="-2.422545">
      <ele>388.7</ele>
    </trkpt>
    <trkpt lat="42.452388" lon="-2.422745">
      <ele>389.1</ele>
    </trkpt>
    <trkpt lat="42.452629" lon="-2.423519">
      <ele>391.1</ele>
    </trkpt>
    <trkpt lat="42.452746" lon="-2.423657">
      <ele>391.7</ele>
    </trkpt>
    <trkpt lat="42.452829" lon="-2.423663">
      <ele>391.9</ele>
    </trkpt>
    <trkpt lat="42.452892" lon="-2.423719">
      <ele>392.2</ele>
    </trkpt>
    <trkpt lat="42.452928" lon="-2.423808">
      <ele>392.4</ele>
    </trkpt>
    <trkpt lat="42.452926" lon="-2.423922">
      <ele>392.6</ele>
    </trkpt>
    <trkpt lat="42.45288" lon="-2.424018">
      <ele>392.7</ele>
    </trkpt>
    <trkpt lat="42.452872" lon="-2.424117">
      <ele>392.9</ele>
    </trkpt>
    <trkpt lat="42.452896" lon="-2.424243">
      <ele>393</ele>
    </trkpt>
    <trkpt lat="42.4531" lon="-2.42468">
      <ele>393.3</ele>
    </trkpt>
    <trkpt lat="42.453237" lon="-2.424972">
      <ele>393.4</ele>
    </trkpt>
    <trkpt lat="42.453398" lon="-2.425173">
      <ele>393.5</ele>
    </trkpt>
    <trkpt lat="42.453418" lon="-2.425171">
      <ele>393.5</ele>
    </trkpt>
    <trkpt lat="42.453499" lon="-2.425202">
      <ele>393.6</ele>
    </trkpt>
    <trkpt lat="42.453557" lon="-2.425284">
      <ele>393.7</ele>
    </trkpt>
    <trkpt lat="42.453571" lon="-2.425444">
      <ele>393.8</ele>
    </trkpt>
    <trkpt lat="42.453602" lon="-2.425634">
      <ele>393.9</ele>
    </trkpt>
    <trkpt lat="42.453764" lon="-2.426058">
      <ele>393.9</ele>
    </trkpt>
    <trkpt lat="42.453917" lon="-2.426364">
      <ele>393.7</ele>
    </trkpt>
    <trkpt lat="42.454083" lon="-2.42671">
      <ele>393.4</ele>
    </trkpt>
    <trkpt lat="42.454171" lon="-2.426894">
      <ele>393.2</ele>
    </trkpt>
    <trkpt lat="42.454223" lon="-2.426999">
      <ele>393.1</ele>
    </trkpt>
    <trkpt lat="42.45454" lon="-2.427646">
      <ele>392.1</ele>
    </trkpt>
    <trkpt lat="42.454608" lon="-2.427779">
      <ele>391.7</ele>
    </trkpt>
    <trkpt lat="42.454763" lon="-2.427998">
      <ele>391.1</ele>
    </trkpt>
    <trkpt lat="42.454921" lon="-2.428101">
      <ele>390.5</ele>
    </trkpt>
    <trkpt lat="42.454974" lon="-2.428071">
      <ele>390.3</ele>
    </trkpt>
    <trkpt lat="42.455022" lon="-2.428071">
      <ele>390.2</ele>
    </trkpt>
    <trkpt lat="42.455137" lon="-2.428094">
      <ele>389.8</ele>
    </trkpt>
    <trkpt lat="42.455162" lon="-2.428114">
      <ele>389.7</ele>
    </trkpt>
    <trkpt lat="42.455206" lon="-2.428147">
      <ele>389.5</ele>
    </trkpt>
    <trkpt lat="42.45526" lon="-2.428227">
      <ele>389.2</ele>
    </trkpt>
    <trkpt lat="42.455302" lon="-2.428397">
      <ele>388.8</ele>
    </trkpt>
    <trkpt lat="42.455287" lon="-2.428538">
      <ele>388.5</ele>
    </trkpt>
    <trkpt lat="42.455261" lon="-2.428609">
      <ele>388.3</ele>
    </trkpt>
    <trkpt lat="42.455197" lon="-2.4287">
      <ele>388.1</ele>
    </trkpt>
    <trkpt lat="42.455062" lon="-2.428767">
      <ele>387.7</ele>
    </trkpt>
    <trkpt lat="42.45503" lon="-2.428771">
      <ele>387.6</ele>
    </trkpt>
    <trkpt lat="42.454976" lon="-2.428856">
      <ele>387.4</ele>
    </trkpt>
    <trkpt lat="42.454836" lon="-2.429077">
      <ele>386.9</ele>
    </trkpt>
    <trkpt lat="42.454636" lon="-2.429533">
      <ele>386.1</ele>
    </trkpt>
    <trkpt lat="42.454527" lon="-2.430051">
      <ele>385.7</ele>
    </trkpt>
    <trkpt lat="42.454555" lon="-2.430306">
      <ele>385.4</ele>
    </trkpt>
    <trkpt lat="42.454523" lon="-2.430732">
      <ele>385</ele>
    </trkpt>
    <trkpt lat="42.454508" lon="-2.431036">
      <ele>384.9</ele>
    </trkpt>
    <trkpt lat="42.454498" lon="-2.431268">
      <ele>384.8</ele>
    </trkpt>
    <trkpt lat="42.454458" lon="-2.431837">
      <ele>384.6</ele>
    </trkpt>
    <trkpt lat="42.454335" lon="-2.433602">
      <ele>385.3</ele>
    </trkpt>
    <trkpt lat="42.454217" lon="-2.435371">
      <ele>387.6</ele>
    </trkpt>
    <trkpt lat="42.454122" lon="-2.435355">
      <ele>387.8</ele>
    </trkpt>
    <trkpt lat="42.453755" lon="-2.435296">
      <ele>388.5</ele>
    </trkpt>
    <trkpt lat="42.45368" lon="-2.435329">
      <ele>388.6</ele>
    </trkpt>
    <trkpt lat="42.453579" lon="-2.435457">
      <ele>388.9</ele>
    </trkpt>
    <trkpt lat="42.453521" lon="-2.435516">
      <ele>389</ele>
    </trkpt>
    <trkpt lat="42.45338" lon="-2.435548">
      <ele>389.2</ele>
    </trkpt>
    <trkpt lat="42.453312" lon="-2.435517">
      <ele>389.3</ele>
    </trkpt>
    <trkpt lat="42.453257" lon="-2.43545">
      <ele>389.4</ele>
    </trkpt>
    <trkpt lat="42.453231" lon="-2.435389">
      <ele>389.5</ele>
    </trkpt>
    <trkpt lat="42.453136" lon="-2.435302">
      <ele>389.6</ele>
    </trkpt>
    <trkpt lat="42.453043" lon="-2.435276">
      <ele>389.7</ele>
    </trkpt>
    <trkpt lat="42.451908" lon="-2.435128">
      <ele>390.7</ele>
    </trkpt>
    <trkpt lat="42.451878" lon="-2.435128">
      <ele>390.8</ele>
    </trkpt>
    <trkpt lat="42.451738" lon="-2.435155">
      <ele>390.8</ele>
    </trkpt>
    <trkpt lat="42.451705" lon="-2.435223">
      <ele>390.9</ele>
    </trkpt>
    <trkpt lat="42.451617" lon="-2.435301">
      <ele>390.9</ele>
    </trkpt>
    <trkpt lat="42.451561" lon="-2.435437">
      <ele>391</ele>
    </trkpt>
    <trkpt lat="42.451551" lon="-2.435543">
      <ele>391.1</ele>
    </trkpt>
    <trkpt lat="42.451547" lon="-2.435593">
      <ele>391.1</ele>
    </trkpt>
    <trkpt lat="42.451435" lon="-2.437173">
      <ele>391.9</ele>
    </trkpt>
    <trkpt lat="42.451359" lon="-2.437167">
      <ele>391.9</ele>
    </trkpt>
    <trkpt lat="42.45131" lon="-2.437163">
      <ele>392</ele>
    </trkpt>
    <trkpt lat="42.451287" lon="-2.437183">
      <ele>392</ele>
    </trkpt>
    <trkpt lat="42.451241" lon="-2.437366">
      <ele>392.1</ele>
    </trkpt>
    <trkpt lat="42.451169" lon="-2.4374">
      <ele>392.2</ele>
    </trkpt>
    <trkpt lat="42.45109" lon="-2.437364">
      <ele>392.3</ele>
    </trkpt>
    <trkpt lat="42.451065" lon="-2.43741">
      <ele>392.3</ele>
    </trkpt>
    <trkpt lat="42.451019" lon="-2.437607">
      <ele>392.4</ele>
    </trkpt>
    <trkpt lat="42.45088" lon="-2.437648">
      <ele>392.5</ele>
    </trkpt>
    <trkpt lat="42.450628" lon="-2.437829">
      <ele>392.8</ele>
    </trkpt>
    <trkpt lat="42.450647" lon="-2.437836">
      <ele>392.9</ele>
    </trkpt>
    <trkpt lat="42.450714" lon="-2.437861">
      <ele>392.9</ele>
    </trkpt>
    <trkpt lat="42.45054" lon="-2.438047">
      <ele>393.1</ele>
    </trkpt>
    <trkpt lat="42.450464" lon="-2.43818">
      <ele>393.2</ele>
    </trkpt>
    <trkpt lat="42.450427" lon="-2.438257">
      <ele>393.3</ele>
    </trkpt>
    <trkpt lat="42.450109" lon="-2.438967">
      <ele>393.7</ele>
    </trkpt>
    <trkpt lat="42.449961" lon="-2.439303">
      <ele>393.8</ele>
    </trkpt>
    <trkpt lat="42.449663" lon="-2.43996">
      <ele>394.1</ele>
    </trkpt>
    <trkpt lat="42.44949" lon="-2.440403">
      <ele>394.3</ele>
    </trkpt>
    <trkpt lat="42.449182" lon="-2.441188">
      <ele>394.7</ele>
    </trkpt>
    <trkpt lat="42.448857" lon="-2.441693">
      <ele>395.1</ele>
    </trkpt>
    <trkpt lat="42.448648" lon="-2.442099">
      <ele>395.5</ele>
    </trkpt>
    <trkpt lat="42.448137" lon="-2.443281">
      <ele>396.7</ele>
    </trkpt>
    <trkpt lat="42.447772" lon="-2.444053">
      <ele>397.4</ele>
    </trkpt>
    <trkpt lat="42.447478" lon="-2.444586">
      <ele>397.8</ele>
    </trkpt>
    <trkpt lat="42.446649" lon="-2.446556">
      <ele>399.3</ele>
    </trkpt>
    <trkpt lat="42.446397" lon="-2.447034">
      <ele>399.7</ele>
    </trkpt>
    <trkpt lat="42.445009" lon="-2.450072">
      <ele>402.7</ele>
    </trkpt>
    <trkpt lat="42.444718" lon="-2.450709">
      <ele>403.5</ele>
    </trkpt>
    <trkpt lat="42.444719" lon="-2.450902">
      <ele>403.7</ele>
    </trkpt>
    <trkpt lat="42.444776" lon="-2.450943">
      <ele>403.8</ele>
    </trkpt>
    <trkpt lat="42.444813" lon="-2.451042">
      <ele>403.9</ele>
    </trkpt>
    <trkpt lat="42.444811" lon="-2.451098">
      <ele>404</ele>
    </trkpt>
    <trkpt lat="42.444783" lon="-2.451175">
      <ele>404</ele>
    </trkpt>
    <trkpt lat="42.444685" lon="-2.451232">
      <ele>404.2</ele>
    </trkpt>
    <trkpt lat="42.444591" lon="-2.451165">
      <ele>404.4</ele>
    </trkpt>
    <trkpt lat="42.444572" lon="-2.451113">
      <ele>404.4</ele>
    </trkpt>
    <trkpt lat="42.444369" lon="-2.451135">
      <ele>404.7</ele>
    </trkpt>
    <trkpt lat="42.444342" lon="-2.451145">
      <ele>404.7</ele>
    </trkpt>
    <trkpt lat="42.442144" lon="-2.45182">
      <ele>406.9</ele>
    </trkpt>
    <trkpt lat="42.440759" lon="-2.452246">
      <ele>408.4</ele>
    </trkpt>
    <trkpt lat="42.440263" lon="-2.452398">
      <ele>408.9</ele>
    </trkpt>
    <trkpt lat="42.438755" lon="-2.452861">
      <ele>410.4</ele>
    </trkpt>
    <trkpt lat="42.437965" lon="-2.453104">
      <ele>411.2</ele>
    </trkpt>
    <trkpt lat="42.437914" lon="-2.453134">
      <ele>411.2</ele>
    </trkpt>
    <trkpt lat="42.437792" lon="-2.453247">
      <ele>411.4</ele>
    </trkpt>
    <trkpt lat="42.43772" lon="-2.453371">
      <ele>411.6</ele>
    </trkpt>
    <trkpt lat="42.437682" lon="-2.45339">
      <ele>411.6</ele>
    </trkpt>
    <trkpt lat="42.437632" lon="-2.453393">
      <ele>411.7</ele>
    </trkpt>
    <trkpt lat="42.437551" lon="-2.453343">
      <ele>411.8</ele>
    </trkpt>
    <trkpt lat="42.437523" lon="-2.453295">
      <ele>411.9</ele>
    </trkpt>
    <trkpt lat="42.437294" lon="-2.45328">
      <ele>412.2</ele>
    </trkpt>
    <trkpt lat="42.437099" lon="-2.453339">
      <ele>412.5</ele>
    </trkpt>
    <trkpt lat="42.435425" lon="-2.453839">
      <ele>415.3</ele>
    </trkpt>
    <trkpt lat="42.435105" lon="-2.453942">
      <ele>415.7</ele>
    </trkpt>
    <trkpt lat="42.434687" lon="-2.454119">
      <ele>416</ele>
    </trkpt>
    <trkpt lat="42.434102" lon="-2.4543">
      <ele>416</ele>
    </trkpt>
    <trkpt lat="42.433175" lon="-2.454437">
      <ele>416.4</ele>
    </trkpt>
    <trkpt lat="42.432832" lon="-2.454527">
      <ele>416.6</ele>
    </trkpt>
    <trkpt lat="42.432539" lon="-2.454642">
      <ele>416.8</ele>
    </trkpt>
    <trkpt lat="42.431702" lon="-2.454996">
      <ele>418.4</ele>
    </trkpt>
    <trkpt lat="42.429555" lon="-2.455666">
      <ele>422.7</ele>
    </trkpt>
    <trkpt lat="42.42948" lon="-2.455711">
      <ele>422.8</ele>
    </trkpt>
    <trkpt lat="42.429001" lon="-2.455859">
      <ele>423.8</ele>
    </trkpt>
    <trkpt lat="42.428697" lon="-2.455973">
      <ele>424.4</ele>
    </trkpt>
    <trkpt lat="42.428269" lon="-2.456093">
      <ele>425.1</ele>
    </trkpt>
    <trkpt lat="42.428222" lon="-2.456119">
      <ele>425.2</ele>
    </trkpt>
    <trkpt lat="42.428143" lon="-2.456104">
      <ele>425.3</ele>
    </trkpt>
    <trkpt lat="42.428115" lon="-2.456077">
      <ele>425.3</ele>
    </trkpt>
    <trkpt lat="42.428073" lon="-2.456149">
      <ele>425.4</ele>
    </trkpt>
    <trkpt lat="42.427988" lon="-2.456193">
      <ele>425.6</ele>
    </trkpt>
    <trkpt lat="42.427026" lon="-2.456459">
      <ele>427.2</ele>
    </trkpt>
    <trkpt lat="42.426991" lon="-2.456501">
      <ele>427.2</ele>
    </trkpt>
    <trkpt lat="42.426946" lon="-2.456495">
      <ele>427.3</ele>
    </trkpt>
    <trkpt lat="42.426621" lon="-2.456594">
      <ele>427.7</ele>
    </trkpt>
    <trkpt lat="42.426335" lon="-2.456681">
      <ele>428.2</ele>
    </trkpt>
    <trkpt lat="42.425858" lon="-2.456802">
      <ele>429.2</ele>
    </trkpt>
    <trkpt lat="42.42303" lon="-2.45768">
      <ele>436.7</ele>
    </trkpt>
    <trkpt lat="42.422797" lon="-2.457749">
      <ele>437.2</ele>
    </trkpt>
    <trkpt lat="42.422695" lon="-2.457779">
      <ele>437.5</ele>
    </trkpt>
    <trkpt lat="42.422515" lon="-2.457898">
      <ele>437.8</ele>
    </trkpt>
    <trkpt lat="42.422512" lon="-2.457916">
      <ele>437.9</ele>
    </trkpt>
    <trkpt lat="42.422449" lon="-2.457993">
      <ele>438</ele>
    </trkpt>
    <trkpt lat="42.422349" lon="-2.457955">
      <ele>438.2</ele>
    </trkpt>
    <trkpt lat="42.422168" lon="-2.457978">
      <ele>438.5</ele>
    </trkpt>
    <trkpt lat="42.422124" lon="-2.457994">
      <ele>438.5</ele>
    </trkpt>
    <trkpt lat="42.422012" lon="-2.458042">
      <ele>438.7</ele>
    </trkpt>
    <trkpt lat="42.42121" lon="-2.458512">
      <ele>439.7</ele>
    </trkpt>
    <trkpt lat="42.420399" lon="-2.458999">
      <ele>440.2</ele>
    </trkpt>
    <trkpt lat="42.419616" lon="-2.459493">
      <ele>440.6</ele>
    </trkpt>
    <trkpt lat="42.414371" lon="-2.462807">
      <ele>446.5</ele>
    </trkpt>
    <trkpt lat="42.413341" lon="-2.463441">
      <ele>448.5</ele>
    </trkpt>
    <trkpt lat="42.411654" lon="-2.464547">
      <ele>453</ele>
    </trkpt>
    <trkpt lat="42.411485" lon="-2.464717">
      <ele>453.6</ele>
    </trkpt>
    <trkpt lat="42.411411" lon="-2.464859">
      <ele>454</ele>
    </trkpt>
    <trkpt lat="42.41137" lon="-2.465065">
      <ele>454.5</ele>
    </trkpt>
    <trkpt lat="42.411432" lon="-2.465328">
      <ele>455.1</ele>
    </trkpt>
    <trkpt lat="42.411457" lon="-2.465344">
      <ele>455.2</ele>
    </trkpt>
    <trkpt lat="42.411552" lon="-2.465481">
      <ele>455.6</ele>
    </trkpt>
    <trkpt lat="42.411572" lon="-2.465668">
      <ele>456.1</ele>
    </trkpt>
    <trkpt lat="42.411509" lon="-2.465835">
      <ele>456.5</ele>
    </trkpt>
    <trkpt lat="42.411386" lon="-2.465923">
      <ele>456.9</ele>
    </trkpt>
    <trkpt lat="42.411322" lon="-2.465927">
      <ele>457.1</ele>
    </trkpt>
    <trkpt lat="42.411238" lon="-2.465892">
      <ele>457.3</ele>
    </trkpt>
    <trkpt lat="42.410546" lon="-2.465817">
      <ele>458.9</ele>
    </trkpt>
    <trkpt lat="42.409942" lon="-2.465846">
      <ele>459.6</ele>
    </trkpt>
    <trkpt lat="42.409643" lon="-2.465904">
      <ele>459.7</ele>
    </trkpt>
    <trkpt lat="42.409042" lon="-2.466111">
      <ele>459.5</ele>
    </trkpt>
    <trkpt lat="42.408881" lon="-2.466178">
      <ele>459.4</ele>
    </trkpt>
    <trkpt lat="42.407889" lon="-2.466591">
      <ele>458.7</ele>
    </trkpt>
    <trkpt lat="42.396778" lon="-2.472534">
      <ele>465.6</ele>
    </trkpt>
    <trkpt lat="42.396393" lon="-2.472799">
      <ele>466.3</ele>
    </trkpt>
    <trkpt lat="42.395401" lon="-2.473355">
      <ele>467.9</ele>
    </trkpt>
    <trkpt lat="42.39479" lon="-2.473754">
      <ele>468.5</ele>
    </trkpt>
    <trkpt lat="42.394207" lon="-2.474062">
      <ele>468.9</ele>
    </trkpt>
    <trkpt lat="42.39301" lon="-2.474698">
      <ele>470</ele>
    </trkpt>
    <trkpt lat="42.392871" lon="-2.474809">
      <ele>470.1</ele>
    </trkpt>
    <trkpt lat="42.392842" lon="-2.474897">
      <ele>470.2</ele>
    </trkpt>
    <trkpt lat="42.392759" lon="-2.475002">
      <ele>470.3</ele>
    </trkpt>
    <trkpt lat="42.392687" lon="-2.475035">
      <ele>470.4</ele>
    </trkpt>
    <trkpt lat="42.392552" lon="-2.47501">
      <ele>470.5</ele>
    </trkpt>
    <trkpt lat="42.392407" lon="-2.475026">
      <ele>470.7</ele>
    </trkpt>
    <trkpt lat="42.39232" lon="-2.475066">
      <ele>470.8</ele>
    </trkpt>
    <trkpt lat="42.39117" lon="-2.475682">
      <ele>472.2</ele>
    </trkpt>
    <trkpt lat="42.39036" lon="-2.476144">
      <ele>473.4</ele>
    </trkpt>
    <trkpt lat="42.389098" lon="-2.476787">
      <ele>475.4</ele>
    </trkpt>
    <trkpt lat="42.388316" lon="-2.477169">
      <ele>476.4</ele>
    </trkpt>
    <trkpt lat="42.383832" lon="-2.479584">
      <ele>483.3</ele>
    </trkpt>
    <trkpt lat="42.381613" lon="-2.480756">
      <ele>486.9</ele>
    </trkpt>
    <trkpt lat="42.380007" lon="-2.481608">
      <ele>488.3</ele>
    </trkpt>
    <trkpt lat="42.379929" lon="-2.48165">
      <ele>488.3</ele>
    </trkpt>
    <trkpt lat="42.377082" lon="-2.483161">
      <ele>489.3</ele>
    </trkpt>
    <trkpt lat="42.37596" lon="-2.483773">
      <ele>493</ele>
    </trkpt>
    <trkpt lat="42.375446" lon="-2.48403">
      <ele>494.5</ele>
    </trkpt>
    <trkpt lat="42.372566" lon="-2.485567">
      <ele>498.3</ele>
    </trkpt>
    <trkpt lat="42.370186" lon="-2.486912">
      <ele>500.6</ele>
    </trkpt>
    <trkpt lat="42.369849" lon="-2.487061">
      <ele>500.9</ele>
    </trkpt>
    <trkpt lat="42.367998" lon="-2.488052">
      <ele>504.8</ele>
    </trkpt>
    <trkpt lat="42.367769" lon="-2.48824">
      <ele>505.4</ele>
    </trkpt>
    <trkpt lat="42.367696" lon="-2.488374">
      <ele>505.7</ele>
    </trkpt>
    <trkpt lat="42.367582" lon="-2.488437">
      <ele>505.9</ele>
    </trkpt>
    <trkpt lat="42.367486" lon="-2.488422">
      <ele>506.1</ele>
    </trkpt>
    <trkpt lat="42.367182" lon="-2.488491">
      <ele>506.8</ele>
    </trkpt>
    <trkpt lat="42.366119" lon="-2.489063">
      <ele>508.8</ele>
    </trkpt>
    <trkpt lat="42.365926" lon="-2.489183">
      <ele>509.2</ele>
    </trkpt>
    <trkpt lat="42.364593" lon="-2.489893">
      <ele>511.6</ele>
    </trkpt>
    <trkpt lat="42.363683" lon="-2.49031">
      <ele>513.4</ele>
    </trkpt>
    <trkpt lat="42.360357" lon="-2.49211">
      <ele>518.4</ele>
    </trkpt>
    <trkpt lat="42.354086" lon="-2.495462">
      <ele>528.9</ele>
    </trkpt>
    <trkpt lat="42.351686" lon="-2.496741">
      <ele>532.8</ele>
    </trkpt>
    <trkpt lat="42.350576" lon="-2.49733">
      <ele>535.4</ele>
    </trkpt>
    <trkpt lat="42.349849" lon="-2.497727">
      <ele>536.9</ele>
    </trkpt>
    <trkpt lat="42.34879" lon="-2.498285">
      <ele>538.9</ele>
    </trkpt>
    <trkpt lat="42.347732" lon="-2.498843">
      <ele>541</ele>
    </trkpt>
    <trkpt lat="42.345799" lon="-2.499886">
      <ele>544.5</ele>
    </trkpt>
    <trkpt lat="42.345214" lon="-2.500246">
      <ele>545.7</ele>
    </trkpt>
    <trkpt lat="42.343583" lon="-2.501109">
      <ele>548.9</ele>
    </trkpt>
    <trkpt lat="42.342875" lon="-2.501491">
      <ele>550.4</ele>
    </trkpt>
    <trkpt lat="42.342211" lon="-2.501777">
      <ele>552.6</ele>
    </trkpt>
    <trkpt lat="42.341765" lon="-2.501926">
      <ele>554.2</ele>
    </trkpt>
    <trkpt lat="42.34129" lon="-2.502167">
      <ele>556</ele>
    </trkpt>
    <trkpt lat="42.34048" lon="-2.502599">
      <ele>558</ele>
    </trkpt>
    <trkpt lat="42.340415" lon="-2.502646">
      <ele>558</ele>
    </trkpt>
    <trkpt lat="42.340235" lon="-2.502683">
      <ele>557.9</ele>
    </trkpt>
    <trkpt lat="42.340187" lon="-2.502671">
      <ele>557.9</ele>
    </trkpt>
    <trkpt lat="42.340064" lon="-2.502549">
      <ele>557.7</ele>
    </trkpt>
    <trkpt lat="42.34002" lon="-2.502463">
      <ele>557.6</ele>
    </trkpt>
    <trkpt lat="42.339988" lon="-2.502259">
      <ele>557.3</ele>
    </trkpt>
    <trkpt lat="42.340025" lon="-2.502084">
      <ele>556.9</ele>
    </trkpt>
    <trkpt lat="42.340049" lon="-2.501766">
      <ele>556.1</ele>
    </trkpt>
    <trkpt lat="42.340001" lon="-2.501389">
      <ele>555</ele>
    </trkpt>
    <trkpt lat="42.339874" lon="-2.500614">
      <ele>552.5</ele>
    </trkpt>
    <trkpt lat="42.339748" lon="-2.500117">
      <ele>550.8</ele>
    </trkpt>
    <trkpt lat="42.339419" lon="-2.499425">
      <ele>548.1</ele>
    </trkpt>
    <trkpt lat="42.339215" lon="-2.499029">
      <ele>546.6</ele>
    </trkpt>
    <trkpt lat="42.339241" lon="-2.498839">
      <ele>546.1</ele>
    </trkpt>
    <trkpt lat="42.339382" lon="-2.498468">
      <ele>545</ele>
    </trkpt>
    <trkpt lat="42.339706" lon="-2.497973">
      <ele>543.2</ele>
    </trkpt>
    <trkpt lat="42.339746" lon="-2.497901">
      <ele>543</ele>
    </trkpt>
    <trkpt lat="42.339844" lon="-2.497548">
      <ele>542.2</ele>
    </trkpt>
    <trkpt lat="42.339946" lon="-2.496991">
      <ele>541.1</ele>
    </trkpt>
    <trkpt lat="42.340174" lon="-2.496435">
      <ele>540</ele>
    </trkpt>
    <trkpt lat="42.340564" lon="-2.4959">
      <ele>538.6</ele>
    </trkpt>
    <trkpt lat="42.340967" lon="-2.495174">
      <ele>537.3</ele>
    </trkpt>
    <trkpt lat="42.341139" lon="-2.494798">
      <ele>536.7</ele>
    </trkpt>
    <trkpt lat="42.34163" lon="-2.494222">
      <ele>535.8</ele>
    </trkpt>
    <trkpt lat="42.341903" lon="-2.493728">
      <ele>535.2</ele>
    </trkpt>
    <trkpt lat="42.341984" lon="-2.493552">
      <ele>535</ele>
    </trkpt>
    <trkpt lat="42.341983" lon="-2.4935">
      <ele>534.9</ele>
    </trkpt>
    <trkpt lat="42.341982" lon="-2.493385">
      <ele>534.8</ele>
    </trkpt>
    <trkpt lat="42.342016" lon="-2.493297">
      <ele>534.7</ele>
    </trkpt>
    <trkpt lat="42.342191" lon="-2.493039">
      <ele>534.4</ele>
    </trkpt>
    <trkpt lat="42.342531" lon="-2.492291">
      <ele>533.4</ele>
    </trkpt>
    <trkpt lat="42.343795" lon="-2.490688">
      <ele>530.5</ele>
    </trkpt>
    <trkpt lat="42.343992" lon="-2.490506">
      <ele>530.1</ele>
    </trkpt>
    <trkpt lat="42.344495" lon="-2.490235">
      <ele>529.4</ele>
    </trkpt>
    <trkpt lat="42.345118" lon="-2.489809">
      <ele>528.5</ele>
    </trkpt>
    <trkpt lat="42.345208" lon="-2.489748">
      <ele>528.3</ele>
    </trkpt>
    <trkpt lat="42.345542" lon="-2.48932">
      <ele>527.8</ele>
    </trkpt>
    <trkpt lat="42.346491" lon="-2.488623">
      <ele>526.1</ele>
    </trkpt>
    <trkpt lat="42.346871" lon="-2.488218">
      <ele>525.2</ele>
    </trkpt>
    <trkpt lat="42.347206" lon="-2.487958">
      <ele>524.5</ele>
    </trkpt>
    <trkpt lat="42.347342" lon="-2.487797">
      <ele>524.2</ele>
    </trkpt>
    <trkpt lat="42.347859" lon="-2.487069">
      <ele>523</ele>
    </trkpt>
    <trkpt lat="42.348112" lon="-2.486641">
      <ele>522.5</ele>
    </trkpt>
    <trkpt lat="42.348214" lon="-2.486545">
      <ele>522.3</ele>
    </trkpt>
    <trkpt lat="42.349099" lon="-2.486126">
      <ele>521.3</ele>
    </trkpt>
    <trkpt lat="42.349582" lon="-2.485679">
      <ele>520.8</ele>
    </trkpt>
    <trkpt lat="42.349914" lon="-2.485535">
      <ele>520.5</ele>
    </trkpt>
    <trkpt lat="42.350484" lon="-2.485412">
      <ele>520</ele>
    </trkpt>
    <trkpt lat="42.350718" lon="-2.485287">
      <ele>519.8</ele>
    </trkpt>
    <trkpt lat="42.350962" lon="-2.485114">
      <ele>519.6</ele>
    </trkpt>
    <trkpt lat="42.351283" lon="-2.484936">
      <ele>519.2</ele>
    </trkpt>
    <trkpt lat="42.351811" lon="-2.4845">
      <ele>518.2</ele>
    </trkpt>
    <trkpt lat="42.351938" lon="-2.484443">
      <ele>517.9</ele>
    </trkpt>
    <trkpt lat="42.352327" lon="-2.484353">
      <ele>516.9</ele>
    </trkpt>
    <trkpt lat="42.352443" lon="-2.484289">
      <ele>516.7</ele>
    </trkpt>
    <trkpt lat="42.352917" lon="-2.483849">
      <ele>515.6</ele>
    </trkpt>
    <trkpt lat="42.353122" lon="-2.483652">
      <ele>515.1</ele>
    </trkpt>
    <trkpt lat="42.353299" lon="-2.483525">
      <ele>514.8</ele>
    </trkpt>
    <trkpt lat="42.353434" lon="-2.483467">
      <ele>514.6</ele>
    </trkpt>
    <trkpt lat="42.353696" lon="-2.483421">
      <ele>514.3</ele>
    </trkpt>
    <trkpt lat="42.354065" lon="-2.483219">
      <ele>514.1</ele>
    </trkpt>
    <trkpt lat="42.354467" lon="-2.482853">
      <ele>513.8</ele>
    </trkpt>
    <trkpt lat="42.354926" lon="-2.482618">
      <ele>513.4</ele>
    </trkpt>
    <trkpt lat="42.355092" lon="-2.482462">
      <ele>513.2</ele>
    </trkpt>
    <trkpt lat="42.355654" lon="-2.482086">
      <ele>512.5</ele>
    </trkpt>
    <trkpt lat="42.356586" lon="-2.481865">
      <ele>511.6</ele>
    </trkpt>
    <trkpt lat="42.357395" lon="-2.481746">
      <ele>511</ele>
    </trkpt>
    <trkpt lat="42.357943" lon="-2.48178">
      <ele>510.1</ele>
    </trkpt>
    <trkpt lat="42.358342" lon="-2.481514">
      <ele>509.2</ele>
    </trkpt>
    <trkpt lat="42.358638" lon="-2.481275">
      <ele>508.3</ele>
    </trkpt>
    <trkpt lat="42.358767" lon="-2.481198">
      <ele>507.9</ele>
    </trkpt>
    <trkpt lat="42.35898" lon="-2.481133">
      <ele>507.4</ele>
    </trkpt>
    <trkpt lat="42.359423" lon="-2.480754">
      <ele>506.5</ele>
    </trkpt>
    <trkpt lat="42.359714" lon="-2.480571">
      <ele>506.3</ele>
    </trkpt>
    <trkpt lat="42.360095" lon="-2.480446">
      <ele>506.1</ele>
    </trkpt>
    <trkpt lat="42.360504" lon="-2.480196">
      <ele>505.9</ele>
    </trkpt>
    <trkpt lat="42.360802" lon="-2.479944">
      <ele>505.5</ele>
    </trkpt>
    <trkpt lat="42.361073" lon="-2.479721">
      <ele>505</ele>
    </trkpt>
    <trkpt lat="42.361731" lon="-2.479081">
      <ele>503.4</ele>
    </trkpt>
    <trkpt lat="42.361676" lon="-2.478962">
      <ele>503.2</ele>
    </trkpt>
    <trkpt lat="42.361704" lon="-2.478879">
      <ele>503</ele>
    </trkpt>
    <trkpt lat="42.361876" lon="-2.478956">
      <ele>502.7</ele>
    </trkpt>
    <trkpt lat="42.362133" lon="-2.478947">
      <ele>502.2</ele>
    </trkpt>
    <trkpt lat="42.362698" lon="-2.478815">
      <ele>502.5</ele>
    </trkpt>
    <trkpt lat="42.36299" lon="-2.478719">
      <ele>503</ele>
    </trkpt>
    <trkpt lat="42.363116" lon="-2.478647">
      <ele>503.2</ele>
    </trkpt>
    <trkpt lat="42.36317" lon="-2.478598">
      <ele>503.3</ele>
    </trkpt>
    <trkpt lat="42.363258" lon="-2.478621">
      <ele>503.4</ele>
    </trkpt>
    <trkpt lat="42.363286" lon="-2.478673">
      <ele>503.5</ele>
    </trkpt>
    <trkpt lat="42.363289" lon="-2.47877">
      <ele>503.6</ele>
    </trkpt>
    <trkpt lat="42.363421" lon="-2.479049">
      <ele>504</ele>
    </trkpt>
    <trkpt lat="42.364328" lon="-2.481104">
      <ele>505.2</ele>
    </trkpt>
    <trkpt lat="42.364561" lon="-2.481546">
      <ele>505.1</ele>
    </trkpt>
    <trkpt lat="42.364706" lon="-2.481848">
      <ele>505</ele>
    </trkpt>
    <trkpt lat="42.36486" lon="-2.481731">
      <ele>505</ele>
    </trkpt>
    <trkpt lat="42.36505" lon="-2.481586">
      <ele>505</ele>
    </trkpt>
    <trkpt lat="42.365108" lon="-2.481465">
      <ele>504.9</ele>
    </trkpt>
    <trkpt lat="42.365116" lon="-2.481336">
      <ele>504.9</ele>
    </trkpt>
    <trkpt lat="42.365049" lon="-2.481105">
      <ele>504.9</ele>
    </trkpt>
    <trkpt lat="42.365052" lon="-2.480929">
      <ele>505</ele>
    </trkpt>
    <trkpt lat="42.364938" lon="-2.480952">
      <ele>505</ele>
    </trkpt>
    <trkpt lat="42.364958" lon="-2.48107">
      <ele>505</ele>
    </trkpt>
    <trkpt lat="42.364775" lon="-2.481193">
      <ele>505</ele>
    </trkpt>
    </trkseg>
  </trk>
</gpx>
