<?xml version="1.0" encoding="UTF-8"?>
<gpx version="1.1" creator="fitAI Komoot downloader" xmlns="http://www.topografix.com/GPX/1/1">
  <metadata>
    <name>Puente de Piedra de Logroño y Puente de Piedra de Logroño - Recorrido circular desde Logroño</name>
    <desc>89 visitas · Dificultad: moderate · Distancia: 6.2 km · Desnivel +: 37 m</desc>
    <link href="https://www.komoot.com/smarttour/e44711323"><text>Komoot</text></link>
  </metadata>
  <trk>
    <name>Puente de Piedra de Logroño y Puente de Piedra de Logroño - Recorrido circular desde Logroño</name>
    <type>jogging</type>
    <trkseg>
    <trkpt lat="42.470303" lon="-2.436777">
      <ele>374.6</ele>
    </trkpt>
    <trkpt lat="42.470377" lon="-2.436688">
      <ele>374.6</ele>
    </trkpt>
    <trkpt lat="42.47046" lon="-2.436822">
      <ele>374.5</ele>
    </trkpt>
    <trkpt lat="42.47053" lon="-2.43683">
      <ele>374.5</ele>
    </trkpt>
    <trkpt lat="42.470599" lon="-2.436824">
      <ele>374.4</ele>
    </trkpt>
    <trkpt lat="42.470644" lon="-2.437918">
      <ele>372.8</ele>
    </trkpt>
    <trkpt lat="42.470702" lon="-2.43928">
      <ele>370.7</ele>
    </trkpt>
    <trkpt lat="42.470744" lon="-2.439256">
      <ele>370.6</ele>
    </trkpt>
    <trkpt lat="42.470589" lon="-2.439628">
      <ele>370</ele>
    </trkpt>
    <trkpt lat="42.470433" lon="-2.439999">
      <ele>369.8</ele>
    </trkpt>
    <trkpt lat="42.469267" lon="-2.442682">
      <ele>373.2</ele>
    </trkpt>
    <trkpt lat="42.469064" lon="-2.443197">
      <ele>373.6</ele>
    </trkpt>
    <trkpt lat="42.469072" lon="-2.44324">
      <ele>373.6</ele>
    </trkpt>
    <trkpt lat="42.469043" lon="-2.443317">
      <ele>373.5</ele>
    </trkpt>
    <trkpt lat="42.469114" lon="-2.443527">
      <ele>373.7</ele>
    </trkpt>
    <trkpt lat="42.469101" lon="-2.443532">
      <ele>373.7</ele>
    </trkpt>
    <trkpt lat="42.469061" lon="-2.443544">
      <ele>373.8</ele>
    </trkpt>
    <trkpt lat="42.468976" lon="-2.443369">
      <ele>373.8</ele>
    </trkpt>
    <trkpt lat="42.46898" lon="-2.44329">
      <ele>373.8</ele>
    </trkpt>
    <trkpt lat="42.469004" lon="-2.443286">
      <ele>373.7</ele>
    </trkpt>
    <trkpt lat="42.469027" lon="-2.443295">
      <ele>373.7</ele>
    </trkpt>
    <trkpt lat="42.46908" lon="-2.44332">
      <ele>373.8</ele>
    </trkpt>
    <trkpt lat="42.469027" lon="-2.443295">
      <ele>373.7</ele>
    </trkpt>
    <trkpt lat="42.469004" lon="-2.443286">
      <ele>373.7</ele>
    </trkpt>
    <trkpt lat="42.46898" lon="-2.44329">
      <ele>373.7</ele>
    </trkpt>
    <trkpt lat="42.468976" lon="-2.443369">
      <ele>373.7</ele>
    </trkpt>
    <trkpt lat="42.469061" lon="-2.443544">
      <ele>373.6</ele>
    </trkpt>
    <trkpt lat="42.469101" lon="-2.443532">
      <ele>373.5</ele>
    </trkpt>
    <trkpt lat="42.469114" lon="-2.443527">
      <ele>373.4</ele>
    </trkpt>
    <trkpt lat="42.469186" lon="-2.44378">
      <ele>373.2</ele>
    </trkpt>
    <trkpt lat="42.469191" lon="-2.443951">
      <ele>373.1</ele>
    </trkpt>
    <trkpt lat="42.469184" lon="-2.444024">
      <ele>373.1</ele>
    </trkpt>
    <trkpt lat="42.469151" lon="-2.444787">
      <ele>372.6</ele>
    </trkpt>
    <trkpt lat="42.469178" lon="-2.445082">
      <ele>372.5</ele>
    </trkpt>
    <trkpt lat="42.469182" lon="-2.445136">
      <ele>372.5</ele>
    </trkpt>
    <trkpt lat="42.469192" lon="-2.445433">
      <ele>372.5</ele>
    </trkpt>
    <trkpt lat="42.469151" lon="-2.44593">
      <ele>372.2</ele>
    </trkpt>
    <trkpt lat="42.469077" lon="-2.446779">
      <ele>372.4</ele>
    </trkpt>
    <trkpt lat="42.469075" lon="-2.446913">
      <ele>372.5</ele>
    </trkpt>
    <trkpt lat="42.469108" lon="-2.447461">
      <ele>372.5</ele>
    </trkpt>
    <trkpt lat="42.469137" lon="-2.447917">
      <ele>372.5</ele>
    </trkpt>
    <trkpt lat="42.469115" lon="-2.448806">
      <ele>372.6</ele>
    </trkpt>
    <trkpt lat="42.469076" lon="-2.44995">
      <ele>373.2</ele>
    </trkpt>
    <trkpt lat="42.469046" lon="-2.450666">
      <ele>374.6</ele>
    </trkpt>
    <trkpt lat="42.469048" lon="-2.450919">
      <ele>375.2</ele>
    </trkpt>
    <trkpt lat="42.468962" lon="-2.450982">
      <ele>375.6</ele>
    </trkpt>
    <trkpt lat="42.468913" lon="-2.451175">
      <ele>376.1</ele>
    </trkpt>
    <trkpt lat="42.468611" lon="-2.451984">
      <ele>377.3</ele>
    </trkpt>
    <trkpt lat="42.468601" lon="-2.452061">
      <ele>377.4</ele>
    </trkpt>
    <trkpt lat="42.468579" lon="-2.452164">
      <ele>377.6</ele>
    </trkpt>
    <trkpt lat="42.468528" lon="-2.452268">
      <ele>377.8</ele>
    </trkpt>
    <trkpt lat="42.468748" lon="-2.45255">
      <ele>378.5</ele>
    </trkpt>
    <trkpt lat="42.468958" lon="-2.452381">
      <ele>378.9</ele>
    </trkpt>
    <trkpt lat="42.468973" lon="-2.452422">
      <ele>378.9</ele>
    </trkpt>
    <trkpt lat="42.469019" lon="-2.452443">
      <ele>379</ele>
    </trkpt>
    <trkpt lat="42.469064" lon="-2.452464">
      <ele>379</ele>
    </trkpt>
    <trkpt lat="42.469142" lon="-2.452568">
      <ele>379.1</ele>
    </trkpt>
    <trkpt lat="42.469208" lon="-2.452993">
      <ele>379.3</ele>
    </trkpt>
    <trkpt lat="42.469294" lon="-2.453131">
      <ele>379.2</ele>
    </trkpt>
    <trkpt lat="42.469364" lon="-2.453332">
      <ele>379.2</ele>
    </trkpt>
    <trkpt lat="42.469429" lon="-2.453734">
      <ele>379.5</ele>
    </trkpt>
    <trkpt lat="42.469511" lon="-2.454235">
      <ele>380</ele>
    </trkpt>
    <trkpt lat="42.469602" lon="-2.454734">
      <ele>380</ele>
    </trkpt>
    <trkpt lat="42.469679" lon="-2.455157">
      <ele>380</ele>
    </trkpt>
    <trkpt lat="42.469816" lon="-2.455413">
      <ele>380</ele>
    </trkpt>
    <trkpt lat="42.469996" lon="-2.456178">
      <ele>379.6</ele>
    </trkpt>
    <trkpt lat="42.470016" lon="-2.456555">
      <ele>379.2</ele>
    </trkpt>
    <trkpt lat="42.470138" lon="-2.456737">
      <ele>378.9</ele>
    </trkpt>
    <trkpt lat="42.470318" lon="-2.457061">
      <ele>378.4</ele>
    </trkpt>
    <trkpt lat="42.470605" lon="-2.457443">
      <ele>377.8</ele>
    </trkpt>
    <trkpt lat="42.471074" lon="-2.458334">
      <ele>377.8</ele>
    </trkpt>
    <trkpt lat="42.471074" lon="-2.458393">
      <ele>377.9</ele>
    </trkpt>
    <trkpt lat="42.471073" lon="-2.458492">
      <ele>378</ele>
    </trkpt>
    <trkpt lat="42.471009" lon="-2.458658">
      <ele>378.2</ele>
    </trkpt>
    <trkpt lat="42.471337" lon="-2.45938">
      <ele>378.5</ele>
    </trkpt>
    <trkpt lat="42.471516" lon="-2.459775">
      <ele>378.3</ele>
    </trkpt>
    <trkpt lat="42.471538" lon="-2.459825">
      <ele>378.2</ele>
    </trkpt>
    <trkpt lat="42.472232" lon="-2.460099">
      <ele>375.7</ele>
    </trkpt>
    <trkpt lat="42.472264" lon="-2.460031">
      <ele>375.4</ele>
    </trkpt>
    <trkpt lat="42.472307" lon="-2.460015">
      <ele>375.2</ele>
    </trkpt>
    <trkpt lat="42.472877" lon="-2.460077">
      <ele>372.2</ele>
    </trkpt>
    <trkpt lat="42.473138" lon="-2.460136">
      <ele>371.1</ele>
    </trkpt>
    <trkpt lat="42.473744" lon="-2.460431">
      <ele>369.8</ele>
    </trkpt>
    <trkpt lat="42.474226" lon="-2.460613">
      <ele>369.8</ele>
    </trkpt>
    <trkpt lat="42.475142" lon="-2.461098">
      <ele>371.3</ele>
    </trkpt>
    <trkpt lat="42.47551" lon="-2.461198">
      <ele>372.1</ele>
    </trkpt>
    <trkpt lat="42.475791" lon="-2.46131">
      <ele>372.7</ele>
    </trkpt>
    <trkpt lat="42.475845" lon="-2.461375">
      <ele>372.8</ele>
    </trkpt>
    <trkpt lat="42.475837" lon="-2.46149">
      <ele>373</ele>
    </trkpt>
    <trkpt lat="42.475601" lon="-2.461886">
      <ele>373.5</ele>
    </trkpt>
    <trkpt lat="42.475247" lon="-2.462408">
      <ele>373.6</ele>
    </trkpt>
    <trkpt lat="42.475979" lon="-2.461523">
      <ele>372.5</ele>
    </trkpt>
    <trkpt lat="42.476234" lon="-2.461041">
      <ele>371.6</ele>
    </trkpt>
    <trkpt lat="42.476465" lon="-2.460718">
      <ele>371.1</ele>
    </trkpt>
    <trkpt lat="42.476805" lon="-2.460368">
      <ele>370.9</ele>
    </trkpt>
    <trkpt lat="42.477196" lon="-2.460078">
      <ele>370.8</ele>
    </trkpt>
    <trkpt lat="42.477585" lon="-2.459628">
      <ele>370.8</ele>
    </trkpt>
    <trkpt lat="42.47756" lon="-2.459579">
      <ele>370.8</ele>
    </trkpt>
    <trkpt lat="42.477515" lon="-2.459385">
      <ele>370.8</ele>
    </trkpt>
    <trkpt lat="42.477528" lon="-2.459234">
      <ele>370.8</ele>
    </trkpt>
    <trkpt lat="42.477706" lon="-2.459004">
      <ele>371</ele>
    </trkpt>
    <trkpt lat="42.47798" lon="-2.458645">
      <ele>371.2</ele>
    </trkpt>
    <trkpt lat="42.477809" lon="-2.458409">
      <ele>371.3</ele>
    </trkpt>
    <trkpt lat="42.477568" lon="-2.458075">
      <ele>371.5</ele>
    </trkpt>
    <trkpt lat="42.477331" lon="-2.458415">
      <ele>371.7</ele>
    </trkpt>
    <trkpt lat="42.477251" lon="-2.458502">
      <ele>371.8</ele>
    </trkpt>
    <trkpt lat="42.476735" lon="-2.457651">
      <ele>372.2</ele>
    </trkpt>
    <trkpt lat="42.474663" lon="-2.454406">
      <ele>371.8</ele>
    </trkpt>
    <trkpt lat="42.474619" lon="-2.454237">
      <ele>371.8</ele>
    </trkpt>
    <trkpt lat="42.474572" lon="-2.454167">
      <ele>371.7</ele>
    </trkpt>
    <trkpt lat="42.474275" lon="-2.453721">
      <ele>371.7</ele>
    </trkpt>
    <trkpt lat="42.473917" lon="-2.453008">
      <ele>371.5</ele>
    </trkpt>
    <trkpt lat="42.4739" lon="-2.452834">
      <ele>371.4</ele>
    </trkpt>
    <trkpt lat="42.473623" lon="-2.453">
      <ele>371.3</ele>
    </trkpt>
    <trkpt lat="42.471971" lon="-2.454005">
      <ele>370</ele>
    </trkpt>
    <trkpt lat="42.471914" lon="-2.453926">
      <ele>369.9</ele>
    </trkpt>
    <trkpt lat="42.471888" lon="-2.453934">
      <ele>369.9</ele>
    </trkpt>
    <trkpt lat="42.471163" lon="-2.454412">
      <ele>368.6</ele>
    </trkpt>
    <trkpt lat="42.471093" lon="-2.454458">
      <ele>368.5</ele>
    </trkpt>
    <trkpt lat="42.471043" lon="-2.45449">
      <ele>368.5</ele>
    </trkpt>
    <trkpt lat="42.471026" lon="-2.454501">
      <ele>368.5</ele>
    </trkpt>
    <trkpt lat="42.47077" lon="-2.45467">
      <ele>368.2</ele>
    </trkpt>
    <trkpt lat="42.470896" lon="-2.453339">
      <ele>368.2</ele>
    </trkpt>
    <trkpt lat="42.470888" lon="-2.452678">
      <ele>368.8</ele>
    </trkpt>
    <trkpt lat="42.471219" lon="-2.4525">
      <ele>369</ele>
    </trkpt>
    <trkpt lat="42.471459" lon="-2.452371">
      <ele>369</ele>
    </trkpt>
    <trkpt lat="42.471496" lon="-2.452352">
      <ele>369</ele>
    </trkpt>
    <trkpt lat="42.471463" lon="-2.452219">
      <ele>369</ele>
    </trkpt>
    <trkpt lat="42.471448" lon="-2.452041">
      <ele>368.9</ele>
    </trkpt>
    <trkpt lat="42.471459" lon="-2.451973">
      <ele>368.9</ele>
    </trkpt>
    <trkpt lat="42.471527" lon="-2.451732">
      <ele>368.9</ele>
    </trkpt>
    <trkpt lat="42.471614" lon="-2.451645">
      <ele>368.9</ele>
    </trkpt>
    <trkpt lat="42.471593" lon="-2.451588">
      <ele>368.9</ele>
    </trkpt>
    <trkpt lat="42.471507" lon="-2.451442">
      <ele>368.9</ele>
    </trkpt>
    <trkpt lat="42.471379" lon="-2.451111">
      <ele>368.9</ele>
    </trkpt>
    <trkpt lat="42.471304" lon="-2.451058">
      <ele>368.9</ele>
    </trkpt>
    <trkpt lat="42.469156" lon="-2.450118">
      <ele>371.9</ele>
    </trkpt>
    <trkpt lat="42.46918" lon="-2.450037">
      <ele>372</ele>
    </trkpt>
    <trkpt lat="42.469076" lon="-2.44995">
      <ele>372.1</ele>
    </trkpt>
    <trkpt lat="42.469115" lon="-2.448806">
      <ele>372.6</ele>
    </trkpt>
    <trkpt lat="42.469137" lon="-2.447917">
      <ele>372.5</ele>
    </trkpt>
    <trkpt lat="42.469108" lon="-2.447461">
      <ele>372.5</ele>
    </trkpt>
    <trkpt lat="42.469075" lon="-2.446913">
      <ele>372.5</ele>
    </trkpt>
    <trkpt lat="42.469077" lon="-2.446779">
      <ele>372.4</ele>
    </trkpt>
    <trkpt lat="42.469151" lon="-2.44593">
      <ele>372.2</ele>
    </trkpt>
    <trkpt lat="42.469192" lon="-2.445433">
      <ele>372.5</ele>
    </trkpt>
    <trkpt lat="42.469182" lon="-2.445136">
      <ele>372.5</ele>
    </trkpt>
    <trkpt lat="42.469178" lon="-2.445082">
      <ele>372.5</ele>
    </trkpt>
    <trkpt lat="42.469151" lon="-2.444787">
      <ele>372.6</ele>
    </trkpt>
    <trkpt lat="42.469184" lon="-2.444024">
      <ele>372.9</ele>
    </trkpt>
    <trkpt lat="42.469191" lon="-2.443951">
      <ele>372.9</ele>
    </trkpt>
    <trkpt lat="42.469186" lon="-2.44378">
      <ele>373</ele>
    </trkpt>
    <trkpt lat="42.469114" lon="-2.443527">
      <ele>373.2</ele>
    </trkpt>
    <trkpt lat="42.469043" lon="-2.443317">
      <ele>373.3</ele>
    </trkpt>
    <trkpt lat="42.469072" lon="-2.44324">
      <ele>373.2</ele>
    </trkpt>
    <trkpt lat="42.469064" lon="-2.443197">
      <ele>373.3</ele>
    </trkpt>
    <trkpt lat="42.469267" lon="-2.442682">
      <ele>373</ele>
    </trkpt>
    <trkpt lat="42.470433" lon="-2.439999">
      <ele>369.8</ele>
    </trkpt>
    <trkpt lat="42.470744" lon="-2.439256">
      <ele>370.6</ele>
    </trkpt>
    <trkpt lat="42.470702" lon="-2.43928">
      <ele>370.7</ele>
    </trkpt>
    <trkpt lat="42.470644" lon="-2.437918">
      <ele>372.8</ele>
    </trkpt>
    <trkpt lat="42.470599" lon="-2.436824">
      <ele>374.4</ele>
    </trkpt>
    <trkpt lat="42.47053" lon="-2.43683">
      <ele>374.5</ele>
    </trkpt>
    <trkpt lat="42.47046" lon="-2.436822">
      <ele>374.5</ele>
    </trkpt>
    <trkpt lat="42.470377" lon="-2.436688">
      <ele>374.6</ele>
    </trkpt>
    <trkpt lat="42.470303" lon="-2.436777">
      <ele>374.6</ele>
    </trkpt>
    </trkseg>
  </trk>
</gpx>
