<?xml version="1.0" encoding="UTF-8"?>
<gpx version="1.1" creator="fitAI Komoot downloader" xmlns="http://www.topografix.com/GPX/1/1">
  <metadata>
    <name>Recorrido circular de running desde Arnedo</name>
    <desc>41 visitas · Dificultad: moderate · Distancia: 8.2 km · Desnivel +: 71 m</desc>
    <link href="https://www.komoot.com/smarttour/e24551055"><text>Komoot</text></link>
  </metadata>
  <trk>
    <name>Recorrido circular de running desde Arnedo</name>
    <type>jogging</type>
    <trkseg>
    <trkpt lat="42.22389" lon="-2.102245">
      <ele>516.5</ele>
    </trkpt>
    <trkpt lat="42.223772" lon="-2.102505">
      <ele>516.8</ele>
    </trkpt>
    <trkpt lat="42.224516" lon="-2.102851">
      <ele>518.4</ele>
    </trkpt>
    <trkpt lat="42.224849" lon="-2.102998">
      <ele>519.5</ele>
    </trkpt>
    <trkpt lat="42.225144" lon="-2.103135">
      <ele>520.7</ele>
    </trkpt>
    <trkpt lat="42.224846" lon="-2.104456">
      <ele>525</ele>
    </trkpt>
    <trkpt lat="42.224841" lon="-2.105685">
      <ele>528.9</ele>
    </trkpt>
    <trkpt lat="42.22484" lon="-2.106009">
      <ele>529.7</ele>
    </trkpt>
    <trkpt lat="42.224864" lon="-2.106112">
      <ele>530</ele>
    </trkpt>
    <trkpt lat="42.225082" lon="-2.106213">
      <ele>530.7</ele>
    </trkpt>
    <trkpt lat="42.224874" lon="-2.107088">
      <ele>532.7</ele>
    </trkpt>
    <trkpt lat="42.225124" lon="-2.10719">
      <ele>533.4</ele>
    </trkpt>
    <trkpt lat="42.225223" lon="-2.107239">
      <ele>533.8</ele>
    </trkpt>
    <trkpt lat="42.225177" lon="-2.107416">
      <ele>534.1</ele>
    </trkpt>
    <trkpt lat="42.224964" lon="-2.108117">
      <ele>535.7</ele>
    </trkpt>
    <trkpt lat="42.224714" lon="-2.108916">
      <ele>537.2</ele>
    </trkpt>
    <trkpt lat="42.224629" lon="-2.109159">
      <ele>537.7</ele>
    </trkpt>
    <trkpt lat="42.2246" lon="-2.109183">
      <ele>537.8</ele>
    </trkpt>
    <trkpt lat="42.224518" lon="-2.109168">
      <ele>537.9</ele>
    </trkpt>
    <trkpt lat="42.224409" lon="-2.109502">
      <ele>538.4</ele>
    </trkpt>
    <trkpt lat="42.224171" lon="-2.110256">
      <ele>539.3</ele>
    </trkpt>
    <trkpt lat="42.224074" lon="-2.110561">
      <ele>539.4</ele>
    </trkpt>
    <trkpt lat="42.223726" lon="-2.111631">
      <ele>539.7</ele>
    </trkpt>
    <trkpt lat="42.22355" lon="-2.112155">
      <ele>539.7</ele>
    </trkpt>
    <trkpt lat="42.223166" lon="-2.113311">
      <ele>540</ele>
    </trkpt>
    <trkpt lat="42.223003" lon="-2.113817">
      <ele>540.1</ele>
    </trkpt>
    <trkpt lat="42.222869" lon="-2.11415">
      <ele>540.2</ele>
    </trkpt>
    <trkpt lat="42.222706" lon="-2.114377">
      <ele>540.3</ele>
    </trkpt>
    <trkpt lat="42.221313" lon="-2.116167">
      <ele>538.5</ele>
    </trkpt>
    <trkpt lat="42.221029" lon="-2.115967">
      <ele>537.2</ele>
    </trkpt>
    <trkpt lat="42.220574" lon="-2.115758">
      <ele>534.8</ele>
    </trkpt>
    <trkpt lat="42.220359" lon="-2.115574">
      <ele>533.4</ele>
    </trkpt>
    <trkpt lat="42.220017" lon="-2.115568">
      <ele>531.5</ele>
    </trkpt>
    <trkpt lat="42.220104" lon="-2.1145">
      <ele>528.5</ele>
    </trkpt>
    <trkpt lat="42.220217" lon="-2.11328">
      <ele>527.1</ele>
    </trkpt>
    <trkpt lat="42.220243" lon="-2.112998">
      <ele>526.9</ele>
    </trkpt>
    <trkpt lat="42.220328" lon="-2.112589">
      <ele>526.5</ele>
    </trkpt>
    <trkpt lat="42.220508" lon="-2.112067">
      <ele>525.5</ele>
    </trkpt>
    <trkpt lat="42.219903" lon="-2.111432">
      <ele>523.4</ele>
    </trkpt>
    <trkpt lat="42.21937" lon="-2.111119">
      <ele>521.7</ele>
    </trkpt>
    <trkpt lat="42.21935" lon="-2.111097">
      <ele>521.6</ele>
    </trkpt>
    <trkpt lat="42.218995" lon="-2.110817">
      <ele>521.3</ele>
    </trkpt>
    <trkpt lat="42.218234" lon="-2.110316">
      <ele>523.2</ele>
    </trkpt>
    <trkpt lat="42.218167" lon="-2.110404">
      <ele>523.4</ele>
    </trkpt>
    <trkpt lat="42.217962" lon="-2.110583">
      <ele>524.1</ele>
    </trkpt>
    <trkpt lat="42.217667" lon="-2.111589">
      <ele>526.5</ele>
    </trkpt>
    <trkpt lat="42.217006" lon="-2.112879">
      <ele>527.6</ele>
    </trkpt>
    <trkpt lat="42.21695" lon="-2.112988">
      <ele>527.7</ele>
    </trkpt>
    <trkpt lat="42.216489" lon="-2.113633">
      <ele>528.7</ele>
    </trkpt>
    <trkpt lat="42.214908" lon="-2.116017">
      <ele>533.2</ele>
    </trkpt>
    <trkpt lat="42.211693" lon="-2.123254">
      <ele>537.3</ele>
    </trkpt>
    <trkpt lat="42.211102" lon="-2.126524">
      <ele>540.6</ele>
    </trkpt>
    <trkpt lat="42.21055" lon="-2.128859">
      <ele>542.1</ele>
    </trkpt>
    <trkpt lat="42.210586" lon="-2.130099">
      <ele>542.2</ele>
    </trkpt>
    <trkpt lat="42.210463" lon="-2.130527">
      <ele>542.2</ele>
    </trkpt>
    <trkpt lat="42.210389" lon="-2.13289">
      <ele>547.5</ele>
    </trkpt>
    <trkpt lat="42.210364" lon="-2.133146">
      <ele>549</ele>
    </trkpt>
    <trkpt lat="42.210327" lon="-2.133147">
      <ele>549.4</ele>
    </trkpt>
    <trkpt lat="42.210011" lon="-2.133139">
      <ele>552.1</ele>
    </trkpt>
    <trkpt lat="42.209996" lon="-2.133133">
      <ele>552.3</ele>
    </trkpt>
    <trkpt lat="42.209833" lon="-2.133013">
      <ele>554</ele>
    </trkpt>
    <trkpt lat="42.209768" lon="-2.132872">
      <ele>555.1</ele>
    </trkpt>
    <trkpt lat="42.209706" lon="-2.132854">
      <ele>555.7</ele>
    </trkpt>
    <trkpt lat="42.209454" lon="-2.132903">
      <ele>558.1</ele>
    </trkpt>
    <trkpt lat="42.209278" lon="-2.133098">
      <ele>560</ele>
    </trkpt>
    <trkpt lat="42.209276" lon="-2.133181">
      <ele>560.5</ele>
    </trkpt>
    <trkpt lat="42.209491" lon="-2.133191">
      <ele>561.6</ele>
    </trkpt>
    <trkpt lat="42.209586" lon="-2.133284">
      <ele>562</ele>
    </trkpt>
    <trkpt lat="42.209611" lon="-2.133564">
      <ele>562.6</ele>
    </trkpt>
    <trkpt lat="42.209599" lon="-2.133872">
      <ele>562.9</ele>
    </trkpt>
    <trkpt lat="42.209611" lon="-2.133564">
      <ele>562.6</ele>
    </trkpt>
    <trkpt lat="42.209586" lon="-2.133284">
      <ele>562</ele>
    </trkpt>
    <trkpt lat="42.209491" lon="-2.133191">
      <ele>561.6</ele>
    </trkpt>
    <trkpt lat="42.209276" lon="-2.133181">
      <ele>560.5</ele>
    </trkpt>
    <trkpt lat="42.209278" lon="-2.133098">
      <ele>560</ele>
    </trkpt>
    <trkpt lat="42.209454" lon="-2.132903">
      <ele>558.1</ele>
    </trkpt>
    <trkpt lat="42.209706" lon="-2.132854">
      <ele>555.7</ele>
    </trkpt>
    <trkpt lat="42.209768" lon="-2.132872">
      <ele>555.1</ele>
    </trkpt>
    <trkpt lat="42.209833" lon="-2.133013">
      <ele>554</ele>
    </trkpt>
    <trkpt lat="42.209996" lon="-2.133133">
      <ele>552.3</ele>
    </trkpt>
    <trkpt lat="42.210011" lon="-2.133139">
      <ele>552.1</ele>
    </trkpt>
    <trkpt lat="42.210327" lon="-2.133147">
      <ele>549.4</ele>
    </trkpt>
    <trkpt lat="42.210364" lon="-2.133146">
      <ele>549</ele>
    </trkpt>
    <trkpt lat="42.210389" lon="-2.13289">
      <ele>547.5</ele>
    </trkpt>
    <trkpt lat="42.210463" lon="-2.130527">
      <ele>542.2</ele>
    </trkpt>
    <trkpt lat="42.210586" lon="-2.130099">
      <ele>542.2</ele>
    </trkpt>
    <trkpt lat="42.21055" lon="-2.128859">
      <ele>542.1</ele>
    </trkpt>
    <trkpt lat="42.211102" lon="-2.126524">
      <ele>540.6</ele>
    </trkpt>
    <trkpt lat="42.211693" lon="-2.123254">
      <ele>537.3</ele>
    </trkpt>
    <trkpt lat="42.214908" lon="-2.116017">
      <ele>533.2</ele>
    </trkpt>
    <trkpt lat="42.216489" lon="-2.113633">
      <ele>528.7</ele>
    </trkpt>
    <trkpt lat="42.21695" lon="-2.112988">
      <ele>527.7</ele>
    </trkpt>
    <trkpt lat="42.217006" lon="-2.112879">
      <ele>527.6</ele>
    </trkpt>
    <trkpt lat="42.217667" lon="-2.111589">
      <ele>526.5</ele>
    </trkpt>
    <trkpt lat="42.217962" lon="-2.110583">
      <ele>524.1</ele>
    </trkpt>
    <trkpt lat="42.218167" lon="-2.110404">
      <ele>523.4</ele>
    </trkpt>
    <trkpt lat="42.218234" lon="-2.110316">
      <ele>523.2</ele>
    </trkpt>
    <trkpt lat="42.218995" lon="-2.110817">
      <ele>521.3</ele>
    </trkpt>
    <trkpt lat="42.21935" lon="-2.111097">
      <ele>521.6</ele>
    </trkpt>
    <trkpt lat="42.21937" lon="-2.111119">
      <ele>521.7</ele>
    </trkpt>
    <trkpt lat="42.219903" lon="-2.111432">
      <ele>523.4</ele>
    </trkpt>
    <trkpt lat="42.220508" lon="-2.112067">
      <ele>525.4</ele>
    </trkpt>
    <trkpt lat="42.220921" lon="-2.111174">
      <ele>526.5</ele>
    </trkpt>
    <trkpt lat="42.22115" lon="-2.110677">
      <ele>526.6</ele>
    </trkpt>
    <trkpt lat="42.22133" lon="-2.110832">
      <ele>526.6</ele>
    </trkpt>
    <trkpt lat="42.221664" lon="-2.11024">
      <ele>526.4</ele>
    </trkpt>
    <trkpt lat="42.222007" lon="-2.109709">
      <ele>525.8</ele>
    </trkpt>
    <trkpt lat="42.221885" lon="-2.10979">
      <ele>525.6</ele>
    </trkpt>
    <trkpt lat="42.221601" lon="-2.109629">
      <ele>525</ele>
    </trkpt>
    <trkpt lat="42.221709" lon="-2.109257">
      <ele>524.2</ele>
    </trkpt>
    <trkpt lat="42.222282" lon="-2.106916">
      <ele>519</ele>
    </trkpt>
    <trkpt lat="42.222637" lon="-2.105478">
      <ele>517.3</ele>
    </trkpt>
    <trkpt lat="42.22282" lon="-2.104865">
      <ele>517.3</ele>
    </trkpt>
    <trkpt lat="42.222914" lon="-2.104574">
      <ele>517.4</ele>
    </trkpt>
    <trkpt lat="42.223227" lon="-2.103745">
      <ele>517.4</ele>
    </trkpt>
    <trkpt lat="42.223244" lon="-2.103703">
      <ele>517.4</ele>
    </trkpt>
    <trkpt lat="42.223356" lon="-2.103444">
      <ele>517.3</ele>
    </trkpt>
    <trkpt lat="42.223772" lon="-2.102505">
      <ele>516.8</ele>
    </trkpt>
    <trkpt lat="42.22389" lon="-2.102245">
      <ele>516.6</ele>
    </trkpt>
    </trkseg>
  </trk>
</gpx>
