<?xml version="1.0" encoding="UTF-8"?>
<gpx version="1.1" creator="fitAI Komoot downloader" xmlns="http://www.topografix.com/GPX/1/1">
  <metadata>
    <name>Río Iregua y Fuente de Alberite - Recorrido circular desde Logroño</name>
    <desc>264 visitas · Dificultad: difficult · Distancia: 45.3 km · Desnivel +: 267 m</desc>
    <link href="https://www.komoot.com/smarttour/e38216350"><text>Komoot</text></link>
  </metadata>
  <trk>
    <name>Río Iregua y Fuente de Alberite - Recorrido circular desde Logroño</name>
    <type>racebike</type>
    <trkseg>
    <trkpt lat="42.457716" lon="-2.440949">
      <ele>386.3</ele>
    </trkpt>
    <trkpt lat="42.457713" lon="-2.441014">
      <ele>386.3</ele>
    </trkpt>
    <trkpt lat="42.457755" lon="-2.441103">
      <ele>386.3</ele>
    </trkpt>
    <trkpt lat="42.457484" lon="-2.441073">
      <ele>386.2</ele>
    </trkpt>
    <trkpt lat="42.45733" lon="-2.440844">
      <ele>386.2</ele>
    </trkpt>
    <trkpt lat="42.457347" lon="-2.44039">
      <ele>386</ele>
    </trkpt>
    <trkpt lat="42.457391" lon="-2.440298">
      <ele>386</ele>
    </trkpt>
    <trkpt lat="42.457396" lon="-2.440201">
      <ele>385.9</ele>
    </trkpt>
    <trkpt lat="42.457369" lon="-2.439865">
      <ele>385.9</ele>
    </trkpt>
    <trkpt lat="42.457391" lon="-2.439583">
      <ele>385.9</ele>
    </trkpt>
    <trkpt lat="42.45753" lon="-2.43965">
      <ele>385.9</ele>
    </trkpt>
    <trkpt lat="42.457667" lon="-2.439558">
      <ele>385.9</ele>
    </trkpt>
    <trkpt lat="42.457675" lon="-2.439373">
      <ele>385.9</ele>
    </trkpt>
    <trkpt lat="42.457364" lon="-2.439149">
      <ele>385.9</ele>
    </trkpt>
    <trkpt lat="42.457343" lon="-2.439136">
      <ele>385.9</ele>
    </trkpt>
    <trkpt lat="42.457283" lon="-2.44003">
      <ele>385.8</ele>
    </trkpt>
    <trkpt lat="42.457201" lon="-2.440021">
      <ele>385.8</ele>
    </trkpt>
    <trkpt lat="42.457131" lon="-2.441037">
      <ele>386.1</ele>
    </trkpt>
    <trkpt lat="42.457124" lon="-2.441131">
      <ele>386.1</ele>
    </trkpt>
    <trkpt lat="42.457108" lon="-2.441399">
      <ele>386.1</ele>
    </trkpt>
    <trkpt lat="42.457133" lon="-2.441429">
      <ele>386.1</ele>
    </trkpt>
    <trkpt lat="42.457168" lon="-2.441554">
      <ele>386.1</ele>
    </trkpt>
    <trkpt lat="42.457131" lon="-2.441679">
      <ele>386.2</ele>
    </trkpt>
    <trkpt lat="42.457114" lon="-2.441698">
      <ele>386.2</ele>
    </trkpt>
    <trkpt lat="42.457064" lon="-2.441731">
      <ele>386.2</ele>
    </trkpt>
    <trkpt lat="42.456976" lon="-2.441722">
      <ele>386.2</ele>
    </trkpt>
    <trkpt lat="42.456916" lon="-2.441648">
      <ele>386.3</ele>
    </trkpt>
    <trkpt lat="42.456854" lon="-2.441589">
      <ele>386.4</ele>
    </trkpt>
    <trkpt lat="42.45674" lon="-2.441575">
      <ele>386.5</ele>
    </trkpt>
    <trkpt lat="42.456625" lon="-2.44156">
      <ele>386.7</ele>
    </trkpt>
    <trkpt lat="42.455971" lon="-2.44147">
      <ele>387.7</ele>
    </trkpt>
    <trkpt lat="42.455858" lon="-2.441491">
      <ele>387.8</ele>
    </trkpt>
    <trkpt lat="42.455804" lon="-2.441541">
      <ele>387.9</ele>
    </trkpt>
    <trkpt lat="42.455745" lon="-2.441623">
      <ele>388</ele>
    </trkpt>
    <trkpt lat="42.455663" lon="-2.441672">
      <ele>388.2</ele>
    </trkpt>
    <trkpt lat="42.455574" lon="-2.441674">
      <ele>388.3</ele>
    </trkpt>
    <trkpt lat="42.455469" lon="-2.441606">
      <ele>388.5</ele>
    </trkpt>
    <trkpt lat="42.455403" lon="-2.441478">
      <ele>388.7</ele>
    </trkpt>
    <trkpt lat="42.455304" lon="-2.44139">
      <ele>388.9</ele>
    </trkpt>
    <trkpt lat="42.45525" lon="-2.441375">
      <ele>388.9</ele>
    </trkpt>
    <trkpt lat="42.454262" lon="-2.441244">
      <ele>389.3</ele>
    </trkpt>
    <trkpt lat="42.454183" lon="-2.441234">
      <ele>389.3</ele>
    </trkpt>
    <trkpt lat="42.454064" lon="-2.441285">
      <ele>389.2</ele>
    </trkpt>
    <trkpt lat="42.454015" lon="-2.441343">
      <ele>389.2</ele>
    </trkpt>
    <trkpt lat="42.453835" lon="-2.441669">
      <ele>389.1</ele>
    </trkpt>
    <trkpt lat="42.453747" lon="-2.442029">
      <ele>389.1</ele>
    </trkpt>
    <trkpt lat="42.453722" lon="-2.442369">
      <ele>389.1</ele>
    </trkpt>
    <trkpt lat="42.453638" lon="-2.443557">
      <ele>389.4</ele>
    </trkpt>
    <trkpt lat="42.4536" lon="-2.444092">
      <ele>389.8</ele>
    </trkpt>
    <trkpt lat="42.453563" lon="-2.444647">
      <ele>390.1</ele>
    </trkpt>
    <trkpt lat="42.45354" lon="-2.445175">
      <ele>390.5</ele>
    </trkpt>
    <trkpt lat="42.453529" lon="-2.446179">
      <ele>391.3</ele>
    </trkpt>
    <trkpt lat="42.453533" lon="-2.446467">
      <ele>391.6</ele>
    </trkpt>
    <trkpt lat="42.453595" lon="-2.447262">
      <ele>392.4</ele>
    </trkpt>
    <trkpt lat="42.453713" lon="-2.447948">
      <ele>393.2</ele>
    </trkpt>
    <trkpt lat="42.453764" lon="-2.448131">
      <ele>393.5</ele>
    </trkpt>
    <trkpt lat="42.453781" lon="-2.448154">
      <ele>393.5</ele>
    </trkpt>
    <trkpt lat="42.453836" lon="-2.448281">
      <ele>393.7</ele>
    </trkpt>
    <trkpt lat="42.453847" lon="-2.448501">
      <ele>393.9</ele>
    </trkpt>
    <trkpt lat="42.453828" lon="-2.448577">
      <ele>394</ele>
    </trkpt>
    <trkpt lat="42.453715" lon="-2.448747">
      <ele>394.2</ele>
    </trkpt>
    <trkpt lat="42.45355" lon="-2.4488">
      <ele>394.5</ele>
    </trkpt>
    <trkpt lat="42.453466" lon="-2.448774">
      <ele>394.6</ele>
    </trkpt>
    <trkpt lat="42.453392" lon="-2.448716">
      <ele>394.7</ele>
    </trkpt>
    <trkpt lat="42.453329" lon="-2.44862">
      <ele>394.8</ele>
    </trkpt>
    <trkpt lat="42.453207" lon="-2.448546">
      <ele>395</ele>
    </trkpt>
    <trkpt lat="42.453124" lon="-2.448546">
      <ele>395.1</ele>
    </trkpt>
    <trkpt lat="42.452675" lon="-2.448678">
      <ele>395.9</ele>
    </trkpt>
    <trkpt lat="42.451597" lon="-2.448995">
      <ele>397.1</ele>
    </trkpt>
    <trkpt lat="42.451488" lon="-2.449025">
      <ele>397.2</ele>
    </trkpt>
    <trkpt lat="42.449857" lon="-2.449492">
      <ele>398.4</ele>
    </trkpt>
    <trkpt lat="42.449771" lon="-2.449516">
      <ele>398.4</ele>
    </trkpt>
    <trkpt lat="42.449406" lon="-2.449619">
      <ele>398.6</ele>
    </trkpt>
    <trkpt lat="42.448878" lon="-2.449768">
      <ele>399.2</ele>
    </trkpt>
    <trkpt lat="42.448813" lon="-2.44982">
      <ele>399.3</ele>
    </trkpt>
    <trkpt lat="42.448732" lon="-2.44996">
      <ele>399.4</ele>
    </trkpt>
    <trkpt lat="42.448702" lon="-2.450098">
      <ele>399.6</ele>
    </trkpt>
    <trkpt lat="42.44864" lon="-2.450151">
      <ele>399.7</ele>
    </trkpt>
    <trkpt lat="42.448567" lon="-2.45015">
      <ele>399.7</ele>
    </trkpt>
    <trkpt lat="42.448482" lon="-2.450037">
      <ele>399.9</ele>
    </trkpt>
    <trkpt lat="42.44839" lon="-2.449977">
      <ele>400</ele>
    </trkpt>
    <trkpt lat="42.448315" lon="-2.449963">
      <ele>400.1</ele>
    </trkpt>
    <trkpt lat="42.448143" lon="-2.450001">
      <ele>400.3</ele>
    </trkpt>
    <trkpt lat="42.44747" lon="-2.450203">
      <ele>401.2</ele>
    </trkpt>
    <trkpt lat="42.447404" lon="-2.450223">
      <ele>401.3</ele>
    </trkpt>
    <trkpt lat="42.447356" lon="-2.450237">
      <ele>401.4</ele>
    </trkpt>
    <trkpt lat="42.446317" lon="-2.450562">
      <ele>402.6</ele>
    </trkpt>
    <trkpt lat="42.446199" lon="-2.450599">
      <ele>402.7</ele>
    </trkpt>
    <trkpt lat="42.44611" lon="-2.450621">
      <ele>402.7</ele>
    </trkpt>
    <trkpt lat="42.445046" lon="-2.450931">
      <ele>403.8</ele>
    </trkpt>
    <trkpt lat="42.444811" lon="-2.451098">
      <ele>404</ele>
    </trkpt>
    <trkpt lat="42.444783" lon="-2.451175">
      <ele>404.1</ele>
    </trkpt>
    <trkpt lat="42.444685" lon="-2.451232">
      <ele>404.2</ele>
    </trkpt>
    <trkpt lat="42.444591" lon="-2.451165">
      <ele>404.4</ele>
    </trkpt>
    <trkpt lat="42.444572" lon="-2.451113">
      <ele>404.4</ele>
    </trkpt>
    <trkpt lat="42.444369" lon="-2.451135">
      <ele>404.6</ele>
    </trkpt>
    <trkpt lat="42.444342" lon="-2.451145">
      <ele>404.7</ele>
    </trkpt>
    <trkpt lat="42.442144" lon="-2.45182">
      <ele>406.9</ele>
    </trkpt>
    <trkpt lat="42.440759" lon="-2.452246">
      <ele>408.4</ele>
    </trkpt>
    <trkpt lat="42.440263" lon="-2.452398">
      <ele>408.9</ele>
    </trkpt>
    <trkpt lat="42.438755" lon="-2.452861">
      <ele>410.4</ele>
    </trkpt>
    <trkpt lat="42.437965" lon="-2.453104">
      <ele>411.2</ele>
    </trkpt>
    <trkpt lat="42.437914" lon="-2.453134">
      <ele>411.2</ele>
    </trkpt>
    <trkpt lat="42.437792" lon="-2.453247">
      <ele>411.4</ele>
    </trkpt>
    <trkpt lat="42.43772" lon="-2.453371">
      <ele>411.6</ele>
    </trkpt>
    <trkpt lat="42.437682" lon="-2.45339">
      <ele>411.6</ele>
    </trkpt>
    <trkpt lat="42.437632" lon="-2.453393">
      <ele>411.7</ele>
    </trkpt>
    <trkpt lat="42.437551" lon="-2.453343">
      <ele>411.8</ele>
    </trkpt>
    <trkpt lat="42.437523" lon="-2.453295">
      <ele>411.9</ele>
    </trkpt>
    <trkpt lat="42.437294" lon="-2.45328">
      <ele>412.2</ele>
    </trkpt>
    <trkpt lat="42.437099" lon="-2.453339">
      <ele>412.5</ele>
    </trkpt>
    <trkpt lat="42.435425" lon="-2.453839">
      <ele>415.3</ele>
    </trkpt>
    <trkpt lat="42.435105" lon="-2.453942">
      <ele>415.7</ele>
    </trkpt>
    <trkpt lat="42.434687" lon="-2.454119">
      <ele>416</ele>
    </trkpt>
    <trkpt lat="42.434102" lon="-2.4543">
      <ele>416</ele>
    </trkpt>
    <trkpt lat="42.433175" lon="-2.454437">
      <ele>416.4</ele>
    </trkpt>
    <trkpt lat="42.432832" lon="-2.454527">
      <ele>416.6</ele>
    </trkpt>
    <trkpt lat="42.432539" lon="-2.454642">
      <ele>416.8</ele>
    </trkpt>
    <trkpt lat="42.431702" lon="-2.454996">
      <ele>418.4</ele>
    </trkpt>
    <trkpt lat="42.429555" lon="-2.455666">
      <ele>422.7</ele>
    </trkpt>
    <trkpt lat="42.42948" lon="-2.455711">
      <ele>422.8</ele>
    </trkpt>
    <trkpt lat="42.429001" lon="-2.455859">
      <ele>423.8</ele>
    </trkpt>
    <trkpt lat="42.428697" lon="-2.455973">
      <ele>424.4</ele>
    </trkpt>
    <trkpt lat="42.428269" lon="-2.456093">
      <ele>425.1</ele>
    </trkpt>
    <trkpt lat="42.428222" lon="-2.456119">
      <ele>425.2</ele>
    </trkpt>
    <trkpt lat="42.428143" lon="-2.456104">
      <ele>425.3</ele>
    </trkpt>
    <trkpt lat="42.428115" lon="-2.456077">
      <ele>425.3</ele>
    </trkpt>
    <trkpt lat="42.428073" lon="-2.456149">
      <ele>425.4</ele>
    </trkpt>
    <trkpt lat="42.427988" lon="-2.456193">
      <ele>425.6</ele>
    </trkpt>
    <trkpt lat="42.427026" lon="-2.456459">
      <ele>427.2</ele>
    </trkpt>
    <trkpt lat="42.426991" lon="-2.456501">
      <ele>427.2</ele>
    </trkpt>
    <trkpt lat="42.426946" lon="-2.456495">
      <ele>427.3</ele>
    </trkpt>
    <trkpt lat="42.426621" lon="-2.456594">
      <ele>427.7</ele>
    </trkpt>
    <trkpt lat="42.426335" lon="-2.456681">
      <ele>428.2</ele>
    </trkpt>
    <trkpt lat="42.425858" lon="-2.456802">
      <ele>429.2</ele>
    </trkpt>
    <trkpt lat="42.42303" lon="-2.45768">
      <ele>436.4</ele>
    </trkpt>
    <trkpt lat="42.422797" lon="-2.457749">
      <ele>436.5</ele>
    </trkpt>
    <trkpt lat="42.422695" lon="-2.457779">
      <ele>436.5</ele>
    </trkpt>
    <trkpt lat="42.422515" lon="-2.457898">
      <ele>436.4</ele>
    </trkpt>
    <trkpt lat="42.422512" lon="-2.457916">
      <ele>436.4</ele>
    </trkpt>
    <trkpt lat="42.422449" lon="-2.457993">
      <ele>436.4</ele>
    </trkpt>
    <trkpt lat="42.422349" lon="-2.457955">
      <ele>436.3</ele>
    </trkpt>
    <trkpt lat="42.422324" lon="-2.457832">
      <ele>436.2</ele>
    </trkpt>
    <trkpt lat="42.422337" lon="-2.45779">
      <ele>436.2</ele>
    </trkpt>
    <trkpt lat="42.422259" lon="-2.457704">
      <ele>436.1</ele>
    </trkpt>
    <trkpt lat="42.422142" lon="-2.457593">
      <ele>435.9</ele>
    </trkpt>
    <trkpt lat="42.421821" lon="-2.457244">
      <ele>435.3</ele>
    </trkpt>
    <trkpt lat="42.421205" lon="-2.456597">
      <ele>434.1</ele>
    </trkpt>
    <trkpt lat="42.420861" lon="-2.456239">
      <ele>433.9</ele>
    </trkpt>
    <trkpt lat="42.420544" lon="-2.4559">
      <ele>433.9</ele>
    </trkpt>
    <trkpt lat="42.418994" lon="-2.454257">
      <ele>434</ele>
    </trkpt>
    <trkpt lat="42.418194" lon="-2.453413">
      <ele>434.3</ele>
    </trkpt>
    <trkpt lat="42.417836" lon="-2.45303">
      <ele>434.5</ele>
    </trkpt>
    <trkpt lat="42.414959" lon="-2.450017">
      <ele>436.7</ele>
    </trkpt>
    <trkpt lat="42.414303" lon="-2.449541">
      <ele>437.4</ele>
    </trkpt>
    <trkpt lat="42.41307" lon="-2.448679">
      <ele>438.7</ele>
    </trkpt>
    <trkpt lat="42.412269" lon="-2.448191">
      <ele>439.2</ele>
    </trkpt>
    <trkpt lat="42.411341" lon="-2.447376">
      <ele>440</ele>
    </trkpt>
    <trkpt lat="42.41047" lon="-2.446612">
      <ele>441.1</ele>
    </trkpt>
    <trkpt lat="42.410394" lon="-2.446639">
      <ele>441.1</ele>
    </trkpt>
    <trkpt lat="42.409373" lon="-2.445757">
      <ele>441.1</ele>
    </trkpt>
    <trkpt lat="42.40925" lon="-2.445682">
      <ele>441</ele>
    </trkpt>
    <trkpt lat="42.408721" lon="-2.445624">
      <ele>440.6</ele>
    </trkpt>
    <trkpt lat="42.408265" lon="-2.445469">
      <ele>440.3</ele>
    </trkpt>
    <trkpt lat="42.408039" lon="-2.445336">
      <ele>440.2</ele>
    </trkpt>
    <trkpt lat="42.407449" lon="-2.44499">
      <ele>440.2</ele>
    </trkpt>
    <trkpt lat="42.407279" lon="-2.444692">
      <ele>440.2</ele>
    </trkpt>
    <trkpt lat="42.406861" lon="-2.443949">
      <ele>440.5</ele>
    </trkpt>
    <trkpt lat="42.406818" lon="-2.443871">
      <ele>440.5</ele>
    </trkpt>
    <trkpt lat="42.406695" lon="-2.443599">
      <ele>440.6</ele>
    </trkpt>
    <trkpt lat="42.406695" lon="-2.443468">
      <ele>440.6</ele>
    </trkpt>
    <trkpt lat="42.406765" lon="-2.443224">
      <ele>440.7</ele>
    </trkpt>
    <trkpt lat="42.406668" lon="-2.443292">
      <ele>440.7</ele>
    </trkpt>
    <trkpt lat="42.406544" lon="-2.443469">
      <ele>440.8</ele>
    </trkpt>
    <trkpt lat="42.406426" lon="-2.443718">
      <ele>440.8</ele>
    </trkpt>
    <trkpt lat="42.406284" lon="-2.444194">
      <ele>440.9</ele>
    </trkpt>
    <trkpt lat="42.406042" lon="-2.444667">
      <ele>441.1</ele>
    </trkpt>
    <trkpt lat="42.405898" lon="-2.444749">
      <ele>441.2</ele>
    </trkpt>
    <trkpt lat="42.405631" lon="-2.444825">
      <ele>441.4</ele>
    </trkpt>
    <trkpt lat="42.405425" lon="-2.444969">
      <ele>441.6</ele>
    </trkpt>
    <trkpt lat="42.406154" lon="-2.444875">
      <ele>441.8</ele>
    </trkpt>
    <trkpt lat="42.40619" lon="-2.44485">
      <ele>441.8</ele>
    </trkpt>
    <trkpt lat="42.406154" lon="-2.444875">
      <ele>441.8</ele>
    </trkpt>
    <trkpt lat="42.405425" lon="-2.444969">
      <ele>441.6</ele>
    </trkpt>
    <trkpt lat="42.405631" lon="-2.444825">
      <ele>441.4</ele>
    </trkpt>
    <trkpt lat="42.405898" lon="-2.444749">
      <ele>441.2</ele>
    </trkpt>
    <trkpt lat="42.406042" lon="-2.444667">
      <ele>441.1</ele>
    </trkpt>
    <trkpt lat="42.406284" lon="-2.444194">
      <ele>441</ele>
    </trkpt>
    <trkpt lat="42.406426" lon="-2.443718">
      <ele>441.1</ele>
    </trkpt>
    <trkpt lat="42.406544" lon="-2.443469">
      <ele>441.3</ele>
    </trkpt>
    <trkpt lat="42.406668" lon="-2.443292">
      <ele>441.5</ele>
    </trkpt>
    <trkpt lat="42.406765" lon="-2.443224">
      <ele>441.7</ele>
    </trkpt>
    <trkpt lat="42.406776" lon="-2.442991">
      <ele>442</ele>
    </trkpt>
    <trkpt lat="42.40668" lon="-2.442541">
      <ele>442.9</ele>
    </trkpt>
    <trkpt lat="42.40654" lon="-2.441864">
      <ele>444.6</ele>
    </trkpt>
    <trkpt lat="42.406557" lon="-2.441745">
      <ele>444.9</ele>
    </trkpt>
    <trkpt lat="42.406574" lon="-2.441632">
      <ele>445.1</ele>
    </trkpt>
    <trkpt lat="42.406532" lon="-2.441114">
      <ele>446.2</ele>
    </trkpt>
    <trkpt lat="42.406447" lon="-2.441133">
      <ele>446.4</ele>
    </trkpt>
    <trkpt lat="42.406395" lon="-2.441226">
      <ele>446.7</ele>
    </trkpt>
    <trkpt lat="42.406239" lon="-2.44125">
      <ele>447.2</ele>
    </trkpt>
    <trkpt lat="42.406092" lon="-2.441273">
      <ele>447.8</ele>
    </trkpt>
    <trkpt lat="42.405888" lon="-2.4415">
      <ele>448.7</ele>
    </trkpt>
    <trkpt lat="42.405758" lon="-2.441575">
      <ele>449.1</ele>
    </trkpt>
    <trkpt lat="42.405644" lon="-2.441324">
      <ele>449.8</ele>
    </trkpt>
    <trkpt lat="42.405593" lon="-2.44092">
      <ele>450.5</ele>
    </trkpt>
    <trkpt lat="42.405463" lon="-2.440912">
      <ele>450.8</ele>
    </trkpt>
    <trkpt lat="42.405251" lon="-2.44064">
      <ele>451.4</ele>
    </trkpt>
    <trkpt lat="42.405254" lon="-2.440538">
      <ele>451.6</ele>
    </trkpt>
    <trkpt lat="42.405125" lon="-2.440292">
      <ele>452.1</ele>
    </trkpt>
    <trkpt lat="42.405037" lon="-2.440121">
      <ele>452.4</ele>
    </trkpt>
    <trkpt lat="42.404872" lon="-2.439852">
      <ele>452.8</ele>
    </trkpt>
    <trkpt lat="42.405037" lon="-2.440121">
      <ele>453.2</ele>
    </trkpt>
    <trkpt lat="42.405125" lon="-2.440292">
      <ele>453.4</ele>
    </trkpt>
    <trkpt lat="42.404877" lon="-2.440569">
      <ele>453.9</ele>
    </trkpt>
    <trkpt lat="42.40479" lon="-2.440629">
      <ele>454.1</ele>
    </trkpt>
    <trkpt lat="42.404608" lon="-2.440651">
      <ele>454.4</ele>
    </trkpt>
    <trkpt lat="42.404483" lon="-2.440652">
      <ele>454.7</ele>
    </trkpt>
    <trkpt lat="42.404011" lon="-2.440721">
      <ele>456</ele>
    </trkpt>
    <trkpt lat="42.403754" lon="-2.440857">
      <ele>456.9</ele>
    </trkpt>
    <trkpt lat="42.402796" lon="-2.441866">
      <ele>462.1</ele>
    </trkpt>
    <trkpt lat="42.402281" lon="-2.442234">
      <ele>464.8</ele>
    </trkpt>
    <trkpt lat="42.402017" lon="-2.442461">
      <ele>466.1</ele>
    </trkpt>
    <trkpt lat="42.401645" lon="-2.442987">
      <ele>468</ele>
    </trkpt>
    <trkpt lat="42.400945" lon="-2.44394">
      <ele>470.6</ele>
    </trkpt>
    <trkpt lat="42.400552" lon="-2.444315">
      <ele>471.8</ele>
    </trkpt>
    <trkpt lat="42.399227" lon="-2.444992">
      <ele>477.3</ele>
    </trkpt>
    <trkpt lat="42.399149" lon="-2.444953">
      <ele>477.8</ele>
    </trkpt>
    <trkpt lat="42.398904" lon="-2.445032">
      <ele>479.3</ele>
    </trkpt>
    <trkpt lat="42.398765" lon="-2.445107">
      <ele>480.2</ele>
    </trkpt>
    <trkpt lat="42.398587" lon="-2.445037">
      <ele>481.5</ele>
    </trkpt>
    <trkpt lat="42.397525" lon="-2.44493">
      <ele>486.9</ele>
    </trkpt>
    <trkpt lat="42.397287" lon="-2.44493">
      <ele>487.1</ele>
    </trkpt>
    <trkpt lat="42.397282" lon="-2.444928">
      <ele>487.1</ele>
    </trkpt>
    <trkpt lat="42.397287" lon="-2.44493">
      <ele>487.1</ele>
    </trkpt>
    <trkpt lat="42.397525" lon="-2.44493">
      <ele>486.9</ele>
    </trkpt>
    <trkpt lat="42.398587" lon="-2.445037">
      <ele>481.9</ele>
    </trkpt>
    <trkpt lat="42.398765" lon="-2.445107">
      <ele>480.9</ele>
    </trkpt>
    <trkpt lat="42.398904" lon="-2.445032">
      <ele>480.3</ele>
    </trkpt>
    <trkpt lat="42.399149" lon="-2.444953">
      <ele>479.5</ele>
    </trkpt>
    <trkpt lat="42.399227" lon="-2.444992">
      <ele>479.2</ele>
    </trkpt>
    <trkpt lat="42.399026" lon="-2.445095">
      <ele>478.8</ele>
    </trkpt>
    <trkpt lat="42.39772" lon="-2.445762">
      <ele>480.1</ele>
    </trkpt>
    <trkpt lat="42.397557" lon="-2.445866">
      <ele>480.4</ele>
    </trkpt>
    <trkpt lat="42.397382" lon="-2.44605">
      <ele>480.7</ele>
    </trkpt>
    <trkpt lat="42.397229" lon="-2.446268">
      <ele>481</ele>
    </trkpt>
    <trkpt lat="42.396936" lon="-2.446774">
      <ele>481.5</ele>
    </trkpt>
    <trkpt lat="42.396089" lon="-2.448351">
      <ele>482.1</ele>
    </trkpt>
    <trkpt lat="42.395962" lon="-2.448542">
      <ele>482</ele>
    </trkpt>
    <trkpt lat="42.393864" lon="-2.450985">
      <ele>481.1</ele>
    </trkpt>
    <trkpt lat="42.392591" lon="-2.452467">
      <ele>481.9</ele>
    </trkpt>
    <trkpt lat="42.392399" lon="-2.452648">
      <ele>482.1</ele>
    </trkpt>
    <trkpt lat="42.390935" lon="-2.453689">
      <ele>483</ele>
    </trkpt>
    <trkpt lat="42.388403" lon="-2.455442">
      <ele>477.8</ele>
    </trkpt>
    <trkpt lat="42.387127" lon="-2.456096">
      <ele>476.7</ele>
    </trkpt>
    <trkpt lat="42.384691" lon="-2.457339">
      <ele>479.6</ele>
    </trkpt>
    <trkpt lat="42.384252" lon="-2.457568">
      <ele>480.7</ele>
    </trkpt>
    <trkpt lat="42.38406" lon="-2.457688">
      <ele>481.2</ele>
    </trkpt>
    <trkpt lat="42.383886" lon="-2.457838">
      <ele>481.7</ele>
    </trkpt>
    <trkpt lat="42.382519" lon="-2.45925">
      <ele>483.9</ele>
    </trkpt>
    <trkpt lat="42.382325" lon="-2.45945">
      <ele>484</ele>
    </trkpt>
    <trkpt lat="42.381284" lon="-2.460361">
      <ele>485.1</ele>
    </trkpt>
    <trkpt lat="42.381105" lon="-2.460435">
      <ele>485.5</ele>
    </trkpt>
    <trkpt lat="42.378961" lon="-2.460959">
      <ele>494.1</ele>
    </trkpt>
    <trkpt lat="42.378117" lon="-2.461099">
      <ele>497.3</ele>
    </trkpt>
    <trkpt lat="42.377746" lon="-2.461199">
      <ele>498.2</ele>
    </trkpt>
    <trkpt lat="42.375926" lon="-2.462297">
      <ele>500.3</ele>
    </trkpt>
    <trkpt lat="42.375619" lon="-2.462553">
      <ele>500.2</ele>
    </trkpt>
    <trkpt lat="42.375137" lon="-2.463097">
      <ele>499.9</ele>
    </trkpt>
    <trkpt lat="42.374767" lon="-2.463452">
      <ele>499.8</ele>
    </trkpt>
    <trkpt lat="42.374385" lon="-2.463746">
      <ele>499.7</ele>
    </trkpt>
    <trkpt lat="42.373687" lon="-2.464076">
      <ele>499.6</ele>
    </trkpt>
    <trkpt lat="42.371486" lon="-2.465117">
      <ele>499.8</ele>
    </trkpt>
    <trkpt lat="42.369745" lon="-2.465976">
      <ele>502.4</ele>
    </trkpt>
    <trkpt lat="42.367456" lon="-2.467105">
      <ele>511.2</ele>
    </trkpt>
    <trkpt lat="42.367208" lon="-2.467139">
      <ele>511.9</ele>
    </trkpt>
    <trkpt lat="42.366673" lon="-2.467197">
      <ele>513.3</ele>
    </trkpt>
    <trkpt lat="42.365868" lon="-2.467547">
      <ele>514.6</ele>
    </trkpt>
    <trkpt lat="42.364881" lon="-2.467929">
      <ele>514.6</ele>
    </trkpt>
    <trkpt lat="42.363967" lon="-2.468113">
      <ele>513.6</ele>
    </trkpt>
    <trkpt lat="42.363751" lon="-2.468215">
      <ele>513.6</ele>
    </trkpt>
    <trkpt lat="42.363527" lon="-2.468375">
      <ele>513.8</ele>
    </trkpt>
    <trkpt lat="42.363329" lon="-2.468544">
      <ele>514</ele>
    </trkpt>
    <trkpt lat="42.36314" lon="-2.468779">
      <ele>514.2</ele>
    </trkpt>
    <trkpt lat="42.362791" lon="-2.469215">
      <ele>514.7</ele>
    </trkpt>
    <trkpt lat="42.362084" lon="-2.470101">
      <ele>515.9</ele>
    </trkpt>
    <trkpt lat="42.361221" lon="-2.471018">
      <ele>517.9</ele>
    </trkpt>
    <trkpt lat="42.359951" lon="-2.472072">
      <ele>522.9</ele>
    </trkpt>
    <trkpt lat="42.358968" lon="-2.473041">
      <ele>522.4</ele>
    </trkpt>
    <trkpt lat="42.358804" lon="-2.473125">
      <ele>521.6</ele>
    </trkpt>
    <trkpt lat="42.359069" lon="-2.473765">
      <ele>518.2</ele>
    </trkpt>
    <trkpt lat="42.359519" lon="-2.474478">
      <ele>512.4</ele>
    </trkpt>
    <trkpt lat="42.359736" lon="-2.47494">
      <ele>509.3</ele>
    </trkpt>
    <trkpt lat="42.360054" lon="-2.475539">
      <ele>506.1</ele>
    </trkpt>
    <trkpt lat="42.360378" lon="-2.47618">
      <ele>503.9</ele>
    </trkpt>
    <trkpt lat="42.360591" lon="-2.476712">
      <ele>502.8</ele>
    </trkpt>
    <trkpt lat="42.360959" lon="-2.477856">
      <ele>502.1</ele>
    </trkpt>
    <trkpt lat="42.361027" lon="-2.478029">
      <ele>502.1</ele>
    </trkpt>
    <trkpt lat="42.361126" lon="-2.478225">
      <ele>502.1</ele>
    </trkpt>
    <trkpt lat="42.361307" lon="-2.478478">
      <ele>502.1</ele>
    </trkpt>
    <trkpt lat="42.361525" lon="-2.478739">
      <ele>502.2</ele>
    </trkpt>
    <trkpt lat="42.361704" lon="-2.478879">
      <ele>502.2</ele>
    </trkpt>
    <trkpt lat="42.361876" lon="-2.478956">
      <ele>502.1</ele>
    </trkpt>
    <trkpt lat="42.362133" lon="-2.478947">
      <ele>502</ele>
    </trkpt>
    <trkpt lat="42.362698" lon="-2.478815">
      <ele>502.5</ele>
    </trkpt>
    <trkpt lat="42.36299" lon="-2.478719">
      <ele>503</ele>
    </trkpt>
    <trkpt lat="42.363116" lon="-2.478647">
      <ele>503.2</ele>
    </trkpt>
    <trkpt lat="42.36317" lon="-2.478598">
      <ele>503.3</ele>
    </trkpt>
    <trkpt lat="42.363258" lon="-2.478621">
      <ele>503.4</ele>
    </trkpt>
    <trkpt lat="42.363286" lon="-2.478673">
      <ele>503.5</ele>
    </trkpt>
    <trkpt lat="42.363289" lon="-2.47877">
      <ele>503.6</ele>
    </trkpt>
    <trkpt lat="42.363421" lon="-2.479049">
      <ele>504</ele>
    </trkpt>
    <trkpt lat="42.364328" lon="-2.481104">
      <ele>505.3</ele>
    </trkpt>
    <trkpt lat="42.364561" lon="-2.481546">
      <ele>505.4</ele>
    </trkpt>
    <trkpt lat="42.364706" lon="-2.481848">
      <ele>505.6</ele>
    </trkpt>
    <trkpt lat="42.364814" lon="-2.482105">
      <ele>505.7</ele>
    </trkpt>
    <trkpt lat="42.365128" lon="-2.482958">
      <ele>506.3</ele>
    </trkpt>
    <trkpt lat="42.365779" lon="-2.484468">
      <ele>507</ele>
    </trkpt>
    <trkpt lat="42.366084" lon="-2.485094">
      <ele>506.9</ele>
    </trkpt>
    <trkpt lat="42.3673" lon="-2.487585">
      <ele>505.6</ele>
    </trkpt>
    <trkpt lat="42.367426" lon="-2.487737">
      <ele>505.4</ele>
    </trkpt>
    <trkpt lat="42.367552" lon="-2.487828">
      <ele>505.2</ele>
    </trkpt>
    <trkpt lat="42.367654" lon="-2.487857">
      <ele>505.1</ele>
    </trkpt>
    <trkpt lat="42.367847" lon="-2.487825">
      <ele>504.8</ele>
    </trkpt>
    <trkpt lat="42.369656" lon="-2.486854">
      <ele>501.1</ele>
    </trkpt>
    <trkpt lat="42.370089" lon="-2.486593">
      <ele>500.6</ele>
    </trkpt>
    <trkpt lat="42.375904" lon="-2.483547">
      <ele>494.1</ele>
    </trkpt>
    <trkpt lat="42.378427" lon="-2.482203">
      <ele>490.9</ele>
    </trkpt>
    <trkpt lat="42.380313" lon="-2.481183">
      <ele>488.3</ele>
    </trkpt>
    <trkpt lat="42.381004" lon="-2.480815">
      <ele>487.4</ele>
    </trkpt>
    <trkpt lat="42.381546" lon="-2.480526">
      <ele>486.7</ele>
    </trkpt>
    <trkpt lat="42.387929" lon="-2.477133">
      <ele>476.3</ele>
    </trkpt>
    <trkpt lat="42.388123" lon="-2.477029">
      <ele>476</ele>
    </trkpt>
    <trkpt lat="42.389565" lon="-2.4762">
      <ele>474.7</ele>
    </trkpt>
    <trkpt lat="42.389265" lon="-2.475208">
      <ele>474.2</ele>
    </trkpt>
    <trkpt lat="42.38997" lon="-2.474839">
      <ele>473.4</ele>
    </trkpt>
    <trkpt lat="42.390031" lon="-2.474807">
      <ele>473.3</ele>
    </trkpt>
    <trkpt lat="42.390111" lon="-2.474765">
      <ele>473.2</ele>
    </trkpt>
    <trkpt lat="42.390752" lon="-2.474427">
      <ele>472.1</ele>
    </trkpt>
    <trkpt lat="42.390807" lon="-2.4744">
      <ele>472</ele>
    </trkpt>
    <trkpt lat="42.390871" lon="-2.474365">
      <ele>471.9</ele>
    </trkpt>
    <trkpt lat="42.391573" lon="-2.473985">
      <ele>471.1</ele>
    </trkpt>
    <trkpt lat="42.392337" lon="-2.473588">
      <ele>470.4</ele>
    </trkpt>
    <trkpt lat="42.393271" lon="-2.473092">
      <ele>469.3</ele>
    </trkpt>
    <trkpt lat="42.393674" lon="-2.472869">
      <ele>468.9</ele>
    </trkpt>
    <trkpt lat="42.393923" lon="-2.472724">
      <ele>468.7</ele>
    </trkpt>
    <trkpt lat="42.394056" lon="-2.472659">
      <ele>468.6</ele>
    </trkpt>
    <trkpt lat="42.394198" lon="-2.47264">
      <ele>468.5</ele>
    </trkpt>
    <trkpt lat="42.394362" lon="-2.472683">
      <ele>468.5</ele>
    </trkpt>
    <trkpt lat="42.39506" lon="-2.472875">
      <ele>468.3</ele>
    </trkpt>
    <trkpt lat="42.395128" lon="-2.472985">
      <ele>468.2</ele>
    </trkpt>
    <trkpt lat="42.395187" lon="-2.47308">
      <ele>468.2</ele>
    </trkpt>
    <trkpt lat="42.395273" lon="-2.473155">
      <ele>468.1</ele>
    </trkpt>
    <trkpt lat="42.39565" lon="-2.472956">
      <ele>467.8</ele>
    </trkpt>
    <trkpt lat="42.397848" lon="-2.471831">
      <ele>464.6</ele>
    </trkpt>
    <trkpt lat="42.399127" lon="-2.471142">
      <ele>464.1</ele>
    </trkpt>
    <trkpt lat="42.402309" lon="-2.469462">
      <ele>460.7</ele>
    </trkpt>
    <trkpt lat="42.403839" lon="-2.468655">
      <ele>459.1</ele>
    </trkpt>
    <trkpt lat="42.404786" lon="-2.468155">
      <ele>458.5</ele>
    </trkpt>
    <trkpt lat="42.406194" lon="-2.467398">
      <ele>457.7</ele>
    </trkpt>
    <trkpt lat="42.40863" lon="-2.465976">
      <ele>457.6</ele>
    </trkpt>
    <trkpt lat="42.408986" lon="-2.46583">
      <ele>457.7</ele>
    </trkpt>
    <trkpt lat="42.41022" lon="-2.465383">
      <ele>457.1</ele>
    </trkpt>
    <trkpt lat="42.410751" lon="-2.465272">
      <ele>456.6</ele>
    </trkpt>
    <trkpt lat="42.411256" lon="-2.465329">
      <ele>456.6</ele>
    </trkpt>
    <trkpt lat="42.411309" lon="-2.465308">
      <ele>456.6</ele>
    </trkpt>
    <trkpt lat="42.411432" lon="-2.465328">
      <ele>456.7</ele>
    </trkpt>
    <trkpt lat="42.411457" lon="-2.465344">
      <ele>456.7</ele>
    </trkpt>
    <trkpt lat="42.411552" lon="-2.465481">
      <ele>456.8</ele>
    </trkpt>
    <trkpt lat="42.411572" lon="-2.465668">
      <ele>456.9</ele>
    </trkpt>
    <trkpt lat="42.411509" lon="-2.465835">
      <ele>457.1</ele>
    </trkpt>
    <trkpt lat="42.411386" lon="-2.465923">
      <ele>457.3</ele>
    </trkpt>
    <trkpt lat="42.411322" lon="-2.465927">
      <ele>457.4</ele>
    </trkpt>
    <trkpt lat="42.411238" lon="-2.465892">
      <ele>457.5</ele>
    </trkpt>
    <trkpt lat="42.410546" lon="-2.465817">
      <ele>458.9</ele>
    </trkpt>
    <trkpt lat="42.409942" lon="-2.465846">
      <ele>459.6</ele>
    </trkpt>
    <trkpt lat="42.409643" lon="-2.465904">
      <ele>459.7</ele>
    </trkpt>
    <trkpt lat="42.409042" lon="-2.466111">
      <ele>459.5</ele>
    </trkpt>
    <trkpt lat="42.407889" lon="-2.466591">
      <ele>458.7</ele>
    </trkpt>
    <trkpt lat="42.39991" lon="-2.470859">
      <ele>463.2</ele>
    </trkpt>
    <trkpt lat="42.396778" lon="-2.472534">
      <ele>465.6</ele>
    </trkpt>
    <trkpt lat="42.396393" lon="-2.472799">
      <ele>466.3</ele>
    </trkpt>
    <trkpt lat="42.395401" lon="-2.473355">
      <ele>467.9</ele>
    </trkpt>
    <trkpt lat="42.39479" lon="-2.473754">
      <ele>468.5</ele>
    </trkpt>
    <trkpt lat="42.394207" lon="-2.474062">
      <ele>468.9</ele>
    </trkpt>
    <trkpt lat="42.39301" lon="-2.474698">
      <ele>470</ele>
    </trkpt>
    <trkpt lat="42.392871" lon="-2.474809">
      <ele>470.1</ele>
    </trkpt>
    <trkpt lat="42.392842" lon="-2.474897">
      <ele>470.2</ele>
    </trkpt>
    <trkpt lat="42.392759" lon="-2.475002">
      <ele>470.3</ele>
    </trkpt>
    <trkpt lat="42.392687" lon="-2.475035">
      <ele>470.4</ele>
    </trkpt>
    <trkpt lat="42.392552" lon="-2.47501">
      <ele>470.5</ele>
    </trkpt>
    <trkpt lat="42.392407" lon="-2.475026">
      <ele>470.7</ele>
    </trkpt>
    <trkpt lat="42.39232" lon="-2.475066">
      <ele>470.8</ele>
    </trkpt>
    <trkpt lat="42.39117" lon="-2.475682">
      <ele>472.2</ele>
    </trkpt>
    <trkpt lat="42.39036" lon="-2.476144">
      <ele>473.4</ele>
    </trkpt>
    <trkpt lat="42.389098" lon="-2.476787">
      <ele>475.4</ele>
    </trkpt>
    <trkpt lat="42.388316" lon="-2.477169">
      <ele>476.4</ele>
    </trkpt>
    <trkpt lat="42.383832" lon="-2.479584">
      <ele>483.3</ele>
    </trkpt>
    <trkpt lat="42.381613" lon="-2.480756">
      <ele>486.9</ele>
    </trkpt>
    <trkpt lat="42.380007" lon="-2.481608">
      <ele>488.3</ele>
    </trkpt>
    <trkpt lat="42.379929" lon="-2.48165">
      <ele>488.3</ele>
    </trkpt>
    <trkpt lat="42.377082" lon="-2.483161">
      <ele>489.3</ele>
    </trkpt>
    <trkpt lat="42.37596" lon="-2.483773">
      <ele>493</ele>
    </trkpt>
    <trkpt lat="42.375446" lon="-2.48403">
      <ele>494.5</ele>
    </trkpt>
    <trkpt lat="42.372566" lon="-2.485567">
      <ele>498.3</ele>
    </trkpt>
    <trkpt lat="42.370186" lon="-2.486912">
      <ele>500.6</ele>
    </trkpt>
    <trkpt lat="42.369849" lon="-2.487061">
      <ele>500.9</ele>
    </trkpt>
    <trkpt lat="42.367998" lon="-2.488052">
      <ele>504.8</ele>
    </trkpt>
    <trkpt lat="42.367769" lon="-2.48824">
      <ele>505.4</ele>
    </trkpt>
    <trkpt lat="42.367696" lon="-2.488374">
      <ele>505.7</ele>
    </trkpt>
    <trkpt lat="42.367582" lon="-2.488437">
      <ele>505.9</ele>
    </trkpt>
    <trkpt lat="42.367486" lon="-2.488422">
      <ele>506.1</ele>
    </trkpt>
    <trkpt lat="42.367182" lon="-2.488491">
      <ele>506.8</ele>
    </trkpt>
    <trkpt lat="42.366119" lon="-2.489063">
      <ele>508.8</ele>
    </trkpt>
    <trkpt lat="42.365926" lon="-2.489183">
      <ele>509.2</ele>
    </trkpt>
    <trkpt lat="42.364593" lon="-2.489893">
      <ele>511.6</ele>
    </trkpt>
    <trkpt lat="42.363683" lon="-2.49031">
      <ele>513.4</ele>
    </trkpt>
    <trkpt lat="42.360357" lon="-2.49211">
      <ele>518.4</ele>
    </trkpt>
    <trkpt lat="42.354086" lon="-2.495462">
      <ele>528.9</ele>
    </trkpt>
    <trkpt lat="42.351686" lon="-2.496741">
      <ele>532.8</ele>
    </trkpt>
    <trkpt lat="42.350576" lon="-2.49733">
      <ele>535.4</ele>
    </trkpt>
    <trkpt lat="42.349849" lon="-2.497727">
      <ele>536.9</ele>
    </trkpt>
    <trkpt lat="42.347732" lon="-2.498843">
      <ele>541</ele>
    </trkpt>
    <trkpt lat="42.345799" lon="-2.499886">
      <ele>544.5</ele>
    </trkpt>
    <trkpt lat="42.345214" lon="-2.500246">
      <ele>545.7</ele>
    </trkpt>
    <trkpt lat="42.343583" lon="-2.501109">
      <ele>548.9</ele>
    </trkpt>
    <trkpt lat="42.342875" lon="-2.501491">
      <ele>550.4</ele>
    </trkpt>
    <trkpt lat="42.342211" lon="-2.501777">
      <ele>552.6</ele>
    </trkpt>
    <trkpt lat="42.341765" lon="-2.501926">
      <ele>554.2</ele>
    </trkpt>
    <trkpt lat="42.34129" lon="-2.502167">
      <ele>556</ele>
    </trkpt>
    <trkpt lat="42.34048" lon="-2.502599">
      <ele>558</ele>
    </trkpt>
    <trkpt lat="42.340415" lon="-2.502646">
      <ele>558</ele>
    </trkpt>
    <trkpt lat="42.340235" lon="-2.502683">
      <ele>558</ele>
    </trkpt>
    <trkpt lat="42.340187" lon="-2.502671">
      <ele>558</ele>
    </trkpt>
    <trkpt lat="42.340064" lon="-2.502549">
      <ele>558</ele>
    </trkpt>
    <trkpt lat="42.34002" lon="-2.502463">
      <ele>558</ele>
    </trkpt>
    <trkpt lat="42.339988" lon="-2.502259">
      <ele>557.9</ele>
    </trkpt>
    <trkpt lat="42.340025" lon="-2.502084">
      <ele>557.7</ele>
    </trkpt>
    <trkpt lat="42.340141" lon="-2.501926">
      <ele>557.4</ele>
    </trkpt>
    <trkpt lat="42.340301" lon="-2.501874">
      <ele>557.1</ele>
    </trkpt>
    <trkpt lat="42.340367" lon="-2.501888">
      <ele>557</ele>
    </trkpt>
    <trkpt lat="42.340488" lon="-2.501978">
      <ele>556.6</ele>
    </trkpt>
    <trkpt lat="42.340744" lon="-2.501952">
      <ele>555.9</ele>
    </trkpt>
    <trkpt lat="42.342183" lon="-2.501475">
      <ele>551.7</ele>
    </trkpt>
    <trkpt lat="42.343012" lon="-2.501108">
      <ele>549.3</ele>
    </trkpt>
    <trkpt lat="42.343199" lon="-2.501007">
      <ele>548.8</ele>
    </trkpt>
    <trkpt lat="42.343643" lon="-2.500767">
      <ele>547.7</ele>
    </trkpt>
    <trkpt lat="42.34388" lon="-2.500612">
      <ele>547.1</ele>
    </trkpt>
    <trkpt lat="42.345226" lon="-2.499892">
      <ele>544.5</ele>
    </trkpt>
    <trkpt lat="42.346349" lon="-2.499333">
      <ele>542.6</ele>
    </trkpt>
    <trkpt lat="42.351611" lon="-2.496537">
      <ele>532.1</ele>
    </trkpt>
    <trkpt lat="42.358044" lon="-2.493124">
      <ele>521</ele>
    </trkpt>
    <trkpt lat="42.360297" lon="-2.491908">
      <ele>518</ele>
    </trkpt>
    <trkpt lat="42.363217" lon="-2.490338">
      <ele>513.5</ele>
    </trkpt>
    <trkpt lat="42.363896" lon="-2.489973">
      <ele>512.4</ele>
    </trkpt>
    <trkpt lat="42.364694" lon="-2.48949">
      <ele>511.1</ele>
    </trkpt>
    <trkpt lat="42.366006" lon="-2.488812">
      <ele>509.1</ele>
    </trkpt>
    <trkpt lat="42.367186" lon="-2.48817">
      <ele>506.6</ele>
    </trkpt>
    <trkpt lat="42.36734" lon="-2.488055">
      <ele>506.2</ele>
    </trkpt>
    <trkpt lat="42.367367" lon="-2.487973">
      <ele>506.1</ele>
    </trkpt>
    <trkpt lat="42.367459" lon="-2.487859">
      <ele>505.8</ele>
    </trkpt>
    <trkpt lat="42.367552" lon="-2.487828">
      <ele>505.6</ele>
    </trkpt>
    <trkpt lat="42.367654" lon="-2.487857">
      <ele>505.4</ele>
    </trkpt>
    <trkpt lat="42.367847" lon="-2.487825">
      <ele>504.9</ele>
    </trkpt>
    <trkpt lat="42.369656" lon="-2.486854">
      <ele>501.1</ele>
    </trkpt>
    <trkpt lat="42.370089" lon="-2.486593">
      <ele>500.6</ele>
    </trkpt>
    <trkpt lat="42.375904" lon="-2.483547">
      <ele>494.1</ele>
    </trkpt>
    <trkpt lat="42.378427" lon="-2.482203">
      <ele>490.9</ele>
    </trkpt>
    <trkpt lat="42.380313" lon="-2.481183">
      <ele>488.3</ele>
    </trkpt>
    <trkpt lat="42.381004" lon="-2.480815">
      <ele>487.4</ele>
    </trkpt>
    <trkpt lat="42.381546" lon="-2.480526">
      <ele>486.7</ele>
    </trkpt>
    <trkpt lat="42.388123" lon="-2.477029">
      <ele>476</ele>
    </trkpt>
    <trkpt lat="42.389565" lon="-2.4762">
      <ele>474.7</ele>
    </trkpt>
    <trkpt lat="42.389265" lon="-2.475208">
      <ele>474.2</ele>
    </trkpt>
    <trkpt lat="42.38997" lon="-2.474839">
      <ele>473.4</ele>
    </trkpt>
    <trkpt lat="42.390031" lon="-2.474807">
      <ele>473.3</ele>
    </trkpt>
    <trkpt lat="42.390111" lon="-2.474765">
      <ele>473.2</ele>
    </trkpt>
    <trkpt lat="42.390752" lon="-2.474427">
      <ele>472.1</ele>
    </trkpt>
    <trkpt lat="42.390807" lon="-2.4744">
      <ele>472</ele>
    </trkpt>
    <trkpt lat="42.390871" lon="-2.474365">
      <ele>471.9</ele>
    </trkpt>
    <trkpt lat="42.391573" lon="-2.473985">
      <ele>471.1</ele>
    </trkpt>
    <trkpt lat="42.392337" lon="-2.473588">
      <ele>470.4</ele>
    </trkpt>
    <trkpt lat="42.393271" lon="-2.473092">
      <ele>469.3</ele>
    </trkpt>
    <trkpt lat="42.393674" lon="-2.472869">
      <ele>468.9</ele>
    </trkpt>
    <trkpt lat="42.393923" lon="-2.472724">
      <ele>468.7</ele>
    </trkpt>
    <trkpt lat="42.394056" lon="-2.472659">
      <ele>468.6</ele>
    </trkpt>
    <trkpt lat="42.394198" lon="-2.47264">
      <ele>468.5</ele>
    </trkpt>
    <trkpt lat="42.394362" lon="-2.472683">
      <ele>468.5</ele>
    </trkpt>
    <trkpt lat="42.39506" lon="-2.472875">
      <ele>468.3</ele>
    </trkpt>
    <trkpt lat="42.395128" lon="-2.472985">
      <ele>468.2</ele>
    </trkpt>
    <trkpt lat="42.395187" lon="-2.47308">
      <ele>468.2</ele>
    </trkpt>
    <trkpt lat="42.395273" lon="-2.473155">
      <ele>468.1</ele>
    </trkpt>
    <trkpt lat="42.39565" lon="-2.472956">
      <ele>467.8</ele>
    </trkpt>
    <trkpt lat="42.397848" lon="-2.471831">
      <ele>464.6</ele>
    </trkpt>
    <trkpt lat="42.399127" lon="-2.471142">
      <ele>464.1</ele>
    </trkpt>
    <trkpt lat="42.403839" lon="-2.468655">
      <ele>459.1</ele>
    </trkpt>
    <trkpt lat="42.404786" lon="-2.468155">
      <ele>458.5</ele>
    </trkpt>
    <trkpt lat="42.406194" lon="-2.467398">
      <ele>457.7</ele>
    </trkpt>
    <trkpt lat="42.40863" lon="-2.465976">
      <ele>457.6</ele>
    </trkpt>
    <trkpt lat="42.408986" lon="-2.46583">
      <ele>457.7</ele>
    </trkpt>
    <trkpt lat="42.41022" lon="-2.465383">
      <ele>457</ele>
    </trkpt>
    <trkpt lat="42.410751" lon="-2.465272">
      <ele>456</ele>
    </trkpt>
    <trkpt lat="42.411019" lon="-2.465211">
      <ele>455.3</ele>
    </trkpt>
    <trkpt lat="42.4111" lon="-2.465162">
      <ele>455.1</ele>
    </trkpt>
    <trkpt lat="42.411144" lon="-2.465136">
      <ele>455</ele>
    </trkpt>
    <trkpt lat="42.411411" lon="-2.464859">
      <ele>454.1</ele>
    </trkpt>
    <trkpt lat="42.411485" lon="-2.464717">
      <ele>453.7</ele>
    </trkpt>
    <trkpt lat="42.411654" lon="-2.464547">
      <ele>453.1</ele>
    </trkpt>
    <trkpt lat="42.413341" lon="-2.463441">
      <ele>448.5</ele>
    </trkpt>
    <trkpt lat="42.414371" lon="-2.462807">
      <ele>446.5</ele>
    </trkpt>
    <trkpt lat="42.419616" lon="-2.459493">
      <ele>440.6</ele>
    </trkpt>
    <trkpt lat="42.420399" lon="-2.458999">
      <ele>440.2</ele>
    </trkpt>
    <trkpt lat="42.42121" lon="-2.458512">
      <ele>439.7</ele>
    </trkpt>
    <trkpt lat="42.422012" lon="-2.458042">
      <ele>438.6</ele>
    </trkpt>
    <trkpt lat="42.422124" lon="-2.457994">
      <ele>438.4</ele>
    </trkpt>
    <trkpt lat="42.422168" lon="-2.457978">
      <ele>438.4</ele>
    </trkpt>
    <trkpt lat="42.422324" lon="-2.457832">
      <ele>438.1</ele>
    </trkpt>
    <trkpt lat="42.422337" lon="-2.45779">
      <ele>438</ele>
    </trkpt>
    <trkpt lat="42.422413" lon="-2.45773">
      <ele>437.9</ele>
    </trkpt>
    <trkpt lat="42.422485" lon="-2.457762">
      <ele>437.8</ele>
    </trkpt>
    <trkpt lat="42.422695" lon="-2.457779">
      <ele>437.3</ele>
    </trkpt>
    <trkpt lat="42.422797" lon="-2.457749">
      <ele>437.1</ele>
    </trkpt>
    <trkpt lat="42.42303" lon="-2.45768">
      <ele>436.6</ele>
    </trkpt>
    <trkpt lat="42.425858" lon="-2.456802">
      <ele>429.1</ele>
    </trkpt>
    <trkpt lat="42.426026" lon="-2.456716">
      <ele>428.7</ele>
    </trkpt>
    <trkpt lat="42.426921" lon="-2.456391">
      <ele>427.2</ele>
    </trkpt>
    <trkpt lat="42.426982" lon="-2.456347">
      <ele>427.1</ele>
    </trkpt>
    <trkpt lat="42.427015" lon="-2.456371">
      <ele>427.1</ele>
    </trkpt>
    <trkpt lat="42.427546" lon="-2.456217">
      <ele>426.4</ele>
    </trkpt>
    <trkpt lat="42.427925" lon="-2.456111">
      <ele>425.7</ele>
    </trkpt>
    <trkpt lat="42.428078" lon="-2.455996">
      <ele>425.5</ele>
    </trkpt>
    <trkpt lat="42.428075" lon="-2.455921">
      <ele>425.4</ele>
    </trkpt>
    <trkpt lat="42.428104" lon="-2.455837">
      <ele>425.3</ele>
    </trkpt>
    <trkpt lat="42.428194" lon="-2.455777">
      <ele>425.1</ele>
    </trkpt>
    <trkpt lat="42.428259" lon="-2.455798">
      <ele>425</ele>
    </trkpt>
    <trkpt lat="42.428308" lon="-2.455859">
      <ele>424.9</ele>
    </trkpt>
    <trkpt lat="42.428472" lon="-2.455902">
      <ele>424.7</ele>
    </trkpt>
    <trkpt lat="42.428584" lon="-2.455892">
      <ele>424.5</ele>
    </trkpt>
    <trkpt lat="42.429382" lon="-2.455684">
      <ele>423</ele>
    </trkpt>
    <trkpt lat="42.429555" lon="-2.455666">
      <ele>422.7</ele>
    </trkpt>
    <trkpt lat="42.431702" lon="-2.454996">
      <ele>418.4</ele>
    </trkpt>
    <trkpt lat="42.432539" lon="-2.454642">
      <ele>416.8</ele>
    </trkpt>
    <trkpt lat="42.432832" lon="-2.454527">
      <ele>416.6</ele>
    </trkpt>
    <trkpt lat="42.433175" lon="-2.454437">
      <ele>416.4</ele>
    </trkpt>
    <trkpt lat="42.434102" lon="-2.4543">
      <ele>416</ele>
    </trkpt>
    <trkpt lat="42.434687" lon="-2.454119">
      <ele>416</ele>
    </trkpt>
    <trkpt lat="42.435105" lon="-2.453942">
      <ele>415.7</ele>
    </trkpt>
    <trkpt lat="42.435425" lon="-2.453839">
      <ele>415.3</ele>
    </trkpt>
    <trkpt lat="42.437099" lon="-2.453339">
      <ele>412.5</ele>
    </trkpt>
    <trkpt lat="42.437294" lon="-2.45328">
      <ele>412.3</ele>
    </trkpt>
    <trkpt lat="42.437518" lon="-2.453108">
      <ele>411.9</ele>
    </trkpt>
    <trkpt lat="42.437606" lon="-2.453005">
      <ele>411.7</ele>
    </trkpt>
    <trkpt lat="42.437687" lon="-2.453003">
      <ele>411.6</ele>
    </trkpt>
    <trkpt lat="42.43775" lon="-2.453048">
      <ele>411.6</ele>
    </trkpt>
    <trkpt lat="42.437758" lon="-2.453059">
      <ele>411.5</ele>
    </trkpt>
    <trkpt lat="42.437952" lon="-2.453031">
      <ele>411.3</ele>
    </trkpt>
    <trkpt lat="42.439087" lon="-2.452681">
      <ele>410.4</ele>
    </trkpt>
    <trkpt lat="42.43961" lon="-2.45252">
      <ele>409.9</ele>
    </trkpt>
    <trkpt lat="42.4401" lon="-2.452369">
      <ele>409.4</ele>
    </trkpt>
    <trkpt lat="42.440743" lon="-2.45217">
      <ele>408.6</ele>
    </trkpt>
    <trkpt lat="42.4427" lon="-2.451567">
      <ele>406.3</ele>
    </trkpt>
    <trkpt lat="42.444166" lon="-2.451115">
      <ele>404.9</ele>
    </trkpt>
    <trkpt lat="42.444327" lon="-2.451065">
      <ele>404.7</ele>
    </trkpt>
    <trkpt lat="42.444588" lon="-2.45097">
      <ele>404.4</ele>
    </trkpt>
    <trkpt lat="42.444627" lon="-2.45092">
      <ele>404.3</ele>
    </trkpt>
    <trkpt lat="42.444719" lon="-2.450902">
      <ele>404.2</ele>
    </trkpt>
    <trkpt lat="42.444776" lon="-2.450943">
      <ele>404.2</ele>
    </trkpt>
    <trkpt lat="42.445393" lon="-2.450743">
      <ele>403.3</ele>
    </trkpt>
    <trkpt lat="42.446304" lon="-2.450472">
      <ele>402.3</ele>
    </trkpt>
    <trkpt lat="42.446933" lon="-2.450284">
      <ele>401.7</ele>
    </trkpt>
    <trkpt lat="42.447343" lon="-2.450162">
      <ele>401.3</ele>
    </trkpt>
    <trkpt lat="42.447431" lon="-2.450136">
      <ele>401.2</ele>
    </trkpt>
    <trkpt lat="42.448128" lon="-2.449929">
      <ele>400.5</ele>
    </trkpt>
    <trkpt lat="42.448543" lon="-2.449831">
      <ele>400</ele>
    </trkpt>
    <trkpt lat="42.448609" lon="-2.449809">
      <ele>400</ele>
    </trkpt>
    <trkpt lat="42.448665" lon="-2.449792">
      <ele>399.9</ele>
    </trkpt>
    <trkpt lat="42.448841" lon="-2.449721">
      <ele>399.7</ele>
    </trkpt>
    <trkpt lat="42.449355" lon="-2.449549">
      <ele>399</ele>
    </trkpt>
    <trkpt lat="42.449844" lon="-2.449412">
      <ele>398.4</ele>
    </trkpt>
    <trkpt lat="42.450055" lon="-2.449353">
      <ele>398.1</ele>
    </trkpt>
    <trkpt lat="42.450803" lon="-2.449143">
      <ele>397.6</ele>
    </trkpt>
    <trkpt lat="42.451131" lon="-2.449047">
      <ele>397.4</ele>
    </trkpt>
    <trkpt lat="42.451586" lon="-2.448914">
      <ele>397.1</ele>
    </trkpt>
    <trkpt lat="42.451709" lon="-2.448879">
      <ele>397</ele>
    </trkpt>
    <trkpt lat="42.452663" lon="-2.448601">
      <ele>396</ele>
    </trkpt>
    <trkpt lat="42.45294" lon="-2.448519">
      <ele>395.6</ele>
    </trkpt>
    <trkpt lat="42.453168" lon="-2.448451">
      <ele>395.2</ele>
    </trkpt>
    <trkpt lat="42.453287" lon="-2.448381">
      <ele>395.1</ele>
    </trkpt>
    <trkpt lat="42.453352" lon="-2.44817">
      <ele>394.9</ele>
    </trkpt>
    <trkpt lat="42.453467" lon="-2.448057">
      <ele>394.7</ele>
    </trkpt>
    <trkpt lat="42.453536" lon="-2.448034">
      <ele>394.6</ele>
    </trkpt>
    <trkpt lat="42.453677" lon="-2.448059">
      <ele>394.5</ele>
    </trkpt>
    <trkpt lat="42.453764" lon="-2.448131">
      <ele>394.4</ele>
    </trkpt>
    <trkpt lat="42.453781" lon="-2.448154">
      <ele>394.4</ele>
    </trkpt>
    <trkpt lat="42.453965" lon="-2.448189">
      <ele>394.3</ele>
    </trkpt>
    <trkpt lat="42.454132" lon="-2.448148">
      <ele>394.2</ele>
    </trkpt>
    <trkpt lat="42.455332" lon="-2.447806">
      <ele>393.7</ele>
    </trkpt>
    <trkpt lat="42.455673" lon="-2.447716">
      <ele>393.6</ele>
    </trkpt>
    <trkpt lat="42.45581" lon="-2.447675">
      <ele>393.5</ele>
    </trkpt>
    <trkpt lat="42.455948" lon="-2.44764">
      <ele>393.4</ele>
    </trkpt>
    <trkpt lat="42.456614" lon="-2.447457">
      <ele>392.5</ele>
    </trkpt>
    <trkpt lat="42.457529" lon="-2.447086">
      <ele>390.4</ele>
    </trkpt>
    <trkpt lat="42.457484" lon="-2.446899">
      <ele>390</ele>
    </trkpt>
    <trkpt lat="42.457165" lon="-2.445417">
      <ele>387.5</ele>
    </trkpt>
    <trkpt lat="42.457125" lon="-2.44523">
      <ele>387.3</ele>
    </trkpt>
    <trkpt lat="42.457198" lon="-2.4452">
      <ele>387.2</ele>
    </trkpt>
    <trkpt lat="42.457393" lon="-2.445118">
      <ele>386.9</ele>
    </trkpt>
    <trkpt lat="42.457782" lon="-2.444958">
      <ele>386.5</ele>
    </trkpt>
    <trkpt lat="42.457873" lon="-2.444857">
      <ele>386.4</ele>
    </trkpt>
    <trkpt lat="42.457911" lon="-2.44476">
      <ele>386.4</ele>
    </trkpt>
    <trkpt lat="42.457954" lon="-2.444671">
      <ele>386.3</ele>
    </trkpt>
    <trkpt lat="42.45802" lon="-2.444621">
      <ele>386.3</ele>
    </trkpt>
    <trkpt lat="42.458089" lon="-2.444476">
      <ele>386.2</ele>
    </trkpt>
    <trkpt lat="42.45813" lon="-2.444344">
      <ele>386.2</ele>
    </trkpt>
    <trkpt lat="42.458269" lon="-2.443756">
      <ele>386.1</ele>
    </trkpt>
    <trkpt lat="42.458317" lon="-2.443503">
      <ele>386</ele>
    </trkpt>
    <trkpt lat="42.458335" lon="-2.443378">
      <ele>386</ele>
    </trkpt>
    <trkpt lat="42.458351" lon="-2.443068">
      <ele>386</ele>
    </trkpt>
    <trkpt lat="42.458353" lon="-2.443041">
      <ele>386</ele>
    </trkpt>
    <trkpt lat="42.458391" lon="-2.442236">
      <ele>386.4</ele>
    </trkpt>
    <trkpt lat="42.458385" lon="-2.442118">
      <ele>386.4</ele>
    </trkpt>
    <trkpt lat="42.45832" lon="-2.441959">
      <ele>386.5</ele>
    </trkpt>
    <trkpt lat="42.458242" lon="-2.44184">
      <ele>386.5</ele>
    </trkpt>
    <trkpt lat="42.458244" lon="-2.441736">
      <ele>386.6</ele>
    </trkpt>
    <trkpt lat="42.458294" lon="-2.44164">
      <ele>386.6</ele>
    </trkpt>
    <trkpt lat="42.458336" lon="-2.441608">
      <ele>386.6</ele>
    </trkpt>
    <trkpt lat="42.458376" lon="-2.441499">
      <ele>386.6</ele>
    </trkpt>
    <trkpt lat="42.458393" lon="-2.441327">
      <ele>386.6</ele>
    </trkpt>
    <trkpt lat="42.458469" lon="-2.440136">
      <ele>386.7</ele>
    </trkpt>
    <trkpt lat="42.458487" lon="-2.439843">
      <ele>386.6</ele>
    </trkpt>
    <trkpt lat="42.458495" lon="-2.439704">
      <ele>386.6</ele>
    </trkpt>
    <trkpt lat="42.458487" lon="-2.439843">
      <ele>386.5</ele>
    </trkpt>
    <trkpt lat="42.458446" lon="-2.439846">
      <ele>386.5</ele>
    </trkpt>
    <trkpt lat="42.458156" lon="-2.439981">
      <ele>386.4</ele>
    </trkpt>
    <trkpt lat="42.458104" lon="-2.439962">
      <ele>386.4</ele>
    </trkpt>
    <trkpt lat="42.458051" lon="-2.439942">
      <ele>386.4</ele>
    </trkpt>
    <trkpt lat="42.457987" lon="-2.440575">
      <ele>386.4</ele>
    </trkpt>
    <trkpt lat="42.457825" lon="-2.440755">
      <ele>386.4</ele>
    </trkpt>
    <trkpt lat="42.457818" lon="-2.440829">
      <ele>386.5</ele>
    </trkpt>
    <trkpt lat="42.457716" lon="-2.440949">
      <ele>386.5</ele>
    </trkpt>
    </trkseg>
  </trk>
</gpx>
