<?xml version="1.0" encoding="UTF-8"?>
<gpx version="1.1" creator="fitAI Komoot downloader" xmlns="http://www.topografix.com/GPX/1/1">
  <metadata>
    <name>San Pedro Manrique y Fuentes de Magaña - Recorrido circular desde San Pedro Manrique</name>
    <desc>36 visitas · Dificultad: moderate · Distancia: 36.5 km · Desnivel +: 847 m</desc>
    <link href="https://www.komoot.com/smarttour/e31440138"><text>Komoot</text></link>
  </metadata>
  <trk>
    <name>San Pedro Manrique y Fuentes de Magaña - Recorrido circular desde San Pedro Manrique</name>
    <type>mtb</type>
    <trkseg>
    <trkpt lat="42.0292" lon="-2.229624">
      <ele>1071</ele>
    </trkpt>
    <trkpt lat="42.029202" lon="-2.229656">
      <ele>1071.1</ele>
    </trkpt>
    <trkpt lat="42.029189" lon="-2.230075">
      <ele>1072.1</ele>
    </trkpt>
    <trkpt lat="42.029241" lon="-2.230356">
      <ele>1072.9</ele>
    </trkpt>
    <trkpt lat="42.029216" lon="-2.230773">
      <ele>1073.7</ele>
    </trkpt>
    <trkpt lat="42.029385" lon="-2.230781">
      <ele>1074</ele>
    </trkpt>
    <trkpt lat="42.029487" lon="-2.230901">
      <ele>1074.2</ele>
    </trkpt>
    <trkpt lat="42.029564" lon="-2.230922">
      <ele>1074.3</ele>
    </trkpt>
    <trkpt lat="42.029735" lon="-2.23101">
      <ele>1074.2</ele>
    </trkpt>
    <trkpt lat="42.029967" lon="-2.231157">
      <ele>1073.7</ele>
    </trkpt>
    <trkpt lat="42.030252" lon="-2.231508">
      <ele>1072.5</ele>
    </trkpt>
    <trkpt lat="42.030561" lon="-2.23182">
      <ele>1071.7</ele>
    </trkpt>
    <trkpt lat="42.030604" lon="-2.23182">
      <ele>1071.7</ele>
    </trkpt>
    <trkpt lat="42.030722" lon="-2.231807">
      <ele>1071.5</ele>
    </trkpt>
    <trkpt lat="42.030794" lon="-2.231837">
      <ele>1071.4</ele>
    </trkpt>
    <trkpt lat="42.030978" lon="-2.231897">
      <ele>1071.3</ele>
    </trkpt>
    <trkpt lat="42.030794" lon="-2.231837">
      <ele>1071.4</ele>
    </trkpt>
    <trkpt lat="42.030722" lon="-2.231807">
      <ele>1071.5</ele>
    </trkpt>
    <trkpt lat="42.030604" lon="-2.23182">
      <ele>1071.7</ele>
    </trkpt>
    <trkpt lat="42.030561" lon="-2.23182">
      <ele>1071.7</ele>
    </trkpt>
    <trkpt lat="42.030252" lon="-2.231508">
      <ele>1072.5</ele>
    </trkpt>
    <trkpt lat="42.029967" lon="-2.231157">
      <ele>1073.9</ele>
    </trkpt>
    <trkpt lat="42.029735" lon="-2.23101">
      <ele>1074.9</ele>
    </trkpt>
    <trkpt lat="42.029564" lon="-2.230922">
      <ele>1075.5</ele>
    </trkpt>
    <trkpt lat="42.029487" lon="-2.230901">
      <ele>1075.7</ele>
    </trkpt>
    <trkpt lat="42.029385" lon="-2.230781">
      <ele>1076.1</ele>
    </trkpt>
    <trkpt lat="42.029216" lon="-2.230773">
      <ele>1076.5</ele>
    </trkpt>
    <trkpt lat="42.029135" lon="-2.23116">
      <ele>1077.2</ele>
    </trkpt>
    <trkpt lat="42.029166" lon="-2.231229">
      <ele>1077.3</ele>
    </trkpt>
    <trkpt lat="42.02915" lon="-2.231307">
      <ele>1077.4</ele>
    </trkpt>
    <trkpt lat="42.029067" lon="-2.231337">
      <ele>1077.6</ele>
    </trkpt>
    <trkpt lat="42.029024" lon="-2.231283">
      <ele>1077.8</ele>
    </trkpt>
    <trkpt lat="42.028988" lon="-2.231306">
      <ele>1077.9</ele>
    </trkpt>
    <trkpt lat="42.028163" lon="-2.23162">
      <ele>1081.5</ele>
    </trkpt>
    <trkpt lat="42.027886" lon="-2.231726">
      <ele>1082.8</ele>
    </trkpt>
    <trkpt lat="42.027825" lon="-2.231749">
      <ele>1083.1</ele>
    </trkpt>
    <trkpt lat="42.027602" lon="-2.231835">
      <ele>1084.1</ele>
    </trkpt>
    <trkpt lat="42.027175" lon="-2.231974">
      <ele>1086</ele>
    </trkpt>
    <trkpt lat="42.026997" lon="-2.231993">
      <ele>1086.7</ele>
    </trkpt>
    <trkpt lat="42.02648" lon="-2.2319">
      <ele>1088.4</ele>
    </trkpt>
    <trkpt lat="42.026424" lon="-2.232006">
      <ele>1088.7</ele>
    </trkpt>
    <trkpt lat="42.024931" lon="-2.231771">
      <ele>1094.3</ele>
    </trkpt>
    <trkpt lat="42.024239" lon="-2.231724">
      <ele>1096.7</ele>
    </trkpt>
    <trkpt lat="42.02377" lon="-2.231841">
      <ele>1097.4</ele>
    </trkpt>
    <trkpt lat="42.023644" lon="-2.231932">
      <ele>1097.3</ele>
    </trkpt>
    <trkpt lat="42.0237" lon="-2.232098">
      <ele>1097.2</ele>
    </trkpt>
    <trkpt lat="42.023591" lon="-2.231983">
      <ele>1097</ele>
    </trkpt>
    <trkpt lat="42.023451" lon="-2.232006">
      <ele>1096.7</ele>
    </trkpt>
    <trkpt lat="42.02303" lon="-2.232278">
      <ele>1095.3</ele>
    </trkpt>
    <trkpt lat="42.022731" lon="-2.232556">
      <ele>1093.8</ele>
    </trkpt>
    <trkpt lat="42.022806" lon="-2.232753">
      <ele>1093.1</ele>
    </trkpt>
    <trkpt lat="42.022916" lon="-2.233232">
      <ele>1091.5</ele>
    </trkpt>
    <trkpt lat="42.022928" lon="-2.233507">
      <ele>1090.8</ele>
    </trkpt>
    <trkpt lat="42.022882" lon="-2.234582">
      <ele>1089.4</ele>
    </trkpt>
    <trkpt lat="42.022785" lon="-2.236367">
      <ele>1089.9</ele>
    </trkpt>
    <trkpt lat="42.022737" lon="-2.236711">
      <ele>1090.6</ele>
    </trkpt>
    <trkpt lat="42.022658" lon="-2.236973">
      <ele>1091.2</ele>
    </trkpt>
    <trkpt lat="42.022556" lon="-2.237193">
      <ele>1092</ele>
    </trkpt>
    <trkpt lat="42.022448" lon="-2.23732">
      <ele>1092.6</ele>
    </trkpt>
    <trkpt lat="42.02231" lon="-2.237434">
      <ele>1093.4</ele>
    </trkpt>
    <trkpt lat="42.022145" lon="-2.237517">
      <ele>1094.4</ele>
    </trkpt>
    <trkpt lat="42.02178" lon="-2.237547">
      <ele>1096.8</ele>
    </trkpt>
    <trkpt lat="42.021271" lon="-2.237506">
      <ele>1100.8</ele>
    </trkpt>
    <trkpt lat="42.020939" lon="-2.237587">
      <ele>1103.7</ele>
    </trkpt>
    <trkpt lat="42.02064" lon="-2.237829">
      <ele>1106.7</ele>
    </trkpt>
    <trkpt lat="42.020474" lon="-2.238104">
      <ele>1109</ele>
    </trkpt>
    <trkpt lat="42.020388" lon="-2.238328">
      <ele>1110.6</ele>
    </trkpt>
    <trkpt lat="42.020339" lon="-2.238575">
      <ele>1112.2</ele>
    </trkpt>
    <trkpt lat="42.020339" lon="-2.238911">
      <ele>1114.4</ele>
    </trkpt>
    <trkpt lat="42.020439" lon="-2.239697">
      <ele>1119.3</ele>
    </trkpt>
    <trkpt lat="42.020453" lon="-2.240042">
      <ele>1121.4</ele>
    </trkpt>
    <trkpt lat="42.020389" lon="-2.240505">
      <ele>1124.2</ele>
    </trkpt>
    <trkpt lat="42.02024" lon="-2.240804">
      <ele>1126.3</ele>
    </trkpt>
    <trkpt lat="42.020058" lon="-2.241047">
      <ele>1128.3</ele>
    </trkpt>
    <trkpt lat="42.019255" lon="-2.241863">
      <ele>1134.8</ele>
    </trkpt>
    <trkpt lat="42.018946" lon="-2.242312">
      <ele>1137</ele>
    </trkpt>
    <trkpt lat="42.017562" lon="-2.245865">
      <ele>1145.1</ele>
    </trkpt>
    <trkpt lat="42.017458" lon="-2.246242">
      <ele>1145.7</ele>
    </trkpt>
    <trkpt lat="42.017416" lon="-2.24679">
      <ele>1146.6</ele>
    </trkpt>
    <trkpt lat="42.01737" lon="-2.248111">
      <ele>1148.6</ele>
    </trkpt>
    <trkpt lat="42.017265" lon="-2.251186">
      <ele>1153.1</ele>
    </trkpt>
    <trkpt lat="42.017218" lon="-2.251762">
      <ele>1154</ele>
    </trkpt>
    <trkpt lat="42.017041" lon="-2.25315">
      <ele>1156.7</ele>
    </trkpt>
    <trkpt lat="42.01703" lon="-2.253786">
      <ele>1158.4</ele>
    </trkpt>
    <trkpt lat="42.017118" lon="-2.254252">
      <ele>1159.8</ele>
    </trkpt>
    <trkpt lat="42.017233" lon="-2.254532">
      <ele>1160.8</ele>
    </trkpt>
    <trkpt lat="42.017354" lon="-2.254727">
      <ele>1161.6</ele>
    </trkpt>
    <trkpt lat="42.0177" lon="-2.255124">
      <ele>1163.8</ele>
    </trkpt>
    <trkpt lat="42.017863" lon="-2.255452">
      <ele>1165.2</ele>
    </trkpt>
    <trkpt lat="42.01788" lon="-2.255631">
      <ele>1165.8</ele>
    </trkpt>
    <trkpt lat="42.017861" lon="-2.256017">
      <ele>1167.3</ele>
    </trkpt>
    <trkpt lat="42.017735" lon="-2.256626">
      <ele>1169.5</ele>
    </trkpt>
    <trkpt lat="42.017545" lon="-2.257309">
      <ele>1171.6</ele>
    </trkpt>
    <trkpt lat="42.017518" lon="-2.257736">
      <ele>1172.7</ele>
    </trkpt>
    <trkpt lat="42.017564" lon="-2.258057">
      <ele>1173.3</ele>
    </trkpt>
    <trkpt lat="42.018263" lon="-2.260294">
      <ele>1175.4</ele>
    </trkpt>
    <trkpt lat="42.018495" lon="-2.261008">
      <ele>1176.2</ele>
    </trkpt>
    <trkpt lat="42.018685" lon="-2.261762">
      <ele>1177.2</ele>
    </trkpt>
    <trkpt lat="42.018855" lon="-2.262607">
      <ele>1178.1</ele>
    </trkpt>
    <trkpt lat="42.019857" lon="-2.268214">
      <ele>1181.1</ele>
    </trkpt>
    <trkpt lat="42.019999" lon="-2.26882">
      <ele>1180.7</ele>
    </trkpt>
    <trkpt lat="42.02019" lon="-2.269348">
      <ele>1180.4</ele>
    </trkpt>
    <trkpt lat="42.019895" lon="-2.269491">
      <ele>1180.2</ele>
    </trkpt>
    <trkpt lat="42.01983" lon="-2.269503">
      <ele>1180.2</ele>
    </trkpt>
    <trkpt lat="42.019661" lon="-2.269532">
      <ele>1180.2</ele>
    </trkpt>
    <trkpt lat="42.01761" lon="-2.269555">
      <ele>1181.7</ele>
    </trkpt>
    <trkpt lat="42.017503" lon="-2.26955">
      <ele>1181.6</ele>
    </trkpt>
    <trkpt lat="42.017409" lon="-2.269495">
      <ele>1181.5</ele>
    </trkpt>
    <trkpt lat="42.016326" lon="-2.268613">
      <ele>1178.1</ele>
    </trkpt>
    <trkpt lat="42.016128" lon="-2.268411">
      <ele>1176.9</ele>
    </trkpt>
    <trkpt lat="42.016082" lon="-2.268537">
      <ele>1176.4</ele>
    </trkpt>
    <trkpt lat="42.016058" lon="-2.268977">
      <ele>1174.5</ele>
    </trkpt>
    <trkpt lat="42.015982" lon="-2.269154">
      <ele>1173.4</ele>
    </trkpt>
    <trkpt lat="42.015823" lon="-2.269428">
      <ele>1171.4</ele>
    </trkpt>
    <trkpt lat="42.015712" lon="-2.269459">
      <ele>1170.4</ele>
    </trkpt>
    <trkpt lat="42.015684" lon="-2.269412">
      <ele>1170</ele>
    </trkpt>
    <trkpt lat="42.015408" lon="-2.26895">
      <ele>1165.9</ele>
    </trkpt>
    <trkpt lat="42.01512" lon="-2.268639">
      <ele>1162.2</ele>
    </trkpt>
    <trkpt lat="42.015009" lon="-2.268459">
      <ele>1160.5</ele>
    </trkpt>
    <trkpt lat="42.01494" lon="-2.268417">
      <ele>1159.7</ele>
    </trkpt>
    <trkpt lat="42.014823" lon="-2.268401">
      <ele>1158.6</ele>
    </trkpt>
    <trkpt lat="42.014597" lon="-2.267862">
      <ele>1154.9</ele>
    </trkpt>
    <trkpt lat="42.014528" lon="-2.267762">
      <ele>1154.2</ele>
    </trkpt>
    <trkpt lat="42.014299" lon="-2.267539">
      <ele>1152.8</ele>
    </trkpt>
    <trkpt lat="42.014193" lon="-2.267331">
      <ele>1152.1</ele>
    </trkpt>
    <trkpt lat="42.013804" lon="-2.266857">
      <ele>1150.9</ele>
    </trkpt>
    <trkpt lat="42.01369" lon="-2.266673">
      <ele>1150.6</ele>
    </trkpt>
    <trkpt lat="42.013634" lon="-2.266509">
      <ele>1150.3</ele>
    </trkpt>
    <trkpt lat="42.013461" lon="-2.26618">
      <ele>1149.6</ele>
    </trkpt>
    <trkpt lat="42.013327" lon="-2.26608">
      <ele>1149.1</ele>
    </trkpt>
    <trkpt lat="42.013097" lon="-2.266111">
      <ele>1148.1</ele>
    </trkpt>
    <trkpt lat="42.01313" lon="-2.266487">
      <ele>1146.4</ele>
    </trkpt>
    <trkpt lat="42.01326" lon="-2.267028">
      <ele>1143.4</ele>
    </trkpt>
    <trkpt lat="42.013229" lon="-2.267144">
      <ele>1142.6</ele>
    </trkpt>
    <trkpt lat="42.013132" lon="-2.267218">
      <ele>1141.7</ele>
    </trkpt>
    <trkpt lat="42.012994" lon="-2.267233">
      <ele>1140.6</ele>
    </trkpt>
    <trkpt lat="42.012868" lon="-2.267211">
      <ele>1139.7</ele>
    </trkpt>
    <trkpt lat="42.012757" lon="-2.267146">
      <ele>1138.8</ele>
    </trkpt>
    <trkpt lat="42.012684" lon="-2.267215">
      <ele>1138</ele>
    </trkpt>
    <trkpt lat="42.012706" lon="-2.267254">
      <ele>1137.8</ele>
    </trkpt>
    <trkpt lat="42.012729" lon="-2.267423">
      <ele>1136.9</ele>
    </trkpt>
    <trkpt lat="42.012813" lon="-2.267844">
      <ele>1134.9</ele>
    </trkpt>
    <trkpt lat="42.01303" lon="-2.268559">
      <ele>1133</ele>
    </trkpt>
    <trkpt lat="42.013045" lon="-2.26873">
      <ele>1133.1</ele>
    </trkpt>
    <trkpt lat="42.012988" lon="-2.268856">
      <ele>1133.1</ele>
    </trkpt>
    <trkpt lat="42.012958" lon="-2.269128">
      <ele>1133</ele>
    </trkpt>
    <trkpt lat="42.012955" lon="-2.269161">
      <ele>1132.9</ele>
    </trkpt>
    <trkpt lat="42.012955" lon="-2.269612">
      <ele>1133</ele>
    </trkpt>
    <trkpt lat="42.012974" lon="-2.26969">
      <ele>1133</ele>
    </trkpt>
    <trkpt lat="42.013021" lon="-2.269881">
      <ele>1133.1</ele>
    </trkpt>
    <trkpt lat="42.013139" lon="-2.270072">
      <ele>1133.2</ele>
    </trkpt>
    <trkpt lat="42.013194" lon="-2.270207">
      <ele>1133.4</ele>
    </trkpt>
    <trkpt lat="42.013244" lon="-2.270042">
      <ele>1133.5</ele>
    </trkpt>
    <trkpt lat="42.013362" lon="-2.269934">
      <ele>1133.7</ele>
    </trkpt>
    <trkpt lat="42.013919" lon="-2.269623">
      <ele>1134.9</ele>
    </trkpt>
    <trkpt lat="42.013944" lon="-2.269509">
      <ele>1135.2</ele>
    </trkpt>
    <trkpt lat="42.013868" lon="-2.269401">
      <ele>1135.5</ele>
    </trkpt>
    <trkpt lat="42.013813" lon="-2.268817">
      <ele>1137.2</ele>
    </trkpt>
    <trkpt lat="42.013733" lon="-2.268432">
      <ele>1138.7</ele>
    </trkpt>
    <trkpt lat="42.01372" lon="-2.268392">
      <ele>1138.8</ele>
    </trkpt>
    <trkpt lat="42.013611" lon="-2.268052">
      <ele>1140.4</ele>
    </trkpt>
    <trkpt lat="42.013586" lon="-2.267819">
      <ele>1141.5</ele>
    </trkpt>
    <trkpt lat="42.0134" lon="-2.267315">
      <ele>1144.1</ele>
    </trkpt>
    <trkpt lat="42.01326" lon="-2.267028">
      <ele>1145.5</ele>
    </trkpt>
    <trkpt lat="42.01313" lon="-2.266487">
      <ele>1147.6</ele>
    </trkpt>
    <trkpt lat="42.013097" lon="-2.266111">
      <ele>1149</ele>
    </trkpt>
    <trkpt lat="42.013103" lon="-2.265796">
      <ele>1149.9</ele>
    </trkpt>
    <trkpt lat="42.01324" lon="-2.265093">
      <ele>1151.6</ele>
    </trkpt>
    <trkpt lat="42.013405" lon="-2.264967">
      <ele>1152.2</ele>
    </trkpt>
    <trkpt lat="42.013423" lon="-2.264877">
      <ele>1152.5</ele>
    </trkpt>
    <trkpt lat="42.012873" lon="-2.264766">
      <ele>1154.2</ele>
    </trkpt>
    <trkpt lat="42.012862" lon="-2.264789">
      <ele>1154.2</ele>
    </trkpt>
    <trkpt lat="42.012946" lon="-2.2642">
      <ele>1154.7</ele>
    </trkpt>
    <trkpt lat="42.012922" lon="-2.26382">
      <ele>1154.4</ele>
    </trkpt>
    <trkpt lat="42.01292" lon="-2.263776">
      <ele>1154.3</ele>
    </trkpt>
    <trkpt lat="42.012922" lon="-2.26382">
      <ele>1154.3</ele>
    </trkpt>
    <trkpt lat="42.012946" lon="-2.2642">
      <ele>1153.7</ele>
    </trkpt>
    <trkpt lat="42.012862" lon="-2.264789">
      <ele>1152</ele>
    </trkpt>
    <trkpt lat="42.012838" lon="-2.264869">
      <ele>1151.6</ele>
    </trkpt>
    <trkpt lat="42.011891" lon="-2.265346">
      <ele>1144.5</ele>
    </trkpt>
    <trkpt lat="42.01147" lon="-2.265471">
      <ele>1142.1</ele>
    </trkpt>
    <trkpt lat="42.011359" lon="-2.265418">
      <ele>1141.6</ele>
    </trkpt>
    <trkpt lat="42.01127" lon="-2.265322">
      <ele>1141.1</ele>
    </trkpt>
    <trkpt lat="42.010945" lon="-2.264707">
      <ele>1139.5</ele>
    </trkpt>
    <trkpt lat="42.0101" lon="-2.263272">
      <ele>1138.8</ele>
    </trkpt>
    <trkpt lat="42.009311" lon="-2.261505">
      <ele>1138.5</ele>
    </trkpt>
    <trkpt lat="42.009089" lon="-2.261063">
      <ele>1138.8</ele>
    </trkpt>
    <trkpt lat="42.008676" lon="-2.260103">
      <ele>1140</ele>
    </trkpt>
    <trkpt lat="42.008594" lon="-2.259632">
      <ele>1140.8</ele>
    </trkpt>
    <trkpt lat="42.008523" lon="-2.258917">
      <ele>1141.9</ele>
    </trkpt>
    <trkpt lat="42.008352" lon="-2.257995">
      <ele>1142.7</ele>
    </trkpt>
    <trkpt lat="42.008266" lon="-2.257621">
      <ele>1142.8</ele>
    </trkpt>
    <trkpt lat="42.007956" lon="-2.256732">
      <ele>1142.4</ele>
    </trkpt>
    <trkpt lat="42.007385" lon="-2.254356">
      <ele>1139</ele>
    </trkpt>
    <trkpt lat="42.007367" lon="-2.253861">
      <ele>1137.7</ele>
    </trkpt>
    <trkpt lat="42.007342" lon="-2.253722">
      <ele>1137.2</ele>
    </trkpt>
    <trkpt lat="42.007131" lon="-2.253266">
      <ele>1135.4</ele>
    </trkpt>
    <trkpt lat="42.007024" lon="-2.252786">
      <ele>1133.5</ele>
    </trkpt>
    <trkpt lat="42.006921" lon="-2.252469">
      <ele>1132</ele>
    </trkpt>
    <trkpt lat="42.006821" lon="-2.251917">
      <ele>1129.7</ele>
    </trkpt>
    <trkpt lat="42.006575" lon="-2.251326">
      <ele>1127.1</ele>
    </trkpt>
    <trkpt lat="42.006436" lon="-2.250851">
      <ele>1125.3</ele>
    </trkpt>
    <trkpt lat="42.006332" lon="-2.250371">
      <ele>1123.4</ele>
    </trkpt>
    <trkpt lat="42.006175" lon="-2.250039">
      <ele>1121.8</ele>
    </trkpt>
    <trkpt lat="42.006143" lon="-2.2499">
      <ele>1121.1</ele>
    </trkpt>
    <trkpt lat="42.006172" lon="-2.249641">
      <ele>1120</ele>
    </trkpt>
    <trkpt lat="42.006154" lon="-2.248757">
      <ele>1115.4</ele>
    </trkpt>
    <trkpt lat="42.006125" lon="-2.248378">
      <ele>1113.2</ele>
    </trkpt>
    <trkpt lat="42.006" lon="-2.247639">
      <ele>1108.6</ele>
    </trkpt>
    <trkpt lat="42.005879" lon="-2.247259">
      <ele>1106.2</ele>
    </trkpt>
    <trkpt lat="42.005786" lon="-2.246856">
      <ele>1103.7</ele>
    </trkpt>
    <trkpt lat="42.005769" lon="-2.246064">
      <ele>1100</ele>
    </trkpt>
    <trkpt lat="42.005699" lon="-2.245919">
      <ele>1099.4</ele>
    </trkpt>
    <trkpt lat="42.005658" lon="-2.24579">
      <ele>1099</ele>
    </trkpt>
    <trkpt lat="42.005672" lon="-2.24556">
      <ele>1098.5</ele>
    </trkpt>
    <trkpt lat="42.00564" lon="-2.24531">
      <ele>1097.9</ele>
    </trkpt>
    <trkpt lat="42.005052" lon="-2.244984">
      <ele>1097.4</ele>
    </trkpt>
    <trkpt lat="42.004813" lon="-2.244976">
      <ele>1097.6</ele>
    </trkpt>
    <trkpt lat="42.004863" lon="-2.244762">
      <ele>1097.8</ele>
    </trkpt>
    <trkpt lat="42.004889" lon="-2.244601">
      <ele>1098</ele>
    </trkpt>
    <trkpt lat="42.004902" lon="-2.244291">
      <ele>1098.3</ele>
    </trkpt>
    <trkpt lat="42.004943" lon="-2.244116">
      <ele>1098.5</ele>
    </trkpt>
    <trkpt lat="42.004987" lon="-2.244012">
      <ele>1098.6</ele>
    </trkpt>
    <trkpt lat="42.005079" lon="-2.243904">
      <ele>1098.8</ele>
    </trkpt>
    <trkpt lat="42.005175" lon="-2.24385">
      <ele>1099</ele>
    </trkpt>
    <trkpt lat="42.007386" lon="-2.243412">
      <ele>1102.5</ele>
    </trkpt>
    <trkpt lat="42.007594" lon="-2.243294">
      <ele>1103.4</ele>
    </trkpt>
    <trkpt lat="42.007685" lon="-2.243212">
      <ele>1103.9</ele>
    </trkpt>
    <trkpt lat="42.007791" lon="-2.243058">
      <ele>1104.6</ele>
    </trkpt>
    <trkpt lat="42.007877" lon="-2.242859">
      <ele>1105.5</ele>
    </trkpt>
    <trkpt lat="42.007922" lon="-2.242546">
      <ele>1106.9</ele>
    </trkpt>
    <trkpt lat="42.007902" lon="-2.242281">
      <ele>1108.1</ele>
    </trkpt>
    <trkpt lat="42.00788" lon="-2.242132">
      <ele>1108.9</ele>
    </trkpt>
    <trkpt lat="42.007811" lon="-2.24197">
      <ele>1109.9</ele>
    </trkpt>
    <trkpt lat="42.006907" lon="-2.240641">
      <ele>1117.4</ele>
    </trkpt>
    <trkpt lat="42.006204" lon="-2.23914">
      <ele>1120.9</ele>
    </trkpt>
    <trkpt lat="42.00609" lon="-2.238828">
      <ele>1121.5</ele>
    </trkpt>
    <trkpt lat="42.005933" lon="-2.238673">
      <ele>1122.1</ele>
    </trkpt>
    <trkpt lat="42.004015" lon="-2.236794">
      <ele>1133.6</ele>
    </trkpt>
    <trkpt lat="42.003453" lon="-2.236298">
      <ele>1137.4</ele>
    </trkpt>
    <trkpt lat="42.001885" lon="-2.235603">
      <ele>1147.7</ele>
    </trkpt>
    <trkpt lat="42.001731" lon="-2.235452">
      <ele>1149.2</ele>
    </trkpt>
    <trkpt lat="42.001577" lon="-2.235168">
      <ele>1151.3</ele>
    </trkpt>
    <trkpt lat="42.001429" lon="-2.235066">
      <ele>1152.7</ele>
    </trkpt>
    <trkpt lat="41.997272" lon="-2.235545">
      <ele>1196.5</ele>
    </trkpt>
    <trkpt lat="41.996673" lon="-2.235607">
      <ele>1200.6</ele>
    </trkpt>
    <trkpt lat="41.996395" lon="-2.235696">
      <ele>1201.7</ele>
    </trkpt>
    <trkpt lat="41.996178" lon="-2.235859">
      <ele>1202.3</ele>
    </trkpt>
    <trkpt lat="41.995963" lon="-2.235952">
      <ele>1202.6</ele>
    </trkpt>
    <trkpt lat="41.995851" lon="-2.235956">
      <ele>1202.5</ele>
    </trkpt>
    <trkpt lat="41.992561" lon="-2.236103">
      <ele>1193.5</ele>
    </trkpt>
    <trkpt lat="41.992307" lon="-2.236017">
      <ele>1192.7</ele>
    </trkpt>
    <trkpt lat="41.992233" lon="-2.235954">
      <ele>1192.5</ele>
    </trkpt>
    <trkpt lat="41.991358" lon="-2.235168">
      <ele>1190.3</ele>
    </trkpt>
    <trkpt lat="41.991044" lon="-2.234977">
      <ele>1190.1</ele>
    </trkpt>
    <trkpt lat="41.989496" lon="-2.234522">
      <ele>1190.1</ele>
    </trkpt>
    <trkpt lat="41.989397" lon="-2.234493">
      <ele>1190</ele>
    </trkpt>
    <trkpt lat="41.988975" lon="-2.234112">
      <ele>1189.6</ele>
    </trkpt>
    <trkpt lat="41.988781" lon="-2.23381">
      <ele>1189.5</ele>
    </trkpt>
    <trkpt lat="41.988583" lon="-2.233657">
      <ele>1189.4</ele>
    </trkpt>
    <trkpt lat="41.988503" lon="-2.233529">
      <ele>1189.4</ele>
    </trkpt>
    <trkpt lat="41.988339" lon="-2.233237">
      <ele>1189.5</ele>
    </trkpt>
    <trkpt lat="41.987905" lon="-2.232977">
      <ele>1190</ele>
    </trkpt>
    <trkpt lat="41.987824" lon="-2.232885">
      <ele>1190.1</ele>
    </trkpt>
    <trkpt lat="41.988089" lon="-2.232522">
      <ele>1190.8</ele>
    </trkpt>
    <trkpt lat="41.988136" lon="-2.232392">
      <ele>1191</ele>
    </trkpt>
    <trkpt lat="41.988141" lon="-2.232202">
      <ele>1191.2</ele>
    </trkpt>
    <trkpt lat="41.988094" lon="-2.23151">
      <ele>1192</ele>
    </trkpt>
    <trkpt lat="41.987807" lon="-2.227821">
      <ele>1195.5</ele>
    </trkpt>
    <trkpt lat="41.987775" lon="-2.227075">
      <ele>1195.7</ele>
    </trkpt>
    <trkpt lat="41.987602" lon="-2.226494">
      <ele>1195.7</ele>
    </trkpt>
    <trkpt lat="41.987522" lon="-2.226305">
      <ele>1195.7</ele>
    </trkpt>
    <trkpt lat="41.987372" lon="-2.226189">
      <ele>1195.9</ele>
    </trkpt>
    <trkpt lat="41.986642" lon="-2.225848">
      <ele>1197.7</ele>
    </trkpt>
    <trkpt lat="41.985672" lon="-2.225334">
      <ele>1202.4</ele>
    </trkpt>
    <trkpt lat="41.985995" lon="-2.224337">
      <ele>1206.2</ele>
    </trkpt>
    <trkpt lat="41.98609" lon="-2.223917">
      <ele>1207.6</ele>
    </trkpt>
    <trkpt lat="41.986106" lon="-2.223454">
      <ele>1209.2</ele>
    </trkpt>
    <trkpt lat="41.986032" lon="-2.223113">
      <ele>1210.8</ele>
    </trkpt>
    <trkpt lat="41.985852" lon="-2.22292">
      <ele>1212.5</ele>
    </trkpt>
    <trkpt lat="41.984947" lon="-2.222338">
      <ele>1223.2</ele>
    </trkpt>
    <trkpt lat="41.984892" lon="-2.222401">
      <ele>1224.1</ele>
    </trkpt>
    <trkpt lat="41.984872" lon="-2.222486">
      <ele>1225</ele>
    </trkpt>
    <trkpt lat="41.984874" lon="-2.222754">
      <ele>1227.8</ele>
    </trkpt>
    <trkpt lat="41.984836" lon="-2.222861">
      <ele>1229.1</ele>
    </trkpt>
    <trkpt lat="41.984784" lon="-2.222891">
      <ele>1229.9</ele>
    </trkpt>
    <trkpt lat="41.984233" lon="-2.222766">
      <ele>1238.7</ele>
    </trkpt>
    <trkpt lat="41.98366" lon="-2.222456">
      <ele>1249.4</ele>
    </trkpt>
    <trkpt lat="41.983062" lon="-2.222376">
      <ele>1259.6</ele>
    </trkpt>
    <trkpt lat="41.982947" lon="-2.222331">
      <ele>1261.6</ele>
    </trkpt>
    <trkpt lat="41.9826" lon="-2.222282">
      <ele>1267.1</ele>
    </trkpt>
    <trkpt lat="41.982494" lon="-2.222315">
      <ele>1268.7</ele>
    </trkpt>
    <trkpt lat="41.982299" lon="-2.222565">
      <ele>1272.6</ele>
    </trkpt>
    <trkpt lat="41.982179" lon="-2.222626">
      <ele>1274.4</ele>
    </trkpt>
    <trkpt lat="41.981941" lon="-2.222663">
      <ele>1277.6</ele>
    </trkpt>
    <trkpt lat="41.981497" lon="-2.222818">
      <ele>1283.6</ele>
    </trkpt>
    <trkpt lat="41.981375" lon="-2.222821">
      <ele>1285.2</ele>
    </trkpt>
    <trkpt lat="41.980834" lon="-2.222702">
      <ele>1292.4</ele>
    </trkpt>
    <trkpt lat="41.980235" lon="-2.222385">
      <ele>1301.1</ele>
    </trkpt>
    <trkpt lat="41.979855" lon="-2.222288">
      <ele>1306.3</ele>
    </trkpt>
    <trkpt lat="41.979635" lon="-2.222288">
      <ele>1309.1</ele>
    </trkpt>
    <trkpt lat="41.979117" lon="-2.222108">
      <ele>1315.7</ele>
    </trkpt>
    <trkpt lat="41.978614" lon="-2.22205">
      <ele>1321.9</ele>
    </trkpt>
    <trkpt lat="41.978104" lon="-2.221889">
      <ele>1327.8</ele>
    </trkpt>
    <trkpt lat="41.977914" lon="-2.221772">
      <ele>1329.9</ele>
    </trkpt>
    <trkpt lat="41.977796" lon="-2.221605">
      <ele>1331.6</ele>
    </trkpt>
    <trkpt lat="41.977198" lon="-2.221398">
      <ele>1337.2</ele>
    </trkpt>
    <trkpt lat="41.977109" lon="-2.221322">
      <ele>1338.1</ele>
    </trkpt>
    <trkpt lat="41.976878" lon="-2.221209">
      <ele>1340.2</ele>
    </trkpt>
    <trkpt lat="41.976632" lon="-2.221014">
      <ele>1342.3</ele>
    </trkpt>
    <trkpt lat="41.976575" lon="-2.220835">
      <ele>1343.4</ele>
    </trkpt>
    <trkpt lat="41.976242" lon="-2.220283">
      <ele>1347.3</ele>
    </trkpt>
    <trkpt lat="41.976167" lon="-2.220094">
      <ele>1348.4</ele>
    </trkpt>
    <trkpt lat="41.975836" lon="-2.219472">
      <ele>1351.6</ele>
    </trkpt>
    <trkpt lat="41.975703" lon="-2.219323">
      <ele>1352.3</ele>
    </trkpt>
    <trkpt lat="41.974812" lon="-2.2189">
      <ele>1354</ele>
    </trkpt>
    <trkpt lat="41.974459" lon="-2.21884">
      <ele>1354.2</ele>
    </trkpt>
    <trkpt lat="41.974323" lon="-2.218844">
      <ele>1354.3</ele>
    </trkpt>
    <trkpt lat="41.973084" lon="-2.218189">
      <ele>1358.4</ele>
    </trkpt>
    <trkpt lat="41.972812" lon="-2.218078">
      <ele>1359.8</ele>
    </trkpt>
    <trkpt lat="41.972535" lon="-2.21807">
      <ele>1361.2</ele>
    </trkpt>
    <trkpt lat="41.972237" lon="-2.218173">
      <ele>1362.8</ele>
    </trkpt>
    <trkpt lat="41.97141" lon="-2.218228">
      <ele>1368</ele>
    </trkpt>
    <trkpt lat="41.970227" lon="-2.218641">
      <ele>1377.7</ele>
    </trkpt>
    <trkpt lat="41.970091" lon="-2.218677">
      <ele>1378.9</ele>
    </trkpt>
    <trkpt lat="41.970046" lon="-2.218653">
      <ele>1379.3</ele>
    </trkpt>
    <trkpt lat="41.969993" lon="-2.218558">
      <ele>1380</ele>
    </trkpt>
    <trkpt lat="41.969952" lon="-2.218395">
      <ele>1381.1</ele>
    </trkpt>
    <trkpt lat="41.969878" lon="-2.218264">
      <ele>1382</ele>
    </trkpt>
    <trkpt lat="41.969438" lon="-2.217827">
      <ele>1385.6</ele>
    </trkpt>
    <trkpt lat="41.969353" lon="-2.217637">
      <ele>1386.4</ele>
    </trkpt>
    <trkpt lat="41.969249" lon="-2.217478">
      <ele>1387</ele>
    </trkpt>
    <trkpt lat="41.969176" lon="-2.21726">
      <ele>1387.5</ele>
    </trkpt>
    <trkpt lat="41.968972" lon="-2.217045">
      <ele>1387.9</ele>
    </trkpt>
    <trkpt lat="41.968928" lon="-2.216894">
      <ele>1387.9</ele>
    </trkpt>
    <trkpt lat="41.968939" lon="-2.216617">
      <ele>1387.8</ele>
    </trkpt>
    <trkpt lat="41.968901" lon="-2.216496">
      <ele>1387.6</ele>
    </trkpt>
    <trkpt lat="41.968836" lon="-2.216421">
      <ele>1387.5</ele>
    </trkpt>
    <trkpt lat="41.968738" lon="-2.216363">
      <ele>1387.2</ele>
    </trkpt>
    <trkpt lat="41.968708" lon="-2.216277">
      <ele>1387</ele>
    </trkpt>
    <trkpt lat="41.968712" lon="-2.216063">
      <ele>1386.5</ele>
    </trkpt>
    <trkpt lat="41.968506" lon="-2.215648">
      <ele>1384.9</ele>
    </trkpt>
    <trkpt lat="41.968398" lon="-2.215553">
      <ele>1384.2</ele>
    </trkpt>
    <trkpt lat="41.967902" lon="-2.215118">
      <ele>1380.7</ele>
    </trkpt>
    <trkpt lat="41.966767" lon="-2.214386">
      <ele>1370</ele>
    </trkpt>
    <trkpt lat="41.965398" lon="-2.211427">
      <ele>1340.3</ele>
    </trkpt>
    <trkpt lat="41.965166" lon="-2.211057">
      <ele>1336.7</ele>
    </trkpt>
    <trkpt lat="41.964414" lon="-2.210161">
      <ele>1327.1</ele>
    </trkpt>
    <trkpt lat="41.964388" lon="-2.210023">
      <ele>1326.1</ele>
    </trkpt>
    <trkpt lat="41.964306" lon="-2.210043">
      <ele>1325.4</ele>
    </trkpt>
    <trkpt lat="41.963789" lon="-2.210787">
      <ele>1320</ele>
    </trkpt>
    <trkpt lat="41.96376" lon="-2.210795">
      <ele>1319.9</ele>
    </trkpt>
    <trkpt lat="41.963705" lon="-2.21078">
      <ele>1319.5</ele>
    </trkpt>
    <trkpt lat="41.963453" lon="-2.210484">
      <ele>1317.7</ele>
    </trkpt>
    <trkpt lat="41.962927" lon="-2.21033">
      <ele>1315.4</ele>
    </trkpt>
    <trkpt lat="41.962772" lon="-2.210236">
      <ele>1315</ele>
    </trkpt>
    <trkpt lat="41.961643" lon="-2.209145">
      <ele>1310.9</ele>
    </trkpt>
    <trkpt lat="41.961485" lon="-2.208932">
      <ele>1309.7</ele>
    </trkpt>
    <trkpt lat="41.961243" lon="-2.20847">
      <ele>1307.2</ele>
    </trkpt>
    <trkpt lat="41.960082" lon="-2.20761">
      <ele>1297</ele>
    </trkpt>
    <trkpt lat="41.95976" lon="-2.207313">
      <ele>1293.9</ele>
    </trkpt>
    <trkpt lat="41.958664" lon="-2.20667">
      <ele>1286.7</ele>
    </trkpt>
    <trkpt lat="41.958573" lon="-2.206587">
      <ele>1286.4</ele>
    </trkpt>
    <trkpt lat="41.958425" lon="-2.206352">
      <ele>1286</ele>
    </trkpt>
    <trkpt lat="41.958328" lon="-2.205995">
      <ele>1285.8</ele>
    </trkpt>
    <trkpt lat="41.958304" lon="-2.205771">
      <ele>1285.9</ele>
    </trkpt>
    <trkpt lat="41.958315" lon="-2.205167">
      <ele>1286.7</ele>
    </trkpt>
    <trkpt lat="41.958288" lon="-2.205019">
      <ele>1287</ele>
    </trkpt>
    <trkpt lat="41.958222" lon="-2.204864">
      <ele>1287.4</ele>
    </trkpt>
    <trkpt lat="41.958265" lon="-2.204799">
      <ele>1287.6</ele>
    </trkpt>
    <trkpt lat="41.958274" lon="-2.204726">
      <ele>1287.7</ele>
    </trkpt>
    <trkpt lat="41.958216" lon="-2.204508">
      <ele>1288.2</ele>
    </trkpt>
    <trkpt lat="41.958228" lon="-2.204404">
      <ele>1288.3</ele>
    </trkpt>
    <trkpt lat="41.958288" lon="-2.204283">
      <ele>1288.6</ele>
    </trkpt>
    <trkpt lat="41.958544" lon="-2.203946">
      <ele>1289.1</ele>
    </trkpt>
    <trkpt lat="41.958799" lon="-2.203816">
      <ele>1289.3</ele>
    </trkpt>
    <trkpt lat="41.95905" lon="-2.20383">
      <ele>1289.2</ele>
    </trkpt>
    <trkpt lat="41.959386" lon="-2.203749">
      <ele>1288.5</ele>
    </trkpt>
    <trkpt lat="41.959475" lon="-2.203693">
      <ele>1288.2</ele>
    </trkpt>
    <trkpt lat="41.959805" lon="-2.203276">
      <ele>1286.5</ele>
    </trkpt>
    <trkpt lat="41.959088" lon="-2.203192">
      <ele>1283</ele>
    </trkpt>
    <trkpt lat="41.95888" lon="-2.203129">
      <ele>1281.9</ele>
    </trkpt>
    <trkpt lat="41.958697" lon="-2.203001">
      <ele>1280.7</ele>
    </trkpt>
    <trkpt lat="41.958499" lon="-2.202725">
      <ele>1279.2</ele>
    </trkpt>
    <trkpt lat="41.958093" lon="-2.20205">
      <ele>1276.5</ele>
    </trkpt>
    <trkpt lat="41.957558" lon="-2.201159">
      <ele>1274.2</ele>
    </trkpt>
    <trkpt lat="41.957049" lon="-2.200329">
      <ele>1273.6</ele>
    </trkpt>
    <trkpt lat="41.956939" lon="-2.200388">
      <ele>1273.5</ele>
    </trkpt>
    <trkpt lat="41.956858" lon="-2.200336">
      <ele>1273.4</ele>
    </trkpt>
    <trkpt lat="41.956874" lon="-2.200299">
      <ele>1273.4</ele>
    </trkpt>
    <trkpt lat="41.956854" lon="-2.200255">
      <ele>1273.4</ele>
    </trkpt>
    <trkpt lat="41.956681" lon="-2.200089">
      <ele>1273.2</ele>
    </trkpt>
    <trkpt lat="41.956494" lon="-2.199736">
      <ele>1272.6</ele>
    </trkpt>
    <trkpt lat="41.956171" lon="-2.199443">
      <ele>1271.5</ele>
    </trkpt>
    <trkpt lat="41.956068" lon="-2.199285">
      <ele>1270.9</ele>
    </trkpt>
    <trkpt lat="41.955955" lon="-2.198875">
      <ele>1269.4</ele>
    </trkpt>
    <trkpt lat="41.95604" lon="-2.198686">
      <ele>1268.6</ele>
    </trkpt>
    <trkpt lat="41.955889" lon="-2.198441">
      <ele>1267.3</ele>
    </trkpt>
    <trkpt lat="41.955958" lon="-2.198325">
      <ele>1266.7</ele>
    </trkpt>
    <trkpt lat="41.955506" lon="-2.197549">
      <ele>1262.9</ele>
    </trkpt>
    <trkpt lat="41.955224" lon="-2.197155">
      <ele>1261</ele>
    </trkpt>
    <trkpt lat="41.955078" lon="-2.196886">
      <ele>1260</ele>
    </trkpt>
    <trkpt lat="41.954996" lon="-2.196986">
      <ele>1259.6</ele>
    </trkpt>
    <trkpt lat="41.953966" lon="-2.195308">
      <ele>1252</ele>
    </trkpt>
    <trkpt lat="41.949965" lon="-2.189397">
      <ele>1219.4</ele>
    </trkpt>
    <trkpt lat="41.948144" lon="-2.187195">
      <ele>1204.6</ele>
    </trkpt>
    <trkpt lat="41.947972" lon="-2.186988">
      <ele>1203.3</ele>
    </trkpt>
    <trkpt lat="41.948025" lon="-2.186858">
      <ele>1202.7</ele>
    </trkpt>
    <trkpt lat="41.948099" lon="-2.186302">
      <ele>1200.8</ele>
    </trkpt>
    <trkpt lat="41.948094" lon="-2.186014">
      <ele>1200.1</ele>
    </trkpt>
    <trkpt lat="41.948051" lon="-2.185824">
      <ele>1199.8</ele>
    </trkpt>
    <trkpt lat="41.948021" lon="-2.18547">
      <ele>1199.4</ele>
    </trkpt>
    <trkpt lat="41.948067" lon="-2.185371">
      <ele>1199.4</ele>
    </trkpt>
    <trkpt lat="41.948101" lon="-2.185142">
      <ele>1199.3</ele>
    </trkpt>
    <trkpt lat="41.948045" lon="-2.184792">
      <ele>1199.5</ele>
    </trkpt>
    <trkpt lat="41.948012" lon="-2.184699">
      <ele>1199.6</ele>
    </trkpt>
    <trkpt lat="41.947737" lon="-2.18453">
      <ele>1200</ele>
    </trkpt>
    <trkpt lat="41.947497" lon="-2.18458">
      <ele>1200.3</ele>
    </trkpt>
    <trkpt lat="41.947406" lon="-2.184544">
      <ele>1200.4</ele>
    </trkpt>
    <trkpt lat="41.946932" lon="-2.184172">
      <ele>1201.1</ele>
    </trkpt>
    <trkpt lat="41.94683" lon="-2.184039">
      <ele>1201.3</ele>
    </trkpt>
    <trkpt lat="41.946659" lon="-2.18366">
      <ele>1201.7</ele>
    </trkpt>
    <trkpt lat="41.946598" lon="-2.183578">
      <ele>1201.8</ele>
    </trkpt>
    <trkpt lat="41.946545" lon="-2.183562">
      <ele>1201.8</ele>
    </trkpt>
    <trkpt lat="41.946533" lon="-2.183439">
      <ele>1201.9</ele>
    </trkpt>
    <trkpt lat="41.946433" lon="-2.183212">
      <ele>1202.1</ele>
    </trkpt>
    <trkpt lat="41.94618" lon="-2.18289">
      <ele>1202.4</ele>
    </trkpt>
    <trkpt lat="41.946094" lon="-2.182732">
      <ele>1202.5</ele>
    </trkpt>
    <trkpt lat="41.946043" lon="-2.182552">
      <ele>1202.7</ele>
    </trkpt>
    <trkpt lat="41.945744" lon="-2.182022">
      <ele>1202.9</ele>
    </trkpt>
    <trkpt lat="41.945205" lon="-2.181463">
      <ele>1202</ele>
    </trkpt>
    <trkpt lat="41.944967" lon="-2.18126">
      <ele>1201</ele>
    </trkpt>
    <trkpt lat="41.944946" lon="-2.181204">
      <ele>1200.8</ele>
    </trkpt>
    <trkpt lat="41.944634" lon="-2.180996">
      <ele>1199.2</ele>
    </trkpt>
    <trkpt lat="41.944555" lon="-2.180846">
      <ele>1198.5</ele>
    </trkpt>
    <trkpt lat="41.944238" lon="-2.180574">
      <ele>1196.4</ele>
    </trkpt>
    <trkpt lat="41.944141" lon="-2.180526">
      <ele>1195.9</ele>
    </trkpt>
    <trkpt lat="41.944039" lon="-2.180534">
      <ele>1195.3</ele>
    </trkpt>
    <trkpt lat="41.943945" lon="-2.180497">
      <ele>1194.8</ele>
    </trkpt>
    <trkpt lat="41.943835" lon="-2.180357">
      <ele>1194</ele>
    </trkpt>
    <trkpt lat="41.943667" lon="-2.180207">
      <ele>1192.9</ele>
    </trkpt>
    <trkpt lat="41.943588" lon="-2.180089">
      <ele>1192.3</ele>
    </trkpt>
    <trkpt lat="41.943496" lon="-2.180073">
      <ele>1191.9</ele>
    </trkpt>
    <trkpt lat="41.942809" lon="-2.179426">
      <ele>1188.9</ele>
    </trkpt>
    <trkpt lat="41.941981" lon="-2.178754">
      <ele>1187.8</ele>
    </trkpt>
    <trkpt lat="41.941298" lon="-2.178139">
      <ele>1187.5</ele>
    </trkpt>
    <trkpt lat="41.941018" lon="-2.177917">
      <ele>1187.3</ele>
    </trkpt>
    <trkpt lat="41.940837" lon="-2.177714">
      <ele>1187</ele>
    </trkpt>
    <trkpt lat="41.940719" lon="-2.177485">
      <ele>1186.6</ele>
    </trkpt>
    <trkpt lat="41.939942" lon="-2.17667">
      <ele>1182.9</ele>
    </trkpt>
    <trkpt lat="41.93957" lon="-2.176314">
      <ele>1180.3</ele>
    </trkpt>
    <trkpt lat="41.939199" lon="-2.175841">
      <ele>1176.9</ele>
    </trkpt>
    <trkpt lat="41.938345" lon="-2.174528">
      <ele>1166.9</ele>
    </trkpt>
    <trkpt lat="41.938292" lon="-2.174356">
      <ele>1165.9</ele>
    </trkpt>
    <trkpt lat="41.938239" lon="-2.174301">
      <ele>1165.5</ele>
    </trkpt>
    <trkpt lat="41.938233" lon="-2.174305">
      <ele>1165.4</ele>
    </trkpt>
    <trkpt lat="41.938208" lon="-2.174322">
      <ele>1165.3</ele>
    </trkpt>
    <trkpt lat="41.938169" lon="-2.174427">
      <ele>1164.7</ele>
    </trkpt>
    <trkpt lat="41.938102" lon="-2.174358">
      <ele>1164.2</ele>
    </trkpt>
    <trkpt lat="41.938018" lon="-2.174693">
      <ele>1162.7</ele>
    </trkpt>
    <trkpt lat="41.93792" lon="-2.17487">
      <ele>1161.9</ele>
    </trkpt>
    <trkpt lat="41.937706" lon="-2.175153">
      <ele>1160.7</ele>
    </trkpt>
    <trkpt lat="41.937192" lon="-2.175631">
      <ele>1159.5</ele>
    </trkpt>
    <trkpt lat="41.93623" lon="-2.17633">
      <ele>1159</ele>
    </trkpt>
    <trkpt lat="41.93607" lon="-2.17655">
      <ele>1158.7</ele>
    </trkpt>
    <trkpt lat="41.93598" lon="-2.17681">
      <ele>1158.1</ele>
    </trkpt>
    <trkpt lat="41.935938" lon="-2.177047">
      <ele>1157.5</ele>
    </trkpt>
    <trkpt lat="41.935868" lon="-2.177055">
      <ele>1157.2</ele>
    </trkpt>
    <trkpt lat="41.935708" lon="-2.177434">
      <ele>1155.6</ele>
    </trkpt>
    <trkpt lat="41.935617" lon="-2.177834">
      <ele>1153.7</ele>
    </trkpt>
    <trkpt lat="41.935598" lon="-2.178081">
      <ele>1152.4</ele>
    </trkpt>
    <trkpt lat="41.935628" lon="-2.178796">
      <ele>1148.9</ele>
    </trkpt>
    <trkpt lat="41.935609" lon="-2.179259">
      <ele>1147.6</ele>
    </trkpt>
    <trkpt lat="41.93563" lon="-2.179485">
      <ele>1147.3</ele>
    </trkpt>
    <trkpt lat="41.935668" lon="-2.179596">
      <ele>1147.2</ele>
    </trkpt>
    <trkpt lat="41.935711" lon="-2.179638">
      <ele>1147.2</ele>
    </trkpt>
    <trkpt lat="41.935668" lon="-2.179596">
      <ele>1147.2</ele>
    </trkpt>
    <trkpt lat="41.93563" lon="-2.179485">
      <ele>1147.3</ele>
    </trkpt>
    <trkpt lat="41.935609" lon="-2.179259">
      <ele>1147.6</ele>
    </trkpt>
    <trkpt lat="41.935628" lon="-2.178796">
      <ele>1148.9</ele>
    </trkpt>
    <trkpt lat="41.935598" lon="-2.178081">
      <ele>1152.4</ele>
    </trkpt>
    <trkpt lat="41.935617" lon="-2.177834">
      <ele>1153.7</ele>
    </trkpt>
    <trkpt lat="41.935708" lon="-2.177434">
      <ele>1155.6</ele>
    </trkpt>
    <trkpt lat="41.935868" lon="-2.177055">
      <ele>1157.2</ele>
    </trkpt>
    <trkpt lat="41.935938" lon="-2.177047">
      <ele>1157.5</ele>
    </trkpt>
    <trkpt lat="41.93598" lon="-2.17681">
      <ele>1158.1</ele>
    </trkpt>
    <trkpt lat="41.93607" lon="-2.17655">
      <ele>1158.7</ele>
    </trkpt>
    <trkpt lat="41.93623" lon="-2.17633">
      <ele>1159</ele>
    </trkpt>
    <trkpt lat="41.937192" lon="-2.175631">
      <ele>1159.5</ele>
    </trkpt>
    <trkpt lat="41.937706" lon="-2.175153">
      <ele>1160.5</ele>
    </trkpt>
    <trkpt lat="41.93792" lon="-2.17487">
      <ele>1161.3</ele>
    </trkpt>
    <trkpt lat="41.938018" lon="-2.174693">
      <ele>1161.9</ele>
    </trkpt>
    <trkpt lat="41.938102" lon="-2.174358">
      <ele>1162.9</ele>
    </trkpt>
    <trkpt lat="41.93822" lon="-2.1739">
      <ele>1164.4</ele>
    </trkpt>
    <trkpt lat="41.93837" lon="-2.17371">
      <ele>1165.2</ele>
    </trkpt>
    <trkpt lat="41.938931" lon="-2.173399">
      <ele>1167.2</ele>
    </trkpt>
    <trkpt lat="41.939134" lon="-2.173438">
      <ele>1167.8</ele>
    </trkpt>
    <trkpt lat="41.939382" lon="-2.173426">
      <ele>1168.6</ele>
    </trkpt>
    <trkpt lat="41.939793" lon="-2.173519">
      <ele>1169.6</ele>
    </trkpt>
    <trkpt lat="41.941117" lon="-2.173702">
      <ele>1172.6</ele>
    </trkpt>
    <trkpt lat="41.941188" lon="-2.173661">
      <ele>1172.8</ele>
    </trkpt>
    <trkpt lat="41.942123" lon="-2.173852">
      <ele>1174.9</ele>
    </trkpt>
    <trkpt lat="41.942796" lon="-2.174097">
      <ele>1175.6</ele>
    </trkpt>
    <trkpt lat="41.943439" lon="-2.174552">
      <ele>1175</ele>
    </trkpt>
    <trkpt lat="41.943701" lon="-2.174654">
      <ele>1174.5</ele>
    </trkpt>
    <trkpt lat="41.944254" lon="-2.174806">
      <ele>1173.1</ele>
    </trkpt>
    <trkpt lat="41.944393" lon="-2.174874">
      <ele>1172.8</ele>
    </trkpt>
    <trkpt lat="41.944931" lon="-2.175261">
      <ele>1171</ele>
    </trkpt>
    <trkpt lat="41.945197" lon="-2.175373">
      <ele>1170.2</ele>
    </trkpt>
    <trkpt lat="41.945444" lon="-2.175432">
      <ele>1169.5</ele>
    </trkpt>
    <trkpt lat="41.945575" lon="-2.175514">
      <ele>1169.1</ele>
    </trkpt>
    <trkpt lat="41.945795" lon="-2.175409">
      <ele>1168.3</ele>
    </trkpt>
    <trkpt lat="41.946224" lon="-2.175539">
      <ele>1166.6</ele>
    </trkpt>
    <trkpt lat="41.946312" lon="-2.175655">
      <ele>1166</ele>
    </trkpt>
    <trkpt lat="41.946895" lon="-2.17595">
      <ele>1161.7</ele>
    </trkpt>
    <trkpt lat="41.947114" lon="-2.176126">
      <ele>1159.6</ele>
    </trkpt>
    <trkpt lat="41.947234" lon="-2.17617">
      <ele>1158.5</ele>
    </trkpt>
    <trkpt lat="41.947266" lon="-2.176009">
      <ele>1157.2</ele>
    </trkpt>
    <trkpt lat="41.948129" lon="-2.176356">
      <ele>1145.7</ele>
    </trkpt>
    <trkpt lat="41.948405" lon="-2.176371">
      <ele>1141.2</ele>
    </trkpt>
    <trkpt lat="41.948783" lon="-2.176249">
      <ele>1134.8</ele>
    </trkpt>
    <trkpt lat="41.949089" lon="-2.176014">
      <ele>1128.9</ele>
    </trkpt>
    <trkpt lat="41.94922" lon="-2.175764">
      <ele>1125</ele>
    </trkpt>
    <trkpt lat="41.949354" lon="-2.175603">
      <ele>1121.8</ele>
    </trkpt>
    <trkpt lat="41.949595" lon="-2.175544">
      <ele>1117.4</ele>
    </trkpt>
    <trkpt lat="41.950136" lon="-2.175515">
      <ele>1107.5</ele>
    </trkpt>
    <trkpt lat="41.950373" lon="-2.175471">
      <ele>1103.2</ele>
    </trkpt>
    <trkpt lat="41.950595" lon="-2.175089">
      <ele>1096.5</ele>
    </trkpt>
    <trkpt lat="41.950718" lon="-2.174928">
      <ele>1093.2</ele>
    </trkpt>
    <trkpt lat="41.950758" lon="-2.174821">
      <ele>1091.5</ele>
    </trkpt>
    <trkpt lat="41.950857" lon="-2.174703">
      <ele>1088.8</ele>
    </trkpt>
    <trkpt lat="41.950969" lon="-2.174326">
      <ele>1082.5</ele>
    </trkpt>
    <trkpt lat="41.951028" lon="-2.174273">
      <ele>1080.9</ele>
    </trkpt>
    <trkpt lat="41.951209" lon="-2.174336">
      <ele>1076.8</ele>
    </trkpt>
    <trkpt lat="41.95162" lon="-2.174287">
      <ele>1067.6</ele>
    </trkpt>
    <trkpt lat="41.951813" lon="-2.174048">
      <ele>1061.8</ele>
    </trkpt>
    <trkpt lat="41.952184" lon="-2.173994">
      <ele>1053.7</ele>
    </trkpt>
    <trkpt lat="41.95237" lon="-2.173833">
      <ele>1049</ele>
    </trkpt>
    <trkpt lat="41.952479" lon="-2.173637">
      <ele>1045.2</ele>
    </trkpt>
    <trkpt lat="41.952504" lon="-2.173461">
      <ele>1042.5</ele>
    </trkpt>
    <trkpt lat="41.952632" lon="-2.17329">
      <ele>1038.9</ele>
    </trkpt>
    <trkpt lat="41.952784" lon="-2.173167">
      <ele>1035.5</ele>
    </trkpt>
    <trkpt lat="41.952864" lon="-2.172977">
      <ele>1032.5</ele>
    </trkpt>
    <trkpt lat="41.953057" lon="-2.173021">
      <ele>1029</ele>
    </trkpt>
    <trkpt lat="41.953548" lon="-2.172805">
      <ele>1020.3</ele>
    </trkpt>
    <trkpt lat="41.95397" lon="-2.172668">
      <ele>1013.3</ele>
    </trkpt>
    <trkpt lat="41.954196" lon="-2.172497">
      <ele>1009.2</ele>
    </trkpt>
    <trkpt lat="41.954421" lon="-2.172214">
      <ele>1004.4</ele>
    </trkpt>
    <trkpt lat="41.955185" lon="-2.171505">
      <ele>991.6</ele>
    </trkpt>
    <trkpt lat="41.955494" lon="-2.171138">
      <ele>986.4</ele>
    </trkpt>
    <trkpt lat="41.955592" lon="-2.171054">
      <ele>984.7</ele>
    </trkpt>
    <trkpt lat="41.95544" lon="-2.171901">
      <ele>975.2</ele>
    </trkpt>
    <trkpt lat="41.955425" lon="-2.172091">
      <ele>973.2</ele>
    </trkpt>
    <trkpt lat="41.95576" lon="-2.172105">
      <ele>968.5</ele>
    </trkpt>
    <trkpt lat="41.956462" lon="-2.171753">
      <ele>959.1</ele>
    </trkpt>
    <trkpt lat="41.956577" lon="-2.171555">
      <ele>957.2</ele>
    </trkpt>
    <trkpt lat="41.956734" lon="-2.171471">
      <ele>956.2</ele>
    </trkpt>
    <trkpt lat="41.956801" lon="-2.171348">
      <ele>955.7</ele>
    </trkpt>
    <trkpt lat="41.95731" lon="-2.170765">
      <ele>954.7</ele>
    </trkpt>
    <trkpt lat="41.957381" lon="-2.170736">
      <ele>954.7</ele>
    </trkpt>
    <trkpt lat="41.957541" lon="-2.170834">
      <ele>954.7</ele>
    </trkpt>
    <trkpt lat="41.957581" lon="-2.170809">
      <ele>954.7</ele>
    </trkpt>
    <trkpt lat="41.95771" lon="-2.170793">
      <ele>954.5</ele>
    </trkpt>
    <trkpt lat="41.957776" lon="-2.170967">
      <ele>954.2</ele>
    </trkpt>
    <trkpt lat="41.95787" lon="-2.1711">
      <ele>953.8</ele>
    </trkpt>
    <trkpt lat="41.957996" lon="-2.171366">
      <ele>953.2</ele>
    </trkpt>
    <trkpt lat="41.95822" lon="-2.17151">
      <ele>952.5</ele>
    </trkpt>
    <trkpt lat="41.958433" lon="-2.171113">
      <ele>950.7</ele>
    </trkpt>
    <trkpt lat="41.958592" lon="-2.170753">
      <ele>948.7</ele>
    </trkpt>
    <trkpt lat="41.958698" lon="-2.17058">
      <ele>947.5</ele>
    </trkpt>
    <trkpt lat="41.958997" lon="-2.169644">
      <ele>943.3</ele>
    </trkpt>
    <trkpt lat="41.959096" lon="-2.169527">
      <ele>943</ele>
    </trkpt>
    <trkpt lat="41.959355" lon="-2.169457">
      <ele>942.6</ele>
    </trkpt>
    <trkpt lat="41.959788" lon="-2.169314">
      <ele>942.6</ele>
    </trkpt>
    <trkpt lat="41.959946" lon="-2.169208">
      <ele>942.9</ele>
    </trkpt>
    <trkpt lat="41.960797" lon="-2.168423">
      <ele>947.1</ele>
    </trkpt>
    <trkpt lat="41.960967" lon="-2.168353">
      <ele>948.3</ele>
    </trkpt>
    <trkpt lat="41.961164" lon="-2.168217">
      <ele>950.2</ele>
    </trkpt>
    <trkpt lat="41.961356" lon="-2.168138">
      <ele>952.1</ele>
    </trkpt>
    <trkpt lat="41.961552" lon="-2.168171">
      <ele>954.1</ele>
    </trkpt>
    <trkpt lat="41.962128" lon="-2.168343">
      <ele>961.9</ele>
    </trkpt>
    <trkpt lat="41.962583" lon="-2.168382">
      <ele>969.6</ele>
    </trkpt>
    <trkpt lat="41.963058" lon="-2.168142">
      <ele>979.2</ele>
    </trkpt>
    <trkpt lat="41.963183" lon="-2.16811">
      <ele>981.5</ele>
    </trkpt>
    <trkpt lat="41.963461" lon="-2.168077">
      <ele>986.5</ele>
    </trkpt>
    <trkpt lat="41.963588" lon="-2.168117">
      <ele>988.8</ele>
    </trkpt>
    <trkpt lat="41.963671" lon="-2.16819">
      <ele>990.6</ele>
    </trkpt>
    <trkpt lat="41.963898" lon="-2.168298">
      <ele>994.4</ele>
    </trkpt>
    <trkpt lat="41.963928" lon="-2.168441">
      <ele>996</ele>
    </trkpt>
    <trkpt lat="41.964051" lon="-2.168657">
      <ele>998.5</ele>
    </trkpt>
    <trkpt lat="41.964158" lon="-2.168537">
      <ele>1000.1</ele>
    </trkpt>
    <trkpt lat="41.96422" lon="-2.168506">
      <ele>1000.8</ele>
    </trkpt>
    <trkpt lat="41.964539" lon="-2.16835">
      <ele>1003.5</ele>
    </trkpt>
    <trkpt lat="41.964673" lon="-2.168136">
      <ele>1004.6</ele>
    </trkpt>
    <trkpt lat="41.965222" lon="-2.167933">
      <ele>1006.1</ele>
    </trkpt>
    <trkpt lat="41.965456" lon="-2.167893">
      <ele>1006.4</ele>
    </trkpt>
    <trkpt lat="41.965992" lon="-2.167964">
      <ele>1006.5</ele>
    </trkpt>
    <trkpt lat="41.966612" lon="-2.16815">
      <ele>1006.8</ele>
    </trkpt>
    <trkpt lat="41.967269" lon="-2.168235">
      <ele>1006.6</ele>
    </trkpt>
    <trkpt lat="41.96782" lon="-2.168116">
      <ele>1006</ele>
    </trkpt>
    <trkpt lat="41.968648" lon="-2.167994">
      <ele>1006.1</ele>
    </trkpt>
    <trkpt lat="41.968915" lon="-2.168028">
      <ele>1006.6</ele>
    </trkpt>
    <trkpt lat="41.969111" lon="-2.168143">
      <ele>1007.2</ele>
    </trkpt>
    <trkpt lat="41.969285" lon="-2.16835">
      <ele>1007.8</ele>
    </trkpt>
    <trkpt lat="41.969358" lon="-2.168485">
      <ele>1008.1</ele>
    </trkpt>
    <trkpt lat="41.969466" lon="-2.168489">
      <ele>1008.4</ele>
    </trkpt>
    <trkpt lat="41.969597" lon="-2.168441">
      <ele>1008.7</ele>
    </trkpt>
    <trkpt lat="41.969804" lon="-2.168485">
      <ele>1009.1</ele>
    </trkpt>
    <trkpt lat="41.970287" lon="-2.168692">
      <ele>1009.7</ele>
    </trkpt>
    <trkpt lat="41.970916" lon="-2.16861">
      <ele>1011</ele>
    </trkpt>
    <trkpt lat="41.97114" lon="-2.168657">
      <ele>1011.6</ele>
    </trkpt>
    <trkpt lat="41.971334" lon="-2.16862">
      <ele>1012.2</ele>
    </trkpt>
    <trkpt lat="41.971493" lon="-2.168512">
      <ele>1012.8</ele>
    </trkpt>
    <trkpt lat="41.971651" lon="-2.168468">
      <ele>1013.5</ele>
    </trkpt>
    <trkpt lat="41.971785" lon="-2.168475">
      <ele>1014.2</ele>
    </trkpt>
    <trkpt lat="41.972122" lon="-2.16859">
      <ele>1016.5</ele>
    </trkpt>
    <trkpt lat="41.972565" lon="-2.168668">
      <ele>1020.3</ele>
    </trkpt>
    <trkpt lat="41.973639" lon="-2.168704">
      <ele>1029.1</ele>
    </trkpt>
    <trkpt lat="41.974826" lon="-2.168692">
      <ele>1037.3</ele>
    </trkpt>
    <trkpt lat="41.975034" lon="-2.168655">
      <ele>1038.5</ele>
    </trkpt>
    <trkpt lat="41.975374" lon="-2.168485">
      <ele>1040.7</ele>
    </trkpt>
    <trkpt lat="41.975669" lon="-2.168393">
      <ele>1042.5</ele>
    </trkpt>
    <trkpt lat="41.976964" lon="-2.168217">
      <ele>1052.4</ele>
    </trkpt>
    <trkpt lat="41.977756" lon="-2.168024">
      <ele>1059.9</ele>
    </trkpt>
    <trkpt lat="41.978262" lon="-2.16812">
      <ele>1064.2</ele>
    </trkpt>
    <trkpt lat="41.978547" lon="-2.168228">
      <ele>1066.2</ele>
    </trkpt>
    <trkpt lat="41.978647" lon="-2.168281">
      <ele>1066.8</ele>
    </trkpt>
    <trkpt lat="41.978849" lon="-2.168718">
      <ele>1068.9</ele>
    </trkpt>
    <trkpt lat="41.978982" lon="-2.169184">
      <ele>1070.7</ele>
    </trkpt>
    <trkpt lat="41.97921" lon="-2.169702">
      <ele>1073.2</ele>
    </trkpt>
    <trkpt lat="41.979371" lon="-2.169926">
      <ele>1074.7</ele>
    </trkpt>
    <trkpt lat="41.98055" lon="-2.170958">
      <ele>1087.2</ele>
    </trkpt>
    <trkpt lat="41.980781" lon="-2.171226">
      <ele>1089.7</ele>
    </trkpt>
    <trkpt lat="41.980924" lon="-2.171441">
      <ele>1091.2</ele>
    </trkpt>
    <trkpt lat="41.981193" lon="-2.171999">
      <ele>1093.9</ele>
    </trkpt>
    <trkpt lat="41.981428" lon="-2.172394">
      <ele>1095.1</ele>
    </trkpt>
    <trkpt lat="41.982198" lon="-2.173411">
      <ele>1097.9</ele>
    </trkpt>
    <trkpt lat="41.982263" lon="-2.173598">
      <ele>1098.6</ele>
    </trkpt>
    <trkpt lat="41.98229" lon="-2.174045">
      <ele>1100.8</ele>
    </trkpt>
    <trkpt lat="41.982228" lon="-2.174192">
      <ele>1101.8</ele>
    </trkpt>
    <trkpt lat="41.982006" lon="-2.174539">
      <ele>1105</ele>
    </trkpt>
    <trkpt lat="41.981967" lon="-2.174687">
      <ele>1106.2</ele>
    </trkpt>
    <trkpt lat="41.982089" lon="-2.175141">
      <ele>1110.3</ele>
    </trkpt>
    <trkpt lat="41.982201" lon="-2.175368">
      <ele>1112.8</ele>
    </trkpt>
    <trkpt lat="41.982326" lon="-2.175552">
      <ele>1115</ele>
    </trkpt>
    <trkpt lat="41.982578" lon="-2.175791">
      <ele>1118.7</ele>
    </trkpt>
    <trkpt lat="41.982841" lon="-2.175931">
      <ele>1122</ele>
    </trkpt>
    <trkpt lat="41.982963" lon="-2.175915">
      <ele>1123.4</ele>
    </trkpt>
    <trkpt lat="41.983336" lon="-2.175771">
      <ele>1127.7</ele>
    </trkpt>
    <trkpt lat="41.983603" lon="-2.175759">
      <ele>1130.8</ele>
    </trkpt>
    <trkpt lat="41.984098" lon="-2.175811">
      <ele>1136.6</ele>
    </trkpt>
    <trkpt lat="41.98424" lon="-2.175875">
      <ele>1138.4</ele>
    </trkpt>
    <trkpt lat="41.984584" lon="-2.176138">
      <ele>1143.3</ele>
    </trkpt>
    <trkpt lat="41.98491" lon="-2.176218">
      <ele>1147.3</ele>
    </trkpt>
    <trkpt lat="41.985284" lon="-2.176238">
      <ele>1151.6</ele>
    </trkpt>
    <trkpt lat="41.98641" lon="-2.176836">
      <ele>1163</ele>
    </trkpt>
    <trkpt lat="41.986611" lon="-2.176979">
      <ele>1164.7</ele>
    </trkpt>
    <trkpt lat="41.98673" lon="-2.177159">
      <ele>1166</ele>
    </trkpt>
    <trkpt lat="41.986831" lon="-2.177386">
      <ele>1167.3</ele>
    </trkpt>
    <trkpt lat="41.986908" lon="-2.177653">
      <ele>1168.6</ele>
    </trkpt>
    <trkpt lat="41.986958" lon="-2.177916">
      <ele>1169.7</ele>
    </trkpt>
    <trkpt lat="41.986934" lon="-2.178259">
      <ele>1170.8</ele>
    </trkpt>
    <trkpt lat="41.986952" lon="-2.178411">
      <ele>1171.2</ele>
    </trkpt>
    <trkpt lat="41.987083" lon="-2.178897">
      <ele>1172.3</ele>
    </trkpt>
    <trkpt lat="41.987329" lon="-2.179619">
      <ele>1173.4</ele>
    </trkpt>
    <trkpt lat="41.987406" lon="-2.179918">
      <ele>1173.8</ele>
    </trkpt>
    <trkpt lat="41.987462" lon="-2.180381">
      <ele>1174.5</ele>
    </trkpt>
    <trkpt lat="41.987447" lon="-2.180987">
      <ele>1176</ele>
    </trkpt>
    <trkpt lat="41.987512" lon="-2.181258">
      <ele>1176.9</ele>
    </trkpt>
    <trkpt lat="41.987589" lon="-2.181373">
      <ele>1177.4</ele>
    </trkpt>
    <trkpt lat="41.987714" lon="-2.181457">
      <ele>1178.1</ele>
    </trkpt>
    <trkpt lat="41.988141" lon="-2.181589">
      <ele>1180.5</ele>
    </trkpt>
    <trkpt lat="41.988277" lon="-2.181688">
      <ele>1181.5</ele>
    </trkpt>
    <trkpt lat="41.988387" lon="-2.181884">
      <ele>1182.6</ele>
    </trkpt>
    <trkpt lat="41.988496" lon="-2.182159">
      <ele>1184.2</ele>
    </trkpt>
    <trkpt lat="41.988677" lon="-2.182693">
      <ele>1186.8</ele>
    </trkpt>
    <trkpt lat="41.988819" lon="-2.183228">
      <ele>1188.9</ele>
    </trkpt>
    <trkpt lat="41.988935" lon="-2.183467">
      <ele>1189.9</ele>
    </trkpt>
    <trkpt lat="41.989501" lon="-2.184284">
      <ele>1192.6</ele>
    </trkpt>
    <trkpt lat="41.989691" lon="-2.184615">
      <ele>1193.3</ele>
    </trkpt>
    <trkpt lat="41.990494" lon="-2.185759">
      <ele>1198.3</ele>
    </trkpt>
    <trkpt lat="41.990903" lon="-2.186744">
      <ele>1206.3</ele>
    </trkpt>
    <trkpt lat="41.991125" lon="-2.187043">
      <ele>1209.8</ele>
    </trkpt>
    <trkpt lat="41.991256" lon="-2.18747">
      <ele>1213.6</ele>
    </trkpt>
    <trkpt lat="41.991371" lon="-2.187657">
      <ele>1215.4</ele>
    </trkpt>
    <trkpt lat="41.99173" lon="-2.188112">
      <ele>1219.4</ele>
    </trkpt>
    <trkpt lat="41.991896" lon="-2.188239">
      <ele>1220.7</ele>
    </trkpt>
    <trkpt lat="41.992619" lon="-2.188407">
      <ele>1224.3</ele>
    </trkpt>
    <trkpt lat="41.993179" lon="-2.188682">
      <ele>1226.8</ele>
    </trkpt>
    <trkpt lat="41.9933" lon="-2.18869">
      <ele>1227.3</ele>
    </trkpt>
    <trkpt lat="41.993419" lon="-2.188646">
      <ele>1227.8</ele>
    </trkpt>
    <trkpt lat="41.994264" lon="-2.1882">
      <ele>1229.5</ele>
    </trkpt>
    <trkpt lat="41.994447" lon="-2.188128">
      <ele>1229.4</ele>
    </trkpt>
    <trkpt lat="41.99453" lon="-2.188144">
      <ele>1229.3</ele>
    </trkpt>
    <trkpt lat="41.994711" lon="-2.188379">
      <ele>1229</ele>
    </trkpt>
    <trkpt lat="41.994838" lon="-2.188443">
      <ele>1228.8</ele>
    </trkpt>
    <trkpt lat="41.994868" lon="-2.188535">
      <ele>1228.6</ele>
    </trkpt>
    <trkpt lat="41.994901" lon="-2.189049">
      <ele>1227.8</ele>
    </trkpt>
    <trkpt lat="41.994945" lon="-2.18928">
      <ele>1227.4</ele>
    </trkpt>
    <trkpt lat="41.995153" lon="-2.189998">
      <ele>1227.2</ele>
    </trkpt>
    <trkpt lat="41.995283" lon="-2.1907">
      <ele>1228.7</ele>
    </trkpt>
    <trkpt lat="41.995336" lon="-2.190791">
      <ele>1229.1</ele>
    </trkpt>
    <trkpt lat="41.995466" lon="-2.190878">
      <ele>1229.6</ele>
    </trkpt>
    <trkpt lat="41.995892" lon="-2.190763">
      <ele>1231.4</ele>
    </trkpt>
    <trkpt lat="41.996081" lon="-2.190667">
      <ele>1232.2</ele>
    </trkpt>
    <trkpt lat="41.996201" lon="-2.190583">
      <ele>1232.7</ele>
    </trkpt>
    <trkpt lat="41.996592" lon="-2.190152">
      <ele>1234.4</ele>
    </trkpt>
    <trkpt lat="41.996675" lon="-2.190146">
      <ele>1234.6</ele>
    </trkpt>
    <trkpt lat="41.996761" lon="-2.1902">
      <ele>1234.9</ele>
    </trkpt>
    <trkpt lat="41.996869" lon="-2.190361">
      <ele>1235.4</ele>
    </trkpt>
    <trkpt lat="41.997084" lon="-2.190806">
      <ele>1236.7</ele>
    </trkpt>
    <trkpt lat="41.997279" lon="-2.191128">
      <ele>1237.8</ele>
    </trkpt>
    <trkpt lat="41.997688" lon="-2.19153">
      <ele>1239.9</ele>
    </trkpt>
    <trkpt lat="41.997951" lon="-2.19163">
      <ele>1240.9</ele>
    </trkpt>
    <trkpt lat="41.998081" lon="-2.191619">
      <ele>1241.4</ele>
    </trkpt>
    <trkpt lat="41.998312" lon="-2.191385">
      <ele>1242.3</ele>
    </trkpt>
    <trkpt lat="41.998772" lon="-2.190578">
      <ele>1243.2</ele>
    </trkpt>
    <trkpt lat="41.998926" lon="-2.190484">
      <ele>1243.1</ele>
    </trkpt>
    <trkpt lat="41.999021" lon="-2.190508">
      <ele>1242.9</ele>
    </trkpt>
    <trkpt lat="41.999139" lon="-2.190605">
      <ele>1242.7</ele>
    </trkpt>
    <trkpt lat="41.999575" lon="-2.190833">
      <ele>1241.7</ele>
    </trkpt>
    <trkpt lat="41.999791" lon="-2.190908">
      <ele>1241.2</ele>
    </trkpt>
    <trkpt lat="42.000088" lon="-2.190938">
      <ele>1240.5</ele>
    </trkpt>
    <trkpt lat="42.00067" lon="-2.190887">
      <ele>1239.5</ele>
    </trkpt>
    <trkpt lat="42.001762" lon="-2.191023">
      <ele>1238.1</ele>
    </trkpt>
    <trkpt lat="42.002541" lon="-2.191077">
      <ele>1238.4</ele>
    </trkpt>
    <trkpt lat="42.002767" lon="-2.191053">
      <ele>1238.7</ele>
    </trkpt>
    <trkpt lat="42.002918" lon="-2.190986">
      <ele>1239</ele>
    </trkpt>
    <trkpt lat="42.003093" lon="-2.190833">
      <ele>1239.4</ele>
    </trkpt>
    <trkpt lat="42.003251" lon="-2.190651">
      <ele>1239.8</ele>
    </trkpt>
    <trkpt lat="42.003628" lon="-2.190031">
      <ele>1241.2</ele>
    </trkpt>
    <trkpt lat="42.003925" lon="-2.18961">
      <ele>1242</ele>
    </trkpt>
    <trkpt lat="42.004218" lon="-2.189342">
      <ele>1241.9</ele>
    </trkpt>
    <trkpt lat="42.00457" lon="-2.189124">
      <ele>1241.8</ele>
    </trkpt>
    <trkpt lat="42.004652" lon="-2.189108">
      <ele>1241.7</ele>
    </trkpt>
    <trkpt lat="42.004712" lon="-2.189135">
      <ele>1241.8</ele>
    </trkpt>
    <trkpt lat="42.004758" lon="-2.189213">
      <ele>1241.8</ele>
    </trkpt>
    <trkpt lat="42.004829" lon="-2.189297">
      <ele>1242</ele>
    </trkpt>
    <trkpt lat="42.004962" lon="-2.189623">
      <ele>1242.6</ele>
    </trkpt>
    <trkpt lat="42.005063" lon="-2.189747">
      <ele>1243.1</ele>
    </trkpt>
    <trkpt lat="42.005192" lon="-2.190067">
      <ele>1244.2</ele>
    </trkpt>
    <trkpt lat="42.005325" lon="-2.190271">
      <ele>1244.9</ele>
    </trkpt>
    <trkpt lat="42.005441" lon="-2.19012">
      <ele>1245.5</ele>
    </trkpt>
    <trkpt lat="42.005686" lon="-2.189888">
      <ele>1246.8</ele>
    </trkpt>
    <trkpt lat="42.005849" lon="-2.189772">
      <ele>1247.7</ele>
    </trkpt>
    <trkpt lat="42.006048" lon="-2.190003">
      <ele>1248.4</ele>
    </trkpt>
    <trkpt lat="42.006113" lon="-2.190039">
      <ele>1248.6</ele>
    </trkpt>
    <trkpt lat="42.006231" lon="-2.190049">
      <ele>1248.7</ele>
    </trkpt>
    <trkpt lat="42.006585" lon="-2.190096">
      <ele>1248.3</ele>
    </trkpt>
    <trkpt lat="42.006884" lon="-2.190065">
      <ele>1247</ele>
    </trkpt>
    <trkpt lat="42.006894" lon="-2.190614">
      <ele>1244.3</ele>
    </trkpt>
    <trkpt lat="42.006867" lon="-2.190746">
      <ele>1243.7</ele>
    </trkpt>
    <trkpt lat="42.006601" lon="-2.191343">
      <ele>1240.7</ele>
    </trkpt>
    <trkpt lat="42.006683" lon="-2.191391">
      <ele>1240.2</ele>
    </trkpt>
    <trkpt lat="42.006783" lon="-2.191508">
      <ele>1239.6</ele>
    </trkpt>
    <trkpt lat="42.006842" lon="-2.191632">
      <ele>1239.2</ele>
    </trkpt>
    <trkpt lat="42.007273" lon="-2.193513">
      <ele>1242.3</ele>
    </trkpt>
    <trkpt lat="42.007447" lon="-2.193626">
      <ele>1243.6</ele>
    </trkpt>
    <trkpt lat="42.007801" lon="-2.193739">
      <ele>1246.6</ele>
    </trkpt>
    <trkpt lat="42.008" lon="-2.193893">
      <ele>1248.8</ele>
    </trkpt>
    <trkpt lat="42.008268" lon="-2.194178">
      <ele>1252.5</ele>
    </trkpt>
    <trkpt lat="42.00846" lon="-2.19448">
      <ele>1255.8</ele>
    </trkpt>
    <trkpt lat="42.008458" lon="-2.194576">
      <ele>1256.6</ele>
    </trkpt>
    <trkpt lat="42.008659" lon="-2.195008">
      <ele>1260.7</ele>
    </trkpt>
    <trkpt lat="42.008789" lon="-2.19549">
      <ele>1264.2</ele>
    </trkpt>
    <trkpt lat="42.009033" lon="-2.195805">
      <ele>1266.6</ele>
    </trkpt>
    <trkpt lat="42.009099" lon="-2.195944">
      <ele>1267.2</ele>
    </trkpt>
    <trkpt lat="42.009141" lon="-2.196083">
      <ele>1267.7</ele>
    </trkpt>
    <trkpt lat="42.009139" lon="-2.196229">
      <ele>1268.1</ele>
    </trkpt>
    <trkpt lat="42.009284" lon="-2.1967">
      <ele>1268.6</ele>
    </trkpt>
    <trkpt lat="42.00927" lon="-2.196932">
      <ele>1268.5</ele>
    </trkpt>
    <trkpt lat="42.00932" lon="-2.197056">
      <ele>1268.4</ele>
    </trkpt>
    <trkpt lat="42.009324" lon="-2.197351">
      <ele>1267.8</ele>
    </trkpt>
    <trkpt lat="42.009658" lon="-2.198283">
      <ele>1264.4</ele>
    </trkpt>
    <trkpt lat="42.009656" lon="-2.198374">
      <ele>1264.1</ele>
    </trkpt>
    <trkpt lat="42.009837" lon="-2.198785">
      <ele>1262.1</ele>
    </trkpt>
    <trkpt lat="42.01043" lon="-2.199823">
      <ele>1257.3</ele>
    </trkpt>
    <trkpt lat="42.010573" lon="-2.200014">
      <ele>1256.6</ele>
    </trkpt>
    <trkpt lat="42.01095" lon="-2.200268">
      <ele>1255.9</ele>
    </trkpt>
    <trkpt lat="42.011164" lon="-2.200483">
      <ele>1256</ele>
    </trkpt>
    <trkpt lat="42.011446" lon="-2.200668">
      <ele>1256.8</ele>
    </trkpt>
    <trkpt lat="42.011598" lon="-2.200719">
      <ele>1257.5</ele>
    </trkpt>
    <trkpt lat="42.011944" lon="-2.201479">
      <ele>1261.1</ele>
    </trkpt>
    <trkpt lat="42.012008" lon="-2.201779">
      <ele>1262.5</ele>
    </trkpt>
    <trkpt lat="42.012174" lon="-2.20236">
      <ele>1264.7</ele>
    </trkpt>
    <trkpt lat="42.012284" lon="-2.202482">
      <ele>1265.1</ele>
    </trkpt>
    <trkpt lat="42.012341" lon="-2.202701">
      <ele>1265.3</ele>
    </trkpt>
    <trkpt lat="42.012397" lon="-2.202818">
      <ele>1265.3</ele>
    </trkpt>
    <trkpt lat="42.012518" lon="-2.20291">
      <ele>1265.1</ele>
    </trkpt>
    <trkpt lat="42.012643" lon="-2.203098">
      <ele>1264.5</ele>
    </trkpt>
    <trkpt lat="42.012931" lon="-2.203638">
      <ele>1261</ele>
    </trkpt>
    <trkpt lat="42.013143" lon="-2.203923">
      <ele>1257.8</ele>
    </trkpt>
    <trkpt lat="42.014496" lon="-2.20605">
      <ele>1230</ele>
    </trkpt>
    <trkpt lat="42.014871" lon="-2.206457">
      <ele>1226.4</ele>
    </trkpt>
    <trkpt lat="42.015094" lon="-2.206595">
      <ele>1225</ele>
    </trkpt>
    <trkpt lat="42.015253" lon="-2.206651">
      <ele>1224.3</ele>
    </trkpt>
    <trkpt lat="42.015427" lon="-2.206641">
      <ele>1223.8</ele>
    </trkpt>
    <trkpt lat="42.015552" lon="-2.206554">
      <ele>1223.4</ele>
    </trkpt>
    <trkpt lat="42.015679" lon="-2.206437">
      <ele>1223</ele>
    </trkpt>
    <trkpt lat="42.015807" lon="-2.206228">
      <ele>1222.4</ele>
    </trkpt>
    <trkpt lat="42.015913" lon="-2.20619">
      <ele>1222.1</ele>
    </trkpt>
    <trkpt lat="42.016013" lon="-2.206218">
      <ele>1221.7</ele>
    </trkpt>
    <trkpt lat="42.015938" lon="-2.206286">
      <ele>1221.5</ele>
    </trkpt>
    <trkpt lat="42.015862" lon="-2.206425">
      <ele>1220.9</ele>
    </trkpt>
    <trkpt lat="42.015633" lon="-2.207331">
      <ele>1216.3</ele>
    </trkpt>
    <trkpt lat="42.015623" lon="-2.207445">
      <ele>1215.6</ele>
    </trkpt>
    <trkpt lat="42.015654" lon="-2.207567">
      <ele>1214.6</ele>
    </trkpt>
    <trkpt lat="42.015598" lon="-2.207652">
      <ele>1213.8</ele>
    </trkpt>
    <trkpt lat="42.015317" lon="-2.207796">
      <ele>1210.3</ele>
    </trkpt>
    <trkpt lat="42.015274" lon="-2.207864">
      <ele>1209.4</ele>
    </trkpt>
    <trkpt lat="42.015267" lon="-2.207972">
      <ele>1208.4</ele>
    </trkpt>
    <trkpt lat="42.015397" lon="-2.208354">
      <ele>1204.1</ele>
    </trkpt>
    <trkpt lat="42.015269" lon="-2.209051">
      <ele>1196.2</ele>
    </trkpt>
    <trkpt lat="42.015255" lon="-2.209564">
      <ele>1190.5</ele>
    </trkpt>
    <trkpt lat="42.015652" lon="-2.210714">
      <ele>1178.5</ele>
    </trkpt>
    <trkpt lat="42.016052" lon="-2.211184">
      <ele>1173.2</ele>
    </trkpt>
    <trkpt lat="42.016817" lon="-2.211978">
      <ele>1164.3</ele>
    </trkpt>
    <trkpt lat="42.017501" lon="-2.214319">
      <ele>1143.7</ele>
    </trkpt>
    <trkpt lat="42.01763" lon="-2.215465">
      <ele>1133.2</ele>
    </trkpt>
    <trkpt lat="42.017708" lon="-2.215746">
      <ele>1130.4</ele>
    </trkpt>
    <trkpt lat="42.01778" lon="-2.216465">
      <ele>1123.8</ele>
    </trkpt>
    <trkpt lat="42.017845" lon="-2.216806">
      <ele>1120.7</ele>
    </trkpt>
    <trkpt lat="42.01784" lon="-2.217419">
      <ele>1115.8</ele>
    </trkpt>
    <trkpt lat="42.017916" lon="-2.217572">
      <ele>1114.4</ele>
    </trkpt>
    <trkpt lat="42.01796" lon="-2.217729">
      <ele>1113.1</ele>
    </trkpt>
    <trkpt lat="42.018034" lon="-2.218536">
      <ele>1107.1</ele>
    </trkpt>
    <trkpt lat="42.018083" lon="-2.21944">
      <ele>1101.2</ele>
    </trkpt>
    <trkpt lat="42.018352" lon="-2.220234">
      <ele>1095.4</ele>
    </trkpt>
    <trkpt lat="42.018571" lon="-2.220611">
      <ele>1092</ele>
    </trkpt>
    <trkpt lat="42.018612" lon="-2.220889">
      <ele>1089.8</ele>
    </trkpt>
    <trkpt lat="42.018695" lon="-2.221111">
      <ele>1087.8</ele>
    </trkpt>
    <trkpt lat="42.019018" lon="-2.221769">
      <ele>1081.4</ele>
    </trkpt>
    <trkpt lat="42.019108" lon="-2.222023">
      <ele>1079.2</ele>
    </trkpt>
    <trkpt lat="42.019136" lon="-2.222314">
      <ele>1077.1</ele>
    </trkpt>
    <trkpt lat="42.019346" lon="-2.222493">
      <ele>1075</ele>
    </trkpt>
    <trkpt lat="42.019571" lon="-2.222404">
      <ele>1073.3</ele>
    </trkpt>
    <trkpt lat="42.019878" lon="-2.222527">
      <ele>1071.4</ele>
    </trkpt>
    <trkpt lat="42.020605" lon="-2.222328">
      <ele>1069.4</ele>
    </trkpt>
    <trkpt lat="42.021605" lon="-2.221963">
      <ele>1068.8</ele>
    </trkpt>
    <trkpt lat="42.021817" lon="-2.221925">
      <ele>1068.7</ele>
    </trkpt>
    <trkpt lat="42.021966" lon="-2.221946">
      <ele>1068.6</ele>
    </trkpt>
    <trkpt lat="42.022271" lon="-2.222101">
      <ele>1068.3</ele>
    </trkpt>
    <trkpt lat="42.022545" lon="-2.222317">
      <ele>1068</ele>
    </trkpt>
    <trkpt lat="42.023323" lon="-2.223116">
      <ele>1067</ele>
    </trkpt>
    <trkpt lat="42.023657" lon="-2.223362">
      <ele>1066.5</ele>
    </trkpt>
    <trkpt lat="42.024066" lon="-2.223758">
      <ele>1066</ele>
    </trkpt>
    <trkpt lat="42.024313" lon="-2.224043">
      <ele>1065.5</ele>
    </trkpt>
    <trkpt lat="42.024758" lon="-2.2244">
      <ele>1064.8</ele>
    </trkpt>
    <trkpt lat="42.025278" lon="-2.224743">
      <ele>1064</ele>
    </trkpt>
    <trkpt lat="42.025512" lon="-2.224972">
      <ele>1063.5</ele>
    </trkpt>
    <trkpt lat="42.025805" lon="-2.225216">
      <ele>1063.1</ele>
    </trkpt>
    <trkpt lat="42.02682" lon="-2.225926">
      <ele>1062.7</ele>
    </trkpt>
    <trkpt lat="42.027616" lon="-2.22678">
      <ele>1063.9</ele>
    </trkpt>
    <trkpt lat="42.0283" lon="-2.227634">
      <ele>1065.8</ele>
    </trkpt>
    <trkpt lat="42.028712" lon="-2.228735">
      <ele>1067.6</ele>
    </trkpt>
    <trkpt lat="42.028778" lon="-2.228699">
      <ele>1067.7</ele>
    </trkpt>
    <trkpt lat="42.029058" lon="-2.229503">
      <ele>1068.5</ele>
    </trkpt>
    <trkpt lat="42.029185" lon="-2.229447">
      <ele>1068.5</ele>
    </trkpt>
    <trkpt lat="42.0292" lon="-2.229624">
      <ele>1068.6</ele>
    </trkpt>
    </trkseg>
  </trk>
</gpx>
