<?xml version="1.0" encoding="UTF-8"?>
<gpx version="1.1" creator="fitAI Komoot downloader" xmlns="http://www.topografix.com/GPX/1/1">
  <metadata>
    <name>Senda de los Cuñados y Ermita de San Marcos - Recorrido circular desde Arnedo</name>
    <desc>280 visitas · Dificultad: difficult · Distancia: 45.6 km · Desnivel +: 1246 m</desc>
    <link href="https://www.komoot.com/smarttour/e20150910"><text>Komoot</text></link>
  </metadata>
  <trk>
    <name>Senda de los Cuñados y Ermita de San Marcos - Recorrido circular desde Arnedo</name>
    <type>mtb</type>
    <trkseg>
    <trkpt lat="42.22389" lon="-2.102245">
      <ele>516.3</ele>
    </trkpt>
    <trkpt lat="42.224513" lon="-2.100877">
      <ele>516.2</ele>
    </trkpt>
    <trkpt lat="42.224572" lon="-2.100465">
      <ele>515.9</ele>
    </trkpt>
    <trkpt lat="42.224571" lon="-2.100393">
      <ele>515.9</ele>
    </trkpt>
    <trkpt lat="42.224446" lon="-2.100267">
      <ele>515.6</ele>
    </trkpt>
    <trkpt lat="42.223825" lon="-2.099905">
      <ele>514.3</ele>
    </trkpt>
    <trkpt lat="42.223065" lon="-2.099466">
      <ele>512.2</ele>
    </trkpt>
    <trkpt lat="42.22302" lon="-2.09944">
      <ele>512.1</ele>
    </trkpt>
    <trkpt lat="42.223003" lon="-2.09943">
      <ele>512.1</ele>
    </trkpt>
    <trkpt lat="42.222243" lon="-2.098977">
      <ele>511.6</ele>
    </trkpt>
    <trkpt lat="42.22213" lon="-2.098918">
      <ele>511.7</ele>
    </trkpt>
    <trkpt lat="42.22102" lon="-2.098297">
      <ele>514.7</ele>
    </trkpt>
    <trkpt lat="42.220813" lon="-2.098245">
      <ele>515.8</ele>
    </trkpt>
    <trkpt lat="42.220154" lon="-2.098378">
      <ele>520.1</ele>
    </trkpt>
    <trkpt lat="42.219611" lon="-2.098435">
      <ele>524</ele>
    </trkpt>
    <trkpt lat="42.219281" lon="-2.09839">
      <ele>526.6</ele>
    </trkpt>
    <trkpt lat="42.219019" lon="-2.098318">
      <ele>528.7</ele>
    </trkpt>
    <trkpt lat="42.218438" lon="-2.098155">
      <ele>533.1</ele>
    </trkpt>
    <trkpt lat="42.218044" lon="-2.098142">
      <ele>535.6</ele>
    </trkpt>
    <trkpt lat="42.217648" lon="-2.098188">
      <ele>537.8</ele>
    </trkpt>
    <trkpt lat="42.217247" lon="-2.098287">
      <ele>539.8</ele>
    </trkpt>
    <trkpt lat="42.217241" lon="-2.098533">
      <ele>540.6</ele>
    </trkpt>
    <trkpt lat="42.215902" lon="-2.101216">
      <ele>546.9</ele>
    </trkpt>
    <trkpt lat="42.215506" lon="-2.101431">
      <ele>547.8</ele>
    </trkpt>
    <trkpt lat="42.214297" lon="-2.102189">
      <ele>551.1</ele>
    </trkpt>
    <trkpt lat="42.212974" lon="-2.103337">
      <ele>556.8</ele>
    </trkpt>
    <trkpt lat="42.212341" lon="-2.104172">
      <ele>560.9</ele>
    </trkpt>
    <trkpt lat="42.211797" lon="-2.104569">
      <ele>564</ele>
    </trkpt>
    <trkpt lat="42.211257" lon="-2.104891">
      <ele>566.9</ele>
    </trkpt>
    <trkpt lat="42.209898" lon="-2.10583">
      <ele>574.7</ele>
    </trkpt>
    <trkpt lat="42.209179" lon="-2.106159">
      <ele>578.6</ele>
    </trkpt>
    <trkpt lat="42.208967" lon="-2.106342">
      <ele>579.9</ele>
    </trkpt>
    <trkpt lat="42.208429" lon="-2.106623">
      <ele>582.5</ele>
    </trkpt>
    <trkpt lat="42.208303" lon="-2.106962">
      <ele>583.6</ele>
    </trkpt>
    <trkpt lat="42.207417" lon="-2.108106">
      <ele>588</ele>
    </trkpt>
    <trkpt lat="42.207034" lon="-2.108506">
      <ele>589.6</ele>
    </trkpt>
    <trkpt lat="42.206421" lon="-2.10897">
      <ele>592.3</ele>
    </trkpt>
    <trkpt lat="42.206077" lon="-2.108999">
      <ele>593.8</ele>
    </trkpt>
    <trkpt lat="42.20584" lon="-2.109099">
      <ele>595</ele>
    </trkpt>
    <trkpt lat="42.205238" lon="-2.109206">
      <ele>598</ele>
    </trkpt>
    <trkpt lat="42.2051" lon="-2.10929">
      <ele>598.9</ele>
    </trkpt>
    <trkpt lat="42.204787" lon="-2.109596">
      <ele>601.6</ele>
    </trkpt>
    <trkpt lat="42.204605" lon="-2.109693">
      <ele>603</ele>
    </trkpt>
    <trkpt lat="42.204321" lon="-2.109735">
      <ele>605</ele>
    </trkpt>
    <trkpt lat="42.203975" lon="-2.109306">
      <ele>608.2</ele>
    </trkpt>
    <trkpt lat="42.203862" lon="-2.109293">
      <ele>609</ele>
    </trkpt>
    <trkpt lat="42.203776" lon="-2.10938">
      <ele>609.7</ele>
    </trkpt>
    <trkpt lat="42.203764" lon="-2.109631">
      <ele>610.9</ele>
    </trkpt>
    <trkpt lat="42.203691" lon="-2.109738">
      <ele>611.7</ele>
    </trkpt>
    <trkpt lat="42.202883" lon="-2.110296">
      <ele>617.6</ele>
    </trkpt>
    <trkpt lat="42.202654" lon="-2.110428">
      <ele>619.2</ele>
    </trkpt>
    <trkpt lat="42.202119" lon="-2.110541">
      <ele>623.1</ele>
    </trkpt>
    <trkpt lat="42.201471" lon="-2.110815">
      <ele>628.7</ele>
    </trkpt>
    <trkpt lat="42.201032" lon="-2.110937">
      <ele>632.5</ele>
    </trkpt>
    <trkpt lat="42.200693" lon="-2.111182">
      <ele>635.8</ele>
    </trkpt>
    <trkpt lat="42.200287" lon="-2.111614">
      <ele>640.2</ele>
    </trkpt>
    <trkpt lat="42.199897" lon="-2.112253">
      <ele>645.3</ele>
    </trkpt>
    <trkpt lat="42.199699" lon="-2.11253">
      <ele>647.6</ele>
    </trkpt>
    <trkpt lat="42.198789" lon="-2.112975">
      <ele>655.1</ele>
    </trkpt>
    <trkpt lat="42.198213" lon="-2.113349">
      <ele>660</ele>
    </trkpt>
    <trkpt lat="42.197637" lon="-2.11382">
      <ele>665</ele>
    </trkpt>
    <trkpt lat="42.196954" lon="-2.114446">
      <ele>670.6</ele>
    </trkpt>
    <trkpt lat="42.196328" lon="-2.114842">
      <ele>676.1</ele>
    </trkpt>
    <trkpt lat="42.195815" lon="-2.115252">
      <ele>681.2</ele>
    </trkpt>
    <trkpt lat="42.195664" lon="-2.115323">
      <ele>682.6</ele>
    </trkpt>
    <trkpt lat="42.195206" lon="-2.115539">
      <ele>687.3</ele>
    </trkpt>
    <trkpt lat="42.194854" lon="-2.115945">
      <ele>691.7</ele>
    </trkpt>
    <trkpt lat="42.194525" lon="-2.116216">
      <ele>695</ele>
    </trkpt>
    <trkpt lat="42.194035" lon="-2.116764">
      <ele>700.4</ele>
    </trkpt>
    <trkpt lat="42.193569" lon="-2.117132">
      <ele>705</ele>
    </trkpt>
    <trkpt lat="42.192982" lon="-2.117519">
      <ele>710.7</ele>
    </trkpt>
    <trkpt lat="42.192833" lon="-2.11768">
      <ele>712.5</ele>
    </trkpt>
    <trkpt lat="42.19263" lon="-2.117773">
      <ele>714.5</ele>
    </trkpt>
    <trkpt lat="42.192396" lon="-2.118038">
      <ele>717.6</ele>
    </trkpt>
    <trkpt lat="42.191923" lon="-2.118135">
      <ele>722.4</ele>
    </trkpt>
    <trkpt lat="42.191359" lon="-2.118712">
      <ele>729.3</ele>
    </trkpt>
    <trkpt lat="42.190932" lon="-2.118966">
      <ele>733.7</ele>
    </trkpt>
    <trkpt lat="42.190542" lon="-2.119292">
      <ele>737.9</ele>
    </trkpt>
    <trkpt lat="42.190268" lon="-2.119405">
      <ele>740.4</ele>
    </trkpt>
    <trkpt lat="42.189925" lon="-2.119659">
      <ele>744</ele>
    </trkpt>
    <trkpt lat="42.189725" lon="-2.119949">
      <ele>746.7</ele>
    </trkpt>
    <trkpt lat="42.189524" lon="-2.120417">
      <ele>750.5</ele>
    </trkpt>
    <trkpt lat="42.189032" lon="-2.120949">
      <ele>756.9</ele>
    </trkpt>
    <trkpt lat="42.188634" lon="-2.121537">
      <ele>762.9</ele>
    </trkpt>
    <trkpt lat="42.188142" lon="-2.122085">
      <ele>769.3</ele>
    </trkpt>
    <trkpt lat="42.187368" lon="-2.122771">
      <ele>778.8</ele>
    </trkpt>
    <trkpt lat="42.187001" lon="-2.123315">
      <ele>784.5</ele>
    </trkpt>
    <trkpt lat="42.186786" lon="-2.123488">
      <ele>787.1</ele>
    </trkpt>
    <trkpt lat="42.186589" lon="-2.123528">
      <ele>789.2</ele>
    </trkpt>
    <trkpt lat="42.185977" lon="-2.124197">
      <ele>797.3</ele>
    </trkpt>
    <trkpt lat="42.185782" lon="-2.124459">
      <ele>799.8</ele>
    </trkpt>
    <trkpt lat="42.185544" lon="-2.124629">
      <ele>802.1</ele>
    </trkpt>
    <trkpt lat="42.185194" lon="-2.124734">
      <ele>804.9</ele>
    </trkpt>
    <trkpt lat="42.184797" lon="-2.124963">
      <ele>808.1</ele>
    </trkpt>
    <trkpt lat="42.184615" lon="-2.124967">
      <ele>809.4</ele>
    </trkpt>
    <trkpt lat="42.184421" lon="-2.124875">
      <ele>810.9</ele>
    </trkpt>
    <trkpt lat="42.184307" lon="-2.124903">
      <ele>811.8</ele>
    </trkpt>
    <trkpt lat="42.184152" lon="-2.125084">
      <ele>813.2</ele>
    </trkpt>
    <trkpt lat="42.183814" lon="-2.125669">
      <ele>817.5</ele>
    </trkpt>
    <trkpt lat="42.183686" lon="-2.125983">
      <ele>819.8</ele>
    </trkpt>
    <trkpt lat="42.183017" lon="-2.126926">
      <ele>829.5</ele>
    </trkpt>
    <trkpt lat="42.182909" lon="-2.127184">
      <ele>831.8</ele>
    </trkpt>
    <trkpt lat="42.182867" lon="-2.127466">
      <ele>834.1</ele>
    </trkpt>
    <trkpt lat="42.182691" lon="-2.127692">
      <ele>836.6</ele>
    </trkpt>
    <trkpt lat="42.182192" lon="-2.128143">
      <ele>842.9</ele>
    </trkpt>
    <trkpt lat="42.181855" lon="-2.128563">
      <ele>847.2</ele>
    </trkpt>
    <trkpt lat="42.181652" lon="-2.128772">
      <ele>849.2</ele>
    </trkpt>
    <trkpt lat="42.181517" lon="-2.128817">
      <ele>850.1</ele>
    </trkpt>
    <trkpt lat="42.181407" lon="-2.128804">
      <ele>850.9</ele>
    </trkpt>
    <trkpt lat="42.181314" lon="-2.128651">
      <ele>851.7</ele>
    </trkpt>
    <trkpt lat="42.181314" lon="-2.12843">
      <ele>852.6</ele>
    </trkpt>
    <trkpt lat="42.181455" lon="-2.12793">
      <ele>854.2</ele>
    </trkpt>
    <trkpt lat="42.181476" lon="-2.127531">
      <ele>855.5</ele>
    </trkpt>
    <trkpt lat="42.181272" lon="-2.127236">
      <ele>856.7</ele>
    </trkpt>
    <trkpt lat="42.181028" lon="-2.126995">
      <ele>857.5</ele>
    </trkpt>
    <trkpt lat="42.180851" lon="-2.126999">
      <ele>858</ele>
    </trkpt>
    <trkpt lat="42.180702" lon="-2.127136">
      <ele>858.5</ele>
    </trkpt>
    <trkpt lat="42.180762" lon="-2.127317">
      <ele>859</ele>
    </trkpt>
    <trkpt lat="42.180968" lon="-2.127728">
      <ele>860.5</ele>
    </trkpt>
    <trkpt lat="42.181033" lon="-2.127978">
      <ele>861.5</ele>
    </trkpt>
    <trkpt lat="42.180992" lon="-2.128482">
      <ele>864.1</ele>
    </trkpt>
    <trkpt lat="42.180914" lon="-2.128623">
      <ele>865</ele>
    </trkpt>
    <trkpt lat="42.180738" lon="-2.128607">
      <ele>866.2</ele>
    </trkpt>
    <trkpt lat="42.18055" lon="-2.12845">
      <ele>867.9</ele>
    </trkpt>
    <trkpt lat="42.179872" lon="-2.12822">
      <ele>875.4</ele>
    </trkpt>
    <trkpt lat="42.17963" lon="-2.128293">
      <ele>878.6</ele>
    </trkpt>
    <trkpt lat="42.179244" lon="-2.128147">
      <ele>884</ele>
    </trkpt>
    <trkpt lat="42.179104" lon="-2.128196">
      <ele>885.9</ele>
    </trkpt>
    <trkpt lat="42.178961" lon="-2.128381">
      <ele>888.4</ele>
    </trkpt>
    <trkpt lat="42.178498" lon="-2.12851">
      <ele>893.9</ele>
    </trkpt>
    <trkpt lat="42.178348" lon="-2.128925">
      <ele>897.6</ele>
    </trkpt>
    <trkpt lat="42.17805" lon="-2.129296">
      <ele>901.5</ele>
    </trkpt>
    <trkpt lat="42.177909" lon="-2.129224">
      <ele>902.8</ele>
    </trkpt>
    <trkpt lat="42.177844" lon="-2.129224">
      <ele>903.4</ele>
    </trkpt>
    <trkpt lat="42.177772" lon="-2.129341">
      <ele>904.4</ele>
    </trkpt>
    <trkpt lat="42.177706" lon="-2.129349">
      <ele>905</ele>
    </trkpt>
    <trkpt lat="42.177602" lon="-2.1293">
      <ele>905.9</ele>
    </trkpt>
    <trkpt lat="42.177419" lon="-2.128728">
      <ele>909.8</ele>
    </trkpt>
    <trkpt lat="42.177148" lon="-2.128385">
      <ele>913.2</ele>
    </trkpt>
    <trkpt lat="42.176986" lon="-2.12828">
      <ele>914.9</ele>
    </trkpt>
    <trkpt lat="42.176646" lon="-2.12826">
      <ele>918.5</ele>
    </trkpt>
    <trkpt lat="42.176353" lon="-2.128446">
      <ele>922.3</ele>
    </trkpt>
    <trkpt lat="42.176129" lon="-2.128357">
      <ele>925.1</ele>
    </trkpt>
    <trkpt lat="42.175854" lon="-2.128482">
      <ele>928.7</ele>
    </trkpt>
    <trkpt lat="42.175762" lon="-2.128587">
      <ele>930.2</ele>
    </trkpt>
    <trkpt lat="42.175576" lon="-2.128559">
      <ele>932.5</ele>
    </trkpt>
    <trkpt lat="42.175302" lon="-2.128639">
      <ele>936</ele>
    </trkpt>
    <trkpt lat="42.175173" lon="-2.128623">
      <ele>937.6</ele>
    </trkpt>
    <trkpt lat="42.175009" lon="-2.128603">
      <ele>939.6</ele>
    </trkpt>
    <trkpt lat="42.174397" lon="-2.12845">
      <ele>946.2</ele>
    </trkpt>
    <trkpt lat="42.173769" lon="-2.12843">
      <ele>949.3</ele>
    </trkpt>
    <trkpt lat="42.173721" lon="-2.128373">
      <ele>949.4</ele>
    </trkpt>
    <trkpt lat="42.173695" lon="-2.12822">
      <ele>949.5</ele>
    </trkpt>
    <trkpt lat="42.17379" lon="-2.127897">
      <ele>949.4</ele>
    </trkpt>
    <trkpt lat="42.174175" lon="-2.127019">
      <ele>946.3</ele>
    </trkpt>
    <trkpt lat="42.174985" lon="-2.126164">
      <ele>939.9</ele>
    </trkpt>
    <trkpt lat="42.175164" lon="-2.125697">
      <ele>937.9</ele>
    </trkpt>
    <trkpt lat="42.175845" lon="-2.124939">
      <ele>934.1</ele>
    </trkpt>
    <trkpt lat="42.176189" lon="-2.124725">
      <ele>933.1</ele>
    </trkpt>
    <trkpt lat="42.176308" lon="-2.124488">
      <ele>932.7</ele>
    </trkpt>
    <trkpt lat="42.176096" lon="-2.123605">
      <ele>932.5</ele>
    </trkpt>
    <trkpt lat="42.175239" lon="-2.12271">
      <ele>932.8</ele>
    </trkpt>
    <trkpt lat="42.174976" lon="-2.122202">
      <ele>931.1</ele>
    </trkpt>
    <trkpt lat="42.17485" lon="-2.121876">
      <ele>929.4</ele>
    </trkpt>
    <trkpt lat="42.174762" lon="-2.121803">
      <ele>928.7</ele>
    </trkpt>
    <trkpt lat="42.174559" lon="-2.121637">
      <ele>926.7</ele>
    </trkpt>
    <trkpt lat="42.174552" lon="-2.12135">
      <ele>924.7</ele>
    </trkpt>
    <trkpt lat="42.174447" lon="-2.120896">
      <ele>921.3</ele>
    </trkpt>
    <trkpt lat="42.174399" lon="-2.120573">
      <ele>919</ele>
    </trkpt>
    <trkpt lat="42.174449" lon="-2.120306">
      <ele>917.2</ele>
    </trkpt>
    <trkpt lat="42.174579" lon="-2.119919">
      <ele>914.6</ele>
    </trkpt>
    <trkpt lat="42.174855" lon="-2.119301">
      <ele>910.5</ele>
    </trkpt>
    <trkpt lat="42.174937" lon="-2.119019">
      <ele>909.1</ele>
    </trkpt>
    <trkpt lat="42.174952" lon="-2.117897">
      <ele>904.6</ele>
    </trkpt>
    <trkpt lat="42.175004" lon="-2.117329">
      <ele>902.8</ele>
    </trkpt>
    <trkpt lat="42.175289" lon="-2.116466">
      <ele>900.7</ele>
    </trkpt>
    <trkpt lat="42.175257" lon="-2.116019">
      <ele>899.8</ele>
    </trkpt>
    <trkpt lat="42.174945" lon="-2.115575">
      <ele>898.3</ele>
    </trkpt>
    <trkpt lat="42.174932" lon="-2.115373">
      <ele>897.6</ele>
    </trkpt>
    <trkpt lat="42.174977" lon="-2.115055">
      <ele>896.3</ele>
    </trkpt>
    <trkpt lat="42.174945" lon="-2.11473">
      <ele>894.9</ele>
    </trkpt>
    <trkpt lat="42.174817" lon="-2.114494">
      <ele>893.6</ele>
    </trkpt>
    <trkpt lat="42.174338" lon="-2.114091">
      <ele>890.1</ele>
    </trkpt>
    <trkpt lat="42.174183" lon="-2.113832">
      <ele>888.6</ele>
    </trkpt>
    <trkpt lat="42.174159" lon="-2.113174">
      <ele>885.4</ele>
    </trkpt>
    <trkpt lat="42.174092" lon="-2.11292">
      <ele>884.1</ele>
    </trkpt>
    <trkpt lat="42.17385" lon="-2.1124">
      <ele>881</ele>
    </trkpt>
    <trkpt lat="42.173915" lon="-2.11174">
      <ele>877.2</ele>
    </trkpt>
    <trkpt lat="42.17389" lon="-2.111466">
      <ele>875.5</ele>
    </trkpt>
    <trkpt lat="42.173807" lon="-2.111177">
      <ele>873.4</ele>
    </trkpt>
    <trkpt lat="42.173335" lon="-2.1106">
      <ele>867.6</ele>
    </trkpt>
    <trkpt lat="42.17326" lon="-2.110376">
      <ele>865.9</ele>
    </trkpt>
    <trkpt lat="42.173344" lon="-2.109834">
      <ele>862</ele>
    </trkpt>
    <trkpt lat="42.173297" lon="-2.109383">
      <ele>858.9</ele>
    </trkpt>
    <trkpt lat="42.173225" lon="-2.109133">
      <ele>857.3</ele>
    </trkpt>
    <trkpt lat="42.172854" lon="-2.108496">
      <ele>853.2</ele>
    </trkpt>
    <trkpt lat="42.172852" lon="-2.108329">
      <ele>852.7</ele>
    </trkpt>
    <trkpt lat="42.172912" lon="-2.108186">
      <ele>852.2</ele>
    </trkpt>
    <trkpt lat="42.173267" lon="-2.10759">
      <ele>851.4</ele>
    </trkpt>
    <trkpt lat="42.17335" lon="-2.107529">
      <ele>851.4</ele>
    </trkpt>
    <trkpt lat="42.173459" lon="-2.107626">
      <ele>851.5</ele>
    </trkpt>
    <trkpt lat="42.173637" lon="-2.108319">
      <ele>852.4</ele>
    </trkpt>
    <trkpt lat="42.174384" lon="-2.109691">
      <ele>853.3</ele>
    </trkpt>
    <trkpt lat="42.175012" lon="-2.11021">
      <ele>851.4</ele>
    </trkpt>
    <trkpt lat="42.175167" lon="-2.1104">
      <ele>850.5</ele>
    </trkpt>
    <trkpt lat="42.175242" lon="-2.11043">
      <ele>850.1</ele>
    </trkpt>
    <trkpt lat="42.175287" lon="-2.110367">
      <ele>849.7</ele>
    </trkpt>
    <trkpt lat="42.175255" lon="-2.11025">
      <ele>849.2</ele>
    </trkpt>
    <trkpt lat="42.174987" lon="-2.109935">
      <ele>846.6</ele>
    </trkpt>
    <trkpt lat="42.174684" lon="-2.109353">
      <ele>841.5</ele>
    </trkpt>
    <trkpt lat="42.174437" lon="-2.108436">
      <ele>833</ele>
    </trkpt>
    <trkpt lat="42.174338" lon="-2.107907">
      <ele>828.1</ele>
    </trkpt>
    <trkpt lat="42.174314" lon="-2.107394">
      <ele>823.9</ele>
    </trkpt>
    <trkpt lat="42.174414" lon="-2.106562">
      <ele>817.8</ele>
    </trkpt>
    <trkpt lat="42.174431" lon="-2.105924">
      <ele>813.7</ele>
    </trkpt>
    <trkpt lat="42.174595" lon="-2.104854">
      <ele>805.8</ele>
    </trkpt>
    <trkpt lat="42.174607" lon="-2.103861">
      <ele>796.6</ele>
    </trkpt>
    <trkpt lat="42.174688" lon="-2.102932">
      <ele>786.7</ele>
    </trkpt>
    <trkpt lat="42.174687" lon="-2.102027">
      <ele>776.9</ele>
    </trkpt>
    <trkpt lat="42.17483" lon="-2.100986">
      <ele>769.5</ele>
    </trkpt>
    <trkpt lat="42.174735" lon="-2.100963">
      <ele>769</ele>
    </trkpt>
    <trkpt lat="42.174613" lon="-2.100765">
      <ele>768.2</ele>
    </trkpt>
    <trkpt lat="42.174523" lon="-2.100728">
      <ele>768</ele>
    </trkpt>
    <trkpt lat="42.17412" lon="-2.100981">
      <ele>767.8</ele>
    </trkpt>
    <trkpt lat="42.173977" lon="-2.101115">
      <ele>768.1</ele>
    </trkpt>
    <trkpt lat="42.173683" lon="-2.101271">
      <ele>769.2</ele>
    </trkpt>
    <trkpt lat="42.173339" lon="-2.101514">
      <ele>770.8</ele>
    </trkpt>
    <trkpt lat="42.173105" lon="-2.101767">
      <ele>771.9</ele>
    </trkpt>
    <trkpt lat="42.172677" lon="-2.102687">
      <ele>775</ele>
    </trkpt>
    <trkpt lat="42.172479" lon="-2.103373">
      <ele>777.2</ele>
    </trkpt>
    <trkpt lat="42.172371" lon="-2.103965">
      <ele>779</ele>
    </trkpt>
    <trkpt lat="42.172354" lon="-2.104234">
      <ele>779.7</ele>
    </trkpt>
    <trkpt lat="42.172043" lon="-2.104985">
      <ele>781.8</ele>
    </trkpt>
    <trkpt lat="42.171969" lon="-2.105357">
      <ele>782.5</ele>
    </trkpt>
    <trkpt lat="42.171962" lon="-2.105652">
      <ele>783</ele>
    </trkpt>
    <trkpt lat="42.171853" lon="-2.105985">
      <ele>783.8</ele>
    </trkpt>
    <trkpt lat="42.171807" lon="-2.106297">
      <ele>784.6</ele>
    </trkpt>
    <trkpt lat="42.17184" lon="-2.10674">
      <ele>786</ele>
    </trkpt>
    <trkpt lat="42.171791" lon="-2.106832">
      <ele>786.4</ele>
    </trkpt>
    <trkpt lat="42.171663" lon="-2.106939">
      <ele>787.3</ele>
    </trkpt>
    <trkpt lat="42.171571" lon="-2.107119">
      <ele>788.3</ele>
    </trkpt>
    <trkpt lat="42.171267" lon="-2.108048">
      <ele>793.6</ele>
    </trkpt>
    <trkpt lat="42.171222" lon="-2.10872">
      <ele>797.5</ele>
    </trkpt>
    <trkpt lat="42.170967" lon="-2.110021">
      <ele>805.2</ele>
    </trkpt>
    <trkpt lat="42.170947" lon="-2.110296">
      <ele>806.5</ele>
    </trkpt>
    <trkpt lat="42.171012" lon="-2.110697">
      <ele>808.1</ele>
    </trkpt>
    <trkpt lat="42.171241" lon="-2.111227">
      <ele>809.3</ele>
    </trkpt>
    <trkpt lat="42.171265" lon="-2.111334">
      <ele>809.4</ele>
    </trkpt>
    <trkpt lat="42.171239" lon="-2.111435">
      <ele>809.4</ele>
    </trkpt>
    <trkpt lat="42.171176" lon="-2.111455">
      <ele>809.4</ele>
    </trkpt>
    <trkpt lat="42.171064" lon="-2.111371">
      <ele>809.3</ele>
    </trkpt>
    <trkpt lat="42.170297" lon="-2.110206">
      <ele>806.2</ele>
    </trkpt>
    <trkpt lat="42.170204" lon="-2.110165">
      <ele>805.9</ele>
    </trkpt>
    <trkpt lat="42.170116" lon="-2.11019">
      <ele>805.7</ele>
    </trkpt>
    <trkpt lat="42.169968" lon="-2.110326">
      <ele>805.5</ele>
    </trkpt>
    <trkpt lat="42.169792" lon="-2.11061">
      <ele>805.4</ele>
    </trkpt>
    <trkpt lat="42.169192" lon="-2.111229">
      <ele>808</ele>
    </trkpt>
    <trkpt lat="42.169084" lon="-2.11145">
      <ele>809</ele>
    </trkpt>
    <trkpt lat="42.168877" lon="-2.112068">
      <ele>811.9</ele>
    </trkpt>
    <trkpt lat="42.168649" lon="-2.112481">
      <ele>814.4</ele>
    </trkpt>
    <trkpt lat="42.168484" lon="-2.112651">
      <ele>815.8</ele>
    </trkpt>
    <trkpt lat="42.168366" lon="-2.11283">
      <ele>817</ele>
    </trkpt>
    <trkpt lat="42.168103" lon="-2.112933">
      <ele>818.9</ele>
    </trkpt>
    <trkpt lat="42.167859" lon="-2.113139">
      <ele>821</ele>
    </trkpt>
    <trkpt lat="42.167673" lon="-2.113387">
      <ele>822.7</ele>
    </trkpt>
    <trkpt lat="42.167567" lon="-2.113702">
      <ele>824.3</ele>
    </trkpt>
    <trkpt lat="42.167602" lon="-2.114233">
      <ele>826.6</ele>
    </trkpt>
    <trkpt lat="42.167533" lon="-2.114324">
      <ele>827.1</ele>
    </trkpt>
    <trkpt lat="42.16743" lon="-2.114297">
      <ele>827.6</ele>
    </trkpt>
    <trkpt lat="42.167345" lon="-2.114171">
      <ele>828.1</ele>
    </trkpt>
    <trkpt lat="42.167236" lon="-2.113851">
      <ele>829.2</ele>
    </trkpt>
    <trkpt lat="42.167174" lon="-2.113299">
      <ele>830.6</ele>
    </trkpt>
    <trkpt lat="42.167249" lon="-2.113055">
      <ele>831.2</ele>
    </trkpt>
    <trkpt lat="42.167384" lon="-2.11277">
      <ele>832</ele>
    </trkpt>
    <trkpt lat="42.167687" lon="-2.111806">
      <ele>836.1</ele>
    </trkpt>
    <trkpt lat="42.167711" lon="-2.111635">
      <ele>837.1</ele>
    </trkpt>
    <trkpt lat="42.167662" lon="-2.111382">
      <ele>838.8</ele>
    </trkpt>
    <trkpt lat="42.16744" lon="-2.111234">
      <ele>841.2</ele>
    </trkpt>
    <trkpt lat="42.166701" lon="-2.111126">
      <ele>848.2</ele>
    </trkpt>
    <trkpt lat="42.166336" lon="-2.110997">
      <ele>850.4</ele>
    </trkpt>
    <trkpt lat="42.165829" lon="-2.110892">
      <ele>852.2</ele>
    </trkpt>
    <trkpt lat="42.16557" lon="-2.110657">
      <ele>852.2</ele>
    </trkpt>
    <trkpt lat="42.165405" lon="-2.110664">
      <ele>852</ele>
    </trkpt>
    <trkpt lat="42.165238" lon="-2.11083">
      <ele>851.5</ele>
    </trkpt>
    <trkpt lat="42.164997" lon="-2.110987">
      <ele>850.7</ele>
    </trkpt>
    <trkpt lat="42.16483" lon="-2.110985">
      <ele>850.1</ele>
    </trkpt>
    <trkpt lat="42.16465" lon="-2.110816">
      <ele>849.5</ele>
    </trkpt>
    <trkpt lat="42.164525" lon="-2.110806">
      <ele>849.2</ele>
    </trkpt>
    <trkpt lat="42.163705" lon="-2.111144">
      <ele>848.4</ele>
    </trkpt>
    <trkpt lat="42.163325" lon="-2.111375">
      <ele>848.7</ele>
    </trkpt>
    <trkpt lat="42.163286" lon="-2.111463">
      <ele>848.8</ele>
    </trkpt>
    <trkpt lat="42.163214" lon="-2.111507">
      <ele>849</ele>
    </trkpt>
    <trkpt lat="42.162333" lon="-2.111638">
      <ele>852.6</ele>
    </trkpt>
    <trkpt lat="42.162046" lon="-2.111879">
      <ele>854.5</ele>
    </trkpt>
    <trkpt lat="42.161973" lon="-2.112032">
      <ele>855.2</ele>
    </trkpt>
    <trkpt lat="42.161941" lon="-2.112204">
      <ele>855.9</ele>
    </trkpt>
    <trkpt lat="42.161824" lon="-2.112299">
      <ele>856.7</ele>
    </trkpt>
    <trkpt lat="42.161576" lon="-2.1123">
      <ele>858.1</ele>
    </trkpt>
    <trkpt lat="42.161149" lon="-2.112511">
      <ele>860.8</ele>
    </trkpt>
    <trkpt lat="42.160644" lon="-2.11282">
      <ele>864</ele>
    </trkpt>
    <trkpt lat="42.160411" lon="-2.11303">
      <ele>865.7</ele>
    </trkpt>
    <trkpt lat="42.160118" lon="-2.113361">
      <ele>868.2</ele>
    </trkpt>
    <trkpt lat="42.159968" lon="-2.113631">
      <ele>870</ele>
    </trkpt>
    <trkpt lat="42.15969" lon="-2.113879">
      <ele>872.3</ele>
    </trkpt>
    <trkpt lat="42.159552" lon="-2.11436">
      <ele>874.7</ele>
    </trkpt>
    <trkpt lat="42.159524" lon="-2.114591">
      <ele>875.5</ele>
    </trkpt>
    <trkpt lat="42.159479" lon="-2.114696">
      <ele>875.9</ele>
    </trkpt>
    <trkpt lat="42.159444" lon="-2.114778">
      <ele>876.2</ele>
    </trkpt>
    <trkpt lat="42.159298" lon="-2.114872">
      <ele>876.7</ele>
    </trkpt>
    <trkpt lat="42.159158" lon="-2.114736">
      <ele>877</ele>
    </trkpt>
    <trkpt lat="42.159102" lon="-2.114371">
      <ele>877.4</ele>
    </trkpt>
    <trkpt lat="42.158704" lon="-2.113474">
      <ele>877.8</ele>
    </trkpt>
    <trkpt lat="42.158609" lon="-2.113421">
      <ele>877.9</ele>
    </trkpt>
    <trkpt lat="42.158498" lon="-2.113474">
      <ele>878</ele>
    </trkpt>
    <trkpt lat="42.158211" lon="-2.11374">
      <ele>878.7</ele>
    </trkpt>
    <trkpt lat="42.158026" lon="-2.114056">
      <ele>879.7</ele>
    </trkpt>
    <trkpt lat="42.157725" lon="-2.114975">
      <ele>883.9</ele>
    </trkpt>
    <trkpt lat="42.157648" lon="-2.115242">
      <ele>885.4</ele>
    </trkpt>
    <trkpt lat="42.15763" lon="-2.115396">
      <ele>886.2</ele>
    </trkpt>
    <trkpt lat="42.157631" lon="-2.116001">
      <ele>889</ele>
    </trkpt>
    <trkpt lat="42.157607" lon="-2.116248">
      <ele>889.9</ele>
    </trkpt>
    <trkpt lat="42.157574" lon="-2.116323">
      <ele>890.2</ele>
    </trkpt>
    <trkpt lat="42.157468" lon="-2.116296">
      <ele>890.6</ele>
    </trkpt>
    <trkpt lat="42.157429" lon="-2.116205">
      <ele>890.9</ele>
    </trkpt>
    <trkpt lat="42.1574" lon="-2.115835">
      <ele>891.7</ele>
    </trkpt>
    <trkpt lat="42.157309" lon="-2.115551">
      <ele>892.1</ele>
    </trkpt>
    <trkpt lat="42.157144" lon="-2.115236">
      <ele>892.6</ele>
    </trkpt>
    <trkpt lat="42.157168" lon="-2.115038">
      <ele>892.8</ele>
    </trkpt>
    <trkpt lat="42.157159" lon="-2.114785">
      <ele>893.2</ele>
    </trkpt>
    <trkpt lat="42.15707" lon="-2.11443">
      <ele>893.9</ele>
    </trkpt>
    <trkpt lat="42.156955" lon="-2.114234">
      <ele>894.5</ele>
    </trkpt>
    <trkpt lat="42.156772" lon="-2.114116">
      <ele>895.3</ele>
    </trkpt>
    <trkpt lat="42.156477" lon="-2.114087">
      <ele>896.9</ele>
    </trkpt>
    <trkpt lat="42.156256" lon="-2.114145">
      <ele>898.3</ele>
    </trkpt>
    <trkpt lat="42.156002" lon="-2.114338">
      <ele>900.1</ele>
    </trkpt>
    <trkpt lat="42.155922" lon="-2.114353">
      <ele>900.7</ele>
    </trkpt>
    <trkpt lat="42.155718" lon="-2.114276">
      <ele>902</ele>
    </trkpt>
    <trkpt lat="42.155632" lon="-2.11418">
      <ele>902.6</ele>
    </trkpt>
    <trkpt lat="42.155566" lon="-2.114174">
      <ele>903</ele>
    </trkpt>
    <trkpt lat="42.155477" lon="-2.114108">
      <ele>903.5</ele>
    </trkpt>
    <trkpt lat="42.155003" lon="-2.113541">
      <ele>906.1</ele>
    </trkpt>
    <trkpt lat="42.154701" lon="-2.112965">
      <ele>907.6</ele>
    </trkpt>
    <trkpt lat="42.15463" lon="-2.112872">
      <ele>907.9</ele>
    </trkpt>
    <trkpt lat="42.154639" lon="-2.112997">
      <ele>908.3</ele>
    </trkpt>
    <trkpt lat="42.154711" lon="-2.113238">
      <ele>909</ele>
    </trkpt>
    <trkpt lat="42.154938" lon="-2.113869">
      <ele>911.8</ele>
    </trkpt>
    <trkpt lat="42.155054" lon="-2.114432">
      <ele>914.9</ele>
    </trkpt>
    <trkpt lat="42.155068" lon="-2.1148">
      <ele>916.8</ele>
    </trkpt>
    <trkpt lat="42.15517" lon="-2.115039">
      <ele>918.2</ele>
    </trkpt>
    <trkpt lat="42.155244" lon="-2.115156">
      <ele>919.1</ele>
    </trkpt>
    <trkpt lat="42.155439" lon="-2.115325">
      <ele>920.8</ele>
    </trkpt>
    <trkpt lat="42.155501" lon="-2.115411">
      <ele>921.5</ele>
    </trkpt>
    <trkpt lat="42.155546" lon="-2.115529">
      <ele>922.3</ele>
    </trkpt>
    <trkpt lat="42.155682" lon="-2.116162">
      <ele>925.9</ele>
    </trkpt>
    <trkpt lat="42.15566" lon="-2.116333">
      <ele>926.8</ele>
    </trkpt>
    <trkpt lat="42.155398" lon="-2.116586">
      <ele>928.7</ele>
    </trkpt>
    <trkpt lat="42.155351" lon="-2.116679">
      <ele>929.1</ele>
    </trkpt>
    <trkpt lat="42.155343" lon="-2.116772">
      <ele>929.5</ele>
    </trkpt>
    <trkpt lat="42.155389" lon="-2.116946">
      <ele>930.1</ele>
    </trkpt>
    <trkpt lat="42.155532" lon="-2.117329">
      <ele>931.2</ele>
    </trkpt>
    <trkpt lat="42.155785" lon="-2.117675">
      <ele>932.1</ele>
    </trkpt>
    <trkpt lat="42.155909" lon="-2.118009">
      <ele>932.5</ele>
    </trkpt>
    <trkpt lat="42.15594" lon="-2.118208">
      <ele>932.6</ele>
    </trkpt>
    <trkpt lat="42.1561" lon="-2.118549">
      <ele>932.8</ele>
    </trkpt>
    <trkpt lat="42.156178" lon="-2.118656">
      <ele>932.9</ele>
    </trkpt>
    <trkpt lat="42.15637" lon="-2.118804">
      <ele>933.1</ele>
    </trkpt>
    <trkpt lat="42.156476" lon="-2.118973">
      <ele>933.3</ele>
    </trkpt>
    <trkpt lat="42.156475" lon="-2.119136">
      <ele>933.5</ele>
    </trkpt>
    <trkpt lat="42.156266" lon="-2.119418">
      <ele>934.2</ele>
    </trkpt>
    <trkpt lat="42.156232" lon="-2.119501">
      <ele>934.4</ele>
    </trkpt>
    <trkpt lat="42.156224" lon="-2.119608">
      <ele>934.6</ele>
    </trkpt>
    <trkpt lat="42.1564" lon="-2.120239">
      <ele>936.2</ele>
    </trkpt>
    <trkpt lat="42.156577" lon="-2.121489">
      <ele>939</ele>
    </trkpt>
    <trkpt lat="42.156619" lon="-2.121574">
      <ele>939.1</ele>
    </trkpt>
    <trkpt lat="42.157034" lon="-2.121929">
      <ele>939.6</ele>
    </trkpt>
    <trkpt lat="42.157449" lon="-2.122169">
      <ele>940</ele>
    </trkpt>
    <trkpt lat="42.157729" lon="-2.122289">
      <ele>940.4</ele>
    </trkpt>
    <trkpt lat="42.157868" lon="-2.122408">
      <ele>940.7</ele>
    </trkpt>
    <trkpt lat="42.157925" lon="-2.122493">
      <ele>940.8</ele>
    </trkpt>
    <trkpt lat="42.15802" lon="-2.122884">
      <ele>941.6</ele>
    </trkpt>
    <trkpt lat="42.158161" lon="-2.123895">
      <ele>944.7</ele>
    </trkpt>
    <trkpt lat="42.1581" lon="-2.124068">
      <ele>945.5</ele>
    </trkpt>
    <trkpt lat="42.158034" lon="-2.124111">
      <ele>945.9</ele>
    </trkpt>
    <trkpt lat="42.157895" lon="-2.12412">
      <ele>946.6</ele>
    </trkpt>
    <trkpt lat="42.157821" lon="-2.124192">
      <ele>947.1</ele>
    </trkpt>
    <trkpt lat="42.1578" lon="-2.124309">
      <ele>947.5</ele>
    </trkpt>
    <trkpt lat="42.157849" lon="-2.124466">
      <ele>948</ele>
    </trkpt>
    <trkpt lat="42.158268" lon="-2.125174">
      <ele>950.3</ele>
    </trkpt>
    <trkpt lat="42.158871" lon="-2.125796">
      <ele>951.8</ele>
    </trkpt>
    <trkpt lat="42.159118" lon="-2.125936">
      <ele>952.3</ele>
    </trkpt>
    <trkpt lat="42.159191" lon="-2.12603">
      <ele>952.5</ele>
    </trkpt>
    <trkpt lat="42.159241" lon="-2.126161">
      <ele>952.8</ele>
    </trkpt>
    <trkpt lat="42.159313" lon="-2.126847">
      <ele>954.5</ele>
    </trkpt>
    <trkpt lat="42.159229" lon="-2.127271">
      <ele>955.8</ele>
    </trkpt>
    <trkpt lat="42.159361" lon="-2.127566">
      <ele>957</ele>
    </trkpt>
    <trkpt lat="42.159367" lon="-2.127689">
      <ele>957.5</ele>
    </trkpt>
    <trkpt lat="42.159301" lon="-2.127899">
      <ele>958.3</ele>
    </trkpt>
    <trkpt lat="42.159296" lon="-2.127975">
      <ele>958.5</ele>
    </trkpt>
    <trkpt lat="42.159337" lon="-2.128041">
      <ele>958.8</ele>
    </trkpt>
    <trkpt lat="42.159453" lon="-2.128106">
      <ele>959.4</ele>
    </trkpt>
    <trkpt lat="42.159865" lon="-2.128189">
      <ele>961.5</ele>
    </trkpt>
    <trkpt lat="42.159997" lon="-2.128277">
      <ele>962.1</ele>
    </trkpt>
    <trkpt lat="42.160085" lon="-2.128376">
      <ele>962.6</ele>
    </trkpt>
    <trkpt lat="42.160232" lon="-2.128838">
      <ele>963.8</ele>
    </trkpt>
    <trkpt lat="42.160334" lon="-2.129313">
      <ele>965.1</ele>
    </trkpt>
    <trkpt lat="42.160465" lon="-2.129532">
      <ele>965.8</ele>
    </trkpt>
    <trkpt lat="42.160849" lon="-2.129574">
      <ele>967.1</ele>
    </trkpt>
    <trkpt lat="42.161117" lon="-2.129979">
      <ele>968.6</ele>
    </trkpt>
    <trkpt lat="42.161195" lon="-2.130054">
      <ele>968.9</ele>
    </trkpt>
    <trkpt lat="42.161341" lon="-2.13012">
      <ele>969.4</ele>
    </trkpt>
    <trkpt lat="42.16267" lon="-2.129574">
      <ele>975.7</ele>
    </trkpt>
    <trkpt lat="42.163121" lon="-2.129247">
      <ele>979.3</ele>
    </trkpt>
    <trkpt lat="42.163297" lon="-2.129203">
      <ele>980.8</ele>
    </trkpt>
    <trkpt lat="42.163371" lon="-2.129234">
      <ele>981.5</ele>
    </trkpt>
    <trkpt lat="42.163467" lon="-2.129398">
      <ele>982.9</ele>
    </trkpt>
    <trkpt lat="42.163773" lon="-2.130169">
      <ele>988.2</ele>
    </trkpt>
    <trkpt lat="42.163904" lon="-2.13041">
      <ele>989.7</ele>
    </trkpt>
    <trkpt lat="42.163975" lon="-2.130452">
      <ele>990.1</ele>
    </trkpt>
    <trkpt lat="42.164038" lon="-2.130448">
      <ele>990.4</ele>
    </trkpt>
    <trkpt lat="42.164062" lon="-2.13036">
      <ele>990.7</ele>
    </trkpt>
    <trkpt lat="42.164084" lon="-2.129959">
      <ele>991.4</ele>
    </trkpt>
    <trkpt lat="42.164144" lon="-2.129793">
      <ele>991.5</ele>
    </trkpt>
    <trkpt lat="42.164275" lon="-2.12946">
      <ele>991</ele>
    </trkpt>
    <trkpt lat="42.164256" lon="-2.129342">
      <ele>990.6</ele>
    </trkpt>
    <trkpt lat="42.16408" lon="-2.128924">
      <ele>988.6</ele>
    </trkpt>
    <trkpt lat="42.163706" lon="-2.12776">
      <ele>981.8</ele>
    </trkpt>
    <trkpt lat="42.163486" lon="-2.12688">
      <ele>979.5</ele>
    </trkpt>
    <trkpt lat="42.163706" lon="-2.12776">
      <ele>981.8</ele>
    </trkpt>
    <trkpt lat="42.16408" lon="-2.128924">
      <ele>989.1</ele>
    </trkpt>
    <trkpt lat="42.164256" lon="-2.129342">
      <ele>991.9</ele>
    </trkpt>
    <trkpt lat="42.164275" lon="-2.12946">
      <ele>992.6</ele>
    </trkpt>
    <trkpt lat="42.164144" lon="-2.129793">
      <ele>994.2</ele>
    </trkpt>
    <trkpt lat="42.164283" lon="-2.12975">
      <ele>994.9</ele>
    </trkpt>
    <trkpt lat="42.164352" lon="-2.129691">
      <ele>995.2</ele>
    </trkpt>
    <trkpt lat="42.164455" lon="-2.129523">
      <ele>995.8</ele>
    </trkpt>
    <trkpt lat="42.164434" lon="-2.129417">
      <ele>996</ele>
    </trkpt>
    <trkpt lat="42.164344" lon="-2.129233">
      <ele>996.4</ele>
    </trkpt>
    <trkpt lat="42.164265" lon="-2.128938">
      <ele>996.7</ele>
    </trkpt>
    <trkpt lat="42.164089" lon="-2.127817">
      <ele>998.8</ele>
    </trkpt>
    <trkpt lat="42.164037" lon="-2.127355">
      <ele>1000.6</ele>
    </trkpt>
    <trkpt lat="42.164051" lon="-2.127203">
      <ele>1001.4</ele>
    </trkpt>
    <trkpt lat="42.16414" lon="-2.127074">
      <ele>1002.3</ele>
    </trkpt>
    <trkpt lat="42.16437" lon="-2.126957">
      <ele>1004</ele>
    </trkpt>
    <trkpt lat="42.164646" lon="-2.126958">
      <ele>1006</ele>
    </trkpt>
    <trkpt lat="42.164975" lon="-2.127057">
      <ele>1008.1</ele>
    </trkpt>
    <trkpt lat="42.165226" lon="-2.127078">
      <ele>1009.3</ele>
    </trkpt>
    <trkpt lat="42.165317" lon="-2.127155">
      <ele>1009.8</ele>
    </trkpt>
    <trkpt lat="42.165305" lon="-2.12727">
      <ele>1010.1</ele>
    </trkpt>
    <trkpt lat="42.165234" lon="-2.127311">
      <ele>1010.4</ele>
    </trkpt>
    <trkpt lat="42.164599" lon="-2.127272">
      <ele>1012.3</ele>
    </trkpt>
    <trkpt lat="42.16449" lon="-2.12732">
      <ele>1012.6</ele>
    </trkpt>
    <trkpt lat="42.164441" lon="-2.127404">
      <ele>1012.9</ele>
    </trkpt>
    <trkpt lat="42.164426" lon="-2.127487">
      <ele>1013.2</ele>
    </trkpt>
    <trkpt lat="42.164458" lon="-2.127609">
      <ele>1013.7</ele>
    </trkpt>
    <trkpt lat="42.164742" lon="-2.12819">
      <ele>1017.5</ele>
    </trkpt>
    <trkpt lat="42.164848" lon="-2.128349">
      <ele>1019.2</ele>
    </trkpt>
    <trkpt lat="42.164964" lon="-2.128436">
      <ele>1020.7</ele>
    </trkpt>
    <trkpt lat="42.165253" lon="-2.128561">
      <ele>1024.8</ele>
    </trkpt>
    <trkpt lat="42.165452" lon="-2.128583">
      <ele>1027.9</ele>
    </trkpt>
    <trkpt lat="42.165599" lon="-2.128635">
      <ele>1030.1</ele>
    </trkpt>
    <trkpt lat="42.165809" lon="-2.12879">
      <ele>1033.8</ele>
    </trkpt>
    <trkpt lat="42.165973" lon="-2.129267">
      <ele>1039.7</ele>
    </trkpt>
    <trkpt lat="42.166034" lon="-2.129582">
      <ele>1043.1</ele>
    </trkpt>
    <trkpt lat="42.166049" lon="-2.129927">
      <ele>1046.4</ele>
    </trkpt>
    <trkpt lat="42.166299" lon="-2.13034">
      <ele>1051.1</ele>
    </trkpt>
    <trkpt lat="42.166476" lon="-2.130558">
      <ele>1053.8</ele>
    </trkpt>
    <trkpt lat="42.166602" lon="-2.130811">
      <ele>1056.2</ele>
    </trkpt>
    <trkpt lat="42.16671" lon="-2.131132">
      <ele>1059</ele>
    </trkpt>
    <trkpt lat="42.166742" lon="-2.131285">
      <ele>1060.2</ele>
    </trkpt>
    <trkpt lat="42.166725" lon="-2.131936">
      <ele>1065.8</ele>
    </trkpt>
    <trkpt lat="42.166839" lon="-2.13249">
      <ele>1071.1</ele>
    </trkpt>
    <trkpt lat="42.166899" lon="-2.133264">
      <ele>1078.6</ele>
    </trkpt>
    <trkpt lat="42.167147" lon="-2.133771">
      <ele>1084.9</ele>
    </trkpt>
    <trkpt lat="42.167205" lon="-2.133957">
      <ele>1087.1</ele>
    </trkpt>
    <trkpt lat="42.167223" lon="-2.13423">
      <ele>1090.1</ele>
    </trkpt>
    <trkpt lat="42.16705" lon="-2.134642">
      <ele>1095.2</ele>
    </trkpt>
    <trkpt lat="42.167083" lon="-2.134811">
      <ele>1097</ele>
    </trkpt>
    <trkpt lat="42.167242" lon="-2.135123">
      <ele>1100.9</ele>
    </trkpt>
    <trkpt lat="42.167237" lon="-2.135429">
      <ele>1103.8</ele>
    </trkpt>
    <trkpt lat="42.167174" lon="-2.135946">
      <ele>1108.6</ele>
    </trkpt>
    <trkpt lat="42.167079" lon="-2.136065">
      <ele>1110</ele>
    </trkpt>
    <trkpt lat="42.166802" lon="-2.136233">
      <ele>1112.4</ele>
    </trkpt>
    <trkpt lat="42.166608" lon="-2.136648">
      <ele>1113</ele>
    </trkpt>
    <trkpt lat="42.166408" lon="-2.136828">
      <ele>1112</ele>
    </trkpt>
    <trkpt lat="42.166293" lon="-2.136862">
      <ele>1111</ele>
    </trkpt>
    <trkpt lat="42.166227" lon="-2.136881">
      <ele>1110.4</ele>
    </trkpt>
    <trkpt lat="42.166346" lon="-2.136729">
      <ele>1108.4</ele>
    </trkpt>
    <trkpt lat="42.166362" lon="-2.136665">
      <ele>1107.7</ele>
    </trkpt>
    <trkpt lat="42.166255" lon="-2.136412">
      <ele>1104.3</ele>
    </trkpt>
    <trkpt lat="42.166263" lon="-2.136166">
      <ele>1100.8</ele>
    </trkpt>
    <trkpt lat="42.166295" lon="-2.136048">
      <ele>1098.9</ele>
    </trkpt>
    <trkpt lat="42.166306" lon="-2.135956">
      <ele>1097.4</ele>
    </trkpt>
    <trkpt lat="42.166199" lon="-2.135796">
      <ele>1093.7</ele>
    </trkpt>
    <trkpt lat="42.166092" lon="-2.135463">
      <ele>1087.2</ele>
    </trkpt>
    <trkpt lat="42.166068" lon="-2.135313">
      <ele>1084.4</ele>
    </trkpt>
    <trkpt lat="42.165992" lon="-2.135157">
      <ele>1081.1</ele>
    </trkpt>
    <trkpt lat="42.165956" lon="-2.135113">
      <ele>1080</ele>
    </trkpt>
    <trkpt lat="42.165885" lon="-2.135028">
      <ele>1077.8</ele>
    </trkpt>
    <trkpt lat="42.16577" lon="-2.134701">
      <ele>1072.2</ele>
    </trkpt>
    <trkpt lat="42.165623" lon="-2.13446">
      <ele>1067.8</ele>
    </trkpt>
    <trkpt lat="42.165623" lon="-2.134385">
      <ele>1066.8</ele>
    </trkpt>
    <trkpt lat="42.16565" lon="-2.134315">
      <ele>1065.7</ele>
    </trkpt>
    <trkpt lat="42.165746" lon="-2.134266">
      <ele>1063.9</ele>
    </trkpt>
    <trkpt lat="42.166048" lon="-2.134294">
      <ele>1058.8</ele>
    </trkpt>
    <trkpt lat="42.166139" lon="-2.134288">
      <ele>1057.4</ele>
    </trkpt>
    <trkpt lat="42.166167" lon="-2.13424">
      <ele>1056.6</ele>
    </trkpt>
    <trkpt lat="42.166008" lon="-2.133881">
      <ele>1051.7</ele>
    </trkpt>
    <trkpt lat="42.16577" lon="-2.133563">
      <ele>1046.1</ele>
    </trkpt>
    <trkpt lat="42.165674" lon="-2.133349">
      <ele>1042.8</ele>
    </trkpt>
    <trkpt lat="42.165543" lon="-2.132867">
      <ele>1035.7</ele>
    </trkpt>
    <trkpt lat="42.165324" lon="-2.132545">
      <ele>1029.2</ele>
    </trkpt>
    <trkpt lat="42.164808" lon="-2.131622">
      <ele>1013</ele>
    </trkpt>
    <trkpt lat="42.164629" lon="-2.131407">
      <ele>1008.9</ele>
    </trkpt>
    <trkpt lat="42.164422" lon="-2.13123">
      <ele>1004.9</ele>
    </trkpt>
    <trkpt lat="42.16435" lon="-2.131048">
      <ele>1002.5</ele>
    </trkpt>
    <trkpt lat="42.164259" lon="-2.130909">
      <ele>1000.4</ele>
    </trkpt>
    <trkpt lat="42.164038" lon="-2.130448">
      <ele>994.6</ele>
    </trkpt>
    <trkpt lat="42.163975" lon="-2.130452">
      <ele>993.8</ele>
    </trkpt>
    <trkpt lat="42.163904" lon="-2.13041">
      <ele>992.8</ele>
    </trkpt>
    <trkpt lat="42.163773" lon="-2.130169">
      <ele>990</ele>
    </trkpt>
    <trkpt lat="42.163467" lon="-2.129398">
      <ele>982.9</ele>
    </trkpt>
    <trkpt lat="42.163371" lon="-2.129234">
      <ele>981.5</ele>
    </trkpt>
    <trkpt lat="42.163297" lon="-2.129203">
      <ele>980.8</ele>
    </trkpt>
    <trkpt lat="42.163121" lon="-2.129247">
      <ele>979.3</ele>
    </trkpt>
    <trkpt lat="42.16267" lon="-2.129574">
      <ele>975.7</ele>
    </trkpt>
    <trkpt lat="42.161341" lon="-2.13012">
      <ele>969.4</ele>
    </trkpt>
    <trkpt lat="42.161195" lon="-2.130054">
      <ele>968.9</ele>
    </trkpt>
    <trkpt lat="42.161117" lon="-2.129979">
      <ele>968.6</ele>
    </trkpt>
    <trkpt lat="42.160849" lon="-2.129574">
      <ele>967.1</ele>
    </trkpt>
    <trkpt lat="42.160465" lon="-2.129532">
      <ele>965.8</ele>
    </trkpt>
    <trkpt lat="42.160334" lon="-2.129313">
      <ele>965.1</ele>
    </trkpt>
    <trkpt lat="42.160232" lon="-2.128838">
      <ele>963.8</ele>
    </trkpt>
    <trkpt lat="42.160085" lon="-2.128376">
      <ele>962.6</ele>
    </trkpt>
    <trkpt lat="42.159997" lon="-2.128277">
      <ele>962.1</ele>
    </trkpt>
    <trkpt lat="42.159865" lon="-2.128189">
      <ele>961.5</ele>
    </trkpt>
    <trkpt lat="42.159453" lon="-2.128106">
      <ele>959.4</ele>
    </trkpt>
    <trkpt lat="42.159337" lon="-2.128041">
      <ele>958.8</ele>
    </trkpt>
    <trkpt lat="42.159296" lon="-2.127975">
      <ele>958.5</ele>
    </trkpt>
    <trkpt lat="42.159301" lon="-2.127899">
      <ele>958.3</ele>
    </trkpt>
    <trkpt lat="42.159367" lon="-2.127689">
      <ele>957.5</ele>
    </trkpt>
    <trkpt lat="42.159361" lon="-2.127566">
      <ele>957</ele>
    </trkpt>
    <trkpt lat="42.159229" lon="-2.127271">
      <ele>955.8</ele>
    </trkpt>
    <trkpt lat="42.159313" lon="-2.126847">
      <ele>954.5</ele>
    </trkpt>
    <trkpt lat="42.159241" lon="-2.126161">
      <ele>952.8</ele>
    </trkpt>
    <trkpt lat="42.159191" lon="-2.12603">
      <ele>952.5</ele>
    </trkpt>
    <trkpt lat="42.159118" lon="-2.125936">
      <ele>952.3</ele>
    </trkpt>
    <trkpt lat="42.158871" lon="-2.125796">
      <ele>951.8</ele>
    </trkpt>
    <trkpt lat="42.158268" lon="-2.125174">
      <ele>950.3</ele>
    </trkpt>
    <trkpt lat="42.157849" lon="-2.124466">
      <ele>948</ele>
    </trkpt>
    <trkpt lat="42.1578" lon="-2.124309">
      <ele>947.5</ele>
    </trkpt>
    <trkpt lat="42.157821" lon="-2.124192">
      <ele>947.1</ele>
    </trkpt>
    <trkpt lat="42.157895" lon="-2.12412">
      <ele>946.6</ele>
    </trkpt>
    <trkpt lat="42.158034" lon="-2.124111">
      <ele>945.9</ele>
    </trkpt>
    <trkpt lat="42.1581" lon="-2.124068">
      <ele>945.5</ele>
    </trkpt>
    <trkpt lat="42.158161" lon="-2.123895">
      <ele>944.7</ele>
    </trkpt>
    <trkpt lat="42.15802" lon="-2.122884">
      <ele>941.6</ele>
    </trkpt>
    <trkpt lat="42.157925" lon="-2.122493">
      <ele>940.8</ele>
    </trkpt>
    <trkpt lat="42.157868" lon="-2.122408">
      <ele>940.7</ele>
    </trkpt>
    <trkpt lat="42.157729" lon="-2.122289">
      <ele>940.4</ele>
    </trkpt>
    <trkpt lat="42.157449" lon="-2.122169">
      <ele>940</ele>
    </trkpt>
    <trkpt lat="42.157034" lon="-2.121929">
      <ele>939.6</ele>
    </trkpt>
    <trkpt lat="42.156619" lon="-2.121574">
      <ele>939.1</ele>
    </trkpt>
    <trkpt lat="42.156577" lon="-2.121489">
      <ele>939</ele>
    </trkpt>
    <trkpt lat="42.1564" lon="-2.120239">
      <ele>936.2</ele>
    </trkpt>
    <trkpt lat="42.156224" lon="-2.119608">
      <ele>934.6</ele>
    </trkpt>
    <trkpt lat="42.156232" lon="-2.119501">
      <ele>934.4</ele>
    </trkpt>
    <trkpt lat="42.156266" lon="-2.119418">
      <ele>934.2</ele>
    </trkpt>
    <trkpt lat="42.156475" lon="-2.119136">
      <ele>933.5</ele>
    </trkpt>
    <trkpt lat="42.156476" lon="-2.118973">
      <ele>933.3</ele>
    </trkpt>
    <trkpt lat="42.15637" lon="-2.118804">
      <ele>933.1</ele>
    </trkpt>
    <trkpt lat="42.156178" lon="-2.118656">
      <ele>932.9</ele>
    </trkpt>
    <trkpt lat="42.1561" lon="-2.118549">
      <ele>932.8</ele>
    </trkpt>
    <trkpt lat="42.15594" lon="-2.118208">
      <ele>932.6</ele>
    </trkpt>
    <trkpt lat="42.155909" lon="-2.118009">
      <ele>932.5</ele>
    </trkpt>
    <trkpt lat="42.155785" lon="-2.117675">
      <ele>932.1</ele>
    </trkpt>
    <trkpt lat="42.155532" lon="-2.117329">
      <ele>931.2</ele>
    </trkpt>
    <trkpt lat="42.155389" lon="-2.116946">
      <ele>930.1</ele>
    </trkpt>
    <trkpt lat="42.155343" lon="-2.116772">
      <ele>929.5</ele>
    </trkpt>
    <trkpt lat="42.155351" lon="-2.116679">
      <ele>929.1</ele>
    </trkpt>
    <trkpt lat="42.155398" lon="-2.116586">
      <ele>928.7</ele>
    </trkpt>
    <trkpt lat="42.15566" lon="-2.116333">
      <ele>926.8</ele>
    </trkpt>
    <trkpt lat="42.155682" lon="-2.116162">
      <ele>925.9</ele>
    </trkpt>
    <trkpt lat="42.155546" lon="-2.115529">
      <ele>922.3</ele>
    </trkpt>
    <trkpt lat="42.155501" lon="-2.115411">
      <ele>921.5</ele>
    </trkpt>
    <trkpt lat="42.155439" lon="-2.115325">
      <ele>920.8</ele>
    </trkpt>
    <trkpt lat="42.155244" lon="-2.115156">
      <ele>919.1</ele>
    </trkpt>
    <trkpt lat="42.15517" lon="-2.115039">
      <ele>918.2</ele>
    </trkpt>
    <trkpt lat="42.155068" lon="-2.1148">
      <ele>916.8</ele>
    </trkpt>
    <trkpt lat="42.155054" lon="-2.114432">
      <ele>914.9</ele>
    </trkpt>
    <trkpt lat="42.154938" lon="-2.113869">
      <ele>912</ele>
    </trkpt>
    <trkpt lat="42.154711" lon="-2.113238">
      <ele>910.2</ele>
    </trkpt>
    <trkpt lat="42.154639" lon="-2.112997">
      <ele>909.9</ele>
    </trkpt>
    <trkpt lat="42.15463" lon="-2.112872">
      <ele>909.8</ele>
    </trkpt>
    <trkpt lat="42.154445" lon="-2.112691">
      <ele>909.6</ele>
    </trkpt>
    <trkpt lat="42.154316" lon="-2.112655">
      <ele>909.5</ele>
    </trkpt>
    <trkpt lat="42.154003" lon="-2.11268">
      <ele>909.3</ele>
    </trkpt>
    <trkpt lat="42.153911" lon="-2.112659">
      <ele>909.2</ele>
    </trkpt>
    <trkpt lat="42.153849" lon="-2.112599">
      <ele>909.2</ele>
    </trkpt>
    <trkpt lat="42.153796" lon="-2.112382">
      <ele>909</ele>
    </trkpt>
    <trkpt lat="42.153781" lon="-2.111465">
      <ele>908.6</ele>
    </trkpt>
    <trkpt lat="42.153714" lon="-2.111276">
      <ele>908.2</ele>
    </trkpt>
    <trkpt lat="42.15355" lon="-2.110888">
      <ele>907.3</ele>
    </trkpt>
    <trkpt lat="42.153348" lon="-2.110574">
      <ele>906.3</ele>
    </trkpt>
    <trkpt lat="42.153012" lon="-2.110231">
      <ele>904.8</ele>
    </trkpt>
    <trkpt lat="42.152706" lon="-2.109775">
      <ele>902.9</ele>
    </trkpt>
    <trkpt lat="42.152609" lon="-2.109577">
      <ele>902.2</ele>
    </trkpt>
    <trkpt lat="42.152833" lon="-2.109185">
      <ele>900.7</ele>
    </trkpt>
    <trkpt lat="42.1529" lon="-2.108975">
      <ele>900.1</ele>
    </trkpt>
    <trkpt lat="42.152863" lon="-2.108721">
      <ele>899.3</ele>
    </trkpt>
    <trkpt lat="42.152743" lon="-2.108482">
      <ele>898.3</ele>
    </trkpt>
    <trkpt lat="42.152407" lon="-2.108139">
      <ele>896.2</ele>
    </trkpt>
    <trkpt lat="42.15231" lon="-2.107832">
      <ele>894.9</ele>
    </trkpt>
    <trkpt lat="42.152265" lon="-2.107489">
      <ele>893.5</ele>
    </trkpt>
    <trkpt lat="42.152175" lon="-2.10716">
      <ele>892.1</ele>
    </trkpt>
    <trkpt lat="42.152108" lon="-2.106592">
      <ele>889.5</ele>
    </trkpt>
    <trkpt lat="42.152127" lon="-2.106004">
      <ele>886.6</ele>
    </trkpt>
    <trkpt lat="42.152191" lon="-2.105669">
      <ele>884.8</ele>
    </trkpt>
    <trkpt lat="42.152667" lon="-2.106576">
      <ele>879.8</ele>
    </trkpt>
    <trkpt lat="42.152908" lon="-2.106848">
      <ele>878.2</ele>
    </trkpt>
    <trkpt lat="42.153479" lon="-2.107392">
      <ele>875.2</ele>
    </trkpt>
    <trkpt lat="42.153664" lon="-2.10767">
      <ele>874.1</ele>
    </trkpt>
    <trkpt lat="42.154326" lon="-2.109059">
      <ele>868.8</ele>
    </trkpt>
    <trkpt lat="42.154347" lon="-2.109101">
      <ele>868.6</ele>
    </trkpt>
    <trkpt lat="42.154436" lon="-2.109361">
      <ele>867.3</ele>
    </trkpt>
    <trkpt lat="42.1545" lon="-2.10942">
      <ele>866.7</ele>
    </trkpt>
    <trkpt lat="42.154589" lon="-2.109426">
      <ele>866.1</ele>
    </trkpt>
    <trkpt lat="42.154822" lon="-2.109332">
      <ele>864.2</ele>
    </trkpt>
    <trkpt lat="42.155542" lon="-2.108989">
      <ele>856.5</ele>
    </trkpt>
    <trkpt lat="42.155724" lon="-2.108759">
      <ele>853.7</ele>
    </trkpt>
    <trkpt lat="42.155903" lon="-2.108346">
      <ele>849.8</ele>
    </trkpt>
    <trkpt lat="42.156232" lon="-2.108056">
      <ele>845.9</ele>
    </trkpt>
    <trkpt lat="42.156596" lon="-2.107882">
      <ele>843.2</ele>
    </trkpt>
    <trkpt lat="42.156804" lon="-2.107837">
      <ele>842.4</ele>
    </trkpt>
    <trkpt lat="42.157032" lon="-2.107889">
      <ele>842</ele>
    </trkpt>
    <trkpt lat="42.15721" lon="-2.108062">
      <ele>841.9</ele>
    </trkpt>
    <trkpt lat="42.157318" lon="-2.10832">
      <ele>841.5</ele>
    </trkpt>
    <trkpt lat="42.157392" lon="-2.108642">
      <ele>840.7</ele>
    </trkpt>
    <trkpt lat="42.15738" lon="-2.109018">
      <ele>839.5</ele>
    </trkpt>
    <trkpt lat="42.157301" lon="-2.109191">
      <ele>838.7</ele>
    </trkpt>
    <trkpt lat="42.15729" lon="-2.109344">
      <ele>838.1</ele>
    </trkpt>
    <trkpt lat="42.157355" lon="-2.109513">
      <ele>837.2</ele>
    </trkpt>
    <trkpt lat="42.157415" lon="-2.109597">
      <ele>836.6</ele>
    </trkpt>
    <trkpt lat="42.157468" lon="-2.10967">
      <ele>836.1</ele>
    </trkpt>
    <trkpt lat="42.157536" lon="-2.109719">
      <ele>835.5</ele>
    </trkpt>
    <trkpt lat="42.157636" lon="-2.109713">
      <ele>834.6</ele>
    </trkpt>
    <trkpt lat="42.157719" lon="-2.109645">
      <ele>833.8</ele>
    </trkpt>
    <trkpt lat="42.157844" lon="-2.109449">
      <ele>831.9</ele>
    </trkpt>
    <trkpt lat="42.157981" lon="-2.109252">
      <ele>829.8</ele>
    </trkpt>
    <trkpt lat="42.158165" lon="-2.108873">
      <ele>826.1</ele>
    </trkpt>
    <trkpt lat="42.158256" lon="-2.108754">
      <ele>825</ele>
    </trkpt>
    <trkpt lat="42.158456" lon="-2.108684">
      <ele>823.6</ele>
    </trkpt>
    <trkpt lat="42.158666" lon="-2.108703">
      <ele>822.6</ele>
    </trkpt>
    <trkpt lat="42.159657" lon="-2.108937">
      <ele>820.5</ele>
    </trkpt>
    <trkpt lat="42.159888" lon="-2.108965">
      <ele>820</ele>
    </trkpt>
    <trkpt lat="42.160434" lon="-2.108819">
      <ele>818.5</ele>
    </trkpt>
    <trkpt lat="42.16105" lon="-2.10871">
      <ele>816.5</ele>
    </trkpt>
    <trkpt lat="42.161707" lon="-2.108682">
      <ele>814.2</ele>
    </trkpt>
    <trkpt lat="42.162378" lon="-2.108787">
      <ele>811.6</ele>
    </trkpt>
    <trkpt lat="42.16402" lon="-2.108574">
      <ele>799.2</ele>
    </trkpt>
    <trkpt lat="42.164454" lon="-2.108268">
      <ele>795.8</ele>
    </trkpt>
    <trkpt lat="42.164843" lon="-2.107667">
      <ele>791.9</ele>
    </trkpt>
    <trkpt lat="42.165127" lon="-2.107354">
      <ele>789.7</ele>
    </trkpt>
    <trkpt lat="42.165914" lon="-2.106725">
      <ele>786.2</ele>
    </trkpt>
    <trkpt lat="42.166195" lon="-2.106589">
      <ele>785.1</ele>
    </trkpt>
    <trkpt lat="42.166395" lon="-2.106551">
      <ele>784.4</ele>
    </trkpt>
    <trkpt lat="42.167049" lon="-2.106655">
      <ele>782.2</ele>
    </trkpt>
    <trkpt lat="42.167369" lon="-2.106653">
      <ele>780.8</ele>
    </trkpt>
    <trkpt lat="42.16764" lon="-2.106543">
      <ele>779.2</ele>
    </trkpt>
    <trkpt lat="42.167953" lon="-2.106197">
      <ele>776.4</ele>
    </trkpt>
    <trkpt lat="42.168137" lon="-2.105897">
      <ele>774.1</ele>
    </trkpt>
    <trkpt lat="42.16832" lon="-2.105467">
      <ele>770.9</ele>
    </trkpt>
    <trkpt lat="42.168549" lon="-2.104737">
      <ele>766.3</ele>
    </trkpt>
    <trkpt lat="42.168868" lon="-2.10391">
      <ele>762.5</ele>
    </trkpt>
    <trkpt lat="42.169305" lon="-2.103377">
      <ele>760</ele>
    </trkpt>
    <trkpt lat="42.169524" lon="-2.103195">
      <ele>758.8</ele>
    </trkpt>
    <trkpt lat="42.169853" lon="-2.103031">
      <ele>757.1</ele>
    </trkpt>
    <trkpt lat="42.170195" lon="-2.102928">
      <ele>755.4</ele>
    </trkpt>
    <trkpt lat="42.170621" lon="-2.10288">
      <ele>753.5</ele>
    </trkpt>
    <trkpt lat="42.170894" lon="-2.10289">
      <ele>752.2</ele>
    </trkpt>
    <trkpt lat="42.171228" lon="-2.103073">
      <ele>750.4</ele>
    </trkpt>
    <trkpt lat="42.171305" lon="-2.103105">
      <ele>750</ele>
    </trkpt>
    <trkpt lat="42.171635" lon="-2.103092">
      <ele>748.4</ele>
    </trkpt>
    <trkpt lat="42.171716" lon="-2.10301">
      <ele>747.9</ele>
    </trkpt>
    <trkpt lat="42.172375" lon="-2.100534">
      <ele>738.5</ele>
    </trkpt>
    <trkpt lat="42.172468" lon="-2.100296">
      <ele>737.5</ele>
    </trkpt>
    <trkpt lat="42.172613" lon="-2.100033">
      <ele>736.4</ele>
    </trkpt>
    <trkpt lat="42.172834" lon="-2.099703">
      <ele>735</ele>
    </trkpt>
    <trkpt lat="42.173029" lon="-2.099485">
      <ele>734</ele>
    </trkpt>
    <trkpt lat="42.173481" lon="-2.099103">
      <ele>732.4</ele>
    </trkpt>
    <trkpt lat="42.173819" lon="-2.0989">
      <ele>732.2</ele>
    </trkpt>
    <trkpt lat="42.174179" lon="-2.098744">
      <ele>732.6</ele>
    </trkpt>
    <trkpt lat="42.174128" lon="-2.098902">
      <ele>733</ele>
    </trkpt>
    <trkpt lat="42.173807" lon="-2.099071">
      <ele>734.6</ele>
    </trkpt>
    <trkpt lat="42.173535" lon="-2.099254">
      <ele>736.8</ele>
    </trkpt>
    <trkpt lat="42.173367" lon="-2.099405">
      <ele>738.6</ele>
    </trkpt>
    <trkpt lat="42.173226" lon="-2.099591">
      <ele>740.5</ele>
    </trkpt>
    <trkpt lat="42.173217" lon="-2.099751">
      <ele>741.6</ele>
    </trkpt>
    <trkpt lat="42.17335" lon="-2.099869">
      <ele>743</ele>
    </trkpt>
    <trkpt lat="42.173913" lon="-2.100032">
      <ele>748.6</ele>
    </trkpt>
    <trkpt lat="42.174501" lon="-2.100124">
      <ele>755.1</ele>
    </trkpt>
    <trkpt lat="42.17473" lon="-2.100216">
      <ele>757.7</ele>
    </trkpt>
    <trkpt lat="42.174843" lon="-2.100405">
      <ele>759.7</ele>
    </trkpt>
    <trkpt lat="42.174862" lon="-2.100793">
      <ele>763.1</ele>
    </trkpt>
    <trkpt lat="42.17483" lon="-2.100986">
      <ele>765</ele>
    </trkpt>
    <trkpt lat="42.174687" lon="-2.102027">
      <ele>776.4</ele>
    </trkpt>
    <trkpt lat="42.174688" lon="-2.102932">
      <ele>786.7</ele>
    </trkpt>
    <trkpt lat="42.174607" lon="-2.103861">
      <ele>796.6</ele>
    </trkpt>
    <trkpt lat="42.174595" lon="-2.104854">
      <ele>805.8</ele>
    </trkpt>
    <trkpt lat="42.174431" lon="-2.105924">
      <ele>813.7</ele>
    </trkpt>
    <trkpt lat="42.174414" lon="-2.106562">
      <ele>817.8</ele>
    </trkpt>
    <trkpt lat="42.174314" lon="-2.107394">
      <ele>823.9</ele>
    </trkpt>
    <trkpt lat="42.174338" lon="-2.107907">
      <ele>828.1</ele>
    </trkpt>
    <trkpt lat="42.174437" lon="-2.108436">
      <ele>833</ele>
    </trkpt>
    <trkpt lat="42.174684" lon="-2.109353">
      <ele>841.5</ele>
    </trkpt>
    <trkpt lat="42.174987" lon="-2.109935">
      <ele>846.6</ele>
    </trkpt>
    <trkpt lat="42.175255" lon="-2.11025">
      <ele>849.2</ele>
    </trkpt>
    <trkpt lat="42.175287" lon="-2.110367">
      <ele>849.7</ele>
    </trkpt>
    <trkpt lat="42.175242" lon="-2.11043">
      <ele>850.1</ele>
    </trkpt>
    <trkpt lat="42.175167" lon="-2.1104">
      <ele>850.5</ele>
    </trkpt>
    <trkpt lat="42.175012" lon="-2.11021">
      <ele>851.4</ele>
    </trkpt>
    <trkpt lat="42.174384" lon="-2.109691">
      <ele>853.3</ele>
    </trkpt>
    <trkpt lat="42.173637" lon="-2.108319">
      <ele>852.4</ele>
    </trkpt>
    <trkpt lat="42.173459" lon="-2.107626">
      <ele>851.5</ele>
    </trkpt>
    <trkpt lat="42.17335" lon="-2.107529">
      <ele>851.4</ele>
    </trkpt>
    <trkpt lat="42.173267" lon="-2.10759">
      <ele>851.4</ele>
    </trkpt>
    <trkpt lat="42.172912" lon="-2.108186">
      <ele>852.2</ele>
    </trkpt>
    <trkpt lat="42.172852" lon="-2.108329">
      <ele>852.7</ele>
    </trkpt>
    <trkpt lat="42.172854" lon="-2.108496">
      <ele>853.2</ele>
    </trkpt>
    <trkpt lat="42.173225" lon="-2.109133">
      <ele>857.3</ele>
    </trkpt>
    <trkpt lat="42.173297" lon="-2.109383">
      <ele>858.9</ele>
    </trkpt>
    <trkpt lat="42.173344" lon="-2.109834">
      <ele>862</ele>
    </trkpt>
    <trkpt lat="42.17326" lon="-2.110376">
      <ele>865.9</ele>
    </trkpt>
    <trkpt lat="42.173335" lon="-2.1106">
      <ele>867.6</ele>
    </trkpt>
    <trkpt lat="42.173807" lon="-2.111177">
      <ele>873.4</ele>
    </trkpt>
    <trkpt lat="42.17389" lon="-2.111466">
      <ele>875.5</ele>
    </trkpt>
    <trkpt lat="42.173915" lon="-2.11174">
      <ele>877.2</ele>
    </trkpt>
    <trkpt lat="42.17385" lon="-2.1124">
      <ele>881</ele>
    </trkpt>
    <trkpt lat="42.174092" lon="-2.11292">
      <ele>884.1</ele>
    </trkpt>
    <trkpt lat="42.174159" lon="-2.113174">
      <ele>885.4</ele>
    </trkpt>
    <trkpt lat="42.174183" lon="-2.113832">
      <ele>888.6</ele>
    </trkpt>
    <trkpt lat="42.174338" lon="-2.114091">
      <ele>890.1</ele>
    </trkpt>
    <trkpt lat="42.174817" lon="-2.114494">
      <ele>893.6</ele>
    </trkpt>
    <trkpt lat="42.174945" lon="-2.11473">
      <ele>894.9</ele>
    </trkpt>
    <trkpt lat="42.174977" lon="-2.115055">
      <ele>896.3</ele>
    </trkpt>
    <trkpt lat="42.174932" lon="-2.115373">
      <ele>897.6</ele>
    </trkpt>
    <trkpt lat="42.174945" lon="-2.115575">
      <ele>898.3</ele>
    </trkpt>
    <trkpt lat="42.175257" lon="-2.116019">
      <ele>899.8</ele>
    </trkpt>
    <trkpt lat="42.175289" lon="-2.116466">
      <ele>900.7</ele>
    </trkpt>
    <trkpt lat="42.175004" lon="-2.117329">
      <ele>902.8</ele>
    </trkpt>
    <trkpt lat="42.174952" lon="-2.117897">
      <ele>904.6</ele>
    </trkpt>
    <trkpt lat="42.174937" lon="-2.119019">
      <ele>909.1</ele>
    </trkpt>
    <trkpt lat="42.174855" lon="-2.119301">
      <ele>910.5</ele>
    </trkpt>
    <trkpt lat="42.174762" lon="-2.119509">
      <ele>911.8</ele>
    </trkpt>
    <trkpt lat="42.174579" lon="-2.119919">
      <ele>914.6</ele>
    </trkpt>
    <trkpt lat="42.174449" lon="-2.120306">
      <ele>917.2</ele>
    </trkpt>
    <trkpt lat="42.174399" lon="-2.120573">
      <ele>919</ele>
    </trkpt>
    <trkpt lat="42.174447" lon="-2.120896">
      <ele>921.3</ele>
    </trkpt>
    <trkpt lat="42.174552" lon="-2.12135">
      <ele>924.7</ele>
    </trkpt>
    <trkpt lat="42.174559" lon="-2.121637">
      <ele>926.7</ele>
    </trkpt>
    <trkpt lat="42.174762" lon="-2.121803">
      <ele>928.7</ele>
    </trkpt>
    <trkpt lat="42.17485" lon="-2.121876">
      <ele>929.4</ele>
    </trkpt>
    <trkpt lat="42.174976" lon="-2.122202">
      <ele>931.1</ele>
    </trkpt>
    <trkpt lat="42.175239" lon="-2.12271">
      <ele>932.8</ele>
    </trkpt>
    <trkpt lat="42.176096" lon="-2.123605">
      <ele>932.5</ele>
    </trkpt>
    <trkpt lat="42.176308" lon="-2.124488">
      <ele>932.7</ele>
    </trkpt>
    <trkpt lat="42.176189" lon="-2.124725">
      <ele>933.1</ele>
    </trkpt>
    <trkpt lat="42.175845" lon="-2.124939">
      <ele>934.1</ele>
    </trkpt>
    <trkpt lat="42.175164" lon="-2.125697">
      <ele>937.9</ele>
    </trkpt>
    <trkpt lat="42.174985" lon="-2.126164">
      <ele>939.9</ele>
    </trkpt>
    <trkpt lat="42.174175" lon="-2.127019">
      <ele>946.3</ele>
    </trkpt>
    <trkpt lat="42.17379" lon="-2.127897">
      <ele>949.4</ele>
    </trkpt>
    <trkpt lat="42.173695" lon="-2.12822">
      <ele>949.5</ele>
    </trkpt>
    <trkpt lat="42.173721" lon="-2.128373">
      <ele>949.4</ele>
    </trkpt>
    <trkpt lat="42.173769" lon="-2.12843">
      <ele>949.3</ele>
    </trkpt>
    <trkpt lat="42.174397" lon="-2.12845">
      <ele>947.6</ele>
    </trkpt>
    <trkpt lat="42.175009" lon="-2.128603">
      <ele>945.9</ele>
    </trkpt>
    <trkpt lat="42.1751" lon="-2.128755">
      <ele>945.7</ele>
    </trkpt>
    <trkpt lat="42.17511" lon="-2.129065">
      <ele>945.7</ele>
    </trkpt>
    <trkpt lat="42.175105" lon="-2.129934">
      <ele>947.5</ele>
    </trkpt>
    <trkpt lat="42.175033" lon="-2.130477">
      <ele>949.8</ele>
    </trkpt>
    <trkpt lat="42.174883" lon="-2.130914">
      <ele>951.5</ele>
    </trkpt>
    <trkpt lat="42.1746" lon="-2.131329">
      <ele>953.1</ele>
    </trkpt>
    <trkpt lat="42.174362" lon="-2.131901">
      <ele>954.3</ele>
    </trkpt>
    <trkpt lat="42.17405" lon="-2.133262">
      <ele>955.6</ele>
    </trkpt>
    <trkpt lat="42.173845" lon="-2.13436">
      <ele>957.4</ele>
    </trkpt>
    <trkpt lat="42.173782" lon="-2.134807">
      <ele>958.8</ele>
    </trkpt>
    <trkpt lat="42.173563" lon="-2.135477">
      <ele>959.5</ele>
    </trkpt>
    <trkpt lat="42.173421" lon="-2.1358">
      <ele>959.1</ele>
    </trkpt>
    <trkpt lat="42.173454" lon="-2.135924">
      <ele>958.9</ele>
    </trkpt>
    <trkpt lat="42.173567" lon="-2.136017">
      <ele>958.5</ele>
    </trkpt>
    <trkpt lat="42.173767" lon="-2.13599">
      <ele>957.7</ele>
    </trkpt>
    <trkpt lat="42.174123" lon="-2.135826">
      <ele>955.9</ele>
    </trkpt>
    <trkpt lat="42.174415" lon="-2.135892">
      <ele>954</ele>
    </trkpt>
    <trkpt lat="42.175268" lon="-2.136483">
      <ele>948.3</ele>
    </trkpt>
    <trkpt lat="42.175422" lon="-2.136662">
      <ele>947.8</ele>
    </trkpt>
    <trkpt lat="42.175682" lon="-2.136963">
      <ele>946.9</ele>
    </trkpt>
    <trkpt lat="42.175984" lon="-2.137811">
      <ele>945.1</ele>
    </trkpt>
    <trkpt lat="42.17672" lon="-2.139008">
      <ele>935.7</ele>
    </trkpt>
    <trkpt lat="42.17691" lon="-2.139218">
      <ele>932.2</ele>
    </trkpt>
    <trkpt lat="42.17692" lon="-2.139269">
      <ele>931.7</ele>
    </trkpt>
    <trkpt lat="42.176992" lon="-2.139255">
      <ele>930.5</ele>
    </trkpt>
    <trkpt lat="42.177017" lon="-2.139192">
      <ele>929.7</ele>
    </trkpt>
    <trkpt lat="42.177105" lon="-2.139213">
      <ele>928.2</ele>
    </trkpt>
    <trkpt lat="42.178127" lon="-2.139148">
      <ele>910</ele>
    </trkpt>
    <trkpt lat="42.17845" lon="-2.138971">
      <ele>904.7</ele>
    </trkpt>
    <trkpt lat="42.178683" lon="-2.1389">
      <ele>901.5</ele>
    </trkpt>
    <trkpt lat="42.178922" lon="-2.138935">
      <ele>898.5</ele>
    </trkpt>
    <trkpt lat="42.179341" lon="-2.139149">
      <ele>893.3</ele>
    </trkpt>
    <trkpt lat="42.179771" lon="-2.139466">
      <ele>887.8</ele>
    </trkpt>
    <trkpt lat="42.180036" lon="-2.13949">
      <ele>884.6</ele>
    </trkpt>
    <trkpt lat="42.180333" lon="-2.139406">
      <ele>880.7</ele>
    </trkpt>
    <trkpt lat="42.18056" lon="-2.13929">
      <ele>877.3</ele>
    </trkpt>
    <trkpt lat="42.181096" lon="-2.139153">
      <ele>869.1</ele>
    </trkpt>
    <trkpt lat="42.181521" lon="-2.139199">
      <ele>862.7</ele>
    </trkpt>
    <trkpt lat="42.181833" lon="-2.139051">
      <ele>858.1</ele>
    </trkpt>
    <trkpt lat="42.18213" lon="-2.138763">
      <ele>853.4</ele>
    </trkpt>
    <trkpt lat="42.182343" lon="-2.138724">
      <ele>850.8</ele>
    </trkpt>
    <trkpt lat="42.182695" lon="-2.138907">
      <ele>846.7</ele>
    </trkpt>
    <trkpt lat="42.183062" lon="-2.138963">
      <ele>843</ele>
    </trkpt>
    <trkpt lat="42.18346" lon="-2.138963">
      <ele>839.1</ele>
    </trkpt>
    <trkpt lat="42.183705" lon="-2.138889">
      <ele>836.6</ele>
    </trkpt>
    <trkpt lat="42.183804" lon="-2.138946">
      <ele>835.5</ele>
    </trkpt>
    <trkpt lat="42.183991" lon="-2.139279">
      <ele>832.1</ele>
    </trkpt>
    <trkpt lat="42.185533" lon="-2.13949">
      <ele>811.9</ele>
    </trkpt>
    <trkpt lat="42.1859" lon="-2.139662">
      <ele>806.9</ele>
    </trkpt>
    <trkpt lat="42.186093" lon="-2.139694">
      <ele>804.3</ele>
    </trkpt>
    <trkpt lat="42.186261" lon="-2.139802">
      <ele>801.6</ele>
    </trkpt>
    <trkpt lat="42.186384" lon="-2.13988">
      <ele>799.7</ele>
    </trkpt>
    <trkpt lat="42.186389" lon="-2.139815">
      <ele>799.1</ele>
    </trkpt>
    <trkpt lat="42.186695" lon="-2.139697">
      <ele>794.7</ele>
    </trkpt>
    <trkpt lat="42.187018" lon="-2.13957">
      <ele>790.1</ele>
    </trkpt>
    <trkpt lat="42.18725" lon="-2.139531">
      <ele>787</ele>
    </trkpt>
    <trkpt lat="42.187497" lon="-2.139436">
      <ele>783.7</ele>
    </trkpt>
    <trkpt lat="42.18755" lon="-2.139413">
      <ele>783</ele>
    </trkpt>
    <trkpt lat="42.187655" lon="-2.139263">
      <ele>781</ele>
    </trkpt>
    <trkpt lat="42.187933" lon="-2.138571">
      <ele>773.8</ele>
    </trkpt>
    <trkpt lat="42.188472" lon="-2.137863">
      <ele>767.1</ele>
    </trkpt>
    <trkpt lat="42.188646" lon="-2.137747">
      <ele>765.6</ele>
    </trkpt>
    <trkpt lat="42.188743" lon="-2.137734">
      <ele>764.9</ele>
    </trkpt>
    <trkpt lat="42.188882" lon="-2.13782">
      <ele>764</ele>
    </trkpt>
    <trkpt lat="42.189106" lon="-2.137867">
      <ele>762.7</ele>
    </trkpt>
    <trkpt lat="42.189234" lon="-2.13778">
      <ele>761.9</ele>
    </trkpt>
    <trkpt lat="42.189304" lon="-2.137605">
      <ele>761</ele>
    </trkpt>
    <trkpt lat="42.188978" lon="-2.137453">
      <ele>759.3</ele>
    </trkpt>
    <trkpt lat="42.188837" lon="-2.137388">
      <ele>758.7</ele>
    </trkpt>
    <trkpt lat="42.18884" lon="-2.137329">
      <ele>758.5</ele>
    </trkpt>
    <trkpt lat="42.188926" lon="-2.137302">
      <ele>758.1</ele>
    </trkpt>
    <trkpt lat="42.188945" lon="-2.137265">
      <ele>758</ele>
    </trkpt>
    <trkpt lat="42.188532" lon="-2.136971">
      <ele>755.9</ele>
    </trkpt>
    <trkpt lat="42.188414" lon="-2.136509">
      <ele>754.4</ele>
    </trkpt>
    <trkpt lat="42.188352" lon="-2.13603">
      <ele>752.2</ele>
    </trkpt>
    <trkpt lat="42.18853" lon="-2.135497">
      <ele>748.8</ele>
    </trkpt>
    <trkpt lat="42.188838" lon="-2.135377">
      <ele>745.6</ele>
    </trkpt>
    <trkpt lat="42.18909" lon="-2.135497">
      <ele>742.4</ele>
    </trkpt>
    <trkpt lat="42.189611" lon="-2.135502">
      <ele>735.6</ele>
    </trkpt>
    <trkpt lat="42.189968" lon="-2.135473">
      <ele>730.8</ele>
    </trkpt>
    <trkpt lat="42.190376" lon="-2.135306">
      <ele>725.4</ele>
    </trkpt>
    <trkpt lat="42.190676" lon="-2.135122">
      <ele>721.7</ele>
    </trkpt>
    <trkpt lat="42.191512" lon="-2.134416">
      <ele>711.4</ele>
    </trkpt>
    <trkpt lat="42.19198" lon="-2.134076">
      <ele>706.1</ele>
    </trkpt>
    <trkpt lat="42.192214" lon="-2.133905">
      <ele>703.2</ele>
    </trkpt>
    <trkpt lat="42.192422" lon="-2.13387">
      <ele>700.9</ele>
    </trkpt>
    <trkpt lat="42.192642" lon="-2.133802">
      <ele>698.4</ele>
    </trkpt>
    <trkpt lat="42.193425" lon="-2.133156">
      <ele>689.8</ele>
    </trkpt>
    <trkpt lat="42.193725" lon="-2.132828">
      <ele>686.3</ele>
    </trkpt>
    <trkpt lat="42.194295" lon="-2.132367">
      <ele>680.5</ele>
    </trkpt>
    <trkpt lat="42.194463" lon="-2.132356">
      <ele>679</ele>
    </trkpt>
    <trkpt lat="42.194636" lon="-2.132421">
      <ele>677.4</ele>
    </trkpt>
    <trkpt lat="42.194906" lon="-2.132374">
      <ele>674.8</ele>
    </trkpt>
    <trkpt lat="42.195089" lon="-2.132441">
      <ele>673</ele>
    </trkpt>
    <trkpt lat="42.195193" lon="-2.132383">
      <ele>671.9</ele>
    </trkpt>
    <trkpt lat="42.195261" lon="-2.132302">
      <ele>671.1</ele>
    </trkpt>
    <trkpt lat="42.195391" lon="-2.132311">
      <ele>669.9</ele>
    </trkpt>
    <trkpt lat="42.195481" lon="-2.132491">
      <ele>668.5</ele>
    </trkpt>
    <trkpt lat="42.196489" lon="-2.132279">
      <ele>660.8</ele>
    </trkpt>
    <trkpt lat="42.196747" lon="-2.132342">
      <ele>659.1</ele>
    </trkpt>
    <trkpt lat="42.19683" lon="-2.132285">
      <ele>658.5</ele>
    </trkpt>
    <trkpt lat="42.197074" lon="-2.131857">
      <ele>655.9</ele>
    </trkpt>
    <trkpt lat="42.197108" lon="-2.131888">
      <ele>655.6</ele>
    </trkpt>
    <trkpt lat="42.197318" lon="-2.131829">
      <ele>654.2</ele>
    </trkpt>
    <trkpt lat="42.19736" lon="-2.131851">
      <ele>653.9</ele>
    </trkpt>
    <trkpt lat="42.197418" lon="-2.131824">
      <ele>653.5</ele>
    </trkpt>
    <trkpt lat="42.197598" lon="-2.131837">
      <ele>652.2</ele>
    </trkpt>
    <trkpt lat="42.197685" lon="-2.131792">
      <ele>651.6</ele>
    </trkpt>
    <trkpt lat="42.197794" lon="-2.131674">
      <ele>650.6</ele>
    </trkpt>
    <trkpt lat="42.198009" lon="-2.1317">
      <ele>648.9</ele>
    </trkpt>
    <trkpt lat="42.198124" lon="-2.131775">
      <ele>648</ele>
    </trkpt>
    <trkpt lat="42.198575" lon="-2.131773">
      <ele>644.4</ele>
    </trkpt>
    <trkpt lat="42.198642" lon="-2.131718">
      <ele>643.8</ele>
    </trkpt>
    <trkpt lat="42.198731" lon="-2.131695">
      <ele>643.1</ele>
    </trkpt>
    <trkpt lat="42.198854" lon="-2.131577">
      <ele>641.9</ele>
    </trkpt>
    <trkpt lat="42.198959" lon="-2.131603">
      <ele>641</ele>
    </trkpt>
    <trkpt lat="42.199002" lon="-2.131659">
      <ele>640.6</ele>
    </trkpt>
    <trkpt lat="42.199063" lon="-2.131674">
      <ele>640.1</ele>
    </trkpt>
    <trkpt lat="42.199594" lon="-2.131715">
      <ele>635.7</ele>
    </trkpt>
    <trkpt lat="42.199792" lon="-2.131607">
      <ele>634</ele>
    </trkpt>
    <trkpt lat="42.199974" lon="-2.131597">
      <ele>632.7</ele>
    </trkpt>
    <trkpt lat="42.200023" lon="-2.131671">
      <ele>632.2</ele>
    </trkpt>
    <trkpt lat="42.200104" lon="-2.131714">
      <ele>631.7</ele>
    </trkpt>
    <trkpt lat="42.200287" lon="-2.131763">
      <ele>630.6</ele>
    </trkpt>
    <trkpt lat="42.200362" lon="-2.131755">
      <ele>630.1</ele>
    </trkpt>
    <trkpt lat="42.200557" lon="-2.131637">
      <ele>629</ele>
    </trkpt>
    <trkpt lat="42.200655" lon="-2.131629">
      <ele>628.5</ele>
    </trkpt>
    <trkpt lat="42.200822" lon="-2.131558">
      <ele>627.7</ele>
    </trkpt>
    <trkpt lat="42.200931" lon="-2.131569">
      <ele>627.2</ele>
    </trkpt>
    <trkpt lat="42.201052" lon="-2.131643">
      <ele>626.6</ele>
    </trkpt>
    <trkpt lat="42.201197" lon="-2.131808">
      <ele>625.8</ele>
    </trkpt>
    <trkpt lat="42.201358" lon="-2.131883">
      <ele>625.2</ele>
    </trkpt>
    <trkpt lat="42.20173" lon="-2.131841">
      <ele>623.8</ele>
    </trkpt>
    <trkpt lat="42.201943" lon="-2.131702">
      <ele>622.8</ele>
    </trkpt>
    <trkpt lat="42.202319" lon="-2.131368">
      <ele>620.1</ele>
    </trkpt>
    <trkpt lat="42.202476" lon="-2.131263">
      <ele>618.7</ele>
    </trkpt>
    <trkpt lat="42.20257" lon="-2.131252">
      <ele>617.9</ele>
    </trkpt>
    <trkpt lat="42.202704" lon="-2.131133">
      <ele>616.5</ele>
    </trkpt>
    <trkpt lat="42.202954" lon="-2.13083">
      <ele>613.3</ele>
    </trkpt>
    <trkpt lat="42.203111" lon="-2.130715">
      <ele>611.6</ele>
    </trkpt>
    <trkpt lat="42.20364" lon="-2.130847">
      <ele>607</ele>
    </trkpt>
    <trkpt lat="42.203779" lon="-2.130767">
      <ele>605.8</ele>
    </trkpt>
    <trkpt lat="42.204466" lon="-2.131032">
      <ele>601.1</ele>
    </trkpt>
    <trkpt lat="42.204453" lon="-2.131178">
      <ele>600.6</ele>
    </trkpt>
    <trkpt lat="42.204472" lon="-2.131325">
      <ele>600.2</ele>
    </trkpt>
    <trkpt lat="42.20494" lon="-2.131604">
      <ele>598.8</ele>
    </trkpt>
    <trkpt lat="42.205106" lon="-2.131595">
      <ele>598.4</ele>
    </trkpt>
    <trkpt lat="42.205438" lon="-2.132519">
      <ele>596.8</ele>
    </trkpt>
    <trkpt lat="42.205639" lon="-2.132854">
      <ele>596.9</ele>
    </trkpt>
    <trkpt lat="42.205689" lon="-2.133037">
      <ele>597.3</ele>
    </trkpt>
    <trkpt lat="42.20567" lon="-2.133201">
      <ele>597.7</ele>
    </trkpt>
    <trkpt lat="42.205633" lon="-2.13329">
      <ele>598</ele>
    </trkpt>
    <trkpt lat="42.205551" lon="-2.133488">
      <ele>598.5</ele>
    </trkpt>
    <trkpt lat="42.205523" lon="-2.133556">
      <ele>598.7</ele>
    </trkpt>
    <trkpt lat="42.204745" lon="-2.133391">
      <ele>601.5</ele>
    </trkpt>
    <trkpt lat="42.20444" lon="-2.133524">
      <ele>603.1</ele>
    </trkpt>
    <trkpt lat="42.204102" lon="-2.133851">
      <ele>605.3</ele>
    </trkpt>
    <trkpt lat="42.203613" lon="-2.133883">
      <ele>607.4</ele>
    </trkpt>
    <trkpt lat="42.203337" lon="-2.133988">
      <ele>608.6</ele>
    </trkpt>
    <trkpt lat="42.203131" lon="-2.13434">
      <ele>610.4</ele>
    </trkpt>
    <trkpt lat="42.202748" lon="-2.134487">
      <ele>613</ele>
    </trkpt>
    <trkpt lat="42.201954" lon="-2.135043">
      <ele>617.9</ele>
    </trkpt>
    <trkpt lat="42.201733" lon="-2.135197">
      <ele>618.8</ele>
    </trkpt>
    <trkpt lat="42.201455" lon="-2.135583">
      <ele>619.7</ele>
    </trkpt>
    <trkpt lat="42.201239" lon="-2.136135">
      <ele>620.1</ele>
    </trkpt>
    <trkpt lat="42.200955" lon="-2.136392">
      <ele>620</ele>
    </trkpt>
    <trkpt lat="42.200635" lon="-2.136574">
      <ele>620.5</ele>
    </trkpt>
    <trkpt lat="42.200424" lon="-2.136834">
      <ele>621.1</ele>
    </trkpt>
    <trkpt lat="42.20025" lon="-2.136919">
      <ele>621.6</ele>
    </trkpt>
    <trkpt lat="42.200101" lon="-2.136817">
      <ele>622</ele>
    </trkpt>
    <trkpt lat="42.199891" lon="-2.136602">
      <ele>622.9</ele>
    </trkpt>
    <trkpt lat="42.199849" lon="-2.136616">
      <ele>623</ele>
    </trkpt>
    <trkpt lat="42.198953" lon="-2.136862">
      <ele>627.4</ele>
    </trkpt>
    <trkpt lat="42.198824" lon="-2.136921">
      <ele>628.2</ele>
    </trkpt>
    <trkpt lat="42.198771" lon="-2.137034">
      <ele>628.7</ele>
    </trkpt>
    <trkpt lat="42.198683" lon="-2.137069">
      <ele>629.2</ele>
    </trkpt>
    <trkpt lat="42.198562" lon="-2.137066">
      <ele>629.8</ele>
    </trkpt>
    <trkpt lat="42.198483" lon="-2.137125">
      <ele>630.3</ele>
    </trkpt>
    <trkpt lat="42.198308" lon="-2.137098">
      <ele>631.4</ele>
    </trkpt>
    <trkpt lat="42.19786" lon="-2.137288">
      <ele>634.2</ele>
    </trkpt>
    <trkpt lat="42.197506" lon="-2.137256">
      <ele>636.4</ele>
    </trkpt>
    <trkpt lat="42.197303" lon="-2.137098">
      <ele>637.9</ele>
    </trkpt>
    <trkpt lat="42.197056" lon="-2.137105">
      <ele>639.3</ele>
    </trkpt>
    <trkpt lat="42.196871" lon="-2.137249">
      <ele>640.5</ele>
    </trkpt>
    <trkpt lat="42.196189" lon="-2.137523">
      <ele>643.2</ele>
    </trkpt>
    <trkpt lat="42.195866" lon="-2.137291">
      <ele>644.8</ele>
    </trkpt>
    <trkpt lat="42.195442" lon="-2.137291">
      <ele>647.1</ele>
    </trkpt>
    <trkpt lat="42.195228" lon="-2.137382">
      <ele>648.7</ele>
    </trkpt>
    <trkpt lat="42.194801" lon="-2.137555">
      <ele>652.8</ele>
    </trkpt>
    <trkpt lat="42.194614" lon="-2.137442">
      <ele>654.9</ele>
    </trkpt>
    <trkpt lat="42.19449" lon="-2.137241">
      <ele>657</ele>
    </trkpt>
    <trkpt lat="42.193909" lon="-2.137421">
      <ele>662.8</ele>
    </trkpt>
    <trkpt lat="42.19351" lon="-2.137903">
      <ele>666.9</ele>
    </trkpt>
    <trkpt lat="42.193581" lon="-2.138405">
      <ele>669.4</ele>
    </trkpt>
    <trkpt lat="42.193497" lon="-2.138739">
      <ele>670.7</ele>
    </trkpt>
    <trkpt lat="42.193305" lon="-2.138921">
      <ele>671.6</ele>
    </trkpt>
    <trkpt lat="42.193073" lon="-2.138936">
      <ele>672.3</ele>
    </trkpt>
    <trkpt lat="42.192792" lon="-2.138858">
      <ele>673.1</ele>
    </trkpt>
    <trkpt lat="42.192664" lon="-2.139108">
      <ele>673.7</ele>
    </trkpt>
    <trkpt lat="42.1925" lon="-2.139199">
      <ele>674.3</ele>
    </trkpt>
    <trkpt lat="42.192425" lon="-2.139417">
      <ele>674.9</ele>
    </trkpt>
    <trkpt lat="42.192279" lon="-2.139593">
      <ele>675.3</ele>
    </trkpt>
    <trkpt lat="42.192177" lon="-2.140084">
      <ele>675.8</ele>
    </trkpt>
    <trkpt lat="42.19231" lon="-2.140668">
      <ele>676.7</ele>
    </trkpt>
    <trkpt lat="42.19225" lon="-2.140902">
      <ele>677.2</ele>
    </trkpt>
    <trkpt lat="42.192035" lon="-2.14121">
      <ele>678.4</ele>
    </trkpt>
    <trkpt lat="42.191833" lon="-2.141289">
      <ele>679.3</ele>
    </trkpt>
    <trkpt lat="42.191649" lon="-2.141619">
      <ele>680.8</ele>
    </trkpt>
    <trkpt lat="42.191338" lon="-2.141763">
      <ele>682.5</ele>
    </trkpt>
    <trkpt lat="42.191008" lon="-2.141756">
      <ele>684.7</ele>
    </trkpt>
    <trkpt lat="42.190806" lon="-2.141971">
      <ele>686.7</ele>
    </trkpt>
    <trkpt lat="42.190426" lon="-2.142065">
      <ele>690.1</ele>
    </trkpt>
    <trkpt lat="42.190287" lon="-2.14238">
      <ele>692.4</ele>
    </trkpt>
    <trkpt lat="42.190141" lon="-2.142506">
      <ele>693.8</ele>
    </trkpt>
    <trkpt lat="42.189684" lon="-2.142643">
      <ele>696.4</ele>
    </trkpt>
    <trkpt lat="42.189492" lon="-2.142506">
      <ele>697</ele>
    </trkpt>
    <trkpt lat="42.189484" lon="-2.142625">
      <ele>697.2</ele>
    </trkpt>
    <trkpt lat="42.189668" lon="-2.142937">
      <ele>697.4</ele>
    </trkpt>
    <trkpt lat="42.189984" lon="-2.143134">
      <ele>698</ele>
    </trkpt>
    <trkpt lat="42.190123" lon="-2.143511">
      <ele>699.2</ele>
    </trkpt>
    <trkpt lat="42.190192" lon="-2.143554">
      <ele>699.6</ele>
    </trkpt>
    <trkpt lat="42.190331" lon="-2.143387">
      <ele>700.8</ele>
    </trkpt>
    <trkpt lat="42.190313" lon="-2.143498">
      <ele>701.5</ele>
    </trkpt>
    <trkpt lat="42.190206" lon="-2.143699">
      <ele>703.2</ele>
    </trkpt>
    <trkpt lat="42.190033" lon="-2.144225">
      <ele>708.9</ele>
    </trkpt>
    <trkpt lat="42.189997" lon="-2.144269">
      <ele>709.7</ele>
    </trkpt>
    <trkpt lat="42.1898" lon="-2.144441">
      <ele>714.1</ele>
    </trkpt>
    <trkpt lat="42.189671" lon="-2.144383">
      <ele>716.9</ele>
    </trkpt>
    <trkpt lat="42.189548" lon="-2.144287">
      <ele>720.1</ele>
    </trkpt>
    <trkpt lat="42.18946" lon="-2.14426">
      <ele>722</ele>
    </trkpt>
    <trkpt lat="42.189387" lon="-2.144272">
      <ele>723.7</ele>
    </trkpt>
    <trkpt lat="42.189289" lon="-2.14441">
      <ele>726.7</ele>
    </trkpt>
    <trkpt lat="42.189203" lon="-2.144638">
      <ele>730.4</ele>
    </trkpt>
    <trkpt lat="42.189206" lon="-2.144761">
      <ele>732.1</ele>
    </trkpt>
    <trkpt lat="42.18967" lon="-2.145279">
      <ele>742.3</ele>
    </trkpt>
    <trkpt lat="42.18977" lon="-2.145442">
      <ele>744.7</ele>
    </trkpt>
    <trkpt lat="42.189827" lon="-2.145801">
      <ele>748.7</ele>
    </trkpt>
    <trkpt lat="42.189796" lon="-2.145889">
      <ele>749.7</ele>
    </trkpt>
    <trkpt lat="42.189508" lon="-2.145849">
      <ele>753.9</ele>
    </trkpt>
    <trkpt lat="42.188942" lon="-2.145665">
      <ele>762.2</ele>
    </trkpt>
    <trkpt lat="42.188247" lon="-2.145247">
      <ele>772.3</ele>
    </trkpt>
    <trkpt lat="42.188011" lon="-2.144997">
      <ele>776</ele>
    </trkpt>
    <trkpt lat="42.187156" lon="-2.143935">
      <ele>789.1</ele>
    </trkpt>
    <trkpt lat="42.186735" lon="-2.14357">
      <ele>792.9</ele>
    </trkpt>
    <trkpt lat="42.18659" lon="-2.143445">
      <ele>794</ele>
    </trkpt>
    <trkpt lat="42.186456" lon="-2.143283">
      <ele>795</ele>
    </trkpt>
    <trkpt lat="42.186424" lon="-2.143113">
      <ele>795.7</ele>
    </trkpt>
    <trkpt lat="42.186199" lon="-2.14236">
      <ele>797.8</ele>
    </trkpt>
    <trkpt lat="42.185894" lon="-2.141472">
      <ele>798.1</ele>
    </trkpt>
    <trkpt lat="42.185922" lon="-2.141144">
      <ele>798.1</ele>
    </trkpt>
    <trkpt lat="42.18604" lon="-2.140774">
      <ele>798.3</ele>
    </trkpt>
    <trkpt lat="42.186252" lon="-2.140559">
      <ele>797.9</ele>
    </trkpt>
    <trkpt lat="42.186371" lon="-2.140096">
      <ele>796.3</ele>
    </trkpt>
    <trkpt lat="42.186378" lon="-2.139972">
      <ele>795.7</ele>
    </trkpt>
    <trkpt lat="42.186384" lon="-2.13988">
      <ele>795.2</ele>
    </trkpt>
    <trkpt lat="42.186389" lon="-2.139815">
      <ele>794.9</ele>
    </trkpt>
    <trkpt lat="42.186695" lon="-2.139697">
      <ele>792.4</ele>
    </trkpt>
    <trkpt lat="42.187018" lon="-2.13957">
      <ele>789.2</ele>
    </trkpt>
    <trkpt lat="42.18725" lon="-2.139531">
      <ele>786.8</ele>
    </trkpt>
    <trkpt lat="42.187497" lon="-2.139436">
      <ele>783.7</ele>
    </trkpt>
    <trkpt lat="42.18755" lon="-2.139413">
      <ele>783</ele>
    </trkpt>
    <trkpt lat="42.187655" lon="-2.139263">
      <ele>781</ele>
    </trkpt>
    <trkpt lat="42.187933" lon="-2.138571">
      <ele>773.8</ele>
    </trkpt>
    <trkpt lat="42.188472" lon="-2.137863">
      <ele>767</ele>
    </trkpt>
    <trkpt lat="42.188646" lon="-2.137747">
      <ele>765.3</ele>
    </trkpt>
    <trkpt lat="42.188743" lon="-2.137734">
      <ele>764.5</ele>
    </trkpt>
    <trkpt lat="42.188882" lon="-2.13782">
      <ele>763.3</ele>
    </trkpt>
    <trkpt lat="42.189106" lon="-2.137867">
      <ele>761.4</ele>
    </trkpt>
    <trkpt lat="42.189234" lon="-2.13778">
      <ele>760</ele>
    </trkpt>
    <trkpt lat="42.189304" lon="-2.137605">
      <ele>758.4</ele>
    </trkpt>
    <trkpt lat="42.189384" lon="-2.137506">
      <ele>757.1</ele>
    </trkpt>
    <trkpt lat="42.18972" lon="-2.137507">
      <ele>753</ele>
    </trkpt>
    <trkpt lat="42.18974" lon="-2.137472">
      <ele>752.6</ele>
    </trkpt>
    <trkpt lat="42.189769" lon="-2.137496">
      <ele>752.1</ele>
    </trkpt>
    <trkpt lat="42.189929" lon="-2.137455">
      <ele>749.8</ele>
    </trkpt>
    <trkpt lat="42.190119" lon="-2.137306">
      <ele>746.4</ele>
    </trkpt>
    <trkpt lat="42.190405" lon="-2.137135">
      <ele>741.1</ele>
    </trkpt>
    <trkpt lat="42.190461" lon="-2.137113">
      <ele>740.1</ele>
    </trkpt>
    <trkpt lat="42.190536" lon="-2.13716">
      <ele>738.7</ele>
    </trkpt>
    <trkpt lat="42.190611" lon="-2.137112">
      <ele>737.2</ele>
    </trkpt>
    <trkpt lat="42.190761" lon="-2.136944">
      <ele>733.6</ele>
    </trkpt>
    <trkpt lat="42.19082" lon="-2.136802">
      <ele>731.2</ele>
    </trkpt>
    <trkpt lat="42.190947" lon="-2.136722">
      <ele>728.5</ele>
    </trkpt>
    <trkpt lat="42.19106" lon="-2.136829">
      <ele>725.9</ele>
    </trkpt>
    <trkpt lat="42.191106" lon="-2.137004">
      <ele>723.5</ele>
    </trkpt>
    <trkpt lat="42.191158" lon="-2.137046">
      <ele>722.5</ele>
    </trkpt>
    <trkpt lat="42.191396" lon="-2.137047">
      <ele>718.8</ele>
    </trkpt>
    <trkpt lat="42.191563" lon="-2.137174">
      <ele>715.9</ele>
    </trkpt>
    <trkpt lat="42.191828" lon="-2.137044">
      <ele>711.9</ele>
    </trkpt>
    <trkpt lat="42.191968" lon="-2.136976">
      <ele>710</ele>
    </trkpt>
    <trkpt lat="42.192183" lon="-2.136682">
      <ele>706.5</ele>
    </trkpt>
    <trkpt lat="42.192199" lon="-2.13644">
      <ele>704.7</ele>
    </trkpt>
    <trkpt lat="42.192768" lon="-2.135768">
      <ele>698.5</ele>
    </trkpt>
    <trkpt lat="42.192866" lon="-2.135395">
      <ele>696.5</ele>
    </trkpt>
    <trkpt lat="42.192847" lon="-2.135136">
      <ele>695.3</ele>
    </trkpt>
    <trkpt lat="42.193039" lon="-2.134991">
      <ele>694</ele>
    </trkpt>
    <trkpt lat="42.193035" lon="-2.134802">
      <ele>693.2</ele>
    </trkpt>
    <trkpt lat="42.192974" lon="-2.13456">
      <ele>692.2</ele>
    </trkpt>
    <trkpt lat="42.19297" lon="-2.134235">
      <ele>691.1</ele>
    </trkpt>
    <trkpt lat="42.193048" lon="-2.133963">
      <ele>690.3</ele>
    </trkpt>
    <trkpt lat="42.193379" lon="-2.133688">
      <ele>688.9</ele>
    </trkpt>
    <trkpt lat="42.193454" lon="-2.133485">
      <ele>688.2</ele>
    </trkpt>
    <trkpt lat="42.193425" lon="-2.133156">
      <ele>687.1</ele>
    </trkpt>
    <trkpt lat="42.193725" lon="-2.132828">
      <ele>684.9</ele>
    </trkpt>
    <trkpt lat="42.194295" lon="-2.132367">
      <ele>680.5</ele>
    </trkpt>
    <trkpt lat="42.194463" lon="-2.132356">
      <ele>679</ele>
    </trkpt>
    <trkpt lat="42.194636" lon="-2.132421">
      <ele>677.4</ele>
    </trkpt>
    <trkpt lat="42.194906" lon="-2.132374">
      <ele>674.8</ele>
    </trkpt>
    <trkpt lat="42.195089" lon="-2.132441">
      <ele>673</ele>
    </trkpt>
    <trkpt lat="42.195193" lon="-2.132383">
      <ele>671.9</ele>
    </trkpt>
    <trkpt lat="42.195261" lon="-2.132302">
      <ele>671.1</ele>
    </trkpt>
    <trkpt lat="42.195391" lon="-2.132311">
      <ele>669.9</ele>
    </trkpt>
    <trkpt lat="42.195481" lon="-2.132491">
      <ele>668.5</ele>
    </trkpt>
    <trkpt lat="42.196489" lon="-2.132279">
      <ele>661.8</ele>
    </trkpt>
    <trkpt lat="42.196747" lon="-2.132342">
      <ele>661.3</ele>
    </trkpt>
    <trkpt lat="42.196777" lon="-2.132545">
      <ele>661</ele>
    </trkpt>
    <trkpt lat="42.197005" lon="-2.132986">
      <ele>660.5</ele>
    </trkpt>
    <trkpt lat="42.19728" lon="-2.133078">
      <ele>660.4</ele>
    </trkpt>
    <trkpt lat="42.197307" lon="-2.133206">
      <ele>660.5</ele>
    </trkpt>
    <trkpt lat="42.197172" lon="-2.1332">
      <ele>660.4</ele>
    </trkpt>
    <trkpt lat="42.197307" lon="-2.133206">
      <ele>660.3</ele>
    </trkpt>
    <trkpt lat="42.19728" lon="-2.133078">
      <ele>660.1</ele>
    </trkpt>
    <trkpt lat="42.197452" lon="-2.133209">
      <ele>659.8</ele>
    </trkpt>
    <trkpt lat="42.197622" lon="-2.133339">
      <ele>659.4</ele>
    </trkpt>
    <trkpt lat="42.19786" lon="-2.133516">
      <ele>658.5</ele>
    </trkpt>
    <trkpt lat="42.198185" lon="-2.133703">
      <ele>656.7</ele>
    </trkpt>
    <trkpt lat="42.199346" lon="-2.13386">
      <ele>649.4</ele>
    </trkpt>
    <trkpt lat="42.199508" lon="-2.133763">
      <ele>648.3</ele>
    </trkpt>
    <trkpt lat="42.199719" lon="-2.133444">
      <ele>646.1</ele>
    </trkpt>
    <trkpt lat="42.199792" lon="-2.133278">
      <ele>645.1</ele>
    </trkpt>
    <trkpt lat="42.200203" lon="-2.132927">
      <ele>641.8</ele>
    </trkpt>
    <trkpt lat="42.20096" lon="-2.132569">
      <ele>637</ele>
    </trkpt>
    <trkpt lat="42.201949" lon="-2.132337">
      <ele>631.2</ele>
    </trkpt>
    <trkpt lat="42.202421" lon="-2.131982">
      <ele>628</ele>
    </trkpt>
    <trkpt lat="42.202928" lon="-2.131648">
      <ele>624.4</ele>
    </trkpt>
    <trkpt lat="42.203074" lon="-2.131616">
      <ele>623.3</ele>
    </trkpt>
    <trkpt lat="42.203506" lon="-2.131701">
      <ele>620.1</ele>
    </trkpt>
    <trkpt lat="42.204223" lon="-2.132375">
      <ele>613.4</ele>
    </trkpt>
    <trkpt lat="42.204312" lon="-2.132433">
      <ele>612.7</ele>
    </trkpt>
    <trkpt lat="42.204763" lon="-2.132526">
      <ele>609.3</ele>
    </trkpt>
    <trkpt lat="42.204971" lon="-2.132649">
      <ele>607.6</ele>
    </trkpt>
    <trkpt lat="42.205088" lon="-2.13279">
      <ele>606.3</ele>
    </trkpt>
    <trkpt lat="42.204913" lon="-2.133136">
      <ele>603.8</ele>
    </trkpt>
    <trkpt lat="42.204745" lon="-2.133391">
      <ele>601.6</ele>
    </trkpt>
    <trkpt lat="42.205523" lon="-2.133556">
      <ele>594.3</ele>
    </trkpt>
    <trkpt lat="42.205551" lon="-2.133488">
      <ele>593.7</ele>
    </trkpt>
    <trkpt lat="42.205728" lon="-2.134109">
      <ele>589</ele>
    </trkpt>
    <trkpt lat="42.205977" lon="-2.134594">
      <ele>585.4</ele>
    </trkpt>
    <trkpt lat="42.206455" lon="-2.135044">
      <ele>581.6</ele>
    </trkpt>
    <trkpt lat="42.206904" lon="-2.135242">
      <ele>579.3</ele>
    </trkpt>
    <trkpt lat="42.208014" lon="-2.135338">
      <ele>575.2</ele>
    </trkpt>
    <trkpt lat="42.208616" lon="-2.135344">
      <ele>572.9</ele>
    </trkpt>
    <trkpt lat="42.208732" lon="-2.135239">
      <ele>572.3</ele>
    </trkpt>
    <trkpt lat="42.208856" lon="-2.134833">
      <ele>571</ele>
    </trkpt>
    <trkpt lat="42.209153" lon="-2.135015">
      <ele>569.8</ele>
    </trkpt>
    <trkpt lat="42.209196" lon="-2.135042">
      <ele>569.6</ele>
    </trkpt>
    <trkpt lat="42.209264" lon="-2.13503">
      <ele>569.3</ele>
    </trkpt>
    <trkpt lat="42.20933" lon="-2.134951">
      <ele>568.9</ele>
    </trkpt>
    <trkpt lat="42.209485" lon="-2.134236">
      <ele>566.7</ele>
    </trkpt>
    <trkpt lat="42.209598" lon="-2.133887">
      <ele>565.1</ele>
    </trkpt>
    <trkpt lat="42.209599" lon="-2.133872">
      <ele>565.1</ele>
    </trkpt>
    <trkpt lat="42.209611" lon="-2.133564">
      <ele>563.8</ele>
    </trkpt>
    <trkpt lat="42.209586" lon="-2.133284">
      <ele>562.7</ele>
    </trkpt>
    <trkpt lat="42.209491" lon="-2.133191">
      <ele>562.1</ele>
    </trkpt>
    <trkpt lat="42.209276" lon="-2.133181">
      <ele>560.7</ele>
    </trkpt>
    <trkpt lat="42.209278" lon="-2.133098">
      <ele>560.2</ele>
    </trkpt>
    <trkpt lat="42.209454" lon="-2.132903">
      <ele>558.1</ele>
    </trkpt>
    <trkpt lat="42.209706" lon="-2.132854">
      <ele>555.7</ele>
    </trkpt>
    <trkpt lat="42.209768" lon="-2.132872">
      <ele>555.1</ele>
    </trkpt>
    <trkpt lat="42.209833" lon="-2.133013">
      <ele>554</ele>
    </trkpt>
    <trkpt lat="42.209996" lon="-2.133133">
      <ele>552.3</ele>
    </trkpt>
    <trkpt lat="42.210011" lon="-2.133139">
      <ele>552.1</ele>
    </trkpt>
    <trkpt lat="42.210327" lon="-2.133147">
      <ele>549.4</ele>
    </trkpt>
    <trkpt lat="42.210364" lon="-2.133146">
      <ele>549</ele>
    </trkpt>
    <trkpt lat="42.210389" lon="-2.13289">
      <ele>547.5</ele>
    </trkpt>
    <trkpt lat="42.210463" lon="-2.130527">
      <ele>542.2</ele>
    </trkpt>
    <trkpt lat="42.210586" lon="-2.130099">
      <ele>542.2</ele>
    </trkpt>
    <trkpt lat="42.21055" lon="-2.128859">
      <ele>542.1</ele>
    </trkpt>
    <trkpt lat="42.211102" lon="-2.126524">
      <ele>540.6</ele>
    </trkpt>
    <trkpt lat="42.211693" lon="-2.123254">
      <ele>537.3</ele>
    </trkpt>
    <trkpt lat="42.214908" lon="-2.116017">
      <ele>533.2</ele>
    </trkpt>
    <trkpt lat="42.216489" lon="-2.113633">
      <ele>528.7</ele>
    </trkpt>
    <trkpt lat="42.21695" lon="-2.112988">
      <ele>527.7</ele>
    </trkpt>
    <trkpt lat="42.217667" lon="-2.111589">
      <ele>527.1</ele>
    </trkpt>
    <trkpt lat="42.217962" lon="-2.110583">
      <ele>526.4</ele>
    </trkpt>
    <trkpt lat="42.218462" lon="-2.109157">
      <ele>524.4</ele>
    </trkpt>
    <trkpt lat="42.219112" lon="-2.107935">
      <ele>521</ele>
    </trkpt>
    <trkpt lat="42.219366" lon="-2.107095">
      <ele>519.4</ele>
    </trkpt>
    <trkpt lat="42.219334" lon="-2.106247">
      <ele>518.1</ele>
    </trkpt>
    <trkpt lat="42.21935" lon="-2.105939">
      <ele>517.9</ele>
    </trkpt>
    <trkpt lat="42.219435" lon="-2.105287">
      <ele>517.9</ele>
    </trkpt>
    <trkpt lat="42.219531" lon="-2.10487">
      <ele>518</ele>
    </trkpt>
    <trkpt lat="42.220068" lon="-2.103045">
      <ele>518.4</ele>
    </trkpt>
    <trkpt lat="42.220476" lon="-2.10179">
      <ele>517.7</ele>
    </trkpt>
    <trkpt lat="42.220686" lon="-2.100997">
      <ele>516.5</ele>
    </trkpt>
    <trkpt lat="42.220791" lon="-2.100213">
      <ele>514.9</ele>
    </trkpt>
    <trkpt lat="42.221181" lon="-2.098975">
      <ele>512</ele>
    </trkpt>
    <trkpt lat="42.221339" lon="-2.098664">
      <ele>511.3</ele>
    </trkpt>
    <trkpt lat="42.221754" lon="-2.098857">
      <ele>510.8</ele>
    </trkpt>
    <trkpt lat="42.221995" lon="-2.098969">
      <ele>510.7</ele>
    </trkpt>
    <trkpt lat="42.22213" lon="-2.098918">
      <ele>510.8</ele>
    </trkpt>
    <trkpt lat="42.222243" lon="-2.098977">
      <ele>510.9</ele>
    </trkpt>
    <trkpt lat="42.223003" lon="-2.09943">
      <ele>512.1</ele>
    </trkpt>
    <trkpt lat="42.22302" lon="-2.09944">
      <ele>512.1</ele>
    </trkpt>
    <trkpt lat="42.223065" lon="-2.099466">
      <ele>512.2</ele>
    </trkpt>
    <trkpt lat="42.223825" lon="-2.099905">
      <ele>514.3</ele>
    </trkpt>
    <trkpt lat="42.224446" lon="-2.100267">
      <ele>515.7</ele>
    </trkpt>
    <trkpt lat="42.224614" lon="-2.100275">
      <ele>515.9</ele>
    </trkpt>
    <trkpt lat="42.224698" lon="-2.100216">
      <ele>516</ele>
    </trkpt>
    <trkpt lat="42.224804" lon="-2.100237">
      <ele>516.2</ele>
    </trkpt>
    <trkpt lat="42.224875" lon="-2.100347">
      <ele>516.3</ele>
    </trkpt>
    <trkpt lat="42.224883" lon="-2.100386">
      <ele>516.3</ele>
    </trkpt>
    <trkpt lat="42.224873" lon="-2.100512">
      <ele>516.4</ele>
    </trkpt>
    <trkpt lat="42.224849" lon="-2.100563">
      <ele>516.4</ele>
    </trkpt>
    <trkpt lat="42.224777" lon="-2.100629">
      <ele>516.5</ele>
    </trkpt>
    <trkpt lat="42.224715" lon="-2.100637">
      <ele>516.5</ele>
    </trkpt>
    <trkpt lat="42.224599" lon="-2.10075">
      <ele>516.6</ele>
    </trkpt>
    <trkpt lat="42.224513" lon="-2.100877">
      <ele>516.6</ele>
    </trkpt>
    <trkpt lat="42.22389" lon="-2.102245">
      <ele>516.3</ele>
    </trkpt>
    </trkseg>
  </trk>
</gpx>
