<?xml version="1.0" encoding="UTF-8"?>
<gpx version="1.1" creator="fitAI Komoot downloader" xmlns="http://www.topografix.com/GPX/1/1">
  <metadata>
    <name>Subida a Santa Bárbara y Ezcaray - Recorrido circular desde Zorraquín</name>
    <desc>66 visitas · Dificultad: moderate · Distancia: 14.3 km · Desnivel +: 587 m</desc>
    <link href="https://www.komoot.com/smarttour/e31876842"><text>Komoot</text></link>
  </metadata>
  <trk>
    <name>Subida a Santa Bárbara y Ezcaray - Recorrido circular desde Zorraquín</name>
    <type>mtb</type>
    <trkseg>
    <trkpt lat="42.328675" lon="-3.014101">
      <ele>808.1</ele>
    </trkpt>
    <trkpt lat="42.328688" lon="-3.014441">
      <ele>808.2</ele>
    </trkpt>
    <trkpt lat="42.328326" lon="-3.014539">
      <ele>808.4</ele>
    </trkpt>
    <trkpt lat="42.327457" lon="-3.014758">
      <ele>810.1</ele>
    </trkpt>
    <trkpt lat="42.326934" lon="-3.014907">
      <ele>811.4</ele>
    </trkpt>
    <trkpt lat="42.326986" lon="-3.015423">
      <ele>812.4</ele>
    </trkpt>
    <trkpt lat="42.327017" lon="-3.015729">
      <ele>813</ele>
    </trkpt>
    <trkpt lat="42.327088" lon="-3.016411">
      <ele>814.2</ele>
    </trkpt>
    <trkpt lat="42.326662" lon="-3.01655">
      <ele>815.1</ele>
    </trkpt>
    <trkpt lat="42.326234" lon="-3.016717">
      <ele>816</ele>
    </trkpt>
    <trkpt lat="42.325775" lon="-3.016872">
      <ele>816.8</ele>
    </trkpt>
    <trkpt lat="42.325768" lon="-3.01704">
      <ele>817</ele>
    </trkpt>
    <trkpt lat="42.32576" lon="-3.017466">
      <ele>817.5</ele>
    </trkpt>
    <trkpt lat="42.325732" lon="-3.018626">
      <ele>819.1</ele>
    </trkpt>
    <trkpt lat="42.325676" lon="-3.020131">
      <ele>822</ele>
    </trkpt>
    <trkpt lat="42.325664" lon="-3.020552">
      <ele>823</ele>
    </trkpt>
    <trkpt lat="42.325614" lon="-3.02221">
      <ele>828.1</ele>
    </trkpt>
    <trkpt lat="42.324791" lon="-3.023579">
      <ele>837.5</ele>
    </trkpt>
    <trkpt lat="42.324669" lon="-3.023688">
      <ele>838.9</ele>
    </trkpt>
    <trkpt lat="42.323742" lon="-3.024203">
      <ele>848.8</ele>
    </trkpt>
    <trkpt lat="42.323641" lon="-3.02426">
      <ele>849.9</ele>
    </trkpt>
    <trkpt lat="42.323457" lon="-3.02434">
      <ele>851.8</ele>
    </trkpt>
    <trkpt lat="42.32341" lon="-3.024324">
      <ele>852.2</ele>
    </trkpt>
    <trkpt lat="42.323355" lon="-3.024245">
      <ele>853</ele>
    </trkpt>
    <trkpt lat="42.323336" lon="-3.024078">
      <ele>854.1</ele>
    </trkpt>
    <trkpt lat="42.323335" lon="-3.022309">
      <ele>865.9</ele>
    </trkpt>
    <trkpt lat="42.323309" lon="-3.022189">
      <ele>866.8</ele>
    </trkpt>
    <trkpt lat="42.323211" lon="-3.021978">
      <ele>868.6</ele>
    </trkpt>
    <trkpt lat="42.322917" lon="-3.021848">
      <ele>872</ele>
    </trkpt>
    <trkpt lat="42.322817" lon="-3.021744">
      <ele>873.4</ele>
    </trkpt>
    <trkpt lat="42.322721" lon="-3.021496">
      <ele>875.6</ele>
    </trkpt>
    <trkpt lat="42.322553" lon="-3.020846">
      <ele>880.5</ele>
    </trkpt>
    <trkpt lat="42.322513" lon="-3.020803">
      <ele>881</ele>
    </trkpt>
    <trkpt lat="42.322442" lon="-3.020792">
      <ele>881.6</ele>
    </trkpt>
    <trkpt lat="42.322394" lon="-3.020874">
      <ele>882.2</ele>
    </trkpt>
    <trkpt lat="42.322277" lon="-3.021432">
      <ele>885.4</ele>
    </trkpt>
    <trkpt lat="42.321921" lon="-3.022549">
      <ele>891.4</ele>
    </trkpt>
    <trkpt lat="42.321858" lon="-3.022645">
      <ele>892</ele>
    </trkpt>
    <trkpt lat="42.321711" lon="-3.0228">
      <ele>893.1</ele>
    </trkpt>
    <trkpt lat="42.321446" lon="-3.023083">
      <ele>895.3</ele>
    </trkpt>
    <trkpt lat="42.321251" lon="-3.023402">
      <ele>897.6</ele>
    </trkpt>
    <trkpt lat="42.32094" lon="-3.024177">
      <ele>903.1</ele>
    </trkpt>
    <trkpt lat="42.32077" lon="-3.024688">
      <ele>906.5</ele>
    </trkpt>
    <trkpt lat="42.320644" lon="-3.024886">
      <ele>908.2</ele>
    </trkpt>
    <trkpt lat="42.320127" lon="-3.025148">
      <ele>913.9</ele>
    </trkpt>
    <trkpt lat="42.31959" lon="-3.025563">
      <ele>921.6</ele>
    </trkpt>
    <trkpt lat="42.319284" lon="-3.025605">
      <ele>925.6</ele>
    </trkpt>
    <trkpt lat="42.31898" lon="-3.025581">
      <ele>929.8</ele>
    </trkpt>
    <trkpt lat="42.318894" lon="-3.0256">
      <ele>931</ele>
    </trkpt>
    <trkpt lat="42.318823" lon="-3.025653">
      <ele>932.1</ele>
    </trkpt>
    <trkpt lat="42.318693" lon="-3.025913">
      <ele>935.5</ele>
    </trkpt>
    <trkpt lat="42.318165" lon="-3.026641">
      <ele>946.7</ele>
    </trkpt>
    <trkpt lat="42.317648" lon="-3.027471">
      <ele>958.5</ele>
    </trkpt>
    <trkpt lat="42.317305" lon="-3.027788">
      <ele>964</ele>
    </trkpt>
    <trkpt lat="42.317151" lon="-3.028005">
      <ele>966.6</ele>
    </trkpt>
    <trkpt lat="42.317085" lon="-3.028059">
      <ele>967.4</ele>
    </trkpt>
    <trkpt lat="42.317004" lon="-3.028008">
      <ele>968.3</ele>
    </trkpt>
    <trkpt lat="42.317001" lon="-3.027901">
      <ele>969.1</ele>
    </trkpt>
    <trkpt lat="42.317037" lon="-3.027676">
      <ele>970.6</ele>
    </trkpt>
    <trkpt lat="42.317454" lon="-3.026856">
      <ele>975.1</ele>
    </trkpt>
    <trkpt lat="42.317536" lon="-3.026471">
      <ele>976.1</ele>
    </trkpt>
    <trkpt lat="42.317543" lon="-3.026151">
      <ele>976.7</ele>
    </trkpt>
    <trkpt lat="42.317515" lon="-3.0256">
      <ele>976.9</ele>
    </trkpt>
    <trkpt lat="42.317448" lon="-3.024993">
      <ele>976</ele>
    </trkpt>
    <trkpt lat="42.317447" lon="-3.024575">
      <ele>974.6</ele>
    </trkpt>
    <trkpt lat="42.317407" lon="-3.024537">
      <ele>974.3</ele>
    </trkpt>
    <trkpt lat="42.31734" lon="-3.024472">
      <ele>973.9</ele>
    </trkpt>
    <trkpt lat="42.316682" lon="-3.024079">
      <ele>970.7</ele>
    </trkpt>
    <trkpt lat="42.316434" lon="-3.023988">
      <ele>970.1</ele>
    </trkpt>
    <trkpt lat="42.31635" lon="-3.024047">
      <ele>970</ele>
    </trkpt>
    <trkpt lat="42.316303" lon="-3.02415">
      <ele>969.9</ele>
    </trkpt>
    <trkpt lat="42.316232" lon="-3.02508">
      <ele>971.8</ele>
    </trkpt>
    <trkpt lat="42.316142" lon="-3.025473">
      <ele>973.9</ele>
    </trkpt>
    <trkpt lat="42.316004" lon="-3.02566">
      <ele>975.5</ele>
    </trkpt>
    <trkpt lat="42.315858" lon="-3.02575">
      <ele>976.8</ele>
    </trkpt>
    <trkpt lat="42.315374" lon="-3.025897">
      <ele>981.1</ele>
    </trkpt>
    <trkpt lat="42.315323" lon="-3.025978">
      <ele>981.7</ele>
    </trkpt>
    <trkpt lat="42.315182" lon="-3.026424">
      <ele>984.2</ele>
    </trkpt>
    <trkpt lat="42.315075" lon="-3.026662">
      <ele>985.8</ele>
    </trkpt>
    <trkpt lat="42.314903" lon="-3.026839">
      <ele>987.5</ele>
    </trkpt>
    <trkpt lat="42.314769" lon="-3.026872">
      <ele>988.7</ele>
    </trkpt>
    <trkpt lat="42.31461" lon="-3.026839">
      <ele>990.2</ele>
    </trkpt>
    <trkpt lat="42.314377" lon="-3.026564">
      <ele>993.4</ele>
    </trkpt>
    <trkpt lat="42.314335" lon="-3.02656">
      <ele>993.9</ele>
    </trkpt>
    <trkpt lat="42.314105" lon="-3.026724">
      <ele>996.9</ele>
    </trkpt>
    <trkpt lat="42.313886" lon="-3.026828">
      <ele>999.4</ele>
    </trkpt>
    <trkpt lat="42.313678" lon="-3.026864">
      <ele>1001.6</ele>
    </trkpt>
    <trkpt lat="42.313463" lon="-3.02684">
      <ele>1003.9</ele>
    </trkpt>
    <trkpt lat="42.313175" lon="-3.026862">
      <ele>1006.6</ele>
    </trkpt>
    <trkpt lat="42.313104" lon="-3.026828">
      <ele>1007.2</ele>
    </trkpt>
    <trkpt lat="42.313033" lon="-3.026738">
      <ele>1007.9</ele>
    </trkpt>
    <trkpt lat="42.312767" lon="-3.02619">
      <ele>1009.9</ele>
    </trkpt>
    <trkpt lat="42.312663" lon="-3.025887">
      <ele>1009.8</ele>
    </trkpt>
    <trkpt lat="42.312517" lon="-3.025048">
      <ele>1006.9</ele>
    </trkpt>
    <trkpt lat="42.312413" lon="-3.024748">
      <ele>1005.4</ele>
    </trkpt>
    <trkpt lat="42.312295" lon="-3.024552">
      <ele>1004.4</ele>
    </trkpt>
    <trkpt lat="42.312131" lon="-3.024465">
      <ele>1003.5</ele>
    </trkpt>
    <trkpt lat="42.311954" lon="-3.024502">
      <ele>1003</ele>
    </trkpt>
    <trkpt lat="42.311661" lon="-3.024744">
      <ele>1002.7</ele>
    </trkpt>
    <trkpt lat="42.311301" lon="-3.025169">
      <ele>1003.9</ele>
    </trkpt>
    <trkpt lat="42.310992" lon="-3.025587">
      <ele>1006.7</ele>
    </trkpt>
    <trkpt lat="42.310961" lon="-3.025683">
      <ele>1007.3</ele>
    </trkpt>
    <trkpt lat="42.311" lon="-3.025697">
      <ele>1007.7</ele>
    </trkpt>
    <trkpt lat="42.311057" lon="-3.025666">
      <ele>1008.1</ele>
    </trkpt>
    <trkpt lat="42.311272" lon="-3.025443">
      <ele>1010.5</ele>
    </trkpt>
    <trkpt lat="42.311526" lon="-3.02529">
      <ele>1013.1</ele>
    </trkpt>
    <trkpt lat="42.311663" lon="-3.02525">
      <ele>1014.3</ele>
    </trkpt>
    <trkpt lat="42.311805" lon="-3.025256">
      <ele>1015.5</ele>
    </trkpt>
    <trkpt lat="42.311927" lon="-3.025304">
      <ele>1016.4</ele>
    </trkpt>
    <trkpt lat="42.312043" lon="-3.025399">
      <ele>1017.3</ele>
    </trkpt>
    <trkpt lat="42.312108" lon="-3.025561">
      <ele>1018.2</ele>
    </trkpt>
    <trkpt lat="42.312093" lon="-3.025646">
      <ele>1018.6</ele>
    </trkpt>
    <trkpt lat="42.312041" lon="-3.025679">
      <ele>1018.9</ele>
    </trkpt>
    <trkpt lat="42.311831" lon="-3.025648">
      <ele>1020.2</ele>
    </trkpt>
    <trkpt lat="42.311503" lon="-3.025715">
      <ele>1021.9</ele>
    </trkpt>
    <trkpt lat="42.31128" lon="-3.02593">
      <ele>1023.3</ele>
    </trkpt>
    <trkpt lat="42.311037" lon="-3.026217">
      <ele>1024.9</ele>
    </trkpt>
    <trkpt lat="42.310809" lon="-3.026424">
      <ele>1026.7</ele>
    </trkpt>
    <trkpt lat="42.310681" lon="-3.026584">
      <ele>1028.1</ele>
    </trkpt>
    <trkpt lat="42.31067" lon="-3.026685">
      <ele>1028.8</ele>
    </trkpt>
    <trkpt lat="42.310745" lon="-3.02671">
      <ele>1029.5</ele>
    </trkpt>
    <trkpt lat="42.310994" lon="-3.026493">
      <ele>1032.6</ele>
    </trkpt>
    <trkpt lat="42.31139" lon="-3.026352">
      <ele>1038.1</ele>
    </trkpt>
    <trkpt lat="42.311617" lon="-3.026392">
      <ele>1041.6</ele>
    </trkpt>
    <trkpt lat="42.311805" lon="-3.026571">
      <ele>1045.3</ele>
    </trkpt>
    <trkpt lat="42.31239" lon="-3.02766">
      <ele>1060.1</ele>
    </trkpt>
    <trkpt lat="42.312535" lon="-3.027969">
      <ele>1063.3</ele>
    </trkpt>
    <trkpt lat="42.312736" lon="-3.028308">
      <ele>1066.4</ele>
    </trkpt>
    <trkpt lat="42.312915" lon="-3.028492">
      <ele>1068</ele>
    </trkpt>
    <trkpt lat="42.31334" lon="-3.028612">
      <ele>1069.9</ele>
    </trkpt>
    <trkpt lat="42.313664" lon="-3.02881">
      <ele>1070.5</ele>
    </trkpt>
    <trkpt lat="42.313861" lon="-3.028884">
      <ele>1071.1</ele>
    </trkpt>
    <trkpt lat="42.314257" lon="-3.028823">
      <ele>1073</ele>
    </trkpt>
    <trkpt lat="42.314508" lon="-3.028882">
      <ele>1074.7</ele>
    </trkpt>
    <trkpt lat="42.314593" lon="-3.028954">
      <ele>1075.5</ele>
    </trkpt>
    <trkpt lat="42.314607" lon="-3.028987">
      <ele>1075.7</ele>
    </trkpt>
    <trkpt lat="42.314593" lon="-3.029016">
      <ele>1075.9</ele>
    </trkpt>
    <trkpt lat="42.314526" lon="-3.029083">
      <ele>1076.7</ele>
    </trkpt>
    <trkpt lat="42.314297" lon="-3.029052">
      <ele>1078.8</ele>
    </trkpt>
    <trkpt lat="42.313933" lon="-3.029234">
      <ele>1083.2</ele>
    </trkpt>
    <trkpt lat="42.313687" lon="-3.029279">
      <ele>1086.5</ele>
    </trkpt>
    <trkpt lat="42.313406" lon="-3.029219">
      <ele>1090.3</ele>
    </trkpt>
    <trkpt lat="42.312741" lon="-3.029384">
      <ele>1096.7</ele>
    </trkpt>
    <trkpt lat="42.312192" lon="-3.029153">
      <ele>1098.9</ele>
    </trkpt>
    <trkpt lat="42.311728" lon="-3.029143">
      <ele>1099.8</ele>
    </trkpt>
    <trkpt lat="42.311383" lon="-3.029389">
      <ele>1100.6</ele>
    </trkpt>
    <trkpt lat="42.311118" lon="-3.029657">
      <ele>1101.8</ele>
    </trkpt>
    <trkpt lat="42.310834" lon="-3.030477">
      <ele>1106.3</ele>
    </trkpt>
    <trkpt lat="42.310164" lon="-3.031961">
      <ele>1123.3</ele>
    </trkpt>
    <trkpt lat="42.309686" lon="-3.032625">
      <ele>1134.9</ele>
    </trkpt>
    <trkpt lat="42.309259" lon="-3.033317">
      <ele>1145.2</ele>
    </trkpt>
    <trkpt lat="42.309194" lon="-3.033346">
      <ele>1146.1</ele>
    </trkpt>
    <trkpt lat="42.309074" lon="-3.033263">
      <ele>1147.9</ele>
    </trkpt>
    <trkpt lat="42.308933" lon="-3.033088">
      <ele>1150.2</ele>
    </trkpt>
    <trkpt lat="42.308778" lon="-3.032761">
      <ele>1153.4</ele>
    </trkpt>
    <trkpt lat="42.308529" lon="-3.032508">
      <ele>1156.1</ele>
    </trkpt>
    <trkpt lat="42.307807" lon="-3.032441">
      <ele>1159.7</ele>
    </trkpt>
    <trkpt lat="42.307321" lon="-3.032307">
      <ele>1160.4</ele>
    </trkpt>
    <trkpt lat="42.307094" lon="-3.032208">
      <ele>1160.2</ele>
    </trkpt>
    <trkpt lat="42.306818" lon="-3.032265">
      <ele>1159.4</ele>
    </trkpt>
    <trkpt lat="42.306143" lon="-3.032628">
      <ele>1156.3</ele>
    </trkpt>
    <trkpt lat="42.305832" lon="-3.032837">
      <ele>1155.4</ele>
    </trkpt>
    <trkpt lat="42.305773" lon="-3.032922">
      <ele>1155.2</ele>
    </trkpt>
    <trkpt lat="42.305717" lon="-3.033083">
      <ele>1155.2</ele>
    </trkpt>
    <trkpt lat="42.305416" lon="-3.034307">
      <ele>1162.4</ele>
    </trkpt>
    <trkpt lat="42.305241" lon="-3.035267">
      <ele>1175</ele>
    </trkpt>
    <trkpt lat="42.304984" lon="-3.035964">
      <ele>1184.3</ele>
    </trkpt>
    <trkpt lat="42.304905" lon="-3.03601">
      <ele>1185.4</ele>
    </trkpt>
    <trkpt lat="42.304566" lon="-3.036085">
      <ele>1189.2</ele>
    </trkpt>
    <trkpt lat="42.304389" lon="-3.036086">
      <ele>1190.8</ele>
    </trkpt>
    <trkpt lat="42.303963" lon="-3.03599">
      <ele>1193.8</ele>
    </trkpt>
    <trkpt lat="42.30381" lon="-3.035989">
      <ele>1194.5</ele>
    </trkpt>
    <trkpt lat="42.303498" lon="-3.03615">
      <ele>1195.8</ele>
    </trkpt>
    <trkpt lat="42.303376" lon="-3.036258">
      <ele>1196.4</ele>
    </trkpt>
    <trkpt lat="42.303205" lon="-3.036497">
      <ele>1197.6</ele>
    </trkpt>
    <trkpt lat="42.302496" lon="-3.03777">
      <ele>1207.4</ele>
    </trkpt>
    <trkpt lat="42.302021" lon="-3.03845">
      <ele>1213</ele>
    </trkpt>
    <trkpt lat="42.301091" lon="-3.039322">
      <ele>1220.4</ele>
    </trkpt>
    <trkpt lat="42.300585" lon="-3.039947">
      <ele>1225.4</ele>
    </trkpt>
    <trkpt lat="42.300571" lon="-3.040028">
      <ele>1225.9</ele>
    </trkpt>
    <trkpt lat="42.300599" lon="-3.040065">
      <ele>1226.2</ele>
    </trkpt>
    <trkpt lat="42.300654" lon="-3.040064">
      <ele>1226.7</ele>
    </trkpt>
    <trkpt lat="42.300885" lon="-3.039819">
      <ele>1229.5</ele>
    </trkpt>
    <trkpt lat="42.301301" lon="-3.039568">
      <ele>1234.4</ele>
    </trkpt>
    <trkpt lat="42.302292" lon="-3.03913">
      <ele>1245.3</ele>
    </trkpt>
    <trkpt lat="42.302724" lon="-3.038869">
      <ele>1249.1</ele>
    </trkpt>
    <trkpt lat="42.303238" lon="-3.038455">
      <ele>1252.6</ele>
    </trkpt>
    <trkpt lat="42.303917" lon="-3.037821">
      <ele>1259.7</ele>
    </trkpt>
    <trkpt lat="42.304007" lon="-3.037812">
      <ele>1260.8</ele>
    </trkpt>
    <trkpt lat="42.304168" lon="-3.037758">
      <ele>1263.2</ele>
    </trkpt>
    <trkpt lat="42.304575" lon="-3.03779">
      <ele>1268.8</ele>
    </trkpt>
    <trkpt lat="42.304966" lon="-3.037974">
      <ele>1273</ele>
    </trkpt>
    <trkpt lat="42.305081" lon="-3.03807">
      <ele>1274.2</ele>
    </trkpt>
    <trkpt lat="42.305149" lon="-3.038207">
      <ele>1275.1</ele>
    </trkpt>
    <trkpt lat="42.305265" lon="-3.03827">
      <ele>1275.9</ele>
    </trkpt>
    <trkpt lat="42.305379" lon="-3.03823">
      <ele>1276.5</ele>
    </trkpt>
    <trkpt lat="42.305855" lon="-3.037814">
      <ele>1276.3</ele>
    </trkpt>
    <trkpt lat="42.306285" lon="-3.03732">
      <ele>1271.4</ele>
    </trkpt>
    <trkpt lat="42.306467" lon="-3.037154">
      <ele>1269</ele>
    </trkpt>
    <trkpt lat="42.307249" lon="-3.036499">
      <ele>1258.3</ele>
    </trkpt>
    <trkpt lat="42.307682" lon="-3.036178">
      <ele>1251.1</ele>
    </trkpt>
    <trkpt lat="42.307825" lon="-3.036131">
      <ele>1248.7</ele>
    </trkpt>
    <trkpt lat="42.308518" lon="-3.036057">
      <ele>1237.2</ele>
    </trkpt>
    <trkpt lat="42.308766" lon="-3.036089">
      <ele>1233.3</ele>
    </trkpt>
    <trkpt lat="42.308914" lon="-3.036214">
      <ele>1230.6</ele>
    </trkpt>
    <trkpt lat="42.309034" lon="-3.036274">
      <ele>1228.6</ele>
    </trkpt>
    <trkpt lat="42.309263" lon="-3.036329">
      <ele>1225.2</ele>
    </trkpt>
    <trkpt lat="42.309395" lon="-3.036027">
      <ele>1221.4</ele>
    </trkpt>
    <trkpt lat="42.309566" lon="-3.035823">
      <ele>1218.2</ele>
    </trkpt>
    <trkpt lat="42.30976" lon="-3.035662">
      <ele>1215</ele>
    </trkpt>
    <trkpt lat="42.310367" lon="-3.034772">
      <ele>1202.3</ele>
    </trkpt>
    <trkpt lat="42.310578" lon="-3.034552">
      <ele>1197.9</ele>
    </trkpt>
    <trkpt lat="42.31074" lon="-3.034268">
      <ele>1193.4</ele>
    </trkpt>
    <trkpt lat="42.310804" lon="-3.033983">
      <ele>1189.5</ele>
    </trkpt>
    <trkpt lat="42.310958" lon="-3.03357">
      <ele>1183.3</ele>
    </trkpt>
    <trkpt lat="42.311077" lon="-3.033323">
      <ele>1179.2</ele>
    </trkpt>
    <trkpt lat="42.311133" lon="-3.033055">
      <ele>1175.4</ele>
    </trkpt>
    <trkpt lat="42.311145" lon="-3.033022">
      <ele>1174.9</ele>
    </trkpt>
    <trkpt lat="42.311232" lon="-3.032782">
      <ele>1171.2</ele>
    </trkpt>
    <trkpt lat="42.311573" lon="-3.031516">
      <ele>1156.9</ele>
    </trkpt>
    <trkpt lat="42.311688" lon="-3.031285">
      <ele>1155.1</ele>
    </trkpt>
    <trkpt lat="42.312093" lon="-3.031113">
      <ele>1150.2</ele>
    </trkpt>
    <trkpt lat="42.312327" lon="-3.031119">
      <ele>1147</ele>
    </trkpt>
    <trkpt lat="42.312616" lon="-3.031188">
      <ele>1142.7</ele>
    </trkpt>
    <trkpt lat="42.312699" lon="-3.03117">
      <ele>1141.3</ele>
    </trkpt>
    <trkpt lat="42.312894" lon="-3.030802">
      <ele>1135.1</ele>
    </trkpt>
    <trkpt lat="42.31318" lon="-3.030368">
      <ele>1124.8</ele>
    </trkpt>
    <trkpt lat="42.313346" lon="-3.03018">
      <ele>1118.5</ele>
    </trkpt>
    <trkpt lat="42.313469" lon="-3.030099">
      <ele>1114.1</ele>
    </trkpt>
    <trkpt lat="42.313592" lon="-3.030073">
      <ele>1110.1</ele>
    </trkpt>
    <trkpt lat="42.313914" lon="-3.029719">
      <ele>1097.9</ele>
    </trkpt>
    <trkpt lat="42.314531" lon="-3.029198">
      <ele>1084.8</ele>
    </trkpt>
    <trkpt lat="42.314547" lon="-3.029132">
      <ele>1084.3</ele>
    </trkpt>
    <trkpt lat="42.314526" lon="-3.029083">
      <ele>1083.9</ele>
    </trkpt>
    <trkpt lat="42.314593" lon="-3.029016">
      <ele>1083.2</ele>
    </trkpt>
    <trkpt lat="42.314624" lon="-3.029107">
      <ele>1082.7</ele>
    </trkpt>
    <trkpt lat="42.31462" lon="-3.029209">
      <ele>1082.2</ele>
    </trkpt>
    <trkpt lat="42.314342" lon="-3.030309">
      <ele>1079.8</ele>
    </trkpt>
    <trkpt lat="42.31437" lon="-3.030416">
      <ele>1079.7</ele>
    </trkpt>
    <trkpt lat="42.31433" lon="-3.030864">
      <ele>1078.6</ele>
    </trkpt>
    <trkpt lat="42.314342" lon="-3.030958">
      <ele>1078.2</ele>
    </trkpt>
    <trkpt lat="42.314449" lon="-3.031116">
      <ele>1076.8</ele>
    </trkpt>
    <trkpt lat="42.314818" lon="-3.031435">
      <ele>1071.3</ele>
    </trkpt>
    <trkpt lat="42.315067" lon="-3.031615">
      <ele>1066.8</ele>
    </trkpt>
    <trkpt lat="42.31529" lon="-3.031687">
      <ele>1062.9</ele>
    </trkpt>
    <trkpt lat="42.315543" lon="-3.031706">
      <ele>1058.3</ele>
    </trkpt>
    <trkpt lat="42.315639" lon="-3.031776">
      <ele>1056.3</ele>
    </trkpt>
    <trkpt lat="42.315905" lon="-3.032036">
      <ele>1050.3</ele>
    </trkpt>
    <trkpt lat="42.315964" lon="-3.032127">
      <ele>1048.7</ele>
    </trkpt>
    <trkpt lat="42.315976" lon="-3.032202">
      <ele>1047.8</ele>
    </trkpt>
    <trkpt lat="42.316036" lon="-3.032213">
      <ele>1046.7</ele>
    </trkpt>
    <trkpt lat="42.316178" lon="-3.032176">
      <ele>1044.3</ele>
    </trkpt>
    <trkpt lat="42.316341" lon="-3.032015">
      <ele>1041</ele>
    </trkpt>
    <trkpt lat="42.316417" lon="-3.032015">
      <ele>1039.8</ele>
    </trkpt>
    <trkpt lat="42.31648" lon="-3.031956">
      <ele>1038.5</ele>
    </trkpt>
    <trkpt lat="42.316627" lon="-3.031902">
      <ele>1035.9</ele>
    </trkpt>
    <trkpt lat="42.316738" lon="-3.031827">
      <ele>1033.8</ele>
    </trkpt>
    <trkpt lat="42.317392" lon="-3.031146">
      <ele>1017.2</ele>
    </trkpt>
    <trkpt lat="42.317519" lon="-3.030955">
      <ele>1013.2</ele>
    </trkpt>
    <trkpt lat="42.31761" lon="-3.030885">
      <ele>1011</ele>
    </trkpt>
    <trkpt lat="42.317721" lon="-3.030671">
      <ele>1006.8</ele>
    </trkpt>
    <trkpt lat="42.317765" lon="-3.03044">
      <ele>1003</ele>
    </trkpt>
    <trkpt lat="42.317812" lon="-3.03036">
      <ele>1001.4</ele>
    </trkpt>
    <trkpt lat="42.317797" lon="-3.030279">
      <ele>1000.1</ele>
    </trkpt>
    <trkpt lat="42.31788" lon="-3.030054">
      <ele>996.1</ele>
    </trkpt>
    <trkpt lat="42.317963" lon="-3.02993">
      <ele>993.4</ele>
    </trkpt>
    <trkpt lat="42.318078" lon="-3.029861">
      <ele>990.7</ele>
    </trkpt>
    <trkpt lat="42.318078" lon="-3.02978">
      <ele>989.4</ele>
    </trkpt>
    <trkpt lat="42.318352" lon="-3.029555">
      <ele>982.8</ele>
    </trkpt>
    <trkpt lat="42.318348" lon="-3.029469">
      <ele>981.5</ele>
    </trkpt>
    <trkpt lat="42.318245" lon="-3.029394">
      <ele>979.2</ele>
    </trkpt>
    <trkpt lat="42.318102" lon="-3.029362">
      <ele>976.3</ele>
    </trkpt>
    <trkpt lat="42.31807" lon="-3.029303">
      <ele>975.3</ele>
    </trkpt>
    <trkpt lat="42.318098" lon="-3.029255">
      <ele>974.4</ele>
    </trkpt>
    <trkpt lat="42.318165" lon="-3.029233">
      <ele>973.1</ele>
    </trkpt>
    <trkpt lat="42.318233" lon="-3.029083">
      <ele>970.6</ele>
    </trkpt>
    <trkpt lat="42.318206" lon="-3.029027">
      <ele>969.7</ele>
    </trkpt>
    <trkpt lat="42.318042" lon="-3.028992">
      <ele>966.6</ele>
    </trkpt>
    <trkpt lat="42.31805" lon="-3.028927">
      <ele>965.7</ele>
    </trkpt>
    <trkpt lat="42.318233" lon="-3.02882">
      <ele>962</ele>
    </trkpt>
    <trkpt lat="42.31819" lon="-3.028726">
      <ele>960.5</ele>
    </trkpt>
    <trkpt lat="42.318296" lon="-3.028643">
      <ele>958.2</ele>
    </trkpt>
    <trkpt lat="42.318305" lon="-3.028592">
      <ele>957.5</ele>
    </trkpt>
    <trkpt lat="42.31813" lon="-3.028498">
      <ele>953.9</ele>
    </trkpt>
    <trkpt lat="42.318122" lon="-3.028434">
      <ele>952.9</ele>
    </trkpt>
    <trkpt lat="42.318264" lon="-3.028321">
      <ele>949.7</ele>
    </trkpt>
    <trkpt lat="42.318395" lon="-3.028171">
      <ele>946.3</ele>
    </trkpt>
    <trkpt lat="42.318562" lon="-3.027763">
      <ele>939.4</ele>
    </trkpt>
    <trkpt lat="42.318709" lon="-3.02757">
      <ele>935.3</ele>
    </trkpt>
    <trkpt lat="42.318872" lon="-3.027417">
      <ele>931.3</ele>
    </trkpt>
    <trkpt lat="42.318931" lon="-3.027297">
      <ele>929.2</ele>
    </trkpt>
    <trkpt lat="42.319014" lon="-3.027248">
      <ele>927.4</ele>
    </trkpt>
    <trkpt lat="42.319121" lon="-3.027055">
      <ele>923.9</ele>
    </trkpt>
    <trkpt lat="42.319316" lon="-3.026892">
      <ele>919.4</ele>
    </trkpt>
    <trkpt lat="42.319962" lon="-3.02647">
      <ele>907.1</ele>
    </trkpt>
    <trkpt lat="42.319979" lon="-3.026361">
      <ele>905.9</ele>
    </trkpt>
    <trkpt lat="42.320077" lon="-3.026283">
      <ele>904.3</ele>
    </trkpt>
    <trkpt lat="42.32026" lon="-3.02602">
      <ele>901</ele>
    </trkpt>
    <trkpt lat="42.320303" lon="-3.026002">
      <ele>900.5</ele>
    </trkpt>
    <trkpt lat="42.320311" lon="-3.02595">
      <ele>900.1</ele>
    </trkpt>
    <trkpt lat="42.320399" lon="-3.025854">
      <ele>898.9</ele>
    </trkpt>
    <trkpt lat="42.320633" lon="-3.025666">
      <ele>896.5</ele>
    </trkpt>
    <trkpt lat="42.320831" lon="-3.025446">
      <ele>894.6</ele>
    </trkpt>
    <trkpt lat="42.320934" lon="-3.025258">
      <ele>893.7</ele>
    </trkpt>
    <trkpt lat="42.321252" lon="-3.02414">
      <ele>891.7</ele>
    </trkpt>
    <trkpt lat="42.32135" lon="-3.023917">
      <ele>891.4</ele>
    </trkpt>
    <trkpt lat="42.321494" lon="-3.023405">
      <ele>891.3</ele>
    </trkpt>
    <trkpt lat="42.321902" lon="-3.022648">
      <ele>892.9</ele>
    </trkpt>
    <trkpt lat="42.321921" lon="-3.022549">
      <ele>893.1</ele>
    </trkpt>
    <trkpt lat="42.321858" lon="-3.022645">
      <ele>893.4</ele>
    </trkpt>
    <trkpt lat="42.321711" lon="-3.0228">
      <ele>894.1</ele>
    </trkpt>
    <trkpt lat="42.321446" lon="-3.023083">
      <ele>895.6</ele>
    </trkpt>
    <trkpt lat="42.321251" lon="-3.023402">
      <ele>897.7</ele>
    </trkpt>
    <trkpt lat="42.32094" lon="-3.024177">
      <ele>903.1</ele>
    </trkpt>
    <trkpt lat="42.32077" lon="-3.024688">
      <ele>906.5</ele>
    </trkpt>
    <trkpt lat="42.320644" lon="-3.024886">
      <ele>908.2</ele>
    </trkpt>
    <trkpt lat="42.320127" lon="-3.025148">
      <ele>913.9</ele>
    </trkpt>
    <trkpt lat="42.31959" lon="-3.025563">
      <ele>921.6</ele>
    </trkpt>
    <trkpt lat="42.319284" lon="-3.025605">
      <ele>925.6</ele>
    </trkpt>
    <trkpt lat="42.31898" lon="-3.025581">
      <ele>929.8</ele>
    </trkpt>
    <trkpt lat="42.318894" lon="-3.0256">
      <ele>931</ele>
    </trkpt>
    <trkpt lat="42.318823" lon="-3.025653">
      <ele>932.1</ele>
    </trkpt>
    <trkpt lat="42.318693" lon="-3.025913">
      <ele>935.5</ele>
    </trkpt>
    <trkpt lat="42.318165" lon="-3.026641">
      <ele>946.7</ele>
    </trkpt>
    <trkpt lat="42.317648" lon="-3.027471">
      <ele>958.5</ele>
    </trkpt>
    <trkpt lat="42.317305" lon="-3.027788">
      <ele>964</ele>
    </trkpt>
    <trkpt lat="42.317151" lon="-3.028005">
      <ele>966.6</ele>
    </trkpt>
    <trkpt lat="42.317085" lon="-3.028059">
      <ele>967.4</ele>
    </trkpt>
    <trkpt lat="42.317004" lon="-3.028008">
      <ele>968.3</ele>
    </trkpt>
    <trkpt lat="42.317001" lon="-3.027901">
      <ele>969.1</ele>
    </trkpt>
    <trkpt lat="42.317037" lon="-3.027676">
      <ele>970.6</ele>
    </trkpt>
    <trkpt lat="42.317454" lon="-3.026856">
      <ele>975.1</ele>
    </trkpt>
    <trkpt lat="42.317536" lon="-3.026471">
      <ele>976.1</ele>
    </trkpt>
    <trkpt lat="42.317543" lon="-3.026151">
      <ele>976.7</ele>
    </trkpt>
    <trkpt lat="42.317515" lon="-3.0256">
      <ele>977.2</ele>
    </trkpt>
    <trkpt lat="42.317448" lon="-3.024993">
      <ele>977.7</ele>
    </trkpt>
    <trkpt lat="42.317447" lon="-3.024575">
      <ele>978</ele>
    </trkpt>
    <trkpt lat="42.31749" lon="-3.024499">
      <ele>978.1</ele>
    </trkpt>
    <trkpt lat="42.317587" lon="-3.024413">
      <ele>978.3</ele>
    </trkpt>
    <trkpt lat="42.318044" lon="-3.024237">
      <ele>979.2</ele>
    </trkpt>
    <trkpt lat="42.318151" lon="-3.024163">
      <ele>979.6</ele>
    </trkpt>
    <trkpt lat="42.318247" lon="-3.023997">
      <ele>980</ele>
    </trkpt>
    <trkpt lat="42.318313" lon="-3.023638">
      <ele>981.2</ele>
    </trkpt>
    <trkpt lat="42.31825" lon="-3.022458">
      <ele>987</ele>
    </trkpt>
    <trkpt lat="42.318263" lon="-3.022075">
      <ele>988.5</ele>
    </trkpt>
    <trkpt lat="42.318338" lon="-3.021898">
      <ele>989.1</ele>
    </trkpt>
    <trkpt lat="42.318615" lon="-3.021547">
      <ele>990.5</ele>
    </trkpt>
    <trkpt lat="42.318546" lon="-3.02107">
      <ele>990.8</ele>
    </trkpt>
    <trkpt lat="42.318576" lon="-3.020927">
      <ele>990.7</ele>
    </trkpt>
    <trkpt lat="42.318621" lon="-3.020859">
      <ele>990.6</ele>
    </trkpt>
    <trkpt lat="42.318867" lon="-3.02064">
      <ele>989.5</ele>
    </trkpt>
    <trkpt lat="42.318917" lon="-3.020595">
      <ele>989.1</ele>
    </trkpt>
    <trkpt lat="42.31901" lon="-3.020621">
      <ele>988.6</ele>
    </trkpt>
    <trkpt lat="42.319157" lon="-3.020452">
      <ele>987</ele>
    </trkpt>
    <trkpt lat="42.319265" lon="-3.020414">
      <ele>986</ele>
    </trkpt>
    <trkpt lat="42.319572" lon="-3.020449">
      <ele>982.7</ele>
    </trkpt>
    <trkpt lat="42.319854" lon="-3.020526">
      <ele>979.1</ele>
    </trkpt>
    <trkpt lat="42.319898" lon="-3.020492">
      <ele>978.4</ele>
    </trkpt>
    <trkpt lat="42.319808" lon="-3.020245">
      <ele>975.6</ele>
    </trkpt>
    <trkpt lat="42.319938" lon="-3.020213">
      <ele>973.6</ele>
    </trkpt>
    <trkpt lat="42.320024" lon="-3.020132">
      <ele>972.1</ele>
    </trkpt>
    <trkpt lat="42.320056" lon="-3.020021">
      <ele>970.8</ele>
    </trkpt>
    <trkpt lat="42.319936" lon="-3.019777">
      <ele>967.6</ele>
    </trkpt>
    <trkpt lat="42.31978" lon="-3.019366">
      <ele>962.6</ele>
    </trkpt>
    <trkpt lat="42.320102" lon="-3.019627">
      <ele>957.2</ele>
    </trkpt>
    <trkpt lat="42.320462" lon="-3.019622">
      <ele>952.4</ele>
    </trkpt>
    <trkpt lat="42.320221" lon="-3.019401">
      <ele>948.8</ele>
    </trkpt>
    <trkpt lat="42.320063" lon="-3.018939">
      <ele>943.8</ele>
    </trkpt>
    <trkpt lat="42.320087" lon="-3.018928">
      <ele>943.4</ele>
    </trkpt>
    <trkpt lat="42.320314" lon="-3.019177">
      <ele>939.2</ele>
    </trkpt>
    <trkpt lat="42.32071" lon="-3.019178">
      <ele>932.6</ele>
    </trkpt>
    <trkpt lat="42.320708" lon="-3.019075">
      <ele>931.3</ele>
    </trkpt>
    <trkpt lat="42.320503" lon="-3.018866">
      <ele>926.4</ele>
    </trkpt>
    <trkpt lat="42.320867" lon="-3.018755">
      <ele>918.8</ele>
    </trkpt>
    <trkpt lat="42.320883" lon="-3.018721">
      <ele>918.1</ele>
    </trkpt>
    <trkpt lat="42.320597" lon="-3.01844">
      <ele>910.2</ele>
    </trkpt>
    <trkpt lat="42.321193" lon="-3.018134">
      <ele>895.4</ele>
    </trkpt>
    <trkpt lat="42.321609" lon="-3.018144">
      <ele>885.8</ele>
    </trkpt>
    <trkpt lat="42.32132" lon="-3.017578">
      <ele>874.5</ele>
    </trkpt>
    <trkpt lat="42.321319" lon="-3.017539">
      <ele>873.8</ele>
    </trkpt>
    <trkpt lat="42.321657" lon="-3.017545">
      <ele>866.4</ele>
    </trkpt>
    <trkpt lat="42.321753" lon="-3.01751">
      <ele>864.3</ele>
    </trkpt>
    <trkpt lat="42.322159" lon="-3.017287">
      <ele>855.4</ele>
    </trkpt>
    <trkpt lat="42.322165" lon="-3.017231">
      <ele>854.6</ele>
    </trkpt>
    <trkpt lat="42.322198" lon="-3.01719">
      <ele>853.7</ele>
    </trkpt>
    <trkpt lat="42.322255" lon="-3.017217">
      <ele>852.5</ele>
    </trkpt>
    <trkpt lat="42.322277" lon="-3.017159">
      <ele>851.6</ele>
    </trkpt>
    <trkpt lat="42.322364" lon="-3.017095">
      <ele>849.7</ele>
    </trkpt>
    <trkpt lat="42.322395" lon="-3.017076">
      <ele>849.1</ele>
    </trkpt>
    <trkpt lat="42.322336" lon="-3.016862">
      <ele>846</ele>
    </trkpt>
    <trkpt lat="42.32226" lon="-3.016762">
      <ele>844.2</ele>
    </trkpt>
    <trkpt lat="42.322115" lon="-3.01664">
      <ele>841.2</ele>
    </trkpt>
    <trkpt lat="42.32208" lon="-3.016567">
      <ele>840.2</ele>
    </trkpt>
    <trkpt lat="42.322079" lon="-3.016495">
      <ele>839.3</ele>
    </trkpt>
    <trkpt lat="42.322114" lon="-3.016434">
      <ele>838.4</ele>
    </trkpt>
    <trkpt lat="42.322319" lon="-3.016319">
      <ele>835.1</ele>
    </trkpt>
    <trkpt lat="42.322347" lon="-3.016271">
      <ele>834.4</ele>
    </trkpt>
    <trkpt lat="42.322332" lon="-3.016216">
      <ele>833.8</ele>
    </trkpt>
    <trkpt lat="42.321782" lon="-3.015937">
      <ele>826.7</ele>
    </trkpt>
    <trkpt lat="42.321539" lon="-3.015876">
      <ele>824.5</ele>
    </trkpt>
    <trkpt lat="42.321495" lon="-3.015836">
      <ele>824.1</ele>
    </trkpt>
    <trkpt lat="42.321462" lon="-3.015752">
      <ele>823.6</ele>
    </trkpt>
    <trkpt lat="42.32147" lon="-3.015589">
      <ele>822.8</ele>
    </trkpt>
    <trkpt lat="42.321504" lon="-3.015505">
      <ele>822.4</ele>
    </trkpt>
    <trkpt lat="42.321858" lon="-3.015255">
      <ele>820.4</ele>
    </trkpt>
    <trkpt lat="42.321899" lon="-3.015253">
      <ele>820.3</ele>
    </trkpt>
    <trkpt lat="42.321896" lon="-3.014962">
      <ele>819.7</ele>
    </trkpt>
    <trkpt lat="42.322727" lon="-3.014904">
      <ele>818.9</ele>
    </trkpt>
    <trkpt lat="42.322765" lon="-3.015066">
      <ele>819</ele>
    </trkpt>
    <trkpt lat="42.323065" lon="-3.014908">
      <ele>819</ele>
    </trkpt>
    <trkpt lat="42.323124" lon="-3.014809">
      <ele>818.9</ele>
    </trkpt>
    <trkpt lat="42.32328" lon="-3.014689">
      <ele>818.8</ele>
    </trkpt>
    <trkpt lat="42.323461" lon="-3.01463">
      <ele>818.4</ele>
    </trkpt>
    <trkpt lat="42.323425" lon="-3.014451">
      <ele>818.2</ele>
    </trkpt>
    <trkpt lat="42.323394" lon="-3.014195">
      <ele>817.8</ele>
    </trkpt>
    <trkpt lat="42.323843" lon="-3.013986">
      <ele>816.7</ele>
    </trkpt>
    <trkpt lat="42.323806" lon="-3.01365">
      <ele>816.1</ele>
    </trkpt>
    <trkpt lat="42.324419" lon="-3.013445">
      <ele>814.5</ele>
    </trkpt>
    <trkpt lat="42.324462" lon="-3.013408">
      <ele>814.4</ele>
    </trkpt>
    <trkpt lat="42.324869" lon="-3.013064">
      <ele>813.6</ele>
    </trkpt>
    <trkpt lat="42.324926" lon="-3.013042">
      <ele>813.6</ele>
    </trkpt>
    <trkpt lat="42.325264" lon="-3.012738">
      <ele>813.1</ele>
    </trkpt>
    <trkpt lat="42.326104" lon="-3.012781">
      <ele>811.8</ele>
    </trkpt>
    <trkpt lat="42.326147" lon="-3.012715">
      <ele>811.7</ele>
    </trkpt>
    <trkpt lat="42.326276" lon="-3.012708">
      <ele>811.5</ele>
    </trkpt>
    <trkpt lat="42.326809" lon="-3.012782">
      <ele>810.7</ele>
    </trkpt>
    <trkpt lat="42.326813" lon="-3.012366">
      <ele>810.2</ele>
    </trkpt>
    <trkpt lat="42.327318" lon="-3.012349">
      <ele>809.6</ele>
    </trkpt>
    <trkpt lat="42.327326" lon="-3.012427">
      <ele>809.6</ele>
    </trkpt>
    <trkpt lat="42.327543" lon="-3.012434">
      <ele>809.4</ele>
    </trkpt>
    <trkpt lat="42.32759" lon="-3.012755">
      <ele>809.3</ele>
    </trkpt>
    <trkpt lat="42.327543" lon="-3.012434">
      <ele>809.1</ele>
    </trkpt>
    <trkpt lat="42.327326" lon="-3.012427">
      <ele>809</ele>
    </trkpt>
    <trkpt lat="42.327318" lon="-3.012349">
      <ele>809</ele>
    </trkpt>
    <trkpt lat="42.328122" lon="-3.012318">
      <ele>809</ele>
    </trkpt>
    <trkpt lat="42.328187" lon="-3.013183">
      <ele>808.8</ele>
    </trkpt>
    <trkpt lat="42.328248" lon="-3.013957">
      <ele>808.5</ele>
    </trkpt>
    <trkpt lat="42.328667" lon="-3.013871">
      <ele>808.3</ele>
    </trkpt>
    <trkpt lat="42.328675" lon="-3.014101">
      <ele>808.3</ele>
    </trkpt>
    </trkseg>
  </trk>
</gpx>
