<?xml version="1.0" encoding="UTF-8"?>
<gpx version="1.1" creator="fitAI Komoot downloader" xmlns="http://www.topografix.com/GPX/1/1">
  <metadata>
    <name>Track between fields y Estatua del Bicigrino - Recorrido circular desde Santo Domingo de la Calzada</name>
    <desc>41 visitas · Dificultad: moderate · Distancia: 34.0 km · Desnivel +: 172 m</desc>
    <link href="https://www.komoot.com/smarttour/e40316299"><text>Komoot</text></link>
  </metadata>
  <trk>
    <name>Track between fields y Estatua del Bicigrino - Recorrido circular desde Santo Domingo de la Calzada</name>
    <type>touringbicycle</type>
    <trkseg>
    <trkpt lat="42.431867" lon="-2.947606">
      <ele>645.2</ele>
    </trkpt>
    <trkpt lat="42.431943" lon="-2.947503">
      <ele>645.2</ele>
    </trkpt>
    <trkpt lat="42.43191" lon="-2.947456">
      <ele>645.2</ele>
    </trkpt>
    <trkpt lat="42.431804" lon="-2.947587">
      <ele>645.1</ele>
    </trkpt>
    <trkpt lat="42.431735" lon="-2.947688">
      <ele>645.1</ele>
    </trkpt>
    <trkpt lat="42.431655" lon="-2.947843">
      <ele>645</ele>
    </trkpt>
    <trkpt lat="42.432084" lon="-2.948312">
      <ele>644.7</ele>
    </trkpt>
    <trkpt lat="42.432519" lon="-2.948736">
      <ele>644.3</ele>
    </trkpt>
    <trkpt lat="42.432958" lon="-2.948397">
      <ele>643.7</ele>
    </trkpt>
    <trkpt lat="42.435593" lon="-2.947028">
      <ele>640.1</ele>
    </trkpt>
    <trkpt lat="42.436638" lon="-2.946477">
      <ele>639.5</ele>
    </trkpt>
    <trkpt lat="42.438222" lon="-2.945635">
      <ele>637.3</ele>
    </trkpt>
    <trkpt lat="42.438582" lon="-2.945443">
      <ele>636.9</ele>
    </trkpt>
    <trkpt lat="42.439147" lon="-2.945145">
      <ele>636.5</ele>
    </trkpt>
    <trkpt lat="42.439251" lon="-2.945094">
      <ele>636.4</ele>
    </trkpt>
    <trkpt lat="42.439254" lon="-2.944771">
      <ele>636.2</ele>
    </trkpt>
    <trkpt lat="42.439308" lon="-2.944775">
      <ele>636.1</ele>
    </trkpt>
    <trkpt lat="42.439334" lon="-2.944922">
      <ele>636</ele>
    </trkpt>
    <trkpt lat="42.439367" lon="-2.94505">
      <ele>635.9</ele>
    </trkpt>
    <trkpt lat="42.439447" lon="-2.945003">
      <ele>635.8</ele>
    </trkpt>
    <trkpt lat="42.440482" lon="-2.944482">
      <ele>633.9</ele>
    </trkpt>
    <trkpt lat="42.440732" lon="-2.944416">
      <ele>633.2</ele>
    </trkpt>
    <trkpt lat="42.441497" lon="-2.943928">
      <ele>631.5</ele>
    </trkpt>
    <trkpt lat="42.44228" lon="-2.943502">
      <ele>630.1</ele>
    </trkpt>
    <trkpt lat="42.442515" lon="-2.943424">
      <ele>629.8</ele>
    </trkpt>
    <trkpt lat="42.445254" lon="-2.942625">
      <ele>626.2</ele>
    </trkpt>
    <trkpt lat="42.446565" lon="-2.942273">
      <ele>624.5</ele>
    </trkpt>
    <trkpt lat="42.449257" lon="-2.941549">
      <ele>621.5</ele>
    </trkpt>
    <trkpt lat="42.44935" lon="-2.941507">
      <ele>621.4</ele>
    </trkpt>
    <trkpt lat="42.449771" lon="-2.941376">
      <ele>620.9</ele>
    </trkpt>
    <trkpt lat="42.450334" lon="-2.941241">
      <ele>620.1</ele>
    </trkpt>
    <trkpt lat="42.450772" lon="-2.941047">
      <ele>619.4</ele>
    </trkpt>
    <trkpt lat="42.453772" lon="-2.940211">
      <ele>615.3</ele>
    </trkpt>
    <trkpt lat="42.454183" lon="-2.940125">
      <ele>614.9</ele>
    </trkpt>
    <trkpt lat="42.454274" lon="-2.940159">
      <ele>614.8</ele>
    </trkpt>
    <trkpt lat="42.454409" lon="-2.940102">
      <ele>614.7</ele>
    </trkpt>
    <trkpt lat="42.45482" lon="-2.940039">
      <ele>614.4</ele>
    </trkpt>
    <trkpt lat="42.455196" lon="-2.939928">
      <ele>614</ele>
    </trkpt>
    <trkpt lat="42.455571" lon="-2.939763">
      <ele>613.6</ele>
    </trkpt>
    <trkpt lat="42.458308" lon="-2.938934">
      <ele>610.1</ele>
    </trkpt>
    <trkpt lat="42.461149" lon="-2.938133">
      <ele>606.3</ele>
    </trkpt>
    <trkpt lat="42.467268" lon="-2.936445">
      <ele>598.2</ele>
    </trkpt>
    <trkpt lat="42.473051" lon="-2.934818">
      <ele>590.1</ele>
    </trkpt>
    <trkpt lat="42.477832" lon="-2.933485">
      <ele>584.1</ele>
    </trkpt>
    <trkpt lat="42.483401" lon="-2.931893">
      <ele>577.4</ele>
    </trkpt>
    <trkpt lat="42.489186" lon="-2.930222">
      <ele>569.6</ele>
    </trkpt>
    <trkpt lat="42.490213" lon="-2.929958">
      <ele>568</ele>
    </trkpt>
    <trkpt lat="42.491272" lon="-2.929681">
      <ele>566.5</ele>
    </trkpt>
    <trkpt lat="42.493248" lon="-2.9291">
      <ele>564</ele>
    </trkpt>
    <trkpt lat="42.494756" lon="-2.928656">
      <ele>562.1</ele>
    </trkpt>
    <trkpt lat="42.498069" lon="-2.927756">
      <ele>557.1</ele>
    </trkpt>
    <trkpt lat="42.498653" lon="-2.927598">
      <ele>556.2</ele>
    </trkpt>
    <trkpt lat="42.498725" lon="-2.927576">
      <ele>556.1</ele>
    </trkpt>
    <trkpt lat="42.49873" lon="-2.927575">
      <ele>556.1</ele>
    </trkpt>
    <trkpt lat="42.500884" lon="-2.926937">
      <ele>553.1</ele>
    </trkpt>
    <trkpt lat="42.502398" lon="-2.924588">
      <ele>550.8</ele>
    </trkpt>
    <trkpt lat="42.502984" lon="-2.923631">
      <ele>549.8</ele>
    </trkpt>
    <trkpt lat="42.50371" lon="-2.922715">
      <ele>548.3</ele>
    </trkpt>
    <trkpt lat="42.504343" lon="-2.921996">
      <ele>547</ele>
    </trkpt>
    <trkpt lat="42.505097" lon="-2.921249">
      <ele>545.3</ele>
    </trkpt>
    <trkpt lat="42.505893" lon="-2.920563">
      <ele>543.9</ele>
    </trkpt>
    <trkpt lat="42.507704" lon="-2.919176">
      <ele>542</ele>
    </trkpt>
    <trkpt lat="42.508106" lon="-2.918821">
      <ele>541.7</ele>
    </trkpt>
    <trkpt lat="42.50855" lon="-2.918321">
      <ele>541.3</ele>
    </trkpt>
    <trkpt lat="42.508712" lon="-2.917957">
      <ele>541</ele>
    </trkpt>
    <trkpt lat="42.508792" lon="-2.917653">
      <ele>540.9</ele>
    </trkpt>
    <trkpt lat="42.50889" lon="-2.917573">
      <ele>540.8</ele>
    </trkpt>
    <trkpt lat="42.508998" lon="-2.917536">
      <ele>540.7</ele>
    </trkpt>
    <trkpt lat="42.509339" lon="-2.917952">
      <ele>540.2</ele>
    </trkpt>
    <trkpt lat="42.509463" lon="-2.918027">
      <ele>540.1</ele>
    </trkpt>
    <trkpt lat="42.509845" lon="-2.918134">
      <ele>539.8</ele>
    </trkpt>
    <trkpt lat="42.510379" lon="-2.918214">
      <ele>539.3</ele>
    </trkpt>
    <trkpt lat="42.511033" lon="-2.918288">
      <ele>538.9</ele>
    </trkpt>
    <trkpt lat="42.511797" lon="-2.918335">
      <ele>538.3</ele>
    </trkpt>
    <trkpt lat="42.51633" lon="-2.918937">
      <ele>533.2</ele>
    </trkpt>
    <trkpt lat="42.51678" lon="-2.918969">
      <ele>532.6</ele>
    </trkpt>
    <trkpt lat="42.518375" lon="-2.919082">
      <ele>530.4</ele>
    </trkpt>
    <trkpt lat="42.520083" lon="-2.919066">
      <ele>527.2</ele>
    </trkpt>
    <trkpt lat="42.520366" lon="-2.918954">
      <ele>526.8</ele>
    </trkpt>
    <trkpt lat="42.520632" lon="-2.918897">
      <ele>526.4</ele>
    </trkpt>
    <trkpt lat="42.521091" lon="-2.918682">
      <ele>525.9</ele>
    </trkpt>
    <trkpt lat="42.521411" lon="-2.918501">
      <ele>525.6</ele>
    </trkpt>
    <trkpt lat="42.52558" lon="-2.916467">
      <ele>521.4</ele>
    </trkpt>
    <trkpt lat="42.527237" lon="-2.915672">
      <ele>519</ele>
    </trkpt>
    <trkpt lat="42.528501" lon="-2.915101">
      <ele>518.2</ele>
    </trkpt>
    <trkpt lat="42.529176" lon="-2.914732">
      <ele>517.3</ele>
    </trkpt>
    <trkpt lat="42.529242" lon="-2.914658">
      <ele>517.2</ele>
    </trkpt>
    <trkpt lat="42.529314" lon="-2.914534">
      <ele>516.9</ele>
    </trkpt>
    <trkpt lat="42.530767" lon="-2.913801">
      <ele>513.2</ele>
    </trkpt>
    <trkpt lat="42.531878" lon="-2.913196">
      <ele>511.4</ele>
    </trkpt>
    <trkpt lat="42.533017" lon="-2.912708">
      <ele>512</ele>
    </trkpt>
    <trkpt lat="42.533807" lon="-2.912284">
      <ele>512.7</ele>
    </trkpt>
    <trkpt lat="42.534672" lon="-2.911884">
      <ele>512.2</ele>
    </trkpt>
    <trkpt lat="42.53527" lon="-2.911608">
      <ele>511.4</ele>
    </trkpt>
    <trkpt lat="42.537033" lon="-2.910696">
      <ele>509.7</ele>
    </trkpt>
    <trkpt lat="42.539589" lon="-2.909481">
      <ele>509.5</ele>
    </trkpt>
    <trkpt lat="42.54161" lon="-2.908496">
      <ele>508.2</ele>
    </trkpt>
    <trkpt lat="42.545113" lon="-2.906768">
      <ele>506.6</ele>
    </trkpt>
    <trkpt lat="42.545812" lon="-2.907692">
      <ele>506</ele>
    </trkpt>
    <trkpt lat="42.545995" lon="-2.907828">
      <ele>505.9</ele>
    </trkpt>
    <trkpt lat="42.5461" lon="-2.907869">
      <ele>505.8</ele>
    </trkpt>
    <trkpt lat="42.54635" lon="-2.907903">
      <ele>505.7</ele>
    </trkpt>
    <trkpt lat="42.546413" lon="-2.907875">
      <ele>505.6</ele>
    </trkpt>
    <trkpt lat="42.546483" lon="-2.907839">
      <ele>505.6</ele>
    </trkpt>
    <trkpt lat="42.546916" lon="-2.907319">
      <ele>504.9</ele>
    </trkpt>
    <trkpt lat="42.54712" lon="-2.908022">
      <ele>503.9</ele>
    </trkpt>
    <trkpt lat="42.547159" lon="-2.908022">
      <ele>503.8</ele>
    </trkpt>
    <trkpt lat="42.547177" lon="-2.908085">
      <ele>503.7</ele>
    </trkpt>
    <trkpt lat="42.547172" lon="-2.908099">
      <ele>503.7</ele>
    </trkpt>
    <trkpt lat="42.547144" lon="-2.908121">
      <ele>503.6</ele>
    </trkpt>
    <trkpt lat="42.547211" lon="-2.908351">
      <ele>503.2</ele>
    </trkpt>
    <trkpt lat="42.547299" lon="-2.90864">
      <ele>502.8</ele>
    </trkpt>
    <trkpt lat="42.54756" lon="-2.90949">
      <ele>501.6</ele>
    </trkpt>
    <trkpt lat="42.547586" lon="-2.909575">
      <ele>501.6</ele>
    </trkpt>
    <trkpt lat="42.547776" lon="-2.910318">
      <ele>501.3</ele>
    </trkpt>
    <trkpt lat="42.54782" lon="-2.9105">
      <ele>501.3</ele>
    </trkpt>
    <trkpt lat="42.547932" lon="-2.910991">
      <ele>501.4</ele>
    </trkpt>
    <trkpt lat="42.547976" lon="-2.910994">
      <ele>501.4</ele>
    </trkpt>
    <trkpt lat="42.548007" lon="-2.911036">
      <ele>501.4</ele>
    </trkpt>
    <trkpt lat="42.548011" lon="-2.911094">
      <ele>501.4</ele>
    </trkpt>
    <trkpt lat="42.547966" lon="-2.911154">
      <ele>501.4</ele>
    </trkpt>
    <trkpt lat="42.548277" lon="-2.912294">
      <ele>500</ele>
    </trkpt>
    <trkpt lat="42.548287" lon="-2.912354">
      <ele>499.9</ele>
    </trkpt>
    <trkpt lat="42.548312" lon="-2.912481">
      <ele>499.6</ele>
    </trkpt>
    <trkpt lat="42.548364" lon="-2.912784">
      <ele>499</ele>
    </trkpt>
    <trkpt lat="42.548392" lon="-2.912981">
      <ele>498.6</ele>
    </trkpt>
    <trkpt lat="42.548415" lon="-2.91315">
      <ele>498.3</ele>
    </trkpt>
    <trkpt lat="42.548675" lon="-2.914948">
      <ele>496.5</ele>
    </trkpt>
    <trkpt lat="42.548702" lon="-2.915118">
      <ele>496.5</ele>
    </trkpt>
    <trkpt lat="42.548719" lon="-2.915253">
      <ele>496.5</ele>
    </trkpt>
    <trkpt lat="42.54877" lon="-2.915318">
      <ele>496.5</ele>
    </trkpt>
    <trkpt lat="42.548765" lon="-2.915382">
      <ele>496.5</ele>
    </trkpt>
    <trkpt lat="42.549007" lon="-2.915486">
      <ele>496.4</ele>
    </trkpt>
    <trkpt lat="42.549126" lon="-2.915541">
      <ele>496.3</ele>
    </trkpt>
    <trkpt lat="42.549284" lon="-2.915602">
      <ele>496.2</ele>
    </trkpt>
    <trkpt lat="42.550448" lon="-2.915909">
      <ele>495.2</ele>
    </trkpt>
    <trkpt lat="42.550598" lon="-2.916007">
      <ele>495.1</ele>
    </trkpt>
    <trkpt lat="42.550656" lon="-2.916066">
      <ele>495.1</ele>
    </trkpt>
    <trkpt lat="42.550766" lon="-2.916287">
      <ele>495.1</ele>
    </trkpt>
    <trkpt lat="42.551038" lon="-2.917356">
      <ele>495.9</ele>
    </trkpt>
    <trkpt lat="42.551162" lon="-2.917671">
      <ele>496.4</ele>
    </trkpt>
    <trkpt lat="42.551235" lon="-2.917775">
      <ele>496.5</ele>
    </trkpt>
    <trkpt lat="42.551429" lon="-2.917948">
      <ele>496.9</ele>
    </trkpt>
    <trkpt lat="42.551616" lon="-2.918051">
      <ele>497.1</ele>
    </trkpt>
    <trkpt lat="42.552885" lon="-2.91847">
      <ele>498</ele>
    </trkpt>
    <trkpt lat="42.553193" lon="-2.918657">
      <ele>498</ele>
    </trkpt>
    <trkpt lat="42.553472" lon="-2.919007">
      <ele>497.7</ele>
    </trkpt>
    <trkpt lat="42.553801" lon="-2.919569">
      <ele>497.2</ele>
    </trkpt>
    <trkpt lat="42.553924" lon="-2.919769">
      <ele>497</ele>
    </trkpt>
    <trkpt lat="42.554262" lon="-2.920184">
      <ele>496.4</ele>
    </trkpt>
    <trkpt lat="42.554639" lon="-2.920514">
      <ele>495.8</ele>
    </trkpt>
    <trkpt lat="42.554951" lon="-2.920542">
      <ele>495.3</ele>
    </trkpt>
    <trkpt lat="42.554989" lon="-2.920517">
      <ele>495.3</ele>
    </trkpt>
    <trkpt lat="42.555084" lon="-2.920487">
      <ele>495.1</ele>
    </trkpt>
    <trkpt lat="42.555181" lon="-2.9205">
      <ele>495</ele>
    </trkpt>
    <trkpt lat="42.555269" lon="-2.920555">
      <ele>494.8</ele>
    </trkpt>
    <trkpt lat="42.55534" lon="-2.920646">
      <ele>494.6</ele>
    </trkpt>
    <trkpt lat="42.555386" lon="-2.920762">
      <ele>494.4</ele>
    </trkpt>
    <trkpt lat="42.555402" lon="-2.920892">
      <ele>494.2</ele>
    </trkpt>
    <trkpt lat="42.555396" lon="-2.920973">
      <ele>494.1</ele>
    </trkpt>
    <trkpt lat="42.555601" lon="-2.921297">
      <ele>493.5</ele>
    </trkpt>
    <trkpt lat="42.555887" lon="-2.921483">
      <ele>492.9</ele>
    </trkpt>
    <trkpt lat="42.556283" lon="-2.921619">
      <ele>492.1</ele>
    </trkpt>
    <trkpt lat="42.557636" lon="-2.921712">
      <ele>489.8</ele>
    </trkpt>
    <trkpt lat="42.558071" lon="-2.921673">
      <ele>489.2</ele>
    </trkpt>
    <trkpt lat="42.558356" lon="-2.921604">
      <ele>488.9</ele>
    </trkpt>
    <trkpt lat="42.560225" lon="-2.92099">
      <ele>487</ele>
    </trkpt>
    <trkpt lat="42.560691" lon="-2.920866">
      <ele>486.8</ele>
    </trkpt>
    <trkpt lat="42.56091" lon="-2.92086">
      <ele>486.7</ele>
    </trkpt>
    <trkpt lat="42.561" lon="-2.920857">
      <ele>486.7</ele>
    </trkpt>
    <trkpt lat="42.561346" lon="-2.920894">
      <ele>486.6</ele>
    </trkpt>
    <trkpt lat="42.562354" lon="-2.921094">
      <ele>486.2</ele>
    </trkpt>
    <trkpt lat="42.562506" lon="-2.921124">
      <ele>486.1</ele>
    </trkpt>
    <trkpt lat="42.562361" lon="-2.9205">
      <ele>485.6</ele>
    </trkpt>
    <trkpt lat="42.562278" lon="-2.920281">
      <ele>485.5</ele>
    </trkpt>
    <trkpt lat="42.562159" lon="-2.919941">
      <ele>485.2</ele>
    </trkpt>
    <trkpt lat="42.562037" lon="-2.919348">
      <ele>484.7</ele>
    </trkpt>
    <trkpt lat="42.561991" lon="-2.918677">
      <ele>484</ele>
    </trkpt>
    <trkpt lat="42.562027" lon="-2.918299">
      <ele>483.7</ele>
    </trkpt>
    <trkpt lat="42.562097" lon="-2.918047">
      <ele>483.5</ele>
    </trkpt>
    <trkpt lat="42.562224" lon="-2.917758">
      <ele>483.3</ele>
    </trkpt>
    <trkpt lat="42.562358" lon="-2.917528">
      <ele>483.2</ele>
    </trkpt>
    <trkpt lat="42.562516" lon="-2.917318">
      <ele>483</ele>
    </trkpt>
    <trkpt lat="42.562719" lon="-2.917127">
      <ele>482.8</ele>
    </trkpt>
    <trkpt lat="42.562746" lon="-2.916889">
      <ele>482.6</ele>
    </trkpt>
    <trkpt lat="42.562931" lon="-2.916707">
      <ele>482.4</ele>
    </trkpt>
    <trkpt lat="42.563547" lon="-2.91632">
      <ele>482.4</ele>
    </trkpt>
    <trkpt lat="42.563609" lon="-2.916251">
      <ele>482.5</ele>
    </trkpt>
    <trkpt lat="42.563618" lon="-2.916163">
      <ele>482.5</ele>
    </trkpt>
    <trkpt lat="42.563546" lon="-2.916041">
      <ele>482.5</ele>
    </trkpt>
    <trkpt lat="42.563346" lon="-2.915835">
      <ele>482.5</ele>
    </trkpt>
    <trkpt lat="42.563086" lon="-2.915686">
      <ele>482.7</ele>
    </trkpt>
    <trkpt lat="42.562918" lon="-2.915656">
      <ele>482.8</ele>
    </trkpt>
    <trkpt lat="42.562026" lon="-2.915593">
      <ele>483.7</ele>
    </trkpt>
    <trkpt lat="42.561345" lon="-2.915604">
      <ele>484.6</ele>
    </trkpt>
    <trkpt lat="42.561151" lon="-2.91558">
      <ele>484.8</ele>
    </trkpt>
    <trkpt lat="42.560687" lon="-2.915419">
      <ele>485.4</ele>
    </trkpt>
    <trkpt lat="42.560531" lon="-2.915406">
      <ele>485.6</ele>
    </trkpt>
    <trkpt lat="42.559914" lon="-2.915387">
      <ele>486.1</ele>
    </trkpt>
    <trkpt lat="42.559495" lon="-2.915443">
      <ele>486.4</ele>
    </trkpt>
    <trkpt lat="42.558811" lon="-2.914849">
      <ele>486.6</ele>
    </trkpt>
    <trkpt lat="42.558363" lon="-2.91471">
      <ele>486.7</ele>
    </trkpt>
    <trkpt lat="42.557982" lon="-2.914774">
      <ele>486.9</ele>
    </trkpt>
    <trkpt lat="42.557829" lon="-2.914857">
      <ele>487.1</ele>
    </trkpt>
    <trkpt lat="42.557599" lon="-2.915325">
      <ele>487.4</ele>
    </trkpt>
    <trkpt lat="42.557358" lon="-2.915443">
      <ele>487.6</ele>
    </trkpt>
    <trkpt lat="42.557136" lon="-2.915632">
      <ele>487.8</ele>
    </trkpt>
    <trkpt lat="42.556947" lon="-2.915723">
      <ele>487.8</ele>
    </trkpt>
    <trkpt lat="42.556659" lon="-2.91583">
      <ele>488</ele>
    </trkpt>
    <trkpt lat="42.556517" lon="-2.915817">
      <ele>488</ele>
    </trkpt>
    <trkpt lat="42.556302" lon="-2.915667">
      <ele>488.1</ele>
    </trkpt>
    <trkpt lat="42.555735" lon="-2.915371">
      <ele>488.3</ele>
    </trkpt>
    <trkpt lat="42.55552" lon="-2.915328">
      <ele>488.4</ele>
    </trkpt>
    <trkpt lat="42.555349" lon="-2.915328">
      <ele>488.5</ele>
    </trkpt>
    <trkpt lat="42.555023" lon="-2.915217">
      <ele>488.8</ele>
    </trkpt>
    <trkpt lat="42.55502" lon="-2.915216">
      <ele>488.8</ele>
    </trkpt>
    <trkpt lat="42.554809" lon="-2.915208">
      <ele>489</ele>
    </trkpt>
    <trkpt lat="42.554094" lon="-2.915354">
      <ele>489.8</ele>
    </trkpt>
    <trkpt lat="42.553746" lon="-2.915281">
      <ele>490.1</ele>
    </trkpt>
    <trkpt lat="42.553215" lon="-2.914963">
      <ele>490.6</ele>
    </trkpt>
    <trkpt lat="42.552898" lon="-2.914667">
      <ele>491</ele>
    </trkpt>
    <trkpt lat="42.552709" lon="-2.91456">
      <ele>491.3</ele>
    </trkpt>
    <trkpt lat="42.552484" lon="-2.914547">
      <ele>491.7</ele>
    </trkpt>
    <trkpt lat="42.552412" lon="-2.914572">
      <ele>491.8</ele>
    </trkpt>
    <trkpt lat="42.552345" lon="-2.914654">
      <ele>491.9</ele>
    </trkpt>
    <trkpt lat="42.552197" lon="-2.91498">
      <ele>492.4</ele>
    </trkpt>
    <trkpt lat="42.552003" lon="-2.915173">
      <ele>492.8</ele>
    </trkpt>
    <trkpt lat="42.551943" lon="-2.915162">
      <ele>492.9</ele>
    </trkpt>
    <trkpt lat="42.550915" lon="-2.915001">
      <ele>494.9</ele>
    </trkpt>
    <trkpt lat="42.550644" lon="-2.91506">
      <ele>495.2</ele>
    </trkpt>
    <trkpt lat="42.550503" lon="-2.915091">
      <ele>495.4</ele>
    </trkpt>
    <trkpt lat="42.54933" lon="-2.915115">
      <ele>496</ele>
    </trkpt>
    <trkpt lat="42.549096" lon="-2.915102">
      <ele>496</ele>
    </trkpt>
    <trkpt lat="42.548887" lon="-2.915102">
      <ele>496.1</ele>
    </trkpt>
    <trkpt lat="42.548702" lon="-2.915118">
      <ele>496.1</ele>
    </trkpt>
    <trkpt lat="42.548675" lon="-2.914948">
      <ele>496.2</ele>
    </trkpt>
    <trkpt lat="42.548415" lon="-2.91315">
      <ele>498.3</ele>
    </trkpt>
    <trkpt lat="42.548392" lon="-2.912981">
      <ele>498.6</ele>
    </trkpt>
    <trkpt lat="42.548364" lon="-2.912784">
      <ele>499</ele>
    </trkpt>
    <trkpt lat="42.548312" lon="-2.912481">
      <ele>499.6</ele>
    </trkpt>
    <trkpt lat="42.548287" lon="-2.912354">
      <ele>499.9</ele>
    </trkpt>
    <trkpt lat="42.548277" lon="-2.912294">
      <ele>500</ele>
    </trkpt>
    <trkpt lat="42.547966" lon="-2.911154">
      <ele>501.4</ele>
    </trkpt>
    <trkpt lat="42.547918" lon="-2.911144">
      <ele>501.4</ele>
    </trkpt>
    <trkpt lat="42.547895" lon="-2.911111">
      <ele>501.4</ele>
    </trkpt>
    <trkpt lat="42.547893" lon="-2.911039">
      <ele>501.4</ele>
    </trkpt>
    <trkpt lat="42.547932" lon="-2.910991">
      <ele>501.5</ele>
    </trkpt>
    <trkpt lat="42.54782" lon="-2.9105">
      <ele>501.3</ele>
    </trkpt>
    <trkpt lat="42.547776" lon="-2.910318">
      <ele>501.3</ele>
    </trkpt>
    <trkpt lat="42.547586" lon="-2.909575">
      <ele>501.6</ele>
    </trkpt>
    <trkpt lat="42.54756" lon="-2.90949">
      <ele>501.6</ele>
    </trkpt>
    <trkpt lat="42.547299" lon="-2.90864">
      <ele>502.7</ele>
    </trkpt>
    <trkpt lat="42.547211" lon="-2.908351">
      <ele>503.2</ele>
    </trkpt>
    <trkpt lat="42.547144" lon="-2.908121">
      <ele>503.5</ele>
    </trkpt>
    <trkpt lat="42.547101" lon="-2.908075">
      <ele>503.7</ele>
    </trkpt>
    <trkpt lat="42.547105" lon="-2.908045">
      <ele>503.7</ele>
    </trkpt>
    <trkpt lat="42.546869" lon="-2.907952">
      <ele>504.3</ele>
    </trkpt>
    <trkpt lat="42.546413" lon="-2.907875">
      <ele>505.2</ele>
    </trkpt>
    <trkpt lat="42.54635" lon="-2.907903">
      <ele>505.3</ele>
    </trkpt>
    <trkpt lat="42.5461" lon="-2.907869">
      <ele>505.6</ele>
    </trkpt>
    <trkpt lat="42.545995" lon="-2.907828">
      <ele>505.7</ele>
    </trkpt>
    <trkpt lat="42.545812" lon="-2.907692">
      <ele>505.9</ele>
    </trkpt>
    <trkpt lat="42.545113" lon="-2.906768">
      <ele>506.6</ele>
    </trkpt>
    <trkpt lat="42.54161" lon="-2.908496">
      <ele>508.2</ele>
    </trkpt>
    <trkpt lat="42.539589" lon="-2.909481">
      <ele>509.5</ele>
    </trkpt>
    <trkpt lat="42.537033" lon="-2.910696">
      <ele>509.7</ele>
    </trkpt>
    <trkpt lat="42.53527" lon="-2.911608">
      <ele>511.4</ele>
    </trkpt>
    <trkpt lat="42.534672" lon="-2.911884">
      <ele>512.2</ele>
    </trkpt>
    <trkpt lat="42.533807" lon="-2.912284">
      <ele>512.7</ele>
    </trkpt>
    <trkpt lat="42.533017" lon="-2.912708">
      <ele>512</ele>
    </trkpt>
    <trkpt lat="42.531878" lon="-2.913196">
      <ele>511.4</ele>
    </trkpt>
    <trkpt lat="42.530767" lon="-2.913801">
      <ele>513.2</ele>
    </trkpt>
    <trkpt lat="42.529314" lon="-2.914534">
      <ele>516.9</ele>
    </trkpt>
    <trkpt lat="42.529242" lon="-2.914658">
      <ele>517.2</ele>
    </trkpt>
    <trkpt lat="42.529176" lon="-2.914732">
      <ele>517.3</ele>
    </trkpt>
    <trkpt lat="42.528501" lon="-2.915101">
      <ele>518.2</ele>
    </trkpt>
    <trkpt lat="42.527237" lon="-2.915672">
      <ele>519</ele>
    </trkpt>
    <trkpt lat="42.52558" lon="-2.916467">
      <ele>521.4</ele>
    </trkpt>
    <trkpt lat="42.521411" lon="-2.918501">
      <ele>525.6</ele>
    </trkpt>
    <trkpt lat="42.521091" lon="-2.918682">
      <ele>525.9</ele>
    </trkpt>
    <trkpt lat="42.520632" lon="-2.918897">
      <ele>526.4</ele>
    </trkpt>
    <trkpt lat="42.520366" lon="-2.918954">
      <ele>526.8</ele>
    </trkpt>
    <trkpt lat="42.520083" lon="-2.919066">
      <ele>527.2</ele>
    </trkpt>
    <trkpt lat="42.518375" lon="-2.919082">
      <ele>530.4</ele>
    </trkpt>
    <trkpt lat="42.51678" lon="-2.918969">
      <ele>532.6</ele>
    </trkpt>
    <trkpt lat="42.51633" lon="-2.918937">
      <ele>533.2</ele>
    </trkpt>
    <trkpt lat="42.511797" lon="-2.918335">
      <ele>538.3</ele>
    </trkpt>
    <trkpt lat="42.511033" lon="-2.918288">
      <ele>538.9</ele>
    </trkpt>
    <trkpt lat="42.510379" lon="-2.918214">
      <ele>539.3</ele>
    </trkpt>
    <trkpt lat="42.509845" lon="-2.918134">
      <ele>539.8</ele>
    </trkpt>
    <trkpt lat="42.509463" lon="-2.918027">
      <ele>540.1</ele>
    </trkpt>
    <trkpt lat="42.509339" lon="-2.917952">
      <ele>540.2</ele>
    </trkpt>
    <trkpt lat="42.508998" lon="-2.917536">
      <ele>540.7</ele>
    </trkpt>
    <trkpt lat="42.50889" lon="-2.917573">
      <ele>540.8</ele>
    </trkpt>
    <trkpt lat="42.508792" lon="-2.917653">
      <ele>540.9</ele>
    </trkpt>
    <trkpt lat="42.508712" lon="-2.917957">
      <ele>541</ele>
    </trkpt>
    <trkpt lat="42.50855" lon="-2.918321">
      <ele>541.3</ele>
    </trkpt>
    <trkpt lat="42.508106" lon="-2.918821">
      <ele>541.7</ele>
    </trkpt>
    <trkpt lat="42.507704" lon="-2.919176">
      <ele>542</ele>
    </trkpt>
    <trkpt lat="42.505893" lon="-2.920563">
      <ele>543.9</ele>
    </trkpt>
    <trkpt lat="42.505097" lon="-2.921249">
      <ele>545.3</ele>
    </trkpt>
    <trkpt lat="42.504343" lon="-2.921996">
      <ele>547</ele>
    </trkpt>
    <trkpt lat="42.50371" lon="-2.922715">
      <ele>548.3</ele>
    </trkpt>
    <trkpt lat="42.502984" lon="-2.923631">
      <ele>549.8</ele>
    </trkpt>
    <trkpt lat="42.502398" lon="-2.924588">
      <ele>550.8</ele>
    </trkpt>
    <trkpt lat="42.500884" lon="-2.926937">
      <ele>553.1</ele>
    </trkpt>
    <trkpt lat="42.49873" lon="-2.927575">
      <ele>556.1</ele>
    </trkpt>
    <trkpt lat="42.498725" lon="-2.927576">
      <ele>556.1</ele>
    </trkpt>
    <trkpt lat="42.498653" lon="-2.927598">
      <ele>556.2</ele>
    </trkpt>
    <trkpt lat="42.498069" lon="-2.927756">
      <ele>557.1</ele>
    </trkpt>
    <trkpt lat="42.494756" lon="-2.928656">
      <ele>562.1</ele>
    </trkpt>
    <trkpt lat="42.491272" lon="-2.929681">
      <ele>566.5</ele>
    </trkpt>
    <trkpt lat="42.490213" lon="-2.929958">
      <ele>568</ele>
    </trkpt>
    <trkpt lat="42.489186" lon="-2.930222">
      <ele>569.6</ele>
    </trkpt>
    <trkpt lat="42.483401" lon="-2.931893">
      <ele>577.4</ele>
    </trkpt>
    <trkpt lat="42.477832" lon="-2.933485">
      <ele>584.1</ele>
    </trkpt>
    <trkpt lat="42.473051" lon="-2.934818">
      <ele>590.1</ele>
    </trkpt>
    <trkpt lat="42.467268" lon="-2.936445">
      <ele>598.2</ele>
    </trkpt>
    <trkpt lat="42.461149" lon="-2.938133">
      <ele>606.3</ele>
    </trkpt>
    <trkpt lat="42.458308" lon="-2.938934">
      <ele>610.1</ele>
    </trkpt>
    <trkpt lat="42.455571" lon="-2.939763">
      <ele>613.6</ele>
    </trkpt>
    <trkpt lat="42.455196" lon="-2.939928">
      <ele>614</ele>
    </trkpt>
    <trkpt lat="42.45482" lon="-2.940039">
      <ele>614.4</ele>
    </trkpt>
    <trkpt lat="42.454409" lon="-2.940102">
      <ele>614.7</ele>
    </trkpt>
    <trkpt lat="42.454274" lon="-2.940159">
      <ele>614.8</ele>
    </trkpt>
    <trkpt lat="42.454183" lon="-2.940125">
      <ele>614.9</ele>
    </trkpt>
    <trkpt lat="42.453772" lon="-2.940211">
      <ele>615.3</ele>
    </trkpt>
    <trkpt lat="42.450772" lon="-2.941047">
      <ele>619.4</ele>
    </trkpt>
    <trkpt lat="42.450334" lon="-2.941241">
      <ele>620.1</ele>
    </trkpt>
    <trkpt lat="42.449771" lon="-2.941376">
      <ele>620.9</ele>
    </trkpt>
    <trkpt lat="42.44935" lon="-2.941507">
      <ele>621.4</ele>
    </trkpt>
    <trkpt lat="42.449257" lon="-2.941549">
      <ele>621.5</ele>
    </trkpt>
    <trkpt lat="42.446565" lon="-2.942273">
      <ele>624.5</ele>
    </trkpt>
    <trkpt lat="42.445254" lon="-2.942625">
      <ele>626.2</ele>
    </trkpt>
    <trkpt lat="42.442515" lon="-2.943424">
      <ele>629.8</ele>
    </trkpt>
    <trkpt lat="42.44228" lon="-2.943502">
      <ele>630.1</ele>
    </trkpt>
    <trkpt lat="42.441497" lon="-2.943928">
      <ele>631.5</ele>
    </trkpt>
    <trkpt lat="42.440732" lon="-2.944416">
      <ele>633.2</ele>
    </trkpt>
    <trkpt lat="42.440482" lon="-2.944482">
      <ele>633.9</ele>
    </trkpt>
    <trkpt lat="42.439447" lon="-2.945003">
      <ele>636.3</ele>
    </trkpt>
    <trkpt lat="42.439367" lon="-2.94505">
      <ele>636.4</ele>
    </trkpt>
    <trkpt lat="42.439459" lon="-2.945456">
      <ele>636.9</ele>
    </trkpt>
    <trkpt lat="42.439485" lon="-2.945633">
      <ele>637.1</ele>
    </trkpt>
    <trkpt lat="42.439487" lon="-2.945644">
      <ele>637.1</ele>
    </trkpt>
    <trkpt lat="42.439692" lon="-2.946543">
      <ele>637.7</ele>
    </trkpt>
    <trkpt lat="42.439712" lon="-2.946632">
      <ele>637.7</ele>
    </trkpt>
    <trkpt lat="42.439724" lon="-2.946683">
      <ele>637.7</ele>
    </trkpt>
    <trkpt lat="42.439735" lon="-2.946732">
      <ele>637.8</ele>
    </trkpt>
    <trkpt lat="42.439754" lon="-2.946816">
      <ele>637.8</ele>
    </trkpt>
    <trkpt lat="42.44012" lon="-2.948438">
      <ele>638.3</ele>
    </trkpt>
    <trkpt lat="42.440209" lon="-2.948849">
      <ele>638.5</ele>
    </trkpt>
    <trkpt lat="42.44026" lon="-2.949085">
      <ele>638.7</ele>
    </trkpt>
    <trkpt lat="42.440285" lon="-2.949203">
      <ele>638.8</ele>
    </trkpt>
    <trkpt lat="42.440314" lon="-2.949311">
      <ele>638.9</ele>
    </trkpt>
    <trkpt lat="42.440505" lon="-2.950305">
      <ele>640.1</ele>
    </trkpt>
    <trkpt lat="42.440669" lon="-2.951353">
      <ele>640.5</ele>
    </trkpt>
    <trkpt lat="42.440681" lon="-2.951425">
      <ele>640.5</ele>
    </trkpt>
    <trkpt lat="42.441282" lon="-2.951203">
      <ele>640.5</ele>
    </trkpt>
    <trkpt lat="42.44134" lon="-2.951181">
      <ele>640.5</ele>
    </trkpt>
    <trkpt lat="42.441285" lon="-2.950989">
      <ele>640.3</ele>
    </trkpt>
    <trkpt lat="42.440976" lon="-2.949988">
      <ele>639.3</ele>
    </trkpt>
    <trkpt lat="42.440894" lon="-2.949723">
      <ele>639.2</ele>
    </trkpt>
    <trkpt lat="42.440747" lon="-2.949278">
      <ele>638.9</ele>
    </trkpt>
    <trkpt lat="42.440738" lon="-2.949261">
      <ele>638.9</ele>
    </trkpt>
    <trkpt lat="42.440583" lon="-2.949131">
      <ele>638.7</ele>
    </trkpt>
    <trkpt lat="42.440421" lon="-2.949148">
      <ele>638.6</ele>
    </trkpt>
    <trkpt lat="42.440285" lon="-2.949203">
      <ele>638.5</ele>
    </trkpt>
    <trkpt lat="42.440314" lon="-2.949311">
      <ele>638.4</ele>
    </trkpt>
    <trkpt lat="42.440285" lon="-2.949203">
      <ele>638.3</ele>
    </trkpt>
    <trkpt lat="42.44026" lon="-2.949085">
      <ele>638.2</ele>
    </trkpt>
    <trkpt lat="42.440209" lon="-2.948849">
      <ele>638.2</ele>
    </trkpt>
    <trkpt lat="42.44012" lon="-2.948438">
      <ele>638.1</ele>
    </trkpt>
    <trkpt lat="42.439754" lon="-2.946816">
      <ele>637.8</ele>
    </trkpt>
    <trkpt lat="42.439735" lon="-2.946732">
      <ele>637.7</ele>
    </trkpt>
    <trkpt lat="42.439724" lon="-2.946683">
      <ele>637.7</ele>
    </trkpt>
    <trkpt lat="42.439712" lon="-2.946632">
      <ele>637.7</ele>
    </trkpt>
    <trkpt lat="42.439692" lon="-2.946543">
      <ele>637.6</ele>
    </trkpt>
    <trkpt lat="42.439487" lon="-2.945644">
      <ele>637.1</ele>
    </trkpt>
    <trkpt lat="42.439485" lon="-2.945633">
      <ele>637.1</ele>
    </trkpt>
    <trkpt lat="42.439435" lon="-2.945466">
      <ele>637</ele>
    </trkpt>
    <trkpt lat="42.439409" lon="-2.9454">
      <ele>637</ele>
    </trkpt>
    <trkpt lat="42.439326" lon="-2.94528">
      <ele>636.9</ele>
    </trkpt>
    <trkpt lat="42.439273" lon="-2.945228">
      <ele>636.9</ele>
    </trkpt>
    <trkpt lat="42.439251" lon="-2.945166">
      <ele>636.9</ele>
    </trkpt>
    <trkpt lat="42.439251" lon="-2.945094">
      <ele>636.9</ele>
    </trkpt>
    <trkpt lat="42.439147" lon="-2.945145">
      <ele>636.8</ele>
    </trkpt>
    <trkpt lat="42.438582" lon="-2.945443">
      <ele>636.9</ele>
    </trkpt>
    <trkpt lat="42.438222" lon="-2.945635">
      <ele>637.3</ele>
    </trkpt>
    <trkpt lat="42.436638" lon="-2.946477">
      <ele>639.5</ele>
    </trkpt>
    <trkpt lat="42.435593" lon="-2.947028">
      <ele>640.1</ele>
    </trkpt>
    <trkpt lat="42.432958" lon="-2.948397">
      <ele>643.7</ele>
    </trkpt>
    <trkpt lat="42.432519" lon="-2.948736">
      <ele>644.3</ele>
    </trkpt>
    <trkpt lat="42.432084" lon="-2.948312">
      <ele>644.7</ele>
    </trkpt>
    <trkpt lat="42.431655" lon="-2.947843">
      <ele>645</ele>
    </trkpt>
    <trkpt lat="42.431735" lon="-2.947688">
      <ele>645.1</ele>
    </trkpt>
    <trkpt lat="42.431804" lon="-2.947587">
      <ele>645.1</ele>
    </trkpt>
    <trkpt lat="42.43191" lon="-2.947456">
      <ele>645.2</ele>
    </trkpt>
    <trkpt lat="42.431943" lon="-2.947503">
      <ele>645.2</ele>
    </trkpt>
    <trkpt lat="42.431867" lon="-2.947606">
      <ele>645.2</ele>
    </trkpt>
    </trkseg>
  </trk>
</gpx>
