<?xml version="1.0" encoding="UTF-8"?>
<gpx version="1.1" creator="fitAI Komoot downloader" xmlns="http://www.topografix.com/GPX/1/1">
  <metadata>
    <name>Vía Romana del Iregua y Parque del Iregua - Recorrido circular desde Albelda de Iregua</name>
    <desc>136 visitas · Dificultad: difficult · Distancia: 45.4 km · Desnivel +: 354 m</desc>
    <link href="https://www.komoot.com/smarttour/e19888924"><text>Komoot</text></link>
  </metadata>
  <trk>
    <name>Vía Romana del Iregua y Parque del Iregua - Recorrido circular desde Albelda de Iregua</name>
    <type>mtb</type>
    <trkseg>
    <trkpt lat="42.365106" lon="-2.4813">
      <ele>504.9</ele>
    </trkpt>
    <trkpt lat="42.365116" lon="-2.481336">
      <ele>504.9</ele>
    </trkpt>
    <trkpt lat="42.365108" lon="-2.481465">
      <ele>504.9</ele>
    </trkpt>
    <trkpt lat="42.36505" lon="-2.481586">
      <ele>504.9</ele>
    </trkpt>
    <trkpt lat="42.36486" lon="-2.481731">
      <ele>505</ele>
    </trkpt>
    <trkpt lat="42.364706" lon="-2.481848">
      <ele>505</ele>
    </trkpt>
    <trkpt lat="42.364667" lon="-2.481841">
      <ele>505</ele>
    </trkpt>
    <trkpt lat="42.364558" lon="-2.481598">
      <ele>505.1</ele>
    </trkpt>
    <trkpt lat="42.364499" lon="-2.481543">
      <ele>505.1</ele>
    </trkpt>
    <trkpt lat="42.364328" lon="-2.481104">
      <ele>505.2</ele>
    </trkpt>
    <trkpt lat="42.363421" lon="-2.479049">
      <ele>504.3</ele>
    </trkpt>
    <trkpt lat="42.363213" lon="-2.478859">
      <ele>503.9</ele>
    </trkpt>
    <trkpt lat="42.36312" lon="-2.478815">
      <ele>503.8</ele>
    </trkpt>
    <trkpt lat="42.362962" lon="-2.478775">
      <ele>503.5</ele>
    </trkpt>
    <trkpt lat="42.362698" lon="-2.478815">
      <ele>503.2</ele>
    </trkpt>
    <trkpt lat="42.362133" lon="-2.478947">
      <ele>502.4</ele>
    </trkpt>
    <trkpt lat="42.361876" lon="-2.478956">
      <ele>502.2</ele>
    </trkpt>
    <trkpt lat="42.361704" lon="-2.478879">
      <ele>502.2</ele>
    </trkpt>
    <trkpt lat="42.361525" lon="-2.478739">
      <ele>502.1</ele>
    </trkpt>
    <trkpt lat="42.361307" lon="-2.478478">
      <ele>501.9</ele>
    </trkpt>
    <trkpt lat="42.361126" lon="-2.478225">
      <ele>501.7</ele>
    </trkpt>
    <trkpt lat="42.361027" lon="-2.478029">
      <ele>501.5</ele>
    </trkpt>
    <trkpt lat="42.361048" lon="-2.477858">
      <ele>501.3</ele>
    </trkpt>
    <trkpt lat="42.360966" lon="-2.477568">
      <ele>501.1</ele>
    </trkpt>
    <trkpt lat="42.360934" lon="-2.477454">
      <ele>500.9</ele>
    </trkpt>
    <trkpt lat="42.360888" lon="-2.477378">
      <ele>500.8</ele>
    </trkpt>
    <trkpt lat="42.36142" lon="-2.476942">
      <ele>499.7</ele>
    </trkpt>
    <trkpt lat="42.362043" lon="-2.476534">
      <ele>498.5</ele>
    </trkpt>
    <trkpt lat="42.361905" lon="-2.476028">
      <ele>497.7</ele>
    </trkpt>
    <trkpt lat="42.362547" lon="-2.475747">
      <ele>496.5</ele>
    </trkpt>
    <trkpt lat="42.362849" lon="-2.47571">
      <ele>496</ele>
    </trkpt>
    <trkpt lat="42.363086" lon="-2.475547">
      <ele>495.5</ele>
    </trkpt>
    <trkpt lat="42.363392" lon="-2.475218">
      <ele>494.9</ele>
    </trkpt>
    <trkpt lat="42.363545" lon="-2.474951">
      <ele>494.6</ele>
    </trkpt>
    <trkpt lat="42.363852" lon="-2.474567">
      <ele>494.2</ele>
    </trkpt>
    <trkpt lat="42.363982" lon="-2.474364">
      <ele>494.1</ele>
    </trkpt>
    <trkpt lat="42.364007" lon="-2.474249">
      <ele>494</ele>
    </trkpt>
    <trkpt lat="42.364095" lon="-2.473851">
      <ele>493.9</ele>
    </trkpt>
    <trkpt lat="42.364241" lon="-2.47351">
      <ele>493.9</ele>
    </trkpt>
    <trkpt lat="42.364534" lon="-2.473001">
      <ele>493.8</ele>
    </trkpt>
    <trkpt lat="42.364768" lon="-2.472813">
      <ele>493.8</ele>
    </trkpt>
    <trkpt lat="42.365013" lon="-2.4727">
      <ele>493.6</ele>
    </trkpt>
    <trkpt lat="42.365524" lon="-2.47271">
      <ele>493.1</ele>
    </trkpt>
    <trkpt lat="42.365867" lon="-2.472757">
      <ele>492.6</ele>
    </trkpt>
    <trkpt lat="42.366188" lon="-2.472926">
      <ele>492</ele>
    </trkpt>
    <trkpt lat="42.366945" lon="-2.473404">
      <ele>491.2</ele>
    </trkpt>
    <trkpt lat="42.367128" lon="-2.473488">
      <ele>491.1</ele>
    </trkpt>
    <trkpt lat="42.367574" lon="-2.47317">
      <ele>491</ele>
    </trkpt>
    <trkpt lat="42.367995" lon="-2.473062">
      <ele>490.9</ele>
    </trkpt>
    <trkpt lat="42.368235" lon="-2.472881">
      <ele>490.8</ele>
    </trkpt>
    <trkpt lat="42.368425" lon="-2.472483">
      <ele>490.6</ele>
    </trkpt>
    <trkpt lat="42.368817" lon="-2.472103">
      <ele>490.2</ele>
    </trkpt>
    <trkpt lat="42.36916" lon="-2.471488">
      <ele>489.4</ele>
    </trkpt>
    <trkpt lat="42.369349" lon="-2.471334">
      <ele>489.1</ele>
    </trkpt>
    <trkpt lat="42.369622" lon="-2.471181">
      <ele>488.7</ele>
    </trkpt>
    <trkpt lat="42.369825" lon="-2.471134">
      <ele>488.4</ele>
    </trkpt>
    <trkpt lat="42.370548" lon="-2.471312">
      <ele>487.2</ele>
    </trkpt>
    <trkpt lat="42.37099" lon="-2.471671">
      <ele>486.2</ele>
    </trkpt>
    <trkpt lat="42.371408" lon="-2.471811">
      <ele>485.5</ele>
    </trkpt>
    <trkpt lat="42.371772" lon="-2.471822">
      <ele>485</ele>
    </trkpt>
    <trkpt lat="42.371873" lon="-2.471786">
      <ele>484.9</ele>
    </trkpt>
    <trkpt lat="42.372416" lon="-2.471391">
      <ele>484.7</ele>
    </trkpt>
    <trkpt lat="42.372802" lon="-2.471161">
      <ele>485</ele>
    </trkpt>
    <trkpt lat="42.373888" lon="-2.470887">
      <ele>485.8</ele>
    </trkpt>
    <trkpt lat="42.374557" lon="-2.470639">
      <ele>485.2</ele>
    </trkpt>
    <trkpt lat="42.374722" lon="-2.470663">
      <ele>484.9</ele>
    </trkpt>
    <trkpt lat="42.375307" lon="-2.46999">
      <ele>483.2</ele>
    </trkpt>
    <trkpt lat="42.375671" lon="-2.469036">
      <ele>481.8</ele>
    </trkpt>
    <trkpt lat="42.37579" lon="-2.468779">
      <ele>481.5</ele>
    </trkpt>
    <trkpt lat="42.375996" lon="-2.468108">
      <ele>481</ele>
    </trkpt>
    <trkpt lat="42.376131" lon="-2.467486">
      <ele>480.7</ele>
    </trkpt>
    <trkpt lat="42.376309" lon="-2.466837">
      <ele>480.5</ele>
    </trkpt>
    <trkpt lat="42.37652" lon="-2.466573">
      <ele>480.4</ele>
    </trkpt>
    <trkpt lat="42.376704" lon="-2.466284">
      <ele>480.3</ele>
    </trkpt>
    <trkpt lat="42.376837" lon="-2.466347">
      <ele>480.3</ele>
    </trkpt>
    <trkpt lat="42.377059" lon="-2.465951">
      <ele>480.1</ele>
    </trkpt>
    <trkpt lat="42.377259" lon="-2.465944">
      <ele>480</ele>
    </trkpt>
    <trkpt lat="42.377553" lon="-2.465705">
      <ele>479.8</ele>
    </trkpt>
    <trkpt lat="42.378219" lon="-2.465067">
      <ele>479.1</ele>
    </trkpt>
    <trkpt lat="42.378651" lon="-2.464482">
      <ele>478.6</ele>
    </trkpt>
    <trkpt lat="42.37899" lon="-2.464114">
      <ele>478.1</ele>
    </trkpt>
    <trkpt lat="42.379268" lon="-2.463589">
      <ele>477.6</ele>
    </trkpt>
    <trkpt lat="42.379673" lon="-2.463218">
      <ele>476.9</ele>
    </trkpt>
    <trkpt lat="42.380292" lon="-2.462836">
      <ele>475.9</ele>
    </trkpt>
    <trkpt lat="42.38053" lon="-2.462612">
      <ele>475.4</ele>
    </trkpt>
    <trkpt lat="42.380732" lon="-2.462575">
      <ele>475.1</ele>
    </trkpt>
    <trkpt lat="42.380891" lon="-2.462468">
      <ele>474.9</ele>
    </trkpt>
    <trkpt lat="42.381294" lon="-2.462413">
      <ele>474.8</ele>
    </trkpt>
    <trkpt lat="42.381402" lon="-2.46234">
      <ele>474.8</ele>
    </trkpt>
    <trkpt lat="42.3815" lon="-2.462107">
      <ele>474.8</ele>
    </trkpt>
    <trkpt lat="42.381659" lon="-2.461908">
      <ele>474.9</ele>
    </trkpt>
    <trkpt lat="42.381821" lon="-2.461826">
      <ele>475</ele>
    </trkpt>
    <trkpt lat="42.381983" lon="-2.461582">
      <ele>475.1</ele>
    </trkpt>
    <trkpt lat="42.382117" lon="-2.461123">
      <ele>475.4</ele>
    </trkpt>
    <trkpt lat="42.382175" lon="-2.461139">
      <ele>475.5</ele>
    </trkpt>
    <trkpt lat="42.382261" lon="-2.461108">
      <ele>475.6</ele>
    </trkpt>
    <trkpt lat="42.382475" lon="-2.460689">
      <ele>475.9</ele>
    </trkpt>
    <trkpt lat="42.382927" lon="-2.460142">
      <ele>476</ele>
    </trkpt>
    <trkpt lat="42.383101" lon="-2.459852">
      <ele>475.9</ele>
    </trkpt>
    <trkpt lat="42.38366" lon="-2.459257">
      <ele>476</ele>
    </trkpt>
    <trkpt lat="42.383965" lon="-2.458828">
      <ele>476.2</ele>
    </trkpt>
    <trkpt lat="42.384089" lon="-2.458409">
      <ele>476.4</ele>
    </trkpt>
    <trkpt lat="42.384173" lon="-2.457918">
      <ele>476.4</ele>
    </trkpt>
    <trkpt lat="42.384471" lon="-2.457713">
      <ele>476.3</ele>
    </trkpt>
    <trkpt lat="42.384743" lon="-2.457626">
      <ele>476</ele>
    </trkpt>
    <trkpt lat="42.385189" lon="-2.457418">
      <ele>475.2</ele>
    </trkpt>
    <trkpt lat="42.385362" lon="-2.457382">
      <ele>474.9</ele>
    </trkpt>
    <trkpt lat="42.385682" lon="-2.457404">
      <ele>474.2</ele>
    </trkpt>
    <trkpt lat="42.386037" lon="-2.457471">
      <ele>473.7</ele>
    </trkpt>
    <trkpt lat="42.386206" lon="-2.457378">
      <ele>473.5</ele>
    </trkpt>
    <trkpt lat="42.386418" lon="-2.45716">
      <ele>473.5</ele>
    </trkpt>
    <trkpt lat="42.386687" lon="-2.457009">
      <ele>473.4</ele>
    </trkpt>
    <trkpt lat="42.386888" lon="-2.456825">
      <ele>473.4</ele>
    </trkpt>
    <trkpt lat="42.386931" lon="-2.456739">
      <ele>473.4</ele>
    </trkpt>
    <trkpt lat="42.387095" lon="-2.456434">
      <ele>473.4</ele>
    </trkpt>
    <trkpt lat="42.387296" lon="-2.456213">
      <ele>473.4</ele>
    </trkpt>
    <trkpt lat="42.387719" lon="-2.456155">
      <ele>473.3</ele>
    </trkpt>
    <trkpt lat="42.387942" lon="-2.456018">
      <ele>473.2</ele>
    </trkpt>
    <trkpt lat="42.388188" lon="-2.455951">
      <ele>473</ele>
    </trkpt>
    <trkpt lat="42.388497" lon="-2.455942">
      <ele>472.8</ele>
    </trkpt>
    <trkpt lat="42.388792" lon="-2.455706">
      <ele>472.6</ele>
    </trkpt>
    <trkpt lat="42.388977" lon="-2.45567">
      <ele>472.5</ele>
    </trkpt>
    <trkpt lat="42.389181" lon="-2.455588">
      <ele>472.4</ele>
    </trkpt>
    <trkpt lat="42.389343" lon="-2.455458">
      <ele>472.4</ele>
    </trkpt>
    <trkpt lat="42.389573" lon="-2.45512">
      <ele>472.3</ele>
    </trkpt>
    <trkpt lat="42.389791" lon="-2.455013">
      <ele>472.2</ele>
    </trkpt>
    <trkpt lat="42.390309" lon="-2.454855">
      <ele>472.1</ele>
    </trkpt>
    <trkpt lat="42.390541" lon="-2.454833">
      <ele>471.5</ele>
    </trkpt>
    <trkpt lat="42.390664" lon="-2.454778">
      <ele>471.1</ele>
    </trkpt>
    <trkpt lat="42.390864" lon="-2.454608">
      <ele>470.2</ele>
    </trkpt>
    <trkpt lat="42.391063" lon="-2.454511">
      <ele>469.4</ele>
    </trkpt>
    <trkpt lat="42.391171" lon="-2.45522">
      <ele>467</ele>
    </trkpt>
    <trkpt lat="42.39127" lon="-2.455295">
      <ele>466.6</ele>
    </trkpt>
    <trkpt lat="42.391687" lon="-2.455271">
      <ele>464.6</ele>
    </trkpt>
    <trkpt lat="42.392676" lon="-2.455749">
      <ele>460.7</ele>
    </trkpt>
    <trkpt lat="42.392823" lon="-2.455789">
      <ele>460.3</ele>
    </trkpt>
    <trkpt lat="42.392963" lon="-2.455719">
      <ele>460</ele>
    </trkpt>
    <trkpt lat="42.393166" lon="-2.455719">
      <ele>459.5</ele>
    </trkpt>
    <trkpt lat="42.39383" lon="-2.455559">
      <ele>458</ele>
    </trkpt>
    <trkpt lat="42.394079" lon="-2.455577">
      <ele>457.5</ele>
    </trkpt>
    <trkpt lat="42.394504" lon="-2.455457">
      <ele>456.8</ele>
    </trkpt>
    <trkpt lat="42.395156" lon="-2.455063">
      <ele>455.9</ele>
    </trkpt>
    <trkpt lat="42.395419" lon="-2.45504">
      <ele>455.6</ele>
    </trkpt>
    <trkpt lat="42.395802" lon="-2.454927">
      <ele>455.2</ele>
    </trkpt>
    <trkpt lat="42.396211" lon="-2.454525">
      <ele>454.8</ele>
    </trkpt>
    <trkpt lat="42.396439" lon="-2.454258">
      <ele>454.7</ele>
    </trkpt>
    <trkpt lat="42.396647" lon="-2.453839">
      <ele>454.7</ele>
    </trkpt>
    <trkpt lat="42.39675" lon="-2.453308">
      <ele>454.6</ele>
    </trkpt>
    <trkpt lat="42.396723" lon="-2.453092">
      <ele>454.5</ele>
    </trkpt>
    <trkpt lat="42.396622" lon="-2.452811">
      <ele>454.5</ele>
    </trkpt>
    <trkpt lat="42.396632" lon="-2.452603">
      <ele>454.4</ele>
    </trkpt>
    <trkpt lat="42.396743" lon="-2.452419">
      <ele>454.3</ele>
    </trkpt>
    <trkpt lat="42.396766" lon="-2.45238">
      <ele>454.2</ele>
    </trkpt>
    <trkpt lat="42.397182" lon="-2.45209">
      <ele>453.8</ele>
    </trkpt>
    <trkpt lat="42.397867" lon="-2.451779">
      <ele>452.8</ele>
    </trkpt>
    <trkpt lat="42.398073" lon="-2.451736">
      <ele>452.5</ele>
    </trkpt>
    <trkpt lat="42.398374" lon="-2.45142">
      <ele>451.9</ele>
    </trkpt>
    <trkpt lat="42.398604" lon="-2.451311">
      <ele>451.5</ele>
    </trkpt>
    <trkpt lat="42.398988" lon="-2.451267">
      <ele>450.9</ele>
    </trkpt>
    <trkpt lat="42.399088" lon="-2.451225">
      <ele>450.7</ele>
    </trkpt>
    <trkpt lat="42.399378" lon="-2.45101">
      <ele>450.2</ele>
    </trkpt>
    <trkpt lat="42.399601" lon="-2.451001">
      <ele>449.9</ele>
    </trkpt>
    <trkpt lat="42.399837" lon="-2.45101">
      <ele>449.6</ele>
    </trkpt>
    <trkpt lat="42.399921" lon="-2.450929">
      <ele>449.4</ele>
    </trkpt>
    <trkpt lat="42.400281" lon="-2.450308">
      <ele>448.9</ele>
    </trkpt>
    <trkpt lat="42.400602" lon="-2.449833">
      <ele>448.5</ele>
    </trkpt>
    <trkpt lat="42.401165" lon="-2.449402">
      <ele>447.9</ele>
    </trkpt>
    <trkpt lat="42.401426" lon="-2.448909">
      <ele>447.5</ele>
    </trkpt>
    <trkpt lat="42.401677" lon="-2.448545">
      <ele>447.1</ele>
    </trkpt>
    <trkpt lat="42.402014" lon="-2.447756">
      <ele>446.1</ele>
    </trkpt>
    <trkpt lat="42.402128" lon="-2.447566">
      <ele>445.9</ele>
    </trkpt>
    <trkpt lat="42.402372" lon="-2.447269">
      <ele>445.5</ele>
    </trkpt>
    <trkpt lat="42.402683" lon="-2.446995">
      <ele>445.1</ele>
    </trkpt>
    <trkpt lat="42.40282" lon="-2.44691">
      <ele>445</ele>
    </trkpt>
    <trkpt lat="42.403396" lon="-2.446707">
      <ele>444.3</ele>
    </trkpt>
    <trkpt lat="42.403624" lon="-2.446397">
      <ele>444</ele>
    </trkpt>
    <trkpt lat="42.40377" lon="-2.446109">
      <ele>443.8</ele>
    </trkpt>
    <trkpt lat="42.40403" lon="-2.445716">
      <ele>443.4</ele>
    </trkpt>
    <trkpt lat="42.404243" lon="-2.445502">
      <ele>443.2</ele>
    </trkpt>
    <trkpt lat="42.404506" lon="-2.445332">
      <ele>442.9</ele>
    </trkpt>
    <trkpt lat="42.404727" lon="-2.445328">
      <ele>442.7</ele>
    </trkpt>
    <trkpt lat="42.405034" lon="-2.445389">
      <ele>442.5</ele>
    </trkpt>
    <trkpt lat="42.405184" lon="-2.445323">
      <ele>442.4</ele>
    </trkpt>
    <trkpt lat="42.405425" lon="-2.444969">
      <ele>442.2</ele>
    </trkpt>
    <trkpt lat="42.406154" lon="-2.444875">
      <ele>441.7</ele>
    </trkpt>
    <trkpt lat="42.40619" lon="-2.44485">
      <ele>441.7</ele>
    </trkpt>
    <trkpt lat="42.407098" lon="-2.4442">
      <ele>441.1</ele>
    </trkpt>
    <trkpt lat="42.406969" lon="-2.443842">
      <ele>440.9</ele>
    </trkpt>
    <trkpt lat="42.406818" lon="-2.443871">
      <ele>440.8</ele>
    </trkpt>
    <trkpt lat="42.406861" lon="-2.443949">
      <ele>440.7</ele>
    </trkpt>
    <trkpt lat="42.407279" lon="-2.444692">
      <ele>440.2</ele>
    </trkpt>
    <trkpt lat="42.407449" lon="-2.44499">
      <ele>440</ele>
    </trkpt>
    <trkpt lat="42.407536" lon="-2.444679">
      <ele>439.7</ele>
    </trkpt>
    <trkpt lat="42.407646" lon="-2.444405">
      <ele>439.4</ele>
    </trkpt>
    <trkpt lat="42.407765" lon="-2.444266">
      <ele>439.2</ele>
    </trkpt>
    <trkpt lat="42.407924" lon="-2.444003">
      <ele>438.9</ele>
    </trkpt>
    <trkpt lat="42.408023" lon="-2.443895">
      <ele>438.7</ele>
    </trkpt>
    <trkpt lat="42.40813" lon="-2.443847">
      <ele>438.5</ele>
    </trkpt>
    <trkpt lat="42.408177" lon="-2.443544">
      <ele>438.2</ele>
    </trkpt>
    <trkpt lat="42.408394" lon="-2.443223">
      <ele>437.6</ele>
    </trkpt>
    <trkpt lat="42.408614" lon="-2.443002">
      <ele>437.1</ele>
    </trkpt>
    <trkpt lat="42.409255" lon="-2.442522">
      <ele>435.6</ele>
    </trkpt>
    <trkpt lat="42.410872" lon="-2.441629">
      <ele>433.2</ele>
    </trkpt>
    <trkpt lat="42.411219" lon="-2.441101">
      <ele>432.7</ele>
    </trkpt>
    <trkpt lat="42.411411" lon="-2.440947">
      <ele>432.5</ele>
    </trkpt>
    <trkpt lat="42.411581" lon="-2.441032">
      <ele>432.3</ele>
    </trkpt>
    <trkpt lat="42.411767" lon="-2.440842">
      <ele>432.1</ele>
    </trkpt>
    <trkpt lat="42.411865" lon="-2.440645">
      <ele>432</ele>
    </trkpt>
    <trkpt lat="42.411964" lon="-2.440527">
      <ele>431.9</ele>
    </trkpt>
    <trkpt lat="42.412316" lon="-2.440248">
      <ele>431.6</ele>
    </trkpt>
    <trkpt lat="42.412399" lon="-2.440151">
      <ele>431.6</ele>
    </trkpt>
    <trkpt lat="42.412522" lon="-2.440108">
      <ele>431.4</ele>
    </trkpt>
    <trkpt lat="42.412716" lon="-2.439974">
      <ele>431.3</ele>
    </trkpt>
    <trkpt lat="42.413196" lon="-2.439491">
      <ele>431.1</ele>
    </trkpt>
    <trkpt lat="42.413326" lon="-2.439438">
      <ele>431.2</ele>
    </trkpt>
    <trkpt lat="42.413387" lon="-2.439291">
      <ele>431.2</ele>
    </trkpt>
    <trkpt lat="42.413987" lon="-2.438674">
      <ele>431.4</ele>
    </trkpt>
    <trkpt lat="42.414036" lon="-2.438595">
      <ele>431.4</ele>
    </trkpt>
    <trkpt lat="42.414249" lon="-2.438402">
      <ele>431.4</ele>
    </trkpt>
    <trkpt lat="42.414376" lon="-2.438359">
      <ele>431.4</ele>
    </trkpt>
    <trkpt lat="42.414746" lon="-2.438495">
      <ele>431.3</ele>
    </trkpt>
    <trkpt lat="42.415605" lon="-2.438883">
      <ele>430.5</ele>
    </trkpt>
    <trkpt lat="42.416117" lon="-2.439056">
      <ele>429.8</ele>
    </trkpt>
    <trkpt lat="42.416423" lon="-2.439026">
      <ele>429.4</ele>
    </trkpt>
    <trkpt lat="42.416763" lon="-2.43891">
      <ele>428.9</ele>
    </trkpt>
    <trkpt lat="42.416822" lon="-2.438843">
      <ele>428.8</ele>
    </trkpt>
    <trkpt lat="42.417101" lon="-2.438363">
      <ele>428.2</ele>
    </trkpt>
    <trkpt lat="42.417187" lon="-2.438264">
      <ele>428</ele>
    </trkpt>
    <trkpt lat="42.417639" lon="-2.437909">
      <ele>427.3</ele>
    </trkpt>
    <trkpt lat="42.418365" lon="-2.437893">
      <ele>426.3</ele>
    </trkpt>
    <trkpt lat="42.419106" lon="-2.43804">
      <ele>425.1</ele>
    </trkpt>
    <trkpt lat="42.419157" lon="-2.438086">
      <ele>425</ele>
    </trkpt>
    <trkpt lat="42.41922" lon="-2.438143">
      <ele>424.9</ele>
    </trkpt>
    <trkpt lat="42.41939" lon="-2.438204">
      <ele>424.7</ele>
    </trkpt>
    <trkpt lat="42.419615" lon="-2.438225">
      <ele>424.3</ele>
    </trkpt>
    <trkpt lat="42.42038" lon="-2.438027">
      <ele>423.2</ele>
    </trkpt>
    <trkpt lat="42.42078" lon="-2.437855">
      <ele>422.6</ele>
    </trkpt>
    <trkpt lat="42.421195" lon="-2.437581">
      <ele>422.1</ele>
    </trkpt>
    <trkpt lat="42.42133" lon="-2.437442">
      <ele>422</ele>
    </trkpt>
    <trkpt lat="42.421643" lon="-2.437249">
      <ele>421.5</ele>
    </trkpt>
    <trkpt lat="42.421841" lon="-2.437083">
      <ele>421.2</ele>
    </trkpt>
    <trkpt lat="42.421904" lon="-2.436975">
      <ele>421.1</ele>
    </trkpt>
    <trkpt lat="42.422278" lon="-2.436572">
      <ele>420.5</ele>
    </trkpt>
    <trkpt lat="42.422086" lon="-2.43623">
      <ele>420.3</ele>
    </trkpt>
    <trkpt lat="42.422066" lon="-2.436144">
      <ele>420.2</ele>
    </trkpt>
    <trkpt lat="42.422082" lon="-2.436042">
      <ele>420.2</ele>
    </trkpt>
    <trkpt lat="42.422173" lon="-2.435924">
      <ele>420.1</ele>
    </trkpt>
    <trkpt lat="42.422459" lon="-2.435741">
      <ele>419.9</ele>
    </trkpt>
    <trkpt lat="42.423128" lon="-2.435559">
      <ele>419.4</ele>
    </trkpt>
    <trkpt lat="42.423429" lon="-2.435581">
      <ele>419.1</ele>
    </trkpt>
    <trkpt lat="42.423512" lon="-2.435629">
      <ele>419</ele>
    </trkpt>
    <trkpt lat="42.423571" lon="-2.435564">
      <ele>418.9</ele>
    </trkpt>
    <trkpt lat="42.424347" lon="-2.435071">
      <ele>417.4</ele>
    </trkpt>
    <trkpt lat="42.424474" lon="-2.435023">
      <ele>417.1</ele>
    </trkpt>
    <trkpt lat="42.425001" lon="-2.434594">
      <ele>416</ele>
    </trkpt>
    <trkpt lat="42.425389" lon="-2.4344">
      <ele>415.4</ele>
    </trkpt>
    <trkpt lat="42.425607" lon="-2.434261">
      <ele>415.1</ele>
    </trkpt>
    <trkpt lat="42.426436" lon="-2.433916">
      <ele>414.1</ele>
    </trkpt>
    <trkpt lat="42.426605" lon="-2.433846">
      <ele>413.9</ele>
    </trkpt>
    <trkpt lat="42.426769" lon="-2.433774">
      <ele>413.7</ele>
    </trkpt>
    <trkpt lat="42.427071" lon="-2.433645">
      <ele>413.3</ele>
    </trkpt>
    <trkpt lat="42.427436" lon="-2.433322">
      <ele>412.7</ele>
    </trkpt>
    <trkpt lat="42.42763" lon="-2.433301">
      <ele>412.4</ele>
    </trkpt>
    <trkpt lat="42.428173" lon="-2.433113">
      <ele>411.6</ele>
    </trkpt>
    <trkpt lat="42.428656" lon="-2.432893">
      <ele>410.9</ele>
    </trkpt>
    <trkpt lat="42.428933" lon="-2.432866">
      <ele>410.5</ele>
    </trkpt>
    <trkpt lat="42.42942" lon="-2.432748">
      <ele>409.8</ele>
    </trkpt>
    <trkpt lat="42.429768" lon="-2.432507">
      <ele>409.3</ele>
    </trkpt>
    <trkpt lat="42.430065" lon="-2.432448">
      <ele>408.9</ele>
    </trkpt>
    <trkpt lat="42.430616" lon="-2.431568">
      <ele>407.9</ele>
    </trkpt>
    <trkpt lat="42.430758" lon="-2.431423">
      <ele>407.7</ele>
    </trkpt>
    <trkpt lat="42.43098" lon="-2.431359">
      <ele>407.4</ele>
    </trkpt>
    <trkpt lat="42.431605" lon="-2.430774">
      <ele>406.4</ele>
    </trkpt>
    <trkpt lat="42.431799" lon="-2.430694">
      <ele>406.2</ele>
    </trkpt>
    <trkpt lat="42.432088" lon="-2.430452">
      <ele>405.7</ele>
    </trkpt>
    <trkpt lat="42.432789" lon="-2.430045">
      <ele>404.9</ele>
    </trkpt>
    <trkpt lat="42.433819" lon="-2.42939">
      <ele>403.7</ele>
    </trkpt>
    <trkpt lat="42.43406" lon="-2.429277">
      <ele>403.4</ele>
    </trkpt>
    <trkpt lat="42.434266" lon="-2.429267">
      <ele>403.1</ele>
    </trkpt>
    <trkpt lat="42.434625" lon="-2.429328">
      <ele>402.5</ele>
    </trkpt>
    <trkpt lat="42.435022" lon="-2.429197">
      <ele>401.7</ele>
    </trkpt>
    <trkpt lat="42.4352" lon="-2.429186">
      <ele>401.3</ele>
    </trkpt>
    <trkpt lat="42.435383" lon="-2.4291">
      <ele>400.9</ele>
    </trkpt>
    <trkpt lat="42.435593" lon="-2.428889">
      <ele>400.5</ele>
    </trkpt>
    <trkpt lat="42.436137" lon="-2.428201">
      <ele>399.7</ele>
    </trkpt>
    <trkpt lat="42.436516" lon="-2.427773">
      <ele>399.3</ele>
    </trkpt>
    <trkpt lat="42.436583" lon="-2.427749">
      <ele>399.3</ele>
    </trkpt>
    <trkpt lat="42.436971" lon="-2.427688">
      <ele>399</ele>
    </trkpt>
    <trkpt lat="42.437041" lon="-2.427692">
      <ele>398.9</ele>
    </trkpt>
    <trkpt lat="42.437168" lon="-2.427885">
      <ele>398.7</ele>
    </trkpt>
    <trkpt lat="42.437247" lon="-2.428134">
      <ele>398.5</ele>
    </trkpt>
    <trkpt lat="42.437532" lon="-2.428079">
      <ele>398.2</ele>
    </trkpt>
    <trkpt lat="42.440208" lon="-2.427199">
      <ele>393.8</ele>
    </trkpt>
    <trkpt lat="42.440684" lon="-2.427242">
      <ele>393.3</ele>
    </trkpt>
    <trkpt lat="42.440961" lon="-2.427305">
      <ele>393</ele>
    </trkpt>
    <trkpt lat="42.441471" lon="-2.427421">
      <ele>392.5</ele>
    </trkpt>
    <trkpt lat="42.441691" lon="-2.42743">
      <ele>392.3</ele>
    </trkpt>
    <trkpt lat="42.444025" lon="-2.42662">
      <ele>389.8</ele>
    </trkpt>
    <trkpt lat="42.444151" lon="-2.426435">
      <ele>389.6</ele>
    </trkpt>
    <trkpt lat="42.444421" lon="-2.425826">
      <ele>389.1</ele>
    </trkpt>
    <trkpt lat="42.444611" lon="-2.425654">
      <ele>388.9</ele>
    </trkpt>
    <trkpt lat="42.444793" lon="-2.425407">
      <ele>388.7</ele>
    </trkpt>
    <trkpt lat="42.444965" lon="-2.425429">
      <ele>388.5</ele>
    </trkpt>
    <trkpt lat="42.4457" lon="-2.425174">
      <ele>388</ele>
    </trkpt>
    <trkpt lat="42.447054" lon="-2.424531">
      <ele>386.6</ele>
    </trkpt>
    <trkpt lat="42.447167" lon="-2.424535">
      <ele>386.5</ele>
    </trkpt>
    <trkpt lat="42.44732" lon="-2.424591">
      <ele>386.4</ele>
    </trkpt>
    <trkpt lat="42.44746" lon="-2.424584">
      <ele>386.3</ele>
    </trkpt>
    <trkpt lat="42.447641" lon="-2.424546">
      <ele>386.1</ele>
    </trkpt>
    <trkpt lat="42.447771" lon="-2.424463">
      <ele>386</ele>
    </trkpt>
    <trkpt lat="42.447786" lon="-2.424459">
      <ele>386</ele>
    </trkpt>
    <trkpt lat="42.448013" lon="-2.424364">
      <ele>385.7</ele>
    </trkpt>
    <trkpt lat="42.448034" lon="-2.424355">
      <ele>385.7</ele>
    </trkpt>
    <trkpt lat="42.448581" lon="-2.424053">
      <ele>385.1</ele>
    </trkpt>
    <trkpt lat="42.449329" lon="-2.423744">
      <ele>384</ele>
    </trkpt>
    <trkpt lat="42.449677" lon="-2.423294">
      <ele>383.3</ele>
    </trkpt>
    <trkpt lat="42.4504" lon="-2.422776">
      <ele>382.1</ele>
    </trkpt>
    <trkpt lat="42.45062" lon="-2.422454">
      <ele>381.7</ele>
    </trkpt>
    <trkpt lat="42.450896" lon="-2.422297">
      <ele>381.3</ele>
    </trkpt>
    <trkpt lat="42.451075" lon="-2.422022">
      <ele>380.9</ele>
    </trkpt>
    <trkpt lat="42.451138" lon="-2.421859">
      <ele>380.7</ele>
    </trkpt>
    <trkpt lat="42.451397" lon="-2.421576">
      <ele>380.3</ele>
    </trkpt>
    <trkpt lat="42.45172" lon="-2.421019">
      <ele>379.8</ele>
    </trkpt>
    <trkpt lat="42.451807" lon="-2.420774">
      <ele>379.8</ele>
    </trkpt>
    <trkpt lat="42.451862" lon="-2.420726">
      <ele>379.8</ele>
    </trkpt>
    <trkpt lat="42.451962" lon="-2.420734">
      <ele>379.7</ele>
    </trkpt>
    <trkpt lat="42.45206" lon="-2.420771">
      <ele>379.7</ele>
    </trkpt>
    <trkpt lat="42.452112" lon="-2.420702">
      <ele>379.7</ele>
    </trkpt>
    <trkpt lat="42.452247" lon="-2.420657">
      <ele>379.6</ele>
    </trkpt>
    <trkpt lat="42.452562" lon="-2.420723">
      <ele>379.4</ele>
    </trkpt>
    <trkpt lat="42.452718" lon="-2.420669">
      <ele>379.4</ele>
    </trkpt>
    <trkpt lat="42.452861" lon="-2.42069">
      <ele>379.4</ele>
    </trkpt>
    <trkpt lat="42.453247" lon="-2.420436">
      <ele>379.6</ele>
    </trkpt>
    <trkpt lat="42.453507" lon="-2.420124">
      <ele>379.7</ele>
    </trkpt>
    <trkpt lat="42.453247" lon="-2.420436">
      <ele>379.6</ele>
    </trkpt>
    <trkpt lat="42.452861" lon="-2.42069">
      <ele>379.4</ele>
    </trkpt>
    <trkpt lat="42.452718" lon="-2.420669">
      <ele>379.4</ele>
    </trkpt>
    <trkpt lat="42.452562" lon="-2.420723">
      <ele>379.4</ele>
    </trkpt>
    <trkpt lat="42.452247" lon="-2.420657">
      <ele>379.6</ele>
    </trkpt>
    <trkpt lat="42.452112" lon="-2.420702">
      <ele>379.7</ele>
    </trkpt>
    <trkpt lat="42.45206" lon="-2.420771">
      <ele>379.7</ele>
    </trkpt>
    <trkpt lat="42.451962" lon="-2.420734">
      <ele>379.7</ele>
    </trkpt>
    <trkpt lat="42.451862" lon="-2.420726">
      <ele>379.8</ele>
    </trkpt>
    <trkpt lat="42.451807" lon="-2.420774">
      <ele>379.8</ele>
    </trkpt>
    <trkpt lat="42.45172" lon="-2.421019">
      <ele>379.8</ele>
    </trkpt>
    <trkpt lat="42.451397" lon="-2.421576">
      <ele>380.3</ele>
    </trkpt>
    <trkpt lat="42.451138" lon="-2.421859">
      <ele>380.7</ele>
    </trkpt>
    <trkpt lat="42.451075" lon="-2.422022">
      <ele>380.9</ele>
    </trkpt>
    <trkpt lat="42.450896" lon="-2.422297">
      <ele>381.3</ele>
    </trkpt>
    <trkpt lat="42.45062" lon="-2.422454">
      <ele>381.7</ele>
    </trkpt>
    <trkpt lat="42.4504" lon="-2.422776">
      <ele>382.1</ele>
    </trkpt>
    <trkpt lat="42.449677" lon="-2.423294">
      <ele>383.3</ele>
    </trkpt>
    <trkpt lat="42.449329" lon="-2.423744">
      <ele>384</ele>
    </trkpt>
    <trkpt lat="42.448581" lon="-2.424053">
      <ele>385.1</ele>
    </trkpt>
    <trkpt lat="42.448034" lon="-2.424355">
      <ele>385.7</ele>
    </trkpt>
    <trkpt lat="42.448013" lon="-2.424364">
      <ele>385.7</ele>
    </trkpt>
    <trkpt lat="42.447786" lon="-2.424459">
      <ele>386</ele>
    </trkpt>
    <trkpt lat="42.447771" lon="-2.424463">
      <ele>386</ele>
    </trkpt>
    <trkpt lat="42.447641" lon="-2.424546">
      <ele>386.1</ele>
    </trkpt>
    <trkpt lat="42.44746" lon="-2.424584">
      <ele>386.3</ele>
    </trkpt>
    <trkpt lat="42.44732" lon="-2.424591">
      <ele>386.4</ele>
    </trkpt>
    <trkpt lat="42.447167" lon="-2.424535">
      <ele>386.5</ele>
    </trkpt>
    <trkpt lat="42.447054" lon="-2.424531">
      <ele>386.6</ele>
    </trkpt>
    <trkpt lat="42.4457" lon="-2.425174">
      <ele>388</ele>
    </trkpt>
    <trkpt lat="42.444965" lon="-2.425429">
      <ele>388.5</ele>
    </trkpt>
    <trkpt lat="42.444793" lon="-2.425407">
      <ele>388.7</ele>
    </trkpt>
    <trkpt lat="42.444611" lon="-2.425654">
      <ele>388.9</ele>
    </trkpt>
    <trkpt lat="42.444421" lon="-2.425826">
      <ele>389.1</ele>
    </trkpt>
    <trkpt lat="42.444151" lon="-2.426435">
      <ele>389.6</ele>
    </trkpt>
    <trkpt lat="42.444025" lon="-2.42662">
      <ele>389.8</ele>
    </trkpt>
    <trkpt lat="42.441691" lon="-2.42743">
      <ele>392.3</ele>
    </trkpt>
    <trkpt lat="42.441471" lon="-2.427421">
      <ele>392.5</ele>
    </trkpt>
    <trkpt lat="42.440961" lon="-2.427305">
      <ele>393</ele>
    </trkpt>
    <trkpt lat="42.440684" lon="-2.427242">
      <ele>393.3</ele>
    </trkpt>
    <trkpt lat="42.440208" lon="-2.427199">
      <ele>393.8</ele>
    </trkpt>
    <trkpt lat="42.437532" lon="-2.428079">
      <ele>398.2</ele>
    </trkpt>
    <trkpt lat="42.437247" lon="-2.428134">
      <ele>398.5</ele>
    </trkpt>
    <trkpt lat="42.437168" lon="-2.427885">
      <ele>398.7</ele>
    </trkpt>
    <trkpt lat="42.437041" lon="-2.427692">
      <ele>398.9</ele>
    </trkpt>
    <trkpt lat="42.436971" lon="-2.427688">
      <ele>399</ele>
    </trkpt>
    <trkpt lat="42.436583" lon="-2.427749">
      <ele>399.3</ele>
    </trkpt>
    <trkpt lat="42.436516" lon="-2.427773">
      <ele>399.3</ele>
    </trkpt>
    <trkpt lat="42.436137" lon="-2.428201">
      <ele>399.7</ele>
    </trkpt>
    <trkpt lat="42.435593" lon="-2.428889">
      <ele>400.5</ele>
    </trkpt>
    <trkpt lat="42.435383" lon="-2.4291">
      <ele>400.9</ele>
    </trkpt>
    <trkpt lat="42.4352" lon="-2.429186">
      <ele>401.3</ele>
    </trkpt>
    <trkpt lat="42.435022" lon="-2.429197">
      <ele>401.7</ele>
    </trkpt>
    <trkpt lat="42.434625" lon="-2.429328">
      <ele>402.5</ele>
    </trkpt>
    <trkpt lat="42.434266" lon="-2.429267">
      <ele>403.1</ele>
    </trkpt>
    <trkpt lat="42.43406" lon="-2.429277">
      <ele>403.4</ele>
    </trkpt>
    <trkpt lat="42.433819" lon="-2.42939">
      <ele>403.7</ele>
    </trkpt>
    <trkpt lat="42.432789" lon="-2.430045">
      <ele>404.9</ele>
    </trkpt>
    <trkpt lat="42.432088" lon="-2.430452">
      <ele>405.7</ele>
    </trkpt>
    <trkpt lat="42.431799" lon="-2.430694">
      <ele>406.2</ele>
    </trkpt>
    <trkpt lat="42.431605" lon="-2.430774">
      <ele>406.4</ele>
    </trkpt>
    <trkpt lat="42.43098" lon="-2.431359">
      <ele>407.4</ele>
    </trkpt>
    <trkpt lat="42.430758" lon="-2.431423">
      <ele>407.7</ele>
    </trkpt>
    <trkpt lat="42.430616" lon="-2.431568">
      <ele>407.9</ele>
    </trkpt>
    <trkpt lat="42.430065" lon="-2.432448">
      <ele>408.9</ele>
    </trkpt>
    <trkpt lat="42.429768" lon="-2.432507">
      <ele>409.3</ele>
    </trkpt>
    <trkpt lat="42.42942" lon="-2.432748">
      <ele>409.8</ele>
    </trkpt>
    <trkpt lat="42.428933" lon="-2.432866">
      <ele>410.5</ele>
    </trkpt>
    <trkpt lat="42.428656" lon="-2.432893">
      <ele>410.9</ele>
    </trkpt>
    <trkpt lat="42.428173" lon="-2.433113">
      <ele>411.6</ele>
    </trkpt>
    <trkpt lat="42.42763" lon="-2.433301">
      <ele>412.4</ele>
    </trkpt>
    <trkpt lat="42.427436" lon="-2.433322">
      <ele>412.7</ele>
    </trkpt>
    <trkpt lat="42.427071" lon="-2.433645">
      <ele>413.3</ele>
    </trkpt>
    <trkpt lat="42.426769" lon="-2.433774">
      <ele>413.7</ele>
    </trkpt>
    <trkpt lat="42.426605" lon="-2.433846">
      <ele>413.9</ele>
    </trkpt>
    <trkpt lat="42.426436" lon="-2.433916">
      <ele>414.1</ele>
    </trkpt>
    <trkpt lat="42.425607" lon="-2.434261">
      <ele>415.1</ele>
    </trkpt>
    <trkpt lat="42.425389" lon="-2.4344">
      <ele>415.4</ele>
    </trkpt>
    <trkpt lat="42.425001" lon="-2.434594">
      <ele>416</ele>
    </trkpt>
    <trkpt lat="42.424474" lon="-2.435023">
      <ele>417.1</ele>
    </trkpt>
    <trkpt lat="42.424347" lon="-2.435071">
      <ele>417.4</ele>
    </trkpt>
    <trkpt lat="42.423571" lon="-2.435564">
      <ele>418.9</ele>
    </trkpt>
    <trkpt lat="42.423512" lon="-2.435629">
      <ele>419</ele>
    </trkpt>
    <trkpt lat="42.423429" lon="-2.435581">
      <ele>419.1</ele>
    </trkpt>
    <trkpt lat="42.423128" lon="-2.435559">
      <ele>419.4</ele>
    </trkpt>
    <trkpt lat="42.422459" lon="-2.435741">
      <ele>419.9</ele>
    </trkpt>
    <trkpt lat="42.422173" lon="-2.435924">
      <ele>420.1</ele>
    </trkpt>
    <trkpt lat="42.422082" lon="-2.436042">
      <ele>420.2</ele>
    </trkpt>
    <trkpt lat="42.422066" lon="-2.436144">
      <ele>420.2</ele>
    </trkpt>
    <trkpt lat="42.422086" lon="-2.43623">
      <ele>420.3</ele>
    </trkpt>
    <trkpt lat="42.422278" lon="-2.436572">
      <ele>420.5</ele>
    </trkpt>
    <trkpt lat="42.421904" lon="-2.436975">
      <ele>421.1</ele>
    </trkpt>
    <trkpt lat="42.421841" lon="-2.437083">
      <ele>421.2</ele>
    </trkpt>
    <trkpt lat="42.421643" lon="-2.437249">
      <ele>421.5</ele>
    </trkpt>
    <trkpt lat="42.42133" lon="-2.437442">
      <ele>422</ele>
    </trkpt>
    <trkpt lat="42.421195" lon="-2.437581">
      <ele>422.1</ele>
    </trkpt>
    <trkpt lat="42.42078" lon="-2.437855">
      <ele>422.6</ele>
    </trkpt>
    <trkpt lat="42.42038" lon="-2.438027">
      <ele>423.2</ele>
    </trkpt>
    <trkpt lat="42.419615" lon="-2.438225">
      <ele>424.4</ele>
    </trkpt>
    <trkpt lat="42.41939" lon="-2.438204">
      <ele>424.8</ele>
    </trkpt>
    <trkpt lat="42.41922" lon="-2.438143">
      <ele>425</ele>
    </trkpt>
    <trkpt lat="42.419033" lon="-2.438102">
      <ele>425.3</ele>
    </trkpt>
    <trkpt lat="42.418938" lon="-2.438156">
      <ele>425.5</ele>
    </trkpt>
    <trkpt lat="42.418867" lon="-2.438365">
      <ele>425.8</ele>
    </trkpt>
    <trkpt lat="42.418799" lon="-2.438483">
      <ele>425.9</ele>
    </trkpt>
    <trkpt lat="42.418736" lon="-2.438563">
      <ele>426.1</ele>
    </trkpt>
    <trkpt lat="42.418566" lon="-2.438654">
      <ele>426.3</ele>
    </trkpt>
    <trkpt lat="42.418443" lon="-2.438713">
      <ele>426.5</ele>
    </trkpt>
    <trkpt lat="42.418308" lon="-2.438719">
      <ele>426.6</ele>
    </trkpt>
    <trkpt lat="42.41754" lon="-2.439024">
      <ele>427.4</ele>
    </trkpt>
    <trkpt lat="42.417306" lon="-2.439293">
      <ele>427.8</ele>
    </trkpt>
    <trkpt lat="42.417239" lon="-2.439411">
      <ele>427.9</ele>
    </trkpt>
    <trkpt lat="42.417116" lon="-2.439464">
      <ele>428.1</ele>
    </trkpt>
    <trkpt lat="42.416554" lon="-2.439432">
      <ele>428.8</ele>
    </trkpt>
    <trkpt lat="42.416004" lon="-2.439513">
      <ele>429.6</ele>
    </trkpt>
    <trkpt lat="42.415885" lon="-2.439491">
      <ele>429.7</ele>
    </trkpt>
    <trkpt lat="42.414744" lon="-2.439024">
      <ele>430.7</ele>
    </trkpt>
    <trkpt lat="42.414075" lon="-2.439169">
      <ele>430.9</ele>
    </trkpt>
    <trkpt lat="42.41375" lon="-2.439266">
      <ele>431</ele>
    </trkpt>
    <trkpt lat="42.413651" lon="-2.439357">
      <ele>431</ele>
    </trkpt>
    <trkpt lat="42.413326" lon="-2.439438">
      <ele>431</ele>
    </trkpt>
    <trkpt lat="42.413196" lon="-2.439491">
      <ele>431.1</ele>
    </trkpt>
    <trkpt lat="42.412716" lon="-2.439974">
      <ele>431.3</ele>
    </trkpt>
    <trkpt lat="42.412522" lon="-2.440108">
      <ele>431.4</ele>
    </trkpt>
    <trkpt lat="42.412399" lon="-2.440151">
      <ele>431.6</ele>
    </trkpt>
    <trkpt lat="42.412316" lon="-2.440248">
      <ele>431.6</ele>
    </trkpt>
    <trkpt lat="42.411964" lon="-2.440527">
      <ele>431.9</ele>
    </trkpt>
    <trkpt lat="42.411865" lon="-2.440645">
      <ele>432</ele>
    </trkpt>
    <trkpt lat="42.411767" lon="-2.440842">
      <ele>432.1</ele>
    </trkpt>
    <trkpt lat="42.411581" lon="-2.441032">
      <ele>432.3</ele>
    </trkpt>
    <trkpt lat="42.411411" lon="-2.440947">
      <ele>432.5</ele>
    </trkpt>
    <trkpt lat="42.411219" lon="-2.441101">
      <ele>432.7</ele>
    </trkpt>
    <trkpt lat="42.410872" lon="-2.441629">
      <ele>433.2</ele>
    </trkpt>
    <trkpt lat="42.409255" lon="-2.442522">
      <ele>435.6</ele>
    </trkpt>
    <trkpt lat="42.408614" lon="-2.443002">
      <ele>437.1</ele>
    </trkpt>
    <trkpt lat="42.408394" lon="-2.443223">
      <ele>437.6</ele>
    </trkpt>
    <trkpt lat="42.408177" lon="-2.443544">
      <ele>438.2</ele>
    </trkpt>
    <trkpt lat="42.40813" lon="-2.443847">
      <ele>438.5</ele>
    </trkpt>
    <trkpt lat="42.408023" lon="-2.443895">
      <ele>438.7</ele>
    </trkpt>
    <trkpt lat="42.407924" lon="-2.444003">
      <ele>438.9</ele>
    </trkpt>
    <trkpt lat="42.407765" lon="-2.444266">
      <ele>439.2</ele>
    </trkpt>
    <trkpt lat="42.407646" lon="-2.444405">
      <ele>439.4</ele>
    </trkpt>
    <trkpt lat="42.407536" lon="-2.444679">
      <ele>439.7</ele>
    </trkpt>
    <trkpt lat="42.407449" lon="-2.44499">
      <ele>439.9</ele>
    </trkpt>
    <trkpt lat="42.407279" lon="-2.444692">
      <ele>440.1</ele>
    </trkpt>
    <trkpt lat="42.406861" lon="-2.443949">
      <ele>440.5</ele>
    </trkpt>
    <trkpt lat="42.406818" lon="-2.443871">
      <ele>440.5</ele>
    </trkpt>
    <trkpt lat="42.406695" lon="-2.443599">
      <ele>440.6</ele>
    </trkpt>
    <trkpt lat="42.406695" lon="-2.443468">
      <ele>440.6</ele>
    </trkpt>
    <trkpt lat="42.406765" lon="-2.443224">
      <ele>440.7</ele>
    </trkpt>
    <trkpt lat="42.406668" lon="-2.443292">
      <ele>440.7</ele>
    </trkpt>
    <trkpt lat="42.406544" lon="-2.443469">
      <ele>440.8</ele>
    </trkpt>
    <trkpt lat="42.406426" lon="-2.443718">
      <ele>440.8</ele>
    </trkpt>
    <trkpt lat="42.406284" lon="-2.444194">
      <ele>440.9</ele>
    </trkpt>
    <trkpt lat="42.406042" lon="-2.444667">
      <ele>441.2</ele>
    </trkpt>
    <trkpt lat="42.405898" lon="-2.444749">
      <ele>441.3</ele>
    </trkpt>
    <trkpt lat="42.405631" lon="-2.444825">
      <ele>441.6</ele>
    </trkpt>
    <trkpt lat="42.405425" lon="-2.444969">
      <ele>441.8</ele>
    </trkpt>
    <trkpt lat="42.405184" lon="-2.445323">
      <ele>442.2</ele>
    </trkpt>
    <trkpt lat="42.405034" lon="-2.445389">
      <ele>442.3</ele>
    </trkpt>
    <trkpt lat="42.404727" lon="-2.445328">
      <ele>442.7</ele>
    </trkpt>
    <trkpt lat="42.404506" lon="-2.445332">
      <ele>442.9</ele>
    </trkpt>
    <trkpt lat="42.404243" lon="-2.445502">
      <ele>443.2</ele>
    </trkpt>
    <trkpt lat="42.40403" lon="-2.445716">
      <ele>443.4</ele>
    </trkpt>
    <trkpt lat="42.40377" lon="-2.446109">
      <ele>443.8</ele>
    </trkpt>
    <trkpt lat="42.403624" lon="-2.446397">
      <ele>444</ele>
    </trkpt>
    <trkpt lat="42.403396" lon="-2.446707">
      <ele>444.3</ele>
    </trkpt>
    <trkpt lat="42.40282" lon="-2.44691">
      <ele>445</ele>
    </trkpt>
    <trkpt lat="42.402683" lon="-2.446995">
      <ele>445.1</ele>
    </trkpt>
    <trkpt lat="42.402372" lon="-2.447269">
      <ele>445.5</ele>
    </trkpt>
    <trkpt lat="42.402128" lon="-2.447566">
      <ele>445.9</ele>
    </trkpt>
    <trkpt lat="42.402014" lon="-2.447756">
      <ele>446.1</ele>
    </trkpt>
    <trkpt lat="42.401677" lon="-2.448545">
      <ele>447.1</ele>
    </trkpt>
    <trkpt lat="42.401426" lon="-2.448909">
      <ele>447.5</ele>
    </trkpt>
    <trkpt lat="42.401165" lon="-2.449402">
      <ele>447.9</ele>
    </trkpt>
    <trkpt lat="42.400602" lon="-2.449833">
      <ele>448.5</ele>
    </trkpt>
    <trkpt lat="42.400281" lon="-2.450308">
      <ele>448.9</ele>
    </trkpt>
    <trkpt lat="42.399921" lon="-2.450929">
      <ele>449.4</ele>
    </trkpt>
    <trkpt lat="42.399837" lon="-2.45101">
      <ele>449.6</ele>
    </trkpt>
    <trkpt lat="42.399601" lon="-2.451001">
      <ele>449.9</ele>
    </trkpt>
    <trkpt lat="42.399378" lon="-2.45101">
      <ele>450.2</ele>
    </trkpt>
    <trkpt lat="42.399088" lon="-2.451225">
      <ele>450.7</ele>
    </trkpt>
    <trkpt lat="42.398988" lon="-2.451267">
      <ele>450.9</ele>
    </trkpt>
    <trkpt lat="42.398604" lon="-2.451311">
      <ele>451.5</ele>
    </trkpt>
    <trkpt lat="42.398374" lon="-2.45142">
      <ele>451.9</ele>
    </trkpt>
    <trkpt lat="42.398073" lon="-2.451736">
      <ele>452.5</ele>
    </trkpt>
    <trkpt lat="42.397867" lon="-2.451779">
      <ele>452.8</ele>
    </trkpt>
    <trkpt lat="42.397182" lon="-2.45209">
      <ele>453.8</ele>
    </trkpt>
    <trkpt lat="42.396766" lon="-2.45238">
      <ele>454.2</ele>
    </trkpt>
    <trkpt lat="42.396743" lon="-2.452419">
      <ele>454.3</ele>
    </trkpt>
    <trkpt lat="42.396632" lon="-2.452603">
      <ele>454.4</ele>
    </trkpt>
    <trkpt lat="42.396622" lon="-2.452811">
      <ele>454.5</ele>
    </trkpt>
    <trkpt lat="42.396723" lon="-2.453092">
      <ele>454.5</ele>
    </trkpt>
    <trkpt lat="42.39675" lon="-2.453308">
      <ele>454.6</ele>
    </trkpt>
    <trkpt lat="42.396647" lon="-2.453839">
      <ele>454.7</ele>
    </trkpt>
    <trkpt lat="42.396439" lon="-2.454258">
      <ele>454.7</ele>
    </trkpt>
    <trkpt lat="42.396211" lon="-2.454525">
      <ele>454.8</ele>
    </trkpt>
    <trkpt lat="42.395802" lon="-2.454927">
      <ele>455.2</ele>
    </trkpt>
    <trkpt lat="42.395419" lon="-2.45504">
      <ele>455.6</ele>
    </trkpt>
    <trkpt lat="42.395156" lon="-2.455063">
      <ele>455.9</ele>
    </trkpt>
    <trkpt lat="42.394504" lon="-2.455457">
      <ele>456.8</ele>
    </trkpt>
    <trkpt lat="42.394079" lon="-2.455577">
      <ele>457.5</ele>
    </trkpt>
    <trkpt lat="42.39383" lon="-2.455559">
      <ele>458</ele>
    </trkpt>
    <trkpt lat="42.393166" lon="-2.455719">
      <ele>459.5</ele>
    </trkpt>
    <trkpt lat="42.392963" lon="-2.455719">
      <ele>460</ele>
    </trkpt>
    <trkpt lat="42.392823" lon="-2.455789">
      <ele>460.3</ele>
    </trkpt>
    <trkpt lat="42.392676" lon="-2.455749">
      <ele>460.7</ele>
    </trkpt>
    <trkpt lat="42.391687" lon="-2.455271">
      <ele>464.6</ele>
    </trkpt>
    <trkpt lat="42.39127" lon="-2.455295">
      <ele>466.6</ele>
    </trkpt>
    <trkpt lat="42.391171" lon="-2.45522">
      <ele>467</ele>
    </trkpt>
    <trkpt lat="42.391063" lon="-2.454511">
      <ele>469.4</ele>
    </trkpt>
    <trkpt lat="42.390864" lon="-2.454608">
      <ele>470.2</ele>
    </trkpt>
    <trkpt lat="42.390664" lon="-2.454778">
      <ele>471.1</ele>
    </trkpt>
    <trkpt lat="42.390541" lon="-2.454833">
      <ele>471.5</ele>
    </trkpt>
    <trkpt lat="42.390309" lon="-2.454855">
      <ele>472.1</ele>
    </trkpt>
    <trkpt lat="42.389791" lon="-2.455013">
      <ele>472.2</ele>
    </trkpt>
    <trkpt lat="42.389573" lon="-2.45512">
      <ele>472.3</ele>
    </trkpt>
    <trkpt lat="42.389343" lon="-2.455458">
      <ele>472.4</ele>
    </trkpt>
    <trkpt lat="42.389181" lon="-2.455588">
      <ele>472.4</ele>
    </trkpt>
    <trkpt lat="42.388977" lon="-2.45567">
      <ele>472.5</ele>
    </trkpt>
    <trkpt lat="42.388792" lon="-2.455706">
      <ele>472.6</ele>
    </trkpt>
    <trkpt lat="42.388497" lon="-2.455942">
      <ele>472.8</ele>
    </trkpt>
    <trkpt lat="42.388188" lon="-2.455951">
      <ele>473</ele>
    </trkpt>
    <trkpt lat="42.387942" lon="-2.456018">
      <ele>473.2</ele>
    </trkpt>
    <trkpt lat="42.387719" lon="-2.456155">
      <ele>473.3</ele>
    </trkpt>
    <trkpt lat="42.387296" lon="-2.456213">
      <ele>473.4</ele>
    </trkpt>
    <trkpt lat="42.387095" lon="-2.456434">
      <ele>473.4</ele>
    </trkpt>
    <trkpt lat="42.386931" lon="-2.456739">
      <ele>473.4</ele>
    </trkpt>
    <trkpt lat="42.386888" lon="-2.456825">
      <ele>473.4</ele>
    </trkpt>
    <trkpt lat="42.386687" lon="-2.457009">
      <ele>473.4</ele>
    </trkpt>
    <trkpt lat="42.386418" lon="-2.45716">
      <ele>473.5</ele>
    </trkpt>
    <trkpt lat="42.386206" lon="-2.457378">
      <ele>473.5</ele>
    </trkpt>
    <trkpt lat="42.386037" lon="-2.457471">
      <ele>473.7</ele>
    </trkpt>
    <trkpt lat="42.385682" lon="-2.457404">
      <ele>474.2</ele>
    </trkpt>
    <trkpt lat="42.385362" lon="-2.457382">
      <ele>474.9</ele>
    </trkpt>
    <trkpt lat="42.385189" lon="-2.457418">
      <ele>475.2</ele>
    </trkpt>
    <trkpt lat="42.384743" lon="-2.457626">
      <ele>476</ele>
    </trkpt>
    <trkpt lat="42.384471" lon="-2.457713">
      <ele>476.3</ele>
    </trkpt>
    <trkpt lat="42.384173" lon="-2.457918">
      <ele>476.4</ele>
    </trkpt>
    <trkpt lat="42.384089" lon="-2.458409">
      <ele>476.4</ele>
    </trkpt>
    <trkpt lat="42.383965" lon="-2.458828">
      <ele>476.2</ele>
    </trkpt>
    <trkpt lat="42.38366" lon="-2.459257">
      <ele>476</ele>
    </trkpt>
    <trkpt lat="42.383101" lon="-2.459852">
      <ele>475.9</ele>
    </trkpt>
    <trkpt lat="42.382927" lon="-2.460142">
      <ele>476</ele>
    </trkpt>
    <trkpt lat="42.382475" lon="-2.460689">
      <ele>475.9</ele>
    </trkpt>
    <trkpt lat="42.382261" lon="-2.461108">
      <ele>475.6</ele>
    </trkpt>
    <trkpt lat="42.382175" lon="-2.461139">
      <ele>475.5</ele>
    </trkpt>
    <trkpt lat="42.382117" lon="-2.461123">
      <ele>475.4</ele>
    </trkpt>
    <trkpt lat="42.381983" lon="-2.461582">
      <ele>475.1</ele>
    </trkpt>
    <trkpt lat="42.381821" lon="-2.461826">
      <ele>475</ele>
    </trkpt>
    <trkpt lat="42.381659" lon="-2.461908">
      <ele>474.9</ele>
    </trkpt>
    <trkpt lat="42.3815" lon="-2.462107">
      <ele>474.8</ele>
    </trkpt>
    <trkpt lat="42.381402" lon="-2.46234">
      <ele>474.8</ele>
    </trkpt>
    <trkpt lat="42.381294" lon="-2.462413">
      <ele>474.8</ele>
    </trkpt>
    <trkpt lat="42.380891" lon="-2.462468">
      <ele>474.9</ele>
    </trkpt>
    <trkpt lat="42.380732" lon="-2.462575">
      <ele>475.1</ele>
    </trkpt>
    <trkpt lat="42.38053" lon="-2.462612">
      <ele>475.4</ele>
    </trkpt>
    <trkpt lat="42.380292" lon="-2.462836">
      <ele>475.9</ele>
    </trkpt>
    <trkpt lat="42.379673" lon="-2.463218">
      <ele>476.9</ele>
    </trkpt>
    <trkpt lat="42.379268" lon="-2.463589">
      <ele>477.6</ele>
    </trkpt>
    <trkpt lat="42.37899" lon="-2.464114">
      <ele>478.1</ele>
    </trkpt>
    <trkpt lat="42.378651" lon="-2.464482">
      <ele>478.6</ele>
    </trkpt>
    <trkpt lat="42.378219" lon="-2.465067">
      <ele>479.1</ele>
    </trkpt>
    <trkpt lat="42.377553" lon="-2.465705">
      <ele>479.8</ele>
    </trkpt>
    <trkpt lat="42.377259" lon="-2.465944">
      <ele>480</ele>
    </trkpt>
    <trkpt lat="42.377059" lon="-2.465951">
      <ele>480.1</ele>
    </trkpt>
    <trkpt lat="42.376837" lon="-2.466347">
      <ele>480.3</ele>
    </trkpt>
    <trkpt lat="42.376704" lon="-2.466284">
      <ele>480.3</ele>
    </trkpt>
    <trkpt lat="42.37652" lon="-2.466573">
      <ele>480.4</ele>
    </trkpt>
    <trkpt lat="42.376309" lon="-2.466837">
      <ele>480.5</ele>
    </trkpt>
    <trkpt lat="42.376131" lon="-2.467486">
      <ele>480.7</ele>
    </trkpt>
    <trkpt lat="42.375996" lon="-2.468108">
      <ele>481</ele>
    </trkpt>
    <trkpt lat="42.37579" lon="-2.468779">
      <ele>481.5</ele>
    </trkpt>
    <trkpt lat="42.375671" lon="-2.469036">
      <ele>481.8</ele>
    </trkpt>
    <trkpt lat="42.375307" lon="-2.46999">
      <ele>483.2</ele>
    </trkpt>
    <trkpt lat="42.374722" lon="-2.470663">
      <ele>484.9</ele>
    </trkpt>
    <trkpt lat="42.374557" lon="-2.470639">
      <ele>485.2</ele>
    </trkpt>
    <trkpt lat="42.373888" lon="-2.470887">
      <ele>485.8</ele>
    </trkpt>
    <trkpt lat="42.372802" lon="-2.471161">
      <ele>485</ele>
    </trkpt>
    <trkpt lat="42.372416" lon="-2.471391">
      <ele>484.7</ele>
    </trkpt>
    <trkpt lat="42.371873" lon="-2.471786">
      <ele>484.9</ele>
    </trkpt>
    <trkpt lat="42.371772" lon="-2.471822">
      <ele>485</ele>
    </trkpt>
    <trkpt lat="42.371408" lon="-2.471811">
      <ele>485.5</ele>
    </trkpt>
    <trkpt lat="42.37099" lon="-2.471671">
      <ele>486.2</ele>
    </trkpt>
    <trkpt lat="42.370548" lon="-2.471312">
      <ele>487.2</ele>
    </trkpt>
    <trkpt lat="42.369825" lon="-2.471134">
      <ele>488.4</ele>
    </trkpt>
    <trkpt lat="42.369622" lon="-2.471181">
      <ele>488.7</ele>
    </trkpt>
    <trkpt lat="42.369349" lon="-2.471334">
      <ele>489.1</ele>
    </trkpt>
    <trkpt lat="42.36916" lon="-2.471488">
      <ele>489.4</ele>
    </trkpt>
    <trkpt lat="42.368817" lon="-2.472103">
      <ele>490.2</ele>
    </trkpt>
    <trkpt lat="42.368425" lon="-2.472483">
      <ele>490.6</ele>
    </trkpt>
    <trkpt lat="42.368235" lon="-2.472881">
      <ele>490.8</ele>
    </trkpt>
    <trkpt lat="42.367995" lon="-2.473062">
      <ele>490.9</ele>
    </trkpt>
    <trkpt lat="42.367574" lon="-2.47317">
      <ele>491</ele>
    </trkpt>
    <trkpt lat="42.367128" lon="-2.473488">
      <ele>491.1</ele>
    </trkpt>
    <trkpt lat="42.366945" lon="-2.473404">
      <ele>491.2</ele>
    </trkpt>
    <trkpt lat="42.366188" lon="-2.472926">
      <ele>492</ele>
    </trkpt>
    <trkpt lat="42.365867" lon="-2.472757">
      <ele>492.6</ele>
    </trkpt>
    <trkpt lat="42.365524" lon="-2.47271">
      <ele>493.1</ele>
    </trkpt>
    <trkpt lat="42.365013" lon="-2.4727">
      <ele>493.6</ele>
    </trkpt>
    <trkpt lat="42.364768" lon="-2.472813">
      <ele>493.8</ele>
    </trkpt>
    <trkpt lat="42.364534" lon="-2.473001">
      <ele>493.8</ele>
    </trkpt>
    <trkpt lat="42.364241" lon="-2.47351">
      <ele>493.9</ele>
    </trkpt>
    <trkpt lat="42.364095" lon="-2.473851">
      <ele>493.9</ele>
    </trkpt>
    <trkpt lat="42.364007" lon="-2.474249">
      <ele>494</ele>
    </trkpt>
    <trkpt lat="42.363982" lon="-2.474364">
      <ele>494.1</ele>
    </trkpt>
    <trkpt lat="42.363852" lon="-2.474567">
      <ele>494.2</ele>
    </trkpt>
    <trkpt lat="42.363545" lon="-2.474951">
      <ele>494.6</ele>
    </trkpt>
    <trkpt lat="42.363392" lon="-2.475218">
      <ele>494.9</ele>
    </trkpt>
    <trkpt lat="42.363086" lon="-2.475547">
      <ele>495.5</ele>
    </trkpt>
    <trkpt lat="42.362849" lon="-2.47571">
      <ele>496</ele>
    </trkpt>
    <trkpt lat="42.362547" lon="-2.475747">
      <ele>496.5</ele>
    </trkpt>
    <trkpt lat="42.361905" lon="-2.476028">
      <ele>497.8</ele>
    </trkpt>
    <trkpt lat="42.360693" lon="-2.476697">
      <ele>500.8</ele>
    </trkpt>
    <trkpt lat="42.36013" lon="-2.477265">
      <ele>502</ele>
    </trkpt>
    <trkpt lat="42.359778" lon="-2.477539">
      <ele>502.5</ele>
    </trkpt>
    <trkpt lat="42.35948" lon="-2.477668">
      <ele>502.8</ele>
    </trkpt>
    <trkpt lat="42.359096" lon="-2.477743">
      <ele>503.3</ele>
    </trkpt>
    <trkpt lat="42.35797" lon="-2.477845">
      <ele>505.1</ele>
    </trkpt>
    <trkpt lat="42.357801" lon="-2.477658">
      <ele>505.5</ele>
    </trkpt>
    <trkpt lat="42.357707" lon="-2.477572">
      <ele>505.6</ele>
    </trkpt>
    <trkpt lat="42.357043" lon="-2.477778">
      <ele>506.8</ele>
    </trkpt>
    <trkpt lat="42.356479" lon="-2.477771">
      <ele>507.6</ele>
    </trkpt>
    <trkpt lat="42.356103" lon="-2.477872">
      <ele>508</ele>
    </trkpt>
    <trkpt lat="42.355963" lon="-2.477994">
      <ele>508.2</ele>
    </trkpt>
    <trkpt lat="42.355697" lon="-2.478362">
      <ele>508.4</ele>
    </trkpt>
    <trkpt lat="42.355623" lon="-2.478644">
      <ele>508.6</ele>
    </trkpt>
    <trkpt lat="42.355358" lon="-2.479138">
      <ele>508.9</ele>
    </trkpt>
    <trkpt lat="42.35514" lon="-2.479336">
      <ele>509.1</ele>
    </trkpt>
    <trkpt lat="42.354862" lon="-2.479502">
      <ele>509.3</ele>
    </trkpt>
    <trkpt lat="42.354606" lon="-2.479566">
      <ele>509.5</ele>
    </trkpt>
    <trkpt lat="42.354454" lon="-2.479497">
      <ele>509.7</ele>
    </trkpt>
    <trkpt lat="42.354363" lon="-2.479422">
      <ele>509.8</ele>
    </trkpt>
    <trkpt lat="42.354157" lon="-2.479422">
      <ele>510</ele>
    </trkpt>
    <trkpt lat="42.354061" lon="-2.47947">
      <ele>510.1</ele>
    </trkpt>
    <trkpt lat="42.353978" lon="-2.479594">
      <ele>510.3</ele>
    </trkpt>
    <trkpt lat="42.353965" lon="-2.479749">
      <ele>510.4</ele>
    </trkpt>
    <trkpt lat="42.353911" lon="-2.479836">
      <ele>510.5</ele>
    </trkpt>
    <trkpt lat="42.353836" lon="-2.479893">
      <ele>510.6</ele>
    </trkpt>
    <trkpt lat="42.353685" lon="-2.480178">
      <ele>510.8</ele>
    </trkpt>
    <trkpt lat="42.35329" lon="-2.480389">
      <ele>511.1</ele>
    </trkpt>
    <trkpt lat="42.353035" lon="-2.480693">
      <ele>511.3</ele>
    </trkpt>
    <trkpt lat="42.352773" lon="-2.481069">
      <ele>511.7</ele>
    </trkpt>
    <trkpt lat="42.352281" lon="-2.481986">
      <ele>512.5</ele>
    </trkpt>
    <trkpt lat="42.352174" lon="-2.482496">
      <ele>513</ele>
    </trkpt>
    <trkpt lat="42.351703" lon="-2.483799">
      <ele>514.9</ele>
    </trkpt>
    <trkpt lat="42.351469" lon="-2.484191">
      <ele>515.7</ele>
    </trkpt>
    <trkpt lat="42.351255" lon="-2.484438">
      <ele>516.2</ele>
    </trkpt>
    <trkpt lat="42.350612" lon="-2.484883">
      <ele>517.1</ele>
    </trkpt>
    <trkpt lat="42.350192" lon="-2.485001">
      <ele>517.3</ele>
    </trkpt>
    <trkpt lat="42.349332" lon="-2.484711">
      <ele>517.2</ele>
    </trkpt>
    <trkpt lat="42.349106" lon="-2.484668">
      <ele>517.2</ele>
    </trkpt>
    <trkpt lat="42.348828" lon="-2.48491">
      <ele>517.5</ele>
    </trkpt>
    <trkpt lat="42.348238" lon="-2.485274">
      <ele>518.3</ele>
    </trkpt>
    <trkpt lat="42.348051" lon="-2.485162">
      <ele>518.6</ele>
    </trkpt>
    <trkpt lat="42.347866" lon="-2.485178">
      <ele>518.9</ele>
    </trkpt>
    <trkpt lat="42.347377" lon="-2.485178">
      <ele>519.6</ele>
    </trkpt>
    <trkpt lat="42.347104" lon="-2.485274">
      <ele>519.9</ele>
    </trkpt>
    <trkpt lat="42.346509" lon="-2.485559">
      <ele>520.3</ele>
    </trkpt>
    <trkpt lat="42.346453" lon="-2.48565">
      <ele>520.3</ele>
    </trkpt>
    <trkpt lat="42.346227" lon="-2.485806">
      <ele>520.5</ele>
    </trkpt>
    <trkpt lat="42.346065" lon="-2.485902">
      <ele>520.6</ele>
    </trkpt>
    <trkpt lat="42.345843" lon="-2.485982">
      <ele>520.8</ele>
    </trkpt>
    <trkpt lat="42.345474" lon="-2.486304">
      <ele>521.5</ele>
    </trkpt>
    <trkpt lat="42.345288" lon="-2.48653">
      <ele>522</ele>
    </trkpt>
    <trkpt lat="42.34509" lon="-2.486551">
      <ele>522.4</ele>
    </trkpt>
    <trkpt lat="42.344186" lon="-2.485956">
      <ele>524.7</ele>
    </trkpt>
    <trkpt lat="42.344182" lon="-2.486133">
      <ele>525</ele>
    </trkpt>
    <trkpt lat="42.344106" lon="-2.48624">
      <ele>525.2</ele>
    </trkpt>
    <trkpt lat="42.343551" lon="-2.486433">
      <ele>526.4</ele>
    </trkpt>
    <trkpt lat="42.343087" lon="-2.48676">
      <ele>527.4</ele>
    </trkpt>
    <trkpt lat="42.342473" lon="-2.487415">
      <ele>528.8</ele>
    </trkpt>
    <trkpt lat="42.342334" lon="-2.48741">
      <ele>529</ele>
    </trkpt>
    <trkpt lat="42.342072" lon="-2.48793">
      <ele>529.4</ele>
    </trkpt>
    <trkpt lat="42.34191" lon="-2.488108">
      <ele>529.5</ele>
    </trkpt>
    <trkpt lat="42.342203" lon="-2.488327">
      <ele>529.6</ele>
    </trkpt>
    <trkpt lat="42.342054" lon="-2.488628">
      <ele>529.6</ele>
    </trkpt>
    <trkpt lat="42.342033" lon="-2.488945">
      <ele>529.6</ele>
    </trkpt>
    <trkpt lat="42.34195" lon="-2.489453">
      <ele>529.5</ele>
    </trkpt>
    <trkpt lat="42.341705" lon="-2.489813">
      <ele>529.7</ele>
    </trkpt>
    <trkpt lat="42.341257" lon="-2.490341">
      <ele>530.3</ele>
    </trkpt>
    <trkpt lat="42.341001" lon="-2.490567">
      <ele>530.7</ele>
    </trkpt>
    <trkpt lat="42.340585" lon="-2.49063">
      <ele>531.3</ele>
    </trkpt>
    <trkpt lat="42.340407" lon="-2.490849">
      <ele>531.7</ele>
    </trkpt>
    <trkpt lat="42.339886" lon="-2.491779">
      <ele>532.8</ele>
    </trkpt>
    <trkpt lat="42.339807" lon="-2.492067">
      <ele>533</ele>
    </trkpt>
    <trkpt lat="42.339615" lon="-2.492738">
      <ele>533.4</ele>
    </trkpt>
    <trkpt lat="42.339345" lon="-2.493436">
      <ele>534</ele>
    </trkpt>
    <trkpt lat="42.339027" lon="-2.494507">
      <ele>535.2</ele>
    </trkpt>
    <trkpt lat="42.338584" lon="-2.495741">
      <ele>537.1</ele>
    </trkpt>
    <trkpt lat="42.338089" lon="-2.496678">
      <ele>538.8</ele>
    </trkpt>
    <trkpt lat="42.337854" lon="-2.496953">
      <ele>539.3</ele>
    </trkpt>
    <trkpt lat="42.337475" lon="-2.497295">
      <ele>539.8</ele>
    </trkpt>
    <trkpt lat="42.337302" lon="-2.496481">
      <ele>540.2</ele>
    </trkpt>
    <trkpt lat="42.337173" lon="-2.496567">
      <ele>540.3</ele>
    </trkpt>
    <trkpt lat="42.336859" lon="-2.496953">
      <ele>540.4</ele>
    </trkpt>
    <trkpt lat="42.33664" lon="-2.497468">
      <ele>540.5</ele>
    </trkpt>
    <trkpt lat="42.336296" lon="-2.498067">
      <ele>540.8</ele>
    </trkpt>
    <trkpt lat="42.335973" lon="-2.498532">
      <ele>541.3</ele>
    </trkpt>
    <trkpt lat="42.335546" lon="-2.498638">
      <ele>541.7</ele>
    </trkpt>
    <trkpt lat="42.335239" lon="-2.498856">
      <ele>542.1</ele>
    </trkpt>
    <trkpt lat="42.334989" lon="-2.499209">
      <ele>542.5</ele>
    </trkpt>
    <trkpt lat="42.334718" lon="-2.499949">
      <ele>543.2</ele>
    </trkpt>
    <trkpt lat="42.334525" lon="-2.499921">
      <ele>543.4</ele>
    </trkpt>
    <trkpt lat="42.334395" lon="-2.500026">
      <ele>543.6</ele>
    </trkpt>
    <trkpt lat="42.334009" lon="-2.500478">
      <ele>544.2</ele>
    </trkpt>
    <trkpt lat="42.333566" lon="-2.501063">
      <ele>545.1</ele>
    </trkpt>
    <trkpt lat="42.333394" lon="-2.501041">
      <ele>545.3</ele>
    </trkpt>
    <trkpt lat="42.332753" lon="-2.501084">
      <ele>546.3</ele>
    </trkpt>
    <trkpt lat="42.332451" lon="-2.501267">
      <ele>547</ele>
    </trkpt>
    <trkpt lat="42.332036" lon="-2.501671">
      <ele>548.6</ele>
    </trkpt>
    <trkpt lat="42.331919" lon="-2.501436">
      <ele>549.4</ele>
    </trkpt>
    <trkpt lat="42.331721" lon="-2.500703">
      <ele>552</ele>
    </trkpt>
    <trkpt lat="42.331284" lon="-2.500146">
      <ele>555.5</ele>
    </trkpt>
    <trkpt lat="42.330946" lon="-2.499461">
      <ele>559</ele>
    </trkpt>
    <trkpt lat="42.330121" lon="-2.500007">
      <ele>564.2</ele>
    </trkpt>
    <trkpt lat="42.329101" lon="-2.500301">
      <ele>569</ele>
    </trkpt>
    <trkpt lat="42.328989" lon="-2.500391">
      <ele>569.5</ele>
    </trkpt>
    <trkpt lat="42.32855" lon="-2.500883">
      <ele>571.2</ele>
    </trkpt>
    <trkpt lat="42.328324" lon="-2.501092">
      <ele>571.8</ele>
    </trkpt>
    <trkpt lat="42.328094" lon="-2.501408">
      <ele>572.2</ele>
    </trkpt>
    <trkpt lat="42.327796" lon="-2.501665">
      <ele>572.4</ele>
    </trkpt>
    <trkpt lat="42.327452" lon="-2.502018">
      <ele>572.4</ele>
    </trkpt>
    <trkpt lat="42.327293" lon="-2.50224">
      <ele>572.2</ele>
    </trkpt>
    <trkpt lat="42.326559" lon="-2.503594">
      <ele>569.7</ele>
    </trkpt>
    <trkpt lat="42.326045" lon="-2.504398">
      <ele>568.1</ele>
    </trkpt>
    <trkpt lat="42.325748" lon="-2.505005">
      <ele>567.6</ele>
    </trkpt>
    <trkpt lat="42.325203" lon="-2.506307">
      <ele>567.6</ele>
    </trkpt>
    <trkpt lat="42.324991" lon="-2.506641">
      <ele>567.8</ele>
    </trkpt>
    <trkpt lat="42.324435" lon="-2.507432">
      <ele>568.2</ele>
    </trkpt>
    <trkpt lat="42.323701" lon="-2.508315">
      <ele>568.6</ele>
    </trkpt>
    <trkpt lat="42.322911" lon="-2.50899">
      <ele>569.1</ele>
    </trkpt>
    <trkpt lat="42.322814" lon="-2.509106">
      <ele>569.2</ele>
    </trkpt>
    <trkpt lat="42.321938" lon="-2.510687">
      <ele>570.5</ele>
    </trkpt>
    <trkpt lat="42.321876" lon="-2.5108">
      <ele>570.7</ele>
    </trkpt>
    <trkpt lat="42.321538" lon="-2.511431">
      <ele>571.7</ele>
    </trkpt>
    <trkpt lat="42.320745" lon="-2.512538">
      <ele>574.5</ele>
    </trkpt>
    <trkpt lat="42.320564" lon="-2.51283">
      <ele>575.2</ele>
    </trkpt>
    <trkpt lat="42.320219" lon="-2.513542">
      <ele>576.7</ele>
    </trkpt>
    <trkpt lat="42.320105" lon="-2.513843">
      <ele>577.1</ele>
    </trkpt>
    <trkpt lat="42.319887" lon="-2.514631">
      <ele>578.1</ele>
    </trkpt>
    <trkpt lat="42.318984" lon="-2.517777">
      <ele>579.2</ele>
    </trkpt>
    <trkpt lat="42.318967" lon="-2.517838">
      <ele>579.2</ele>
    </trkpt>
    <trkpt lat="42.318842" lon="-2.518244">
      <ele>579.2</ele>
    </trkpt>
    <trkpt lat="42.31878" lon="-2.518639">
      <ele>579.3</ele>
    </trkpt>
    <trkpt lat="42.318678" lon="-2.519437">
      <ele>579.7</ele>
    </trkpt>
    <trkpt lat="42.31847" lon="-2.521445">
      <ele>582</ele>
    </trkpt>
    <trkpt lat="42.318137" lon="-2.524018">
      <ele>587.6</ele>
    </trkpt>
    <trkpt lat="42.318029" lon="-2.524333">
      <ele>589.1</ele>
    </trkpt>
    <trkpt lat="42.317919" lon="-2.524474">
      <ele>590</ele>
    </trkpt>
    <trkpt lat="42.31775" lon="-2.524571">
      <ele>591.1</ele>
    </trkpt>
    <trkpt lat="42.317201" lon="-2.524784">
      <ele>594.2</ele>
    </trkpt>
    <trkpt lat="42.31683" lon="-2.525056">
      <ele>596.6</ele>
    </trkpt>
    <trkpt lat="42.31628" lon="-2.525743">
      <ele>599.1</ele>
    </trkpt>
    <trkpt lat="42.31621" lon="-2.525825">
      <ele>599.1</ele>
    </trkpt>
    <trkpt lat="42.315838" lon="-2.525899">
      <ele>598.6</ele>
    </trkpt>
    <trkpt lat="42.315761" lon="-2.525957">
      <ele>598.4</ele>
    </trkpt>
    <trkpt lat="42.315467" lon="-2.526246">
      <ele>597.3</ele>
    </trkpt>
    <trkpt lat="42.314872" lon="-2.526989">
      <ele>594.9</ele>
    </trkpt>
    <trkpt lat="42.31445" lon="-2.527505">
      <ele>595.1</ele>
    </trkpt>
    <trkpt lat="42.314063" lon="-2.527548">
      <ele>596.9</ele>
    </trkpt>
    <trkpt lat="42.313971" lon="-2.527407">
      <ele>597.9</ele>
    </trkpt>
    <trkpt lat="42.31385" lon="-2.527023">
      <ele>600.7</ele>
    </trkpt>
    <trkpt lat="42.313676" lon="-2.527086">
      <ele>602.6</ele>
    </trkpt>
    <trkpt lat="42.313318" lon="-2.527076">
      <ele>606.8</ele>
    </trkpt>
    <trkpt lat="42.31254" lon="-2.527234">
      <ele>615.6</ele>
    </trkpt>
    <trkpt lat="42.311841" lon="-2.527278">
      <ele>622.4</ele>
    </trkpt>
    <trkpt lat="42.311542" lon="-2.52747">
      <ele>625.7</ele>
    </trkpt>
    <trkpt lat="42.311418" lon="-2.52745">
      <ele>626.9</ele>
    </trkpt>
    <trkpt lat="42.311273" lon="-2.527474">
      <ele>628.3</ele>
    </trkpt>
    <trkpt lat="42.311116" lon="-2.527642">
      <ele>630.3</ele>
    </trkpt>
    <trkpt lat="42.310669" lon="-2.527858">
      <ele>634.9</ele>
    </trkpt>
    <trkpt lat="42.310499" lon="-2.527902">
      <ele>636.6</ele>
    </trkpt>
    <trkpt lat="42.310374" lon="-2.527993">
      <ele>637.9</ele>
    </trkpt>
    <trkpt lat="42.310222" lon="-2.527988">
      <ele>639.2</ele>
    </trkpt>
    <trkpt lat="42.30993" lon="-2.528353">
      <ele>642.3</ele>
    </trkpt>
    <trkpt lat="42.309412" lon="-2.528804">
      <ele>645.6</ele>
    </trkpt>
    <trkpt lat="42.308879" lon="-2.529222">
      <ele>647.1</ele>
    </trkpt>
    <trkpt lat="42.30873" lon="-2.529457">
      <ele>647.3</ele>
    </trkpt>
    <trkpt lat="42.308468" lon="-2.529621">
      <ele>647.4</ele>
    </trkpt>
    <trkpt lat="42.308283" lon="-2.529601">
      <ele>647.5</ele>
    </trkpt>
    <trkpt lat="42.308077" lon="-2.52964">
      <ele>647.6</ele>
    </trkpt>
    <trkpt lat="42.307928" lon="-2.529837">
      <ele>647.9</ele>
    </trkpt>
    <trkpt lat="42.30792" lon="-2.529883">
      <ele>647.9</ele>
    </trkpt>
    <trkpt lat="42.307892" lon="-2.530048">
      <ele>648.1</ele>
    </trkpt>
    <trkpt lat="42.308006" lon="-2.530451">
      <ele>648.9</ele>
    </trkpt>
    <trkpt lat="42.308073" lon="-2.530941">
      <ele>650.7</ele>
    </trkpt>
    <trkpt lat="42.30804" lon="-2.531854">
      <ele>656.9</ele>
    </trkpt>
    <trkpt lat="42.308049" lon="-2.531959">
      <ele>657.8</ele>
    </trkpt>
    <trkpt lat="42.308148" lon="-2.532765">
      <ele>667.1</ele>
    </trkpt>
    <trkpt lat="42.308096" lon="-2.533196">
      <ele>672.4</ele>
    </trkpt>
    <trkpt lat="42.308109" lon="-2.533284">
      <ele>673.5</ele>
    </trkpt>
    <trkpt lat="42.308106" lon="-2.53379">
      <ele>679.2</ele>
    </trkpt>
    <trkpt lat="42.308259" lon="-2.533767">
      <ele>681.1</ele>
    </trkpt>
    <trkpt lat="42.30847" lon="-2.533735">
      <ele>683.4</ele>
    </trkpt>
    <trkpt lat="42.308866" lon="-2.533786">
      <ele>686.7</ele>
    </trkpt>
    <trkpt lat="42.308962" lon="-2.534001">
      <ele>687.6</ele>
    </trkpt>
    <trkpt lat="42.309193" lon="-2.534093">
      <ele>687.7</ele>
    </trkpt>
    <trkpt lat="42.309418" lon="-2.534245">
      <ele>687.3</ele>
    </trkpt>
    <trkpt lat="42.309891" lon="-2.534427">
      <ele>685.4</ele>
    </trkpt>
    <trkpt lat="42.30997" lon="-2.534481">
      <ele>684.9</ele>
    </trkpt>
    <trkpt lat="42.310046" lon="-2.534604">
      <ele>684.4</ele>
    </trkpt>
    <trkpt lat="42.310138" lon="-2.534609">
      <ele>684</ele>
    </trkpt>
    <trkpt lat="42.310657" lon="-2.534774">
      <ele>681.6</ele>
    </trkpt>
    <trkpt lat="42.311139" lon="-2.53482">
      <ele>678.3</ele>
    </trkpt>
    <trkpt lat="42.311292" lon="-2.534888">
      <ele>677.9</ele>
    </trkpt>
    <trkpt lat="42.311368" lon="-2.534795">
      <ele>677.7</ele>
    </trkpt>
    <trkpt lat="42.3114" lon="-2.534838">
      <ele>677.7</ele>
    </trkpt>
    <trkpt lat="42.31158" lon="-2.53502">
      <ele>677.8</ele>
    </trkpt>
    <trkpt lat="42.311722" lon="-2.535456">
      <ele>678.4</ele>
    </trkpt>
    <trkpt lat="42.31158" lon="-2.53502">
      <ele>679.8</ele>
    </trkpt>
    <trkpt lat="42.3114" lon="-2.534838">
      <ele>680.9</ele>
    </trkpt>
    <trkpt lat="42.311368" lon="-2.534795">
      <ele>681.1</ele>
    </trkpt>
    <trkpt lat="42.310277" lon="-2.534289">
      <ele>691.9</ele>
    </trkpt>
    <trkpt lat="42.30973" lon="-2.534">
      <ele>693.8</ele>
    </trkpt>
    <trkpt lat="42.309449" lon="-2.533979">
      <ele>693.6</ele>
    </trkpt>
    <trkpt lat="42.308866" lon="-2.533786">
      <ele>691.4</ele>
    </trkpt>
    <trkpt lat="42.30847" lon="-2.533735">
      <ele>689.9</ele>
    </trkpt>
    <trkpt lat="42.308259" lon="-2.533767">
      <ele>689.6</ele>
    </trkpt>
    <trkpt lat="42.308106" lon="-2.53379">
      <ele>689.7</ele>
    </trkpt>
    <trkpt lat="42.308104" lon="-2.533957">
      <ele>690.1</ele>
    </trkpt>
    <trkpt lat="42.308036" lon="-2.533914">
      <ele>690.3</ele>
    </trkpt>
    <trkpt lat="42.307902" lon="-2.534271">
      <ele>691.6</ele>
    </trkpt>
    <trkpt lat="42.30777" lon="-2.534314">
      <ele>692.2</ele>
    </trkpt>
    <trkpt lat="42.307693" lon="-2.534689">
      <ele>693.4</ele>
    </trkpt>
    <trkpt lat="42.307494" lon="-2.534826">
      <ele>694.1</ele>
    </trkpt>
    <trkpt lat="42.307406" lon="-2.53485">
      <ele>694.4</ele>
    </trkpt>
    <trkpt lat="42.307283" lon="-2.534852">
      <ele>694.6</ele>
    </trkpt>
    <trkpt lat="42.30709" lon="-2.534803">
      <ele>694.8</ele>
    </trkpt>
    <trkpt lat="42.307046" lon="-2.534792">
      <ele>694.8</ele>
    </trkpt>
    <trkpt lat="42.307141" lon="-2.534733">
      <ele>694.7</ele>
    </trkpt>
    <trkpt lat="42.307336" lon="-2.534619">
      <ele>694.2</ele>
    </trkpt>
    <trkpt lat="42.307539" lon="-2.534327">
      <ele>692.4</ele>
    </trkpt>
    <trkpt lat="42.307622" lon="-2.534267">
      <ele>691.4</ele>
    </trkpt>
    <trkpt lat="42.307648" lon="-2.534248">
      <ele>691.1</ele>
    </trkpt>
    <trkpt lat="42.30777" lon="-2.534314">
      <ele>689.4</ele>
    </trkpt>
    <trkpt lat="42.307902" lon="-2.534271">
      <ele>687.4</ele>
    </trkpt>
    <trkpt lat="42.308036" lon="-2.533914">
      <ele>682.8</ele>
    </trkpt>
    <trkpt lat="42.308104" lon="-2.533957">
      <ele>681.6</ele>
    </trkpt>
    <trkpt lat="42.308106" lon="-2.53379">
      <ele>679.6</ele>
    </trkpt>
    <trkpt lat="42.308109" lon="-2.533284">
      <ele>673.4</ele>
    </trkpt>
    <trkpt lat="42.308096" lon="-2.533196">
      <ele>672.3</ele>
    </trkpt>
    <trkpt lat="42.308148" lon="-2.532765">
      <ele>667.1</ele>
    </trkpt>
    <trkpt lat="42.308049" lon="-2.531959">
      <ele>657.8</ele>
    </trkpt>
    <trkpt lat="42.30804" lon="-2.531854">
      <ele>656.9</ele>
    </trkpt>
    <trkpt lat="42.308073" lon="-2.530941">
      <ele>650.7</ele>
    </trkpt>
    <trkpt lat="42.308006" lon="-2.530451">
      <ele>648.9</ele>
    </trkpt>
    <trkpt lat="42.307892" lon="-2.530048">
      <ele>648.1</ele>
    </trkpt>
    <trkpt lat="42.30792" lon="-2.529883">
      <ele>647.9</ele>
    </trkpt>
    <trkpt lat="42.307928" lon="-2.529837">
      <ele>647.9</ele>
    </trkpt>
    <trkpt lat="42.308077" lon="-2.52964">
      <ele>647.6</ele>
    </trkpt>
    <trkpt lat="42.308283" lon="-2.529601">
      <ele>647.5</ele>
    </trkpt>
    <trkpt lat="42.308468" lon="-2.529621">
      <ele>647.4</ele>
    </trkpt>
    <trkpt lat="42.30873" lon="-2.529457">
      <ele>647.3</ele>
    </trkpt>
    <trkpt lat="42.308879" lon="-2.529222">
      <ele>647.1</ele>
    </trkpt>
    <trkpt lat="42.309412" lon="-2.528804">
      <ele>645.6</ele>
    </trkpt>
    <trkpt lat="42.30993" lon="-2.528353">
      <ele>642.3</ele>
    </trkpt>
    <trkpt lat="42.310222" lon="-2.527988">
      <ele>639.2</ele>
    </trkpt>
    <trkpt lat="42.310374" lon="-2.527993">
      <ele>637.9</ele>
    </trkpt>
    <trkpt lat="42.310499" lon="-2.527902">
      <ele>636.6</ele>
    </trkpt>
    <trkpt lat="42.310669" lon="-2.527858">
      <ele>634.9</ele>
    </trkpt>
    <trkpt lat="42.311116" lon="-2.527642">
      <ele>630.3</ele>
    </trkpt>
    <trkpt lat="42.311273" lon="-2.527474">
      <ele>628.3</ele>
    </trkpt>
    <trkpt lat="42.311418" lon="-2.52745">
      <ele>626.9</ele>
    </trkpt>
    <trkpt lat="42.311542" lon="-2.52747">
      <ele>625.7</ele>
    </trkpt>
    <trkpt lat="42.311841" lon="-2.527278">
      <ele>622.4</ele>
    </trkpt>
    <trkpt lat="42.31254" lon="-2.527234">
      <ele>615.6</ele>
    </trkpt>
    <trkpt lat="42.313318" lon="-2.527076">
      <ele>606.8</ele>
    </trkpt>
    <trkpt lat="42.313676" lon="-2.527086">
      <ele>602.6</ele>
    </trkpt>
    <trkpt lat="42.31385" lon="-2.527023">
      <ele>600.7</ele>
    </trkpt>
    <trkpt lat="42.313971" lon="-2.527407">
      <ele>597.9</ele>
    </trkpt>
    <trkpt lat="42.314063" lon="-2.527548">
      <ele>596.9</ele>
    </trkpt>
    <trkpt lat="42.31445" lon="-2.527505">
      <ele>595.1</ele>
    </trkpt>
    <trkpt lat="42.314872" lon="-2.526989">
      <ele>594.9</ele>
    </trkpt>
    <trkpt lat="42.315467" lon="-2.526246">
      <ele>597.3</ele>
    </trkpt>
    <trkpt lat="42.315761" lon="-2.525957">
      <ele>598.4</ele>
    </trkpt>
    <trkpt lat="42.315838" lon="-2.525899">
      <ele>598.6</ele>
    </trkpt>
    <trkpt lat="42.31621" lon="-2.525825">
      <ele>599.1</ele>
    </trkpt>
    <trkpt lat="42.31628" lon="-2.525743">
      <ele>599.1</ele>
    </trkpt>
    <trkpt lat="42.31683" lon="-2.525056">
      <ele>596.6</ele>
    </trkpt>
    <trkpt lat="42.317201" lon="-2.524784">
      <ele>594.2</ele>
    </trkpt>
    <trkpt lat="42.31775" lon="-2.524571">
      <ele>590.5</ele>
    </trkpt>
    <trkpt lat="42.317919" lon="-2.524474">
      <ele>589.1</ele>
    </trkpt>
    <trkpt lat="42.318029" lon="-2.524333">
      <ele>588</ele>
    </trkpt>
    <trkpt lat="42.318137" lon="-2.524018">
      <ele>586.1</ele>
    </trkpt>
    <trkpt lat="42.318274" lon="-2.524052">
      <ele>585.1</ele>
    </trkpt>
    <trkpt lat="42.318432" lon="-2.52416">
      <ele>584</ele>
    </trkpt>
    <trkpt lat="42.318432" lon="-2.523748">
      <ele>582.3</ele>
    </trkpt>
    <trkpt lat="42.31876" lon="-2.522679">
      <ele>578.9</ele>
    </trkpt>
    <trkpt lat="42.319159" lon="-2.521779">
      <ele>576.7</ele>
    </trkpt>
    <trkpt lat="42.319598" lon="-2.520964">
      <ele>575.5</ele>
    </trkpt>
    <trkpt lat="42.319942" lon="-2.519906">
      <ele>574.7</ele>
    </trkpt>
    <trkpt lat="42.319918" lon="-2.519335">
      <ele>574.1</ele>
    </trkpt>
    <trkpt lat="42.320325" lon="-2.517906">
      <ele>571.9</ele>
    </trkpt>
    <trkpt lat="42.32031" lon="-2.517716">
      <ele>571.6</ele>
    </trkpt>
    <trkpt lat="42.320552" lon="-2.517292">
      <ele>570.8</ele>
    </trkpt>
    <trkpt lat="42.320583" lon="-2.516943">
      <ele>570.3</ele>
    </trkpt>
    <trkpt lat="42.320717" lon="-2.516742">
      <ele>569.9</ele>
    </trkpt>
    <trkpt lat="42.320767" lon="-2.51653">
      <ele>569.7</ele>
    </trkpt>
    <trkpt lat="42.320642" lon="-2.516449">
      <ele>569.5</ele>
    </trkpt>
    <trkpt lat="42.320754" lon="-2.516157">
      <ele>569.2</ele>
    </trkpt>
    <trkpt lat="42.321013" lon="-2.515842">
      <ele>568.8</ele>
    </trkpt>
    <trkpt lat="42.321271" lon="-2.515592">
      <ele>568.4</ele>
    </trkpt>
    <trkpt lat="42.321777" lon="-2.514879">
      <ele>567.5</ele>
    </trkpt>
    <trkpt lat="42.322167" lon="-2.514466">
      <ele>566.9</ele>
    </trkpt>
    <trkpt lat="42.322465" lon="-2.514418">
      <ele>566.5</ele>
    </trkpt>
    <trkpt lat="42.322799" lon="-2.51413">
      <ele>566.1</ele>
    </trkpt>
    <trkpt lat="42.323103" lon="-2.513791">
      <ele>565.7</ele>
    </trkpt>
    <trkpt lat="42.323153" lon="-2.513735">
      <ele>565.6</ele>
    </trkpt>
    <trkpt lat="42.323584" lon="-2.51313">
      <ele>565.1</ele>
    </trkpt>
    <trkpt lat="42.324272" lon="-2.512272">
      <ele>563.9</ele>
    </trkpt>
    <trkpt lat="42.324383" lon="-2.512194">
      <ele>563.8</ele>
    </trkpt>
    <trkpt lat="42.32447" lon="-2.512073">
      <ele>563.6</ele>
    </trkpt>
    <trkpt lat="42.324666" lon="-2.51171">
      <ele>563.1</ele>
    </trkpt>
    <trkpt lat="42.325106" lon="-2.510403">
      <ele>561.9</ele>
    </trkpt>
    <trkpt lat="42.325183" lon="-2.510073">
      <ele>561.6</ele>
    </trkpt>
    <trkpt lat="42.325317" lon="-2.509838">
      <ele>561.4</ele>
    </trkpt>
    <trkpt lat="42.32549" lon="-2.509644">
      <ele>561.1</ele>
    </trkpt>
    <trkpt lat="42.325536" lon="-2.509475">
      <ele>560.9</ele>
    </trkpt>
    <trkpt lat="42.326065" lon="-2.509308">
      <ele>560.2</ele>
    </trkpt>
    <trkpt lat="42.326536" lon="-2.509312">
      <ele>559.5</ele>
    </trkpt>
    <trkpt lat="42.326708" lon="-2.509367">
      <ele>559.2</ele>
    </trkpt>
    <trkpt lat="42.326833" lon="-2.509351">
      <ele>559</ele>
    </trkpt>
    <trkpt lat="42.327116" lon="-2.509165">
      <ele>558.5</ele>
    </trkpt>
    <trkpt lat="42.327249" lon="-2.509104">
      <ele>558.3</ele>
    </trkpt>
    <trkpt lat="42.327343" lon="-2.509114">
      <ele>558.1</ele>
    </trkpt>
    <trkpt lat="42.327437" lon="-2.509046">
      <ele>557.9</ele>
    </trkpt>
    <trkpt lat="42.327784" lon="-2.508335">
      <ele>556.9</ele>
    </trkpt>
    <trkpt lat="42.328384" lon="-2.50755">
      <ele>555.4</ele>
    </trkpt>
    <trkpt lat="42.328902" lon="-2.50705">
      <ele>554.1</ele>
    </trkpt>
    <trkpt lat="42.328934" lon="-2.506907">
      <ele>553.9</ele>
    </trkpt>
    <trkpt lat="42.328981" lon="-2.506815">
      <ele>553.8</ele>
    </trkpt>
    <trkpt lat="42.329046" lon="-2.506766">
      <ele>553.6</ele>
    </trkpt>
    <trkpt lat="42.329125" lon="-2.506413">
      <ele>553.2</ele>
    </trkpt>
    <trkpt lat="42.329179" lon="-2.505867">
      <ele>552.7</ele>
    </trkpt>
    <trkpt lat="42.32925" lon="-2.505521">
      <ele>552.5</ele>
    </trkpt>
    <trkpt lat="42.329595" lon="-2.504225">
      <ele>551.6</ele>
    </trkpt>
    <trkpt lat="42.329561" lon="-2.504171">
      <ele>551.5</ele>
    </trkpt>
    <trkpt lat="42.329381" lon="-2.504096">
      <ele>551.3</ele>
    </trkpt>
    <trkpt lat="42.329364" lon="-2.504034">
      <ele>551.2</ele>
    </trkpt>
    <trkpt lat="42.329411" lon="-2.503954">
      <ele>551.1</ele>
    </trkpt>
    <trkpt lat="42.329465" lon="-2.503939">
      <ele>551</ele>
    </trkpt>
    <trkpt lat="42.32962" lon="-2.504037">
      <ele>550.7</ele>
    </trkpt>
    <trkpt lat="42.32977" lon="-2.504013">
      <ele>550.5</ele>
    </trkpt>
    <trkpt lat="42.330102" lon="-2.503681">
      <ele>549.6</ele>
    </trkpt>
    <trkpt lat="42.330576" lon="-2.503439">
      <ele>548.6</ele>
    </trkpt>
    <trkpt lat="42.330948" lon="-2.503126">
      <ele>548</ele>
    </trkpt>
    <trkpt lat="42.331303" lon="-2.502747">
      <ele>547.5</ele>
    </trkpt>
    <trkpt lat="42.332036" lon="-2.501671">
      <ele>547</ele>
    </trkpt>
    <trkpt lat="42.332451" lon="-2.501267">
      <ele>546.5</ele>
    </trkpt>
    <trkpt lat="42.332753" lon="-2.501084">
      <ele>546.2</ele>
    </trkpt>
    <trkpt lat="42.333394" lon="-2.501041">
      <ele>545.3</ele>
    </trkpt>
    <trkpt lat="42.333566" lon="-2.501063">
      <ele>545.1</ele>
    </trkpt>
    <trkpt lat="42.334009" lon="-2.500478">
      <ele>544.2</ele>
    </trkpt>
    <trkpt lat="42.334395" lon="-2.500026">
      <ele>543.6</ele>
    </trkpt>
    <trkpt lat="42.334525" lon="-2.499921">
      <ele>543.4</ele>
    </trkpt>
    <trkpt lat="42.334718" lon="-2.499949">
      <ele>543.2</ele>
    </trkpt>
    <trkpt lat="42.334989" lon="-2.499209">
      <ele>542.5</ele>
    </trkpt>
    <trkpt lat="42.335239" lon="-2.498856">
      <ele>542.1</ele>
    </trkpt>
    <trkpt lat="42.335546" lon="-2.498638">
      <ele>541.7</ele>
    </trkpt>
    <trkpt lat="42.335973" lon="-2.498532">
      <ele>541.3</ele>
    </trkpt>
    <trkpt lat="42.336296" lon="-2.498067">
      <ele>540.8</ele>
    </trkpt>
    <trkpt lat="42.33664" lon="-2.497468">
      <ele>540.5</ele>
    </trkpt>
    <trkpt lat="42.336859" lon="-2.496953">
      <ele>540.4</ele>
    </trkpt>
    <trkpt lat="42.337173" lon="-2.496567">
      <ele>540.3</ele>
    </trkpt>
    <trkpt lat="42.337302" lon="-2.496481">
      <ele>540.2</ele>
    </trkpt>
    <trkpt lat="42.337475" lon="-2.497295">
      <ele>539.8</ele>
    </trkpt>
    <trkpt lat="42.337854" lon="-2.496953">
      <ele>539.3</ele>
    </trkpt>
    <trkpt lat="42.338089" lon="-2.496678">
      <ele>538.8</ele>
    </trkpt>
    <trkpt lat="42.338584" lon="-2.495741">
      <ele>537.1</ele>
    </trkpt>
    <trkpt lat="42.339027" lon="-2.494507">
      <ele>535.2</ele>
    </trkpt>
    <trkpt lat="42.339345" lon="-2.493436">
      <ele>534</ele>
    </trkpt>
    <trkpt lat="42.339615" lon="-2.492738">
      <ele>533.4</ele>
    </trkpt>
    <trkpt lat="42.339807" lon="-2.492067">
      <ele>533</ele>
    </trkpt>
    <trkpt lat="42.339886" lon="-2.491779">
      <ele>532.8</ele>
    </trkpt>
    <trkpt lat="42.340407" lon="-2.490849">
      <ele>531.7</ele>
    </trkpt>
    <trkpt lat="42.340585" lon="-2.49063">
      <ele>531.3</ele>
    </trkpt>
    <trkpt lat="42.341001" lon="-2.490567">
      <ele>530.7</ele>
    </trkpt>
    <trkpt lat="42.341257" lon="-2.490341">
      <ele>530.3</ele>
    </trkpt>
    <trkpt lat="42.341705" lon="-2.489813">
      <ele>529.7</ele>
    </trkpt>
    <trkpt lat="42.34195" lon="-2.489453">
      <ele>529.5</ele>
    </trkpt>
    <trkpt lat="42.342033" lon="-2.488945">
      <ele>529.6</ele>
    </trkpt>
    <trkpt lat="42.342054" lon="-2.488628">
      <ele>529.6</ele>
    </trkpt>
    <trkpt lat="42.342173" lon="-2.488387">
      <ele>529.6</ele>
    </trkpt>
    <trkpt lat="42.342203" lon="-2.488327">
      <ele>529.6</ele>
    </trkpt>
    <trkpt lat="42.34191" lon="-2.488108">
      <ele>529.5</ele>
    </trkpt>
    <trkpt lat="42.342072" lon="-2.48793">
      <ele>529.4</ele>
    </trkpt>
    <trkpt lat="42.342334" lon="-2.48741">
      <ele>529</ele>
    </trkpt>
    <trkpt lat="42.342473" lon="-2.487415">
      <ele>528.8</ele>
    </trkpt>
    <trkpt lat="42.343087" lon="-2.48676">
      <ele>527.4</ele>
    </trkpt>
    <trkpt lat="42.343551" lon="-2.486433">
      <ele>526.4</ele>
    </trkpt>
    <trkpt lat="42.344106" lon="-2.48624">
      <ele>525.2</ele>
    </trkpt>
    <trkpt lat="42.344182" lon="-2.486133">
      <ele>525</ele>
    </trkpt>
    <trkpt lat="42.344186" lon="-2.485956">
      <ele>524.7</ele>
    </trkpt>
    <trkpt lat="42.34509" lon="-2.486551">
      <ele>522.4</ele>
    </trkpt>
    <trkpt lat="42.345288" lon="-2.48653">
      <ele>522</ele>
    </trkpt>
    <trkpt lat="42.345474" lon="-2.486304">
      <ele>521.5</ele>
    </trkpt>
    <trkpt lat="42.345843" lon="-2.485982">
      <ele>520.8</ele>
    </trkpt>
    <trkpt lat="42.346065" lon="-2.485902">
      <ele>520.6</ele>
    </trkpt>
    <trkpt lat="42.346227" lon="-2.485806">
      <ele>520.5</ele>
    </trkpt>
    <trkpt lat="42.346453" lon="-2.48565">
      <ele>520.3</ele>
    </trkpt>
    <trkpt lat="42.346509" lon="-2.485559">
      <ele>520.3</ele>
    </trkpt>
    <trkpt lat="42.347104" lon="-2.485274">
      <ele>519.9</ele>
    </trkpt>
    <trkpt lat="42.347377" lon="-2.485178">
      <ele>519.6</ele>
    </trkpt>
    <trkpt lat="42.347866" lon="-2.485178">
      <ele>518.9</ele>
    </trkpt>
    <trkpt lat="42.348051" lon="-2.485162">
      <ele>518.6</ele>
    </trkpt>
    <trkpt lat="42.348238" lon="-2.485274">
      <ele>518.3</ele>
    </trkpt>
    <trkpt lat="42.348828" lon="-2.48491">
      <ele>517.5</ele>
    </trkpt>
    <trkpt lat="42.349106" lon="-2.484668">
      <ele>517.2</ele>
    </trkpt>
    <trkpt lat="42.349332" lon="-2.484711">
      <ele>517.2</ele>
    </trkpt>
    <trkpt lat="42.350192" lon="-2.485001">
      <ele>517.3</ele>
    </trkpt>
    <trkpt lat="42.350612" lon="-2.484883">
      <ele>517.1</ele>
    </trkpt>
    <trkpt lat="42.351255" lon="-2.484438">
      <ele>516.2</ele>
    </trkpt>
    <trkpt lat="42.351469" lon="-2.484191">
      <ele>515.7</ele>
    </trkpt>
    <trkpt lat="42.351703" lon="-2.483799">
      <ele>514.9</ele>
    </trkpt>
    <trkpt lat="42.352174" lon="-2.482496">
      <ele>513</ele>
    </trkpt>
    <trkpt lat="42.352281" lon="-2.481986">
      <ele>512.5</ele>
    </trkpt>
    <trkpt lat="42.352773" lon="-2.481069">
      <ele>511.7</ele>
    </trkpt>
    <trkpt lat="42.353035" lon="-2.480693">
      <ele>511.3</ele>
    </trkpt>
    <trkpt lat="42.35329" lon="-2.480389">
      <ele>511.1</ele>
    </trkpt>
    <trkpt lat="42.353685" lon="-2.480178">
      <ele>510.8</ele>
    </trkpt>
    <trkpt lat="42.353836" lon="-2.479893">
      <ele>510.6</ele>
    </trkpt>
    <trkpt lat="42.353911" lon="-2.479836">
      <ele>510.5</ele>
    </trkpt>
    <trkpt lat="42.353965" lon="-2.479749">
      <ele>510.4</ele>
    </trkpt>
    <trkpt lat="42.353978" lon="-2.479594">
      <ele>510.3</ele>
    </trkpt>
    <trkpt lat="42.354061" lon="-2.47947">
      <ele>510.1</ele>
    </trkpt>
    <trkpt lat="42.354157" lon="-2.479422">
      <ele>510</ele>
    </trkpt>
    <trkpt lat="42.354363" lon="-2.479422">
      <ele>509.8</ele>
    </trkpt>
    <trkpt lat="42.354454" lon="-2.479497">
      <ele>509.7</ele>
    </trkpt>
    <trkpt lat="42.354606" lon="-2.479566">
      <ele>509.5</ele>
    </trkpt>
    <trkpt lat="42.354862" lon="-2.479502">
      <ele>509.3</ele>
    </trkpt>
    <trkpt lat="42.35514" lon="-2.479336">
      <ele>509.1</ele>
    </trkpt>
    <trkpt lat="42.355358" lon="-2.479138">
      <ele>508.9</ele>
    </trkpt>
    <trkpt lat="42.355623" lon="-2.478644">
      <ele>508.6</ele>
    </trkpt>
    <trkpt lat="42.355697" lon="-2.478362">
      <ele>508.4</ele>
    </trkpt>
    <trkpt lat="42.355963" lon="-2.477994">
      <ele>508.2</ele>
    </trkpt>
    <trkpt lat="42.356103" lon="-2.477872">
      <ele>508</ele>
    </trkpt>
    <trkpt lat="42.356479" lon="-2.477771">
      <ele>507.6</ele>
    </trkpt>
    <trkpt lat="42.357043" lon="-2.477778">
      <ele>506.8</ele>
    </trkpt>
    <trkpt lat="42.357707" lon="-2.477572">
      <ele>505.7</ele>
    </trkpt>
    <trkpt lat="42.357801" lon="-2.477658">
      <ele>505.6</ele>
    </trkpt>
    <trkpt lat="42.357861" lon="-2.477843">
      <ele>505.4</ele>
    </trkpt>
    <trkpt lat="42.357895" lon="-2.478252">
      <ele>504.9</ele>
    </trkpt>
    <trkpt lat="42.357938" lon="-2.47829">
      <ele>504.9</ele>
    </trkpt>
    <trkpt lat="42.359365" lon="-2.478198">
      <ele>502.9</ele>
    </trkpt>
    <trkpt lat="42.359931" lon="-2.478012">
      <ele>502.1</ele>
    </trkpt>
    <trkpt lat="42.36062" lon="-2.477597">
      <ele>501.6</ele>
    </trkpt>
    <trkpt lat="42.360735" lon="-2.477471">
      <ele>501.6</ele>
    </trkpt>
    <trkpt lat="42.360888" lon="-2.477378">
      <ele>501.6</ele>
    </trkpt>
    <trkpt lat="42.360934" lon="-2.477454">
      <ele>501.6</ele>
    </trkpt>
    <trkpt lat="42.360966" lon="-2.477568">
      <ele>501.6</ele>
    </trkpt>
    <trkpt lat="42.361048" lon="-2.477858">
      <ele>501.6</ele>
    </trkpt>
    <trkpt lat="42.361027" lon="-2.478029">
      <ele>501.7</ele>
    </trkpt>
    <trkpt lat="42.361126" lon="-2.478225">
      <ele>501.8</ele>
    </trkpt>
    <trkpt lat="42.361307" lon="-2.478478">
      <ele>501.9</ele>
    </trkpt>
    <trkpt lat="42.361525" lon="-2.478739">
      <ele>502.1</ele>
    </trkpt>
    <trkpt lat="42.361704" lon="-2.478879">
      <ele>502.2</ele>
    </trkpt>
    <trkpt lat="42.361876" lon="-2.478956">
      <ele>502.1</ele>
    </trkpt>
    <trkpt lat="42.362133" lon="-2.478947">
      <ele>502</ele>
    </trkpt>
    <trkpt lat="42.362698" lon="-2.478815">
      <ele>502.5</ele>
    </trkpt>
    <trkpt lat="42.36299" lon="-2.478719">
      <ele>503</ele>
    </trkpt>
    <trkpt lat="42.363116" lon="-2.478647">
      <ele>503.2</ele>
    </trkpt>
    <trkpt lat="42.36317" lon="-2.478598">
      <ele>503.3</ele>
    </trkpt>
    <trkpt lat="42.363258" lon="-2.478621">
      <ele>503.4</ele>
    </trkpt>
    <trkpt lat="42.363286" lon="-2.478673">
      <ele>503.5</ele>
    </trkpt>
    <trkpt lat="42.363289" lon="-2.47877">
      <ele>503.6</ele>
    </trkpt>
    <trkpt lat="42.363421" lon="-2.479049">
      <ele>504</ele>
    </trkpt>
    <trkpt lat="42.364328" lon="-2.481104">
      <ele>505.2</ele>
    </trkpt>
    <trkpt lat="42.364561" lon="-2.481546">
      <ele>505.1</ele>
    </trkpt>
    <trkpt lat="42.364674" lon="-2.481658">
      <ele>505.1</ele>
    </trkpt>
    <trkpt lat="42.36486" lon="-2.481731">
      <ele>505</ele>
    </trkpt>
    <trkpt lat="42.36505" lon="-2.481586">
      <ele>505</ele>
    </trkpt>
    <trkpt lat="42.365108" lon="-2.481465">
      <ele>505</ele>
    </trkpt>
    <trkpt lat="42.365116" lon="-2.481336">
      <ele>504.9</ele>
    </trkpt>
    <trkpt lat="42.365106" lon="-2.4813">
      <ele>504.9</ele>
    </trkpt>
    </trkseg>
  </trk>
</gpx>
