<?xml version="1.0" encoding="UTF-8"?>
<gpx version="1.1" creator="fitAI Komoot downloader" xmlns="http://www.topografix.com/GPX/1/1">
  <metadata>
    <name>Vía Verde de Ezcaray y Vía Verde del Oja - Recorrido circular desde Santurde de Rioja</name>
    <desc>80 visitas · Dificultad: difficult · Distancia: 51.3 km · Desnivel +: 976 m</desc>
    <link href="https://www.komoot.com/smarttour/e31900330"><text>Komoot</text></link>
  </metadata>
  <trk>
    <name>Vía Verde de Ezcaray y Vía Verde del Oja - Recorrido circular desde Santurde de Rioja</name>
    <type>touringbicycle</type>
    <trkseg>
    <trkpt lat="42.387878" lon="-2.971813">
      <ele>715.8</ele>
    </trkpt>
    <trkpt lat="42.387928" lon="-2.971674">
      <ele>716</ele>
    </trkpt>
    <trkpt lat="42.387658" lon="-2.970503">
      <ele>719.3</ele>
    </trkpt>
    <trkpt lat="42.387552" lon="-2.970045">
      <ele>720.7</ele>
    </trkpt>
    <trkpt lat="42.387507" lon="-2.969686">
      <ele>721.7</ele>
    </trkpt>
    <trkpt lat="42.384097" lon="-2.969994">
      <ele>726</ele>
    </trkpt>
    <trkpt lat="42.383304" lon="-2.970176">
      <ele>729.3</ele>
    </trkpt>
    <trkpt lat="42.382615" lon="-2.970445">
      <ele>732.4</ele>
    </trkpt>
    <trkpt lat="42.381236" lon="-2.971196">
      <ele>735.9</ele>
    </trkpt>
    <trkpt lat="42.379346" lon="-2.972439">
      <ele>740.6</ele>
    </trkpt>
    <trkpt lat="42.374087" lon="-2.975895">
      <ele>751.5</ele>
    </trkpt>
    <trkpt lat="42.372472" lon="-2.977057">
      <ele>755.1</ele>
    </trkpt>
    <trkpt lat="42.370803" lon="-2.978564">
      <ele>755</ele>
    </trkpt>
    <trkpt lat="42.370602" lon="-2.978699">
      <ele>755</ele>
    </trkpt>
    <trkpt lat="42.370398" lon="-2.978918">
      <ele>755.1</ele>
    </trkpt>
    <trkpt lat="42.370238" lon="-2.979059">
      <ele>755.2</ele>
    </trkpt>
    <trkpt lat="42.36922" lon="-2.979976">
      <ele>756.5</ele>
    </trkpt>
    <trkpt lat="42.368175" lon="-2.980676">
      <ele>758</ele>
    </trkpt>
    <trkpt lat="42.365348" lon="-2.982447">
      <ele>764.2</ele>
    </trkpt>
    <trkpt lat="42.363343" lon="-2.983769">
      <ele>769.7</ele>
    </trkpt>
    <trkpt lat="42.363228" lon="-2.983802">
      <ele>770</ele>
    </trkpt>
    <trkpt lat="42.36031" lon="-2.985701">
      <ele>778</ele>
    </trkpt>
    <trkpt lat="42.358705" lon="-2.98774">
      <ele>777.5</ele>
    </trkpt>
    <trkpt lat="42.358027" lon="-2.98849">
      <ele>776.7</ele>
    </trkpt>
    <trkpt lat="42.356492" lon="-2.99052">
      <ele>775.1</ele>
    </trkpt>
    <trkpt lat="42.354951" lon="-2.992224">
      <ele>779.3</ele>
    </trkpt>
    <trkpt lat="42.354543" lon="-2.992732">
      <ele>780.5</ele>
    </trkpt>
    <trkpt lat="42.353088" lon="-2.994193">
      <ele>784.5</ele>
    </trkpt>
    <trkpt lat="42.352166" lon="-2.994894">
      <ele>784.9</ele>
    </trkpt>
    <trkpt lat="42.351726" lon="-2.995143">
      <ele>783.9</ele>
    </trkpt>
    <trkpt lat="42.351514" lon="-2.995217">
      <ele>783.3</ele>
    </trkpt>
    <trkpt lat="42.350853" lon="-2.995222">
      <ele>781.3</ele>
    </trkpt>
    <trkpt lat="42.350787" lon="-2.995221">
      <ele>781.1</ele>
    </trkpt>
    <trkpt lat="42.349705" lon="-2.994887">
      <ele>782.8</ele>
    </trkpt>
    <trkpt lat="42.349555" lon="-2.994822">
      <ele>783.5</ele>
    </trkpt>
    <trkpt lat="42.349462" lon="-2.994714">
      <ele>784.1</ele>
    </trkpt>
    <trkpt lat="42.34936" lon="-2.994656">
      <ele>784.6</ele>
    </trkpt>
    <trkpt lat="42.349101" lon="-2.994686">
      <ele>785.9</ele>
    </trkpt>
    <trkpt lat="42.348071" lon="-2.994649">
      <ele>790.9</ele>
    </trkpt>
    <trkpt lat="42.347773" lon="-2.994698">
      <ele>792</ele>
    </trkpt>
    <trkpt lat="42.346035" lon="-2.995233">
      <ele>797.7</ele>
    </trkpt>
    <trkpt lat="42.345504" lon="-2.995456">
      <ele>799.7</ele>
    </trkpt>
    <trkpt lat="42.344801" lon="-2.996043">
      <ele>801.8</ele>
    </trkpt>
    <trkpt lat="42.344121" lon="-2.996891">
      <ele>801.8</ele>
    </trkpt>
    <trkpt lat="42.343427" lon="-2.997995">
      <ele>800.6</ele>
    </trkpt>
    <trkpt lat="42.343002" lon="-2.99862">
      <ele>800.1</ele>
    </trkpt>
    <trkpt lat="42.341702" lon="-3.000532">
      <ele>798</ele>
    </trkpt>
    <trkpt lat="42.341267" lon="-3.000904">
      <ele>796.4</ele>
    </trkpt>
    <trkpt lat="42.340901" lon="-3.001154">
      <ele>794.6</ele>
    </trkpt>
    <trkpt lat="42.341312" lon="-3.001114">
      <ele>792.3</ele>
    </trkpt>
    <trkpt lat="42.341469" lon="-3.001138">
      <ele>791.5</ele>
    </trkpt>
    <trkpt lat="42.341726" lon="-3.001227">
      <ele>790.2</ele>
    </trkpt>
    <trkpt lat="42.34209" lon="-3.001258">
      <ele>788.5</ele>
    </trkpt>
    <trkpt lat="42.341906" lon="-3.001386">
      <ele>787.6</ele>
    </trkpt>
    <trkpt lat="42.341841" lon="-3.001475">
      <ele>787.1</ele>
    </trkpt>
    <trkpt lat="42.341821" lon="-3.001568">
      <ele>786.8</ele>
    </trkpt>
    <trkpt lat="42.341867" lon="-3.001634">
      <ele>786.4</ele>
    </trkpt>
    <trkpt lat="42.342207" lon="-3.001843">
      <ele>784.7</ele>
    </trkpt>
    <trkpt lat="42.342356" lon="-3.001886">
      <ele>784.1</ele>
    </trkpt>
    <trkpt lat="42.342588" lon="-3.002022">
      <ele>783.4</ele>
    </trkpt>
    <trkpt lat="42.34283" lon="-3.002299">
      <ele>782.5</ele>
    </trkpt>
    <trkpt lat="42.343152" lon="-3.002608">
      <ele>781.6</ele>
    </trkpt>
    <trkpt lat="42.34328" lon="-3.002785">
      <ele>781.4</ele>
    </trkpt>
    <trkpt lat="42.34365" lon="-3.003142">
      <ele>781.2</ele>
    </trkpt>
    <trkpt lat="42.344043" lon="-3.003258">
      <ele>781.5</ele>
    </trkpt>
    <trkpt lat="42.344389" lon="-3.003465">
      <ele>782.1</ele>
    </trkpt>
    <trkpt lat="42.344087" lon="-3.003639">
      <ele>782.7</ele>
    </trkpt>
    <trkpt lat="42.343409" lon="-3.003815">
      <ele>784</ele>
    </trkpt>
    <trkpt lat="42.342523" lon="-3.004332">
      <ele>785.6</ele>
    </trkpt>
    <trkpt lat="42.342147" lon="-3.004579">
      <ele>786.3</ele>
    </trkpt>
    <trkpt lat="42.342026" lon="-3.004689">
      <ele>786.5</ele>
    </trkpt>
    <trkpt lat="42.341635" lon="-3.005263">
      <ele>787.5</ele>
    </trkpt>
    <trkpt lat="42.340849" lon="-3.006634">
      <ele>789.5</ele>
    </trkpt>
    <trkpt lat="42.34045" lon="-3.007429">
      <ele>790.4</ele>
    </trkpt>
    <trkpt lat="42.340389" lon="-3.007565">
      <ele>790.5</ele>
    </trkpt>
    <trkpt lat="42.340021" lon="-3.00832">
      <ele>791.5</ele>
    </trkpt>
    <trkpt lat="42.339854" lon="-3.008583">
      <ele>792</ele>
    </trkpt>
    <trkpt lat="42.339599" lon="-3.00891">
      <ele>792.6</ele>
    </trkpt>
    <trkpt lat="42.339229" lon="-3.009266">
      <ele>793.3</ele>
    </trkpt>
    <trkpt lat="42.338983" lon="-3.009451">
      <ele>793.7</ele>
    </trkpt>
    <trkpt lat="42.338909" lon="-3.009491">
      <ele>793.8</ele>
    </trkpt>
    <trkpt lat="42.338519" lon="-3.009701">
      <ele>794.4</ele>
    </trkpt>
    <trkpt lat="42.337622" lon="-3.010084">
      <ele>794.5</ele>
    </trkpt>
    <trkpt lat="42.33712" lon="-3.010265">
      <ele>794.7</ele>
    </trkpt>
    <trkpt lat="42.33563" lon="-3.011023">
      <ele>796.1</ele>
    </trkpt>
    <trkpt lat="42.335275" lon="-3.011209">
      <ele>796.5</ele>
    </trkpt>
    <trkpt lat="42.335242" lon="-3.011102">
      <ele>796.6</ele>
    </trkpt>
    <trkpt lat="42.334351" lon="-3.011611">
      <ele>797.7</ele>
    </trkpt>
    <trkpt lat="42.333789" lon="-3.011915">
      <ele>798.7</ele>
    </trkpt>
    <trkpt lat="42.333704" lon="-3.011962">
      <ele>798.8</ele>
    </trkpt>
    <trkpt lat="42.333409" lon="-3.012122">
      <ele>799.2</ele>
    </trkpt>
    <trkpt lat="42.33346" lon="-3.012271">
      <ele>799.4</ele>
    </trkpt>
    <trkpt lat="42.333098" lon="-3.012495">
      <ele>799.8</ele>
    </trkpt>
    <trkpt lat="42.332775" lon="-3.010916">
      <ele>799.9</ele>
    </trkpt>
    <trkpt lat="42.332689" lon="-3.01049">
      <ele>799.8</ele>
    </trkpt>
    <trkpt lat="42.332639" lon="-3.010378">
      <ele>799.8</ele>
    </trkpt>
    <trkpt lat="42.332588" lon="-3.010327">
      <ele>799.8</ele>
    </trkpt>
    <trkpt lat="42.332512" lon="-3.010309">
      <ele>799.8</ele>
    </trkpt>
    <trkpt lat="42.331854" lon="-3.01052">
      <ele>800.2</ele>
    </trkpt>
    <trkpt lat="42.331782" lon="-3.010719">
      <ele>800.4</ele>
    </trkpt>
    <trkpt lat="42.331578" lon="-3.010817">
      <ele>800.8</ele>
    </trkpt>
    <trkpt lat="42.330769" lon="-3.011068">
      <ele>802.4</ele>
    </trkpt>
    <trkpt lat="42.330645" lon="-3.011068">
      <ele>802.6</ele>
    </trkpt>
    <trkpt lat="42.329937" lon="-3.011335">
      <ele>804.1</ele>
    </trkpt>
    <trkpt lat="42.329665" lon="-3.011383">
      <ele>804.6</ele>
    </trkpt>
    <trkpt lat="42.329546" lon="-3.011362">
      <ele>804.8</ele>
    </trkpt>
    <trkpt lat="42.328651" lon="-3.011585">
      <ele>806.7</ele>
    </trkpt>
    <trkpt lat="42.328641" lon="-3.011589">
      <ele>806.8</ele>
    </trkpt>
    <trkpt lat="42.328156" lon="-3.011758">
      <ele>807.9</ele>
    </trkpt>
    <trkpt lat="42.328071" lon="-3.011821">
      <ele>808.1</ele>
    </trkpt>
    <trkpt lat="42.327912" lon="-3.011888">
      <ele>808.5</ele>
    </trkpt>
    <trkpt lat="42.32721" lon="-3.011942">
      <ele>809.2</ele>
    </trkpt>
    <trkpt lat="42.326812" lon="-3.011973">
      <ele>809.1</ele>
    </trkpt>
    <trkpt lat="42.326813" lon="-3.011773">
      <ele>809</ele>
    </trkpt>
    <trkpt lat="42.326813" lon="-3.011662">
      <ele>809</ele>
    </trkpt>
    <trkpt lat="42.326809" lon="-3.010944">
      <ele>808.6</ele>
    </trkpt>
    <trkpt lat="42.326805" lon="-3.010274">
      <ele>807.9</ele>
    </trkpt>
    <trkpt lat="42.3268" lon="-3.009826">
      <ele>807.4</ele>
    </trkpt>
    <trkpt lat="42.327803" lon="-3.009353">
      <ele>806.6</ele>
    </trkpt>
    <trkpt lat="42.328466" lon="-3.009018">
      <ele>806.3</ele>
    </trkpt>
    <trkpt lat="42.328552" lon="-3.008975">
      <ele>806.4</ele>
    </trkpt>
    <trkpt lat="42.328629" lon="-3.008936">
      <ele>806.4</ele>
    </trkpt>
    <trkpt lat="42.329473" lon="-3.008515">
      <ele>806.9</ele>
    </trkpt>
    <trkpt lat="42.32984" lon="-3.008479">
      <ele>807</ele>
    </trkpt>
    <trkpt lat="42.32991" lon="-3.008451">
      <ele>807</ele>
    </trkpt>
    <trkpt lat="42.32984" lon="-3.008479">
      <ele>807</ele>
    </trkpt>
    <trkpt lat="42.329473" lon="-3.008515">
      <ele>806.9</ele>
    </trkpt>
    <trkpt lat="42.328629" lon="-3.008936">
      <ele>806.4</ele>
    </trkpt>
    <trkpt lat="42.328552" lon="-3.008975">
      <ele>806.4</ele>
    </trkpt>
    <trkpt lat="42.328466" lon="-3.009018">
      <ele>806.3</ele>
    </trkpt>
    <trkpt lat="42.327803" lon="-3.009353">
      <ele>806.6</ele>
    </trkpt>
    <trkpt lat="42.3268" lon="-3.009826">
      <ele>809.1</ele>
    </trkpt>
    <trkpt lat="42.32521" lon="-3.01058">
      <ele>817.4</ele>
    </trkpt>
    <trkpt lat="42.32505" lon="-3.010651">
      <ele>818.2</ele>
    </trkpt>
    <trkpt lat="42.324666" lon="-3.010821">
      <ele>819.9</ele>
    </trkpt>
    <trkpt lat="42.324527" lon="-3.010848">
      <ele>820.4</ele>
    </trkpt>
    <trkpt lat="42.32444" lon="-3.010865">
      <ele>820.7</ele>
    </trkpt>
    <trkpt lat="42.324155" lon="-3.010924">
      <ele>821.6</ele>
    </trkpt>
    <trkpt lat="42.323928" lon="-3.011051">
      <ele>822.2</ele>
    </trkpt>
    <trkpt lat="42.323729" lon="-3.01112">
      <ele>822.6</ele>
    </trkpt>
    <trkpt lat="42.323494" lon="-3.01113">
      <ele>823</ele>
    </trkpt>
    <trkpt lat="42.32311" lon="-3.01122">
      <ele>823.4</ele>
    </trkpt>
    <trkpt lat="42.32273" lon="-3.01138">
      <ele>824.2</ele>
    </trkpt>
    <trkpt lat="42.321957" lon="-3.011571">
      <ele>824.2</ele>
    </trkpt>
    <trkpt lat="42.321777" lon="-3.011685">
      <ele>823.9</ele>
    </trkpt>
    <trkpt lat="42.320907" lon="-3.012531">
      <ele>822.2</ele>
    </trkpt>
    <trkpt lat="42.320745" lon="-3.012681">
      <ele>821.8</ele>
    </trkpt>
    <trkpt lat="42.320598" lon="-3.012809">
      <ele>821.4</ele>
    </trkpt>
    <trkpt lat="42.320396" lon="-3.012868">
      <ele>821.2</ele>
    </trkpt>
    <trkpt lat="42.320166" lon="-3.012806">
      <ele>821.3</ele>
    </trkpt>
    <trkpt lat="42.319664" lon="-3.012547">
      <ele>822.2</ele>
    </trkpt>
    <trkpt lat="42.319117" lon="-3.012247">
      <ele>822.8</ele>
    </trkpt>
    <trkpt lat="42.318838" lon="-3.012214">
      <ele>823</ele>
    </trkpt>
    <trkpt lat="42.318435" lon="-3.012242">
      <ele>823.6</ele>
    </trkpt>
    <trkpt lat="42.317947" lon="-3.012328">
      <ele>824.3</ele>
    </trkpt>
    <trkpt lat="42.317681" lon="-3.01243">
      <ele>824.6</ele>
    </trkpt>
    <trkpt lat="42.316812" lon="-3.01288">
      <ele>825.4</ele>
    </trkpt>
    <trkpt lat="42.316087" lon="-3.013283">
      <ele>826.2</ele>
    </trkpt>
    <trkpt lat="42.315885" lon="-3.013434">
      <ele>826.4</ele>
    </trkpt>
    <trkpt lat="42.314673" lon="-3.014537">
      <ele>828</ele>
    </trkpt>
    <trkpt lat="42.313948" lon="-3.015122">
      <ele>828.4</ele>
    </trkpt>
    <trkpt lat="42.313816" lon="-3.01521">
      <ele>828.4</ele>
    </trkpt>
    <trkpt lat="42.313609" lon="-3.015345">
      <ele>828.6</ele>
    </trkpt>
    <trkpt lat="42.313269" lon="-3.015477">
      <ele>828.8</ele>
    </trkpt>
    <trkpt lat="42.313041" lon="-3.015561">
      <ele>829.1</ele>
    </trkpt>
    <trkpt lat="42.312462" lon="-3.015776">
      <ele>829.9</ele>
    </trkpt>
    <trkpt lat="42.31224" lon="-3.015886">
      <ele>830.3</ele>
    </trkpt>
    <trkpt lat="42.31129" lon="-3.016538">
      <ele>832.3</ele>
    </trkpt>
    <trkpt lat="42.31076" lon="-3.016834">
      <ele>833.3</ele>
    </trkpt>
    <trkpt lat="42.310255" lon="-3.017049">
      <ele>834.4</ele>
    </trkpt>
    <trkpt lat="42.310097" lon="-3.017159">
      <ele>834.8</ele>
    </trkpt>
    <trkpt lat="42.308646" lon="-3.018376">
      <ele>838.8</ele>
    </trkpt>
    <trkpt lat="42.307577" lon="-3.019327">
      <ele>841.4</ele>
    </trkpt>
    <trkpt lat="42.306517" lon="-3.020326">
      <ele>843.1</ele>
    </trkpt>
    <trkpt lat="42.305881" lon="-3.020923">
      <ele>843.8</ele>
    </trkpt>
    <trkpt lat="42.305514" lon="-3.021341">
      <ele>844.2</ele>
    </trkpt>
    <trkpt lat="42.305196" lon="-3.02175">
      <ele>844.5</ele>
    </trkpt>
    <trkpt lat="42.304925" lon="-3.022047">
      <ele>844.8</ele>
    </trkpt>
    <trkpt lat="42.304797" lon="-3.02219">
      <ele>844.9</ele>
    </trkpt>
    <trkpt lat="42.304262" lon="-3.02262">
      <ele>845.4</ele>
    </trkpt>
    <trkpt lat="42.303788" lon="-3.022971">
      <ele>845.6</ele>
    </trkpt>
    <trkpt lat="42.304262" lon="-3.02262">
      <ele>845.4</ele>
    </trkpt>
    <trkpt lat="42.304797" lon="-3.02219">
      <ele>845.9</ele>
    </trkpt>
    <trkpt lat="42.304925" lon="-3.022047">
      <ele>846.2</ele>
    </trkpt>
    <trkpt lat="42.305096" lon="-3.021788">
      <ele>847</ele>
    </trkpt>
    <trkpt lat="42.30511" lon="-3.021635">
      <ele>847.4</ele>
    </trkpt>
    <trkpt lat="42.305096" lon="-3.021526">
      <ele>847.7</ele>
    </trkpt>
    <trkpt lat="42.30507" lon="-3.021433">
      <ele>848</ele>
    </trkpt>
    <trkpt lat="42.305025" lon="-3.021345">
      <ele>848.4</ele>
    </trkpt>
    <trkpt lat="42.304982" lon="-3.021154">
      <ele>849.1</ele>
    </trkpt>
    <trkpt lat="42.305005" lon="-3.021021">
      <ele>849.6</ele>
    </trkpt>
    <trkpt lat="42.305049" lon="-3.020923">
      <ele>850.2</ele>
    </trkpt>
    <trkpt lat="42.305592" lon="-3.019995">
      <ele>857</ele>
    </trkpt>
    <trkpt lat="42.305983" lon="-3.019514">
      <ele>861.2</ele>
    </trkpt>
    <trkpt lat="42.306202" lon="-3.019048">
      <ele>864.5</ele>
    </trkpt>
    <trkpt lat="42.306573" lon="-3.018716">
      <ele>868.2</ele>
    </trkpt>
    <trkpt lat="42.306725" lon="-3.018468">
      <ele>870.1</ele>
    </trkpt>
    <trkpt lat="42.306928" lon="-3.018027">
      <ele>873.1</ele>
    </trkpt>
    <trkpt lat="42.306984" lon="-3.01795">
      <ele>873.8</ele>
    </trkpt>
    <trkpt lat="42.307124" lon="-3.017855">
      <ele>874.9</ele>
    </trkpt>
    <trkpt lat="42.307456" lon="-3.017714">
      <ele>877.5</ele>
    </trkpt>
    <trkpt lat="42.307628" lon="-3.017551">
      <ele>879.1</ele>
    </trkpt>
    <trkpt lat="42.308112" lon="-3.01684">
      <ele>884.5</ele>
    </trkpt>
    <trkpt lat="42.308622" lon="-3.016232">
      <ele>890.6</ele>
    </trkpt>
    <trkpt lat="42.308839" lon="-3.015885">
      <ele>894.4</ele>
    </trkpt>
    <trkpt lat="42.309227" lon="-3.01505">
      <ele>904.2</ele>
    </trkpt>
    <trkpt lat="42.309309" lon="-3.014759">
      <ele>907.2</ele>
    </trkpt>
    <trkpt lat="42.309306" lon="-3.014553">
      <ele>909</ele>
    </trkpt>
    <trkpt lat="42.309283" lon="-3.014463">
      <ele>909.9</ele>
    </trkpt>
    <trkpt lat="42.309221" lon="-3.014322">
      <ele>911.2</ele>
    </trkpt>
    <trkpt lat="42.309064" lon="-3.014075">
      <ele>913.7</ele>
    </trkpt>
    <trkpt lat="42.30904" lon="-3.01395">
      <ele>914.6</ele>
    </trkpt>
    <trkpt lat="42.309055" lon="-3.013883">
      <ele>915.1</ele>
    </trkpt>
    <trkpt lat="42.309136" lon="-3.013748">
      <ele>916.4</ele>
    </trkpt>
    <trkpt lat="42.309517" lon="-3.013367">
      <ele>921</ele>
    </trkpt>
    <trkpt lat="42.309644" lon="-3.013164">
      <ele>923</ele>
    </trkpt>
    <trkpt lat="42.309795" lon="-3.012651">
      <ele>927.4</ele>
    </trkpt>
    <trkpt lat="42.309818" lon="-3.01245">
      <ele>929.1</ele>
    </trkpt>
    <trkpt lat="42.309794" lon="-3.012285">
      <ele>930.7</ele>
    </trkpt>
    <trkpt lat="42.309732" lon="-3.012135">
      <ele>932.4</ele>
    </trkpt>
    <trkpt lat="42.309506" lon="-3.011835">
      <ele>936.8</ele>
    </trkpt>
    <trkpt lat="42.309366" lon="-3.011518">
      <ele>940.9</ele>
    </trkpt>
    <trkpt lat="42.309232" lon="-3.011118">
      <ele>945.6</ele>
    </trkpt>
    <trkpt lat="42.308936" lon="-3.009876">
      <ele>958.1</ele>
    </trkpt>
    <trkpt lat="42.308861" lon="-3.00966">
      <ele>960.2</ele>
    </trkpt>
    <trkpt lat="42.308359" lon="-3.008842">
      <ele>969</ele>
    </trkpt>
    <trkpt lat="42.308177" lon="-3.008416">
      <ele>972.8</ele>
    </trkpt>
    <trkpt lat="42.30812" lon="-3.008359">
      <ele>973.5</ele>
    </trkpt>
    <trkpt lat="42.308021" lon="-3.008381">
      <ele>974.5</ele>
    </trkpt>
    <trkpt lat="42.307985" lon="-3.008461">
      <ele>975.1</ele>
    </trkpt>
    <trkpt lat="42.307976" lon="-3.008566">
      <ele>975.8</ele>
    </trkpt>
    <trkpt lat="42.308015" lon="-3.008708">
      <ele>976.7</ele>
    </trkpt>
    <trkpt lat="42.308212" lon="-3.009132">
      <ele>979.3</ele>
    </trkpt>
    <trkpt lat="42.308266" lon="-3.009302">
      <ele>980.1</ele>
    </trkpt>
    <trkpt lat="42.308298" lon="-3.009504">
      <ele>981.1</ele>
    </trkpt>
    <trkpt lat="42.308359" lon="-3.010713">
      <ele>987.3</ele>
    </trkpt>
    <trkpt lat="42.30833" lon="-3.010825">
      <ele>987.9</ele>
    </trkpt>
    <trkpt lat="42.308283" lon="-3.010865">
      <ele>988.2</ele>
    </trkpt>
    <trkpt lat="42.308216" lon="-3.010835">
      <ele>988.7</ele>
    </trkpt>
    <trkpt lat="42.308144" lon="-3.010713">
      <ele>989.5</ele>
    </trkpt>
    <trkpt lat="42.307826" lon="-3.009541">
      <ele>996.2</ele>
    </trkpt>
    <trkpt lat="42.307349" lon="-3.008502">
      <ele>1000.9</ele>
    </trkpt>
    <trkpt lat="42.307327" lon="-3.008268">
      <ele>1001.7</ele>
    </trkpt>
    <trkpt lat="42.307351" lon="-3.00776">
      <ele>1003.7</ele>
    </trkpt>
    <trkpt lat="42.307315" lon="-3.00725">
      <ele>1006.1</ele>
    </trkpt>
    <trkpt lat="42.307273" lon="-3.007096">
      <ele>1006.9</ele>
    </trkpt>
    <trkpt lat="42.307227" lon="-3.007059">
      <ele>1007.3</ele>
    </trkpt>
    <trkpt lat="42.307187" lon="-3.007066">
      <ele>1007.6</ele>
    </trkpt>
    <trkpt lat="42.307107" lon="-3.007173">
      <ele>1008.5</ele>
    </trkpt>
    <trkpt lat="42.307055" lon="-3.007683">
      <ele>1011.5</ele>
    </trkpt>
    <trkpt lat="42.306842" lon="-3.008459">
      <ele>1017.2</ele>
    </trkpt>
    <trkpt lat="42.306887" lon="-3.009605">
      <ele>1025.5</ele>
    </trkpt>
    <trkpt lat="42.306843" lon="-3.009984">
      <ele>1027.9</ele>
    </trkpt>
    <trkpt lat="42.306741" lon="-3.010496">
      <ele>1031.1</ele>
    </trkpt>
    <trkpt lat="42.306716" lon="-3.01122">
      <ele>1034.9</ele>
    </trkpt>
    <trkpt lat="42.306672" lon="-3.011591">
      <ele>1036.3</ele>
    </trkpt>
    <trkpt lat="42.306595" lon="-3.011853">
      <ele>1037.1</ele>
    </trkpt>
    <trkpt lat="42.306405" lon="-3.012274">
      <ele>1038.2</ele>
    </trkpt>
    <trkpt lat="42.306239" lon="-3.012906">
      <ele>1039.7</ele>
    </trkpt>
    <trkpt lat="42.306142" lon="-3.013076">
      <ele>1040.3</ele>
    </trkpt>
    <trkpt lat="42.305987" lon="-3.013193">
      <ele>1041</ele>
    </trkpt>
    <trkpt lat="42.305024" lon="-3.013299">
      <ele>1047.5</ele>
    </trkpt>
    <trkpt lat="42.304301" lon="-3.013702">
      <ele>1056.6</ele>
    </trkpt>
    <trkpt lat="42.303604" lon="-3.013733">
      <ele>1062.6</ele>
    </trkpt>
    <trkpt lat="42.303459" lon="-3.013789">
      <ele>1063.5</ele>
    </trkpt>
    <trkpt lat="42.303097" lon="-3.014054">
      <ele>1065.5</ele>
    </trkpt>
    <trkpt lat="42.302912" lon="-3.014361">
      <ele>1067</ele>
    </trkpt>
    <trkpt lat="42.30282" lon="-3.014469">
      <ele>1067.6</ele>
    </trkpt>
    <trkpt lat="42.302719" lon="-3.014522">
      <ele>1068.2</ele>
    </trkpt>
    <trkpt lat="42.302464" lon="-3.014524">
      <ele>1069.6</ele>
    </trkpt>
    <trkpt lat="42.302035" lon="-3.014384">
      <ele>1073</ele>
    </trkpt>
    <trkpt lat="42.301792" lon="-3.014422">
      <ele>1075.4</ele>
    </trkpt>
    <trkpt lat="42.301148" lon="-3.014748">
      <ele>1083.3</ele>
    </trkpt>
    <trkpt lat="42.300242" lon="-3.01556">
      <ele>1092.4</ele>
    </trkpt>
    <trkpt lat="42.300066" lon="-3.015698">
      <ele>1093.4</ele>
    </trkpt>
    <trkpt lat="42.299985" lon="-3.015731">
      <ele>1093.8</ele>
    </trkpt>
    <trkpt lat="42.299593" lon="-3.015787">
      <ele>1095.5</ele>
    </trkpt>
    <trkpt lat="42.299002" lon="-3.0157">
      <ele>1097.7</ele>
    </trkpt>
    <trkpt lat="42.298908" lon="-3.015649">
      <ele>1098.1</ele>
    </trkpt>
    <trkpt lat="42.298718" lon="-3.015432">
      <ele>1099.2</ele>
    </trkpt>
    <trkpt lat="42.29849" lon="-3.015035">
      <ele>1100.8</ele>
    </trkpt>
    <trkpt lat="42.298372" lon="-3.014702">
      <ele>1102.1</ele>
    </trkpt>
    <trkpt lat="42.298163" lon="-3.013781">
      <ele>1106.3</ele>
    </trkpt>
    <trkpt lat="42.298011" lon="-3.013302">
      <ele>1108.9</ele>
    </trkpt>
    <trkpt lat="42.297505" lon="-3.012246">
      <ele>1116.6</ele>
    </trkpt>
    <trkpt lat="42.297161" lon="-3.01168">
      <ele>1121.2</ele>
    </trkpt>
    <trkpt lat="42.29702" lon="-3.01132">
      <ele>1123.6</ele>
    </trkpt>
    <trkpt lat="42.296903" lon="-3.010606">
      <ele>1128</ele>
    </trkpt>
    <trkpt lat="42.296888" lon="-3.010336">
      <ele>1129.5</ele>
    </trkpt>
    <trkpt lat="42.296986" lon="-3.009085">
      <ele>1137.3</ele>
    </trkpt>
    <trkpt lat="42.296944" lon="-3.00826">
      <ele>1142.1</ele>
    </trkpt>
    <trkpt lat="42.296986" lon="-3.007741">
      <ele>1144.3</ele>
    </trkpt>
    <trkpt lat="42.296975" lon="-3.007531">
      <ele>1145</ele>
    </trkpt>
    <trkpt lat="42.296904" lon="-3.007347">
      <ele>1145.7</ele>
    </trkpt>
    <trkpt lat="42.296329" lon="-3.006468">
      <ele>1148.7</ele>
    </trkpt>
    <trkpt lat="42.296079" lon="-3.005995">
      <ele>1150.4</ele>
    </trkpt>
    <trkpt lat="42.295915" lon="-3.005483">
      <ele>1152.6</ele>
    </trkpt>
    <trkpt lat="42.295804" lon="-3.004887">
      <ele>1155.6</ele>
    </trkpt>
    <trkpt lat="42.295758" lon="-3.004002">
      <ele>1159.1</ele>
    </trkpt>
    <trkpt lat="42.295653" lon="-3.003375">
      <ele>1160.7</ele>
    </trkpt>
    <trkpt lat="42.295592" lon="-3.002812">
      <ele>1161.8</ele>
    </trkpt>
    <trkpt lat="42.295578" lon="-3.002112">
      <ele>1163.2</ele>
    </trkpt>
    <trkpt lat="42.295512" lon="-3.001097">
      <ele>1166.7</ele>
    </trkpt>
    <trkpt lat="42.295556" lon="-3.000075">
      <ele>1172.7</ele>
    </trkpt>
    <trkpt lat="42.295547" lon="-2.999041">
      <ele>1180.1</ele>
    </trkpt>
    <trkpt lat="42.295519" lon="-2.998566">
      <ele>1183.5</ele>
    </trkpt>
    <trkpt lat="42.295451" lon="-2.998305">
      <ele>1185.4</ele>
    </trkpt>
    <trkpt lat="42.29532" lon="-2.998093">
      <ele>1187.1</ele>
    </trkpt>
    <trkpt lat="42.295211" lon="-2.997994">
      <ele>1188.3</ele>
    </trkpt>
    <trkpt lat="42.294931" lon="-2.997831">
      <ele>1190.6</ele>
    </trkpt>
    <trkpt lat="42.294203" lon="-2.99749">
      <ele>1194.9</ele>
    </trkpt>
    <trkpt lat="42.293933" lon="-2.997307">
      <ele>1196</ele>
    </trkpt>
    <trkpt lat="42.293797" lon="-2.997177">
      <ele>1196.5</ele>
    </trkpt>
    <trkpt lat="42.293641" lon="-2.996958">
      <ele>1197.2</ele>
    </trkpt>
    <trkpt lat="42.293531" lon="-2.996712">
      <ele>1198</ele>
    </trkpt>
    <trkpt lat="42.29334" lon="-2.995841">
      <ele>1200.7</ele>
    </trkpt>
    <trkpt lat="42.293182" lon="-2.995076">
      <ele>1203.8</ele>
    </trkpt>
    <trkpt lat="42.292921" lon="-2.994206">
      <ele>1209.1</ele>
    </trkpt>
    <trkpt lat="42.292815" lon="-2.993543">
      <ele>1213.3</ele>
    </trkpt>
    <trkpt lat="42.292324" lon="-2.992127">
      <ele>1224.7</ele>
    </trkpt>
    <trkpt lat="42.292208" lon="-2.991923">
      <ele>1226.7</ele>
    </trkpt>
    <trkpt lat="42.292009" lon="-2.991683">
      <ele>1229.6</ele>
    </trkpt>
    <trkpt lat="42.291785" lon="-2.991523">
      <ele>1232.5</ele>
    </trkpt>
    <trkpt lat="42.291376" lon="-2.991335">
      <ele>1237.9</ele>
    </trkpt>
    <trkpt lat="42.291045" lon="-2.991144">
      <ele>1242.7</ele>
    </trkpt>
    <trkpt lat="42.29028" lon="-2.99064">
      <ele>1253.1</ele>
    </trkpt>
    <trkpt lat="42.290033" lon="-2.990579">
      <ele>1255.2</ele>
    </trkpt>
    <trkpt lat="42.289798" lon="-2.990623">
      <ele>1256.6</ele>
    </trkpt>
    <trkpt lat="42.289241" lon="-2.990835">
      <ele>1256.3</ele>
    </trkpt>
    <trkpt lat="42.289001" lon="-2.991002">
      <ele>1255.6</ele>
    </trkpt>
    <trkpt lat="42.28869" lon="-2.991344">
      <ele>1255</ele>
    </trkpt>
    <trkpt lat="42.288523" lon="-2.991434">
      <ele>1255.1</ele>
    </trkpt>
    <trkpt lat="42.288424" lon="-2.99142">
      <ele>1255.2</ele>
    </trkpt>
    <trkpt lat="42.288274" lon="-2.991285">
      <ele>1255.6</ele>
    </trkpt>
    <trkpt lat="42.287947" lon="-2.990757">
      <ele>1258.7</ele>
    </trkpt>
    <trkpt lat="42.287669" lon="-2.990218">
      <ele>1265.2</ele>
    </trkpt>
    <trkpt lat="42.286795" lon="-2.988284">
      <ele>1287.6</ele>
    </trkpt>
    <trkpt lat="42.286732" lon="-2.988217">
      <ele>1288.3</ele>
    </trkpt>
    <trkpt lat="42.286585" lon="-2.988155">
      <ele>1289.5</ele>
    </trkpt>
    <trkpt lat="42.286342" lon="-2.988172">
      <ele>1291.1</ele>
    </trkpt>
    <trkpt lat="42.285637" lon="-2.988322">
      <ele>1293.6</ele>
    </trkpt>
    <trkpt lat="42.285436" lon="-2.988302">
      <ele>1293.9</ele>
    </trkpt>
    <trkpt lat="42.285365" lon="-2.988268">
      <ele>1294.1</ele>
    </trkpt>
    <trkpt lat="42.285237" lon="-2.988136">
      <ele>1294.3</ele>
    </trkpt>
    <trkpt lat="42.285161" lon="-2.987941">
      <ele>1294.7</ele>
    </trkpt>
    <trkpt lat="42.285142" lon="-2.987783">
      <ele>1295</ele>
    </trkpt>
    <trkpt lat="42.285166" lon="-2.987421">
      <ele>1295.8</ele>
    </trkpt>
    <trkpt lat="42.285316" lon="-2.986755">
      <ele>1298</ele>
    </trkpt>
    <trkpt lat="42.285391" lon="-2.986059">
      <ele>1300.8</ele>
    </trkpt>
    <trkpt lat="42.285453" lon="-2.985749">
      <ele>1302</ele>
    </trkpt>
    <trkpt lat="42.285555" lon="-2.985559">
      <ele>1302.9</ele>
    </trkpt>
    <trkpt lat="42.28593" lon="-2.985157">
      <ele>1305.4</ele>
    </trkpt>
    <trkpt lat="42.286076" lon="-2.984865">
      <ele>1306.7</ele>
    </trkpt>
    <trkpt lat="42.2862" lon="-2.98442">
      <ele>1308.4</ele>
    </trkpt>
    <trkpt lat="42.286396" lon="-2.983366">
      <ele>1312.5</ele>
    </trkpt>
    <trkpt lat="42.286402" lon="-2.983073">
      <ele>1313.7</ele>
    </trkpt>
    <trkpt lat="42.286327" lon="-2.982734">
      <ele>1315.3</ele>
    </trkpt>
    <trkpt lat="42.285983" lon="-2.981846">
      <ele>1319.4</ele>
    </trkpt>
    <trkpt lat="42.285908" lon="-2.981549">
      <ele>1320.5</ele>
    </trkpt>
    <trkpt lat="42.285906" lon="-2.980996">
      <ele>1322.3</ele>
    </trkpt>
    <trkpt lat="42.285955" lon="-2.980587">
      <ele>1323.7</ele>
    </trkpt>
    <trkpt lat="42.286009" lon="-2.980376">
      <ele>1324.5</ele>
    </trkpt>
    <trkpt lat="42.286251" lon="-2.979774">
      <ele>1326.8</ele>
    </trkpt>
    <trkpt lat="42.286381" lon="-2.979513">
      <ele>1327.8</ele>
    </trkpt>
    <trkpt lat="42.286838" lon="-2.978738">
      <ele>1331.3</ele>
    </trkpt>
    <trkpt lat="42.287175" lon="-2.978022">
      <ele>1335.3</ele>
    </trkpt>
    <trkpt lat="42.287499" lon="-2.977453">
      <ele>1339.1</ele>
    </trkpt>
    <trkpt lat="42.287715" lon="-2.976949">
      <ele>1342.3</ele>
    </trkpt>
    <trkpt lat="42.287769" lon="-2.976766">
      <ele>1343.5</ele>
    </trkpt>
    <trkpt lat="42.287866" lon="-2.975152">
      <ele>1351.1</ele>
    </trkpt>
    <trkpt lat="42.287688" lon="-2.973717">
      <ele>1355.1</ele>
    </trkpt>
    <trkpt lat="42.287645" lon="-2.9732">
      <ele>1356.3</ele>
    </trkpt>
    <trkpt lat="42.287645" lon="-2.972714">
      <ele>1357.5</ele>
    </trkpt>
    <trkpt lat="42.287719" lon="-2.97232">
      <ele>1358.7</ele>
    </trkpt>
    <trkpt lat="42.287989" lon="-2.971581">
      <ele>1361.6</ele>
    </trkpt>
    <trkpt lat="42.288095" lon="-2.971173">
      <ele>1363.5</ele>
    </trkpt>
    <trkpt lat="42.288136" lon="-2.970746">
      <ele>1365.4</ele>
    </trkpt>
    <trkpt lat="42.288099" lon="-2.970343">
      <ele>1367.1</ele>
    </trkpt>
    <trkpt lat="42.287996" lon="-2.96996">
      <ele>1368.8</ele>
    </trkpt>
    <trkpt lat="42.28737" lon="-2.96871">
      <ele>1374.6</ele>
    </trkpt>
    <trkpt lat="42.287" lon="-2.9681">
      <ele>1377.8</ele>
    </trkpt>
    <trkpt lat="42.286619" lon="-2.967558">
      <ele>1382.4</ele>
    </trkpt>
    <trkpt lat="42.28637" lon="-2.96715">
      <ele>1386.5</ele>
    </trkpt>
    <trkpt lat="42.286246" lon="-2.966837">
      <ele>1389.1</ele>
    </trkpt>
    <trkpt lat="42.28618" lon="-2.966483">
      <ele>1391.6</ele>
    </trkpt>
    <trkpt lat="42.286118" lon="-2.966342">
      <ele>1392.6</ele>
    </trkpt>
    <trkpt lat="42.286004" lon="-2.966271">
      <ele>1393.6</ele>
    </trkpt>
    <trkpt lat="42.285807" lon="-2.96626">
      <ele>1394.9</ele>
    </trkpt>
    <trkpt lat="42.285173" lon="-2.966387">
      <ele>1395.8</ele>
    </trkpt>
    <trkpt lat="42.284736" lon="-2.966557">
      <ele>1395.6</ele>
    </trkpt>
    <trkpt lat="42.284606" lon="-2.966575">
      <ele>1395.4</ele>
    </trkpt>
    <trkpt lat="42.284484" lon="-2.966515">
      <ele>1395.2</ele>
    </trkpt>
    <trkpt lat="42.284394" lon="-2.966349">
      <ele>1395.1</ele>
    </trkpt>
    <trkpt lat="42.284189" lon="-2.965697">
      <ele>1395.3</ele>
    </trkpt>
    <trkpt lat="42.284019" lon="-2.965306">
      <ele>1396.3</ele>
    </trkpt>
    <trkpt lat="42.283119" lon="-2.963716">
      <ele>1407.1</ele>
    </trkpt>
    <trkpt lat="42.28297" lon="-2.963408">
      <ele>1410.1</ele>
    </trkpt>
    <trkpt lat="42.282221" lon="-2.961629">
      <ele>1433.2</ele>
    </trkpt>
    <trkpt lat="42.282065" lon="-2.961134">
      <ele>1439.2</ele>
    </trkpt>
    <trkpt lat="42.282035" lon="-2.961045">
      <ele>1440.2</ele>
    </trkpt>
    <trkpt lat="42.281952" lon="-2.960932">
      <ele>1441.8</ele>
    </trkpt>
    <trkpt lat="42.281857" lon="-2.960903">
      <ele>1443</ele>
    </trkpt>
    <trkpt lat="42.281806" lon="-2.960917">
      <ele>1443.6</ele>
    </trkpt>
    <trkpt lat="42.281713" lon="-2.961033">
      <ele>1445</ele>
    </trkpt>
    <trkpt lat="42.281305" lon="-2.961852">
      <ele>1450.4</ele>
    </trkpt>
    <trkpt lat="42.281001" lon="-2.96268">
      <ele>1456</ele>
    </trkpt>
    <trkpt lat="42.280908" lon="-2.962872">
      <ele>1457.9</ele>
    </trkpt>
    <trkpt lat="42.280596" lon="-2.963204">
      <ele>1462.3</ele>
    </trkpt>
    <trkpt lat="42.28004" lon="-2.963639">
      <ele>1468.3</ele>
    </trkpt>
    <trkpt lat="42.279986" lon="-2.963723">
      <ele>1469</ele>
    </trkpt>
    <trkpt lat="42.280019" lon="-2.963999">
      <ele>1470.3</ele>
    </trkpt>
    <trkpt lat="42.28017" lon="-2.964354">
      <ele>1471.4</ele>
    </trkpt>
    <trkpt lat="42.280533" lon="-2.964701">
      <ele>1471</ele>
    </trkpt>
    <trkpt lat="42.280574" lon="-2.964785">
      <ele>1470.7</ele>
    </trkpt>
    <trkpt lat="42.280579" lon="-2.964849">
      <ele>1470.5</ele>
    </trkpt>
    <trkpt lat="42.280562" lon="-2.964979">
      <ele>1469.9</ele>
    </trkpt>
    <trkpt lat="42.280412" lon="-2.965464">
      <ele>1467</ele>
    </trkpt>
    <trkpt lat="42.280276" lon="-2.966314">
      <ele>1461.6</ele>
    </trkpt>
    <trkpt lat="42.280233" lon="-2.966838">
      <ele>1458.3</ele>
    </trkpt>
    <trkpt lat="42.280141" lon="-2.96714">
      <ele>1456.3</ele>
    </trkpt>
    <trkpt lat="42.279964" lon="-2.967574">
      <ele>1454</ele>
    </trkpt>
    <trkpt lat="42.279876" lon="-2.96769">
      <ele>1453.5</ele>
    </trkpt>
    <trkpt lat="42.27975" lon="-2.967774">
      <ele>1453</ele>
    </trkpt>
    <trkpt lat="42.279332" lon="-2.96787">
      <ele>1453.6</ele>
    </trkpt>
    <trkpt lat="42.278707" lon="-2.967803">
      <ele>1459.4</ele>
    </trkpt>
    <trkpt lat="42.278495" lon="-2.967754">
      <ele>1462.1</ele>
    </trkpt>
    <trkpt lat="42.278042" lon="-2.967563">
      <ele>1468</ele>
    </trkpt>
    <trkpt lat="42.277937" lon="-2.967568">
      <ele>1469.1</ele>
    </trkpt>
    <trkpt lat="42.27785" lon="-2.967684">
      <ele>1470.3</ele>
    </trkpt>
    <trkpt lat="42.277811" lon="-2.967868">
      <ele>1471.5</ele>
    </trkpt>
    <trkpt lat="42.277805" lon="-2.968554">
      <ele>1474.1</ele>
    </trkpt>
    <trkpt lat="42.277695" lon="-2.969694">
      <ele>1470.6</ele>
    </trkpt>
    <trkpt lat="42.277702" lon="-2.969828">
      <ele>1469.7</ele>
    </trkpt>
    <trkpt lat="42.27772" lon="-2.969984">
      <ele>1468.7</ele>
    </trkpt>
    <trkpt lat="42.277797" lon="-2.970289">
      <ele>1466.5</ele>
    </trkpt>
    <trkpt lat="42.278061" lon="-2.971104">
      <ele>1463.8</ele>
    </trkpt>
    <trkpt lat="42.278069" lon="-2.971197">
      <ele>1463.9</ele>
    </trkpt>
    <trkpt lat="42.278045" lon="-2.971361">
      <ele>1464.1</ele>
    </trkpt>
    <trkpt lat="42.277979" lon="-2.97148">
      <ele>1464.3</ele>
    </trkpt>
    <trkpt lat="42.277837" lon="-2.971542">
      <ele>1464.9</ele>
    </trkpt>
    <trkpt lat="42.277165" lon="-2.971378">
      <ele>1469.7</ele>
    </trkpt>
    <trkpt lat="42.276798" lon="-2.971341">
      <ele>1473.5</ele>
    </trkpt>
    <trkpt lat="42.276504" lon="-2.971367">
      <ele>1476.3</ele>
    </trkpt>
    <trkpt lat="42.276278" lon="-2.971466">
      <ele>1477.9</ele>
    </trkpt>
    <trkpt lat="42.276171" lon="-2.9716">
      <ele>1478.6</ele>
    </trkpt>
    <trkpt lat="42.275932" lon="-2.972141">
      <ele>1480</ele>
    </trkpt>
    <trkpt lat="42.275261" lon="-2.973475">
      <ele>1480.1</ele>
    </trkpt>
    <trkpt lat="42.27455" lon="-2.97503">
      <ele>1476</ele>
    </trkpt>
    <trkpt lat="42.274372" lon="-2.975333">
      <ele>1475.5</ele>
    </trkpt>
    <trkpt lat="42.274162" lon="-2.975571">
      <ele>1475.5</ele>
    </trkpt>
    <trkpt lat="42.273954" lon="-2.975626">
      <ele>1475.8</ele>
    </trkpt>
    <trkpt lat="42.273383" lon="-2.975464">
      <ele>1478.2</ele>
    </trkpt>
    <trkpt lat="42.272531" lon="-2.975343">
      <ele>1484.7</ele>
    </trkpt>
    <trkpt lat="42.27212" lon="-2.975383">
      <ele>1486.9</ele>
    </trkpt>
    <trkpt lat="42.271514" lon="-2.975566">
      <ele>1487.6</ele>
    </trkpt>
    <trkpt lat="42.270997" lon="-2.97604">
      <ele>1486.8</ele>
    </trkpt>
    <trkpt lat="42.270876" lon="-2.976118">
      <ele>1486.6</ele>
    </trkpt>
    <trkpt lat="42.270762" lon="-2.976145">
      <ele>1486.4</ele>
    </trkpt>
    <trkpt lat="42.270621" lon="-2.976113">
      <ele>1486.1</ele>
    </trkpt>
    <trkpt lat="42.270391" lon="-2.975954">
      <ele>1485.8</ele>
    </trkpt>
    <trkpt lat="42.269483" lon="-2.975145">
      <ele>1486.6</ele>
    </trkpt>
    <trkpt lat="42.269143" lon="-2.974884">
      <ele>1486.9</ele>
    </trkpt>
    <trkpt lat="42.268767" lon="-2.974511">
      <ele>1486.9</ele>
    </trkpt>
    <trkpt lat="42.268324" lon="-2.973993">
      <ele>1488.5</ele>
    </trkpt>
    <trkpt lat="42.268198" lon="-2.973708">
      <ele>1490.1</ele>
    </trkpt>
    <trkpt lat="42.268135" lon="-2.973453">
      <ele>1491.9</ele>
    </trkpt>
    <trkpt lat="42.268006" lon="-2.972281">
      <ele>1504.4</ele>
    </trkpt>
    <trkpt lat="42.267987" lon="-2.971667">
      <ele>1512</ele>
    </trkpt>
    <trkpt lat="42.267955" lon="-2.971562">
      <ele>1513.2</ele>
    </trkpt>
    <trkpt lat="42.267871" lon="-2.971491">
      <ele>1514.7</ele>
    </trkpt>
    <trkpt lat="42.267795" lon="-2.971466">
      <ele>1515.6</ele>
    </trkpt>
    <trkpt lat="42.267409" lon="-2.971418">
      <ele>1519.5</ele>
    </trkpt>
    <trkpt lat="42.266997" lon="-2.971182">
      <ele>1521.6</ele>
    </trkpt>
    <trkpt lat="42.266769" lon="-2.971215">
      <ele>1521.9</ele>
    </trkpt>
    <trkpt lat="42.266694" lon="-2.971306">
      <ele>1521.9</ele>
    </trkpt>
    <trkpt lat="42.26653" lon="-2.971884">
      <ele>1522.1</ele>
    </trkpt>
    <trkpt lat="42.266427" lon="-2.972045">
      <ele>1522.1</ele>
    </trkpt>
    <trkpt lat="42.266279" lon="-2.972146">
      <ele>1522.1</ele>
    </trkpt>
    <trkpt lat="42.265547" lon="-2.972242">
      <ele>1523.1</ele>
    </trkpt>
    <trkpt lat="42.265249" lon="-2.972372">
      <ele>1524.3</ele>
    </trkpt>
    <trkpt lat="42.264891" lon="-2.972655">
      <ele>1526.1</ele>
    </trkpt>
    <trkpt lat="42.264758" lon="-2.972809">
      <ele>1526.6</ele>
    </trkpt>
    <trkpt lat="42.264523" lon="-2.973241">
      <ele>1526.7</ele>
    </trkpt>
    <trkpt lat="42.264385" lon="-2.973584">
      <ele>1526.2</ele>
    </trkpt>
    <trkpt lat="42.264293" lon="-2.973711">
      <ele>1525.8</ele>
    </trkpt>
    <trkpt lat="42.264177" lon="-2.973796">
      <ele>1525.4</ele>
    </trkpt>
    <trkpt lat="42.263904" lon="-2.973896">
      <ele>1524.3</ele>
    </trkpt>
    <trkpt lat="42.263343" lon="-2.973983">
      <ele>1521.9</ele>
    </trkpt>
    <trkpt lat="42.262532" lon="-2.974019">
      <ele>1519.1</ele>
    </trkpt>
    <trkpt lat="42.261469" lon="-2.973889">
      <ele>1522.3</ele>
    </trkpt>
    <trkpt lat="42.260659" lon="-2.973709">
      <ele>1522.7</ele>
    </trkpt>
    <trkpt lat="42.260508" lon="-2.973722">
      <ele>1522.8</ele>
    </trkpt>
    <trkpt lat="42.260315" lon="-2.973787">
      <ele>1522.9</ele>
    </trkpt>
    <trkpt lat="42.260211" lon="-2.973814">
      <ele>1522.8</ele>
    </trkpt>
    <trkpt lat="42.260088" lon="-2.97379">
      <ele>1522.6</ele>
    </trkpt>
    <trkpt lat="42.259809" lon="-2.973635">
      <ele>1521.7</ele>
    </trkpt>
    <trkpt lat="42.259494" lon="-2.973357">
      <ele>1520.8</ele>
    </trkpt>
    <trkpt lat="42.258962" lon="-2.972749">
      <ele>1521.5</ele>
    </trkpt>
    <trkpt lat="42.258861" lon="-2.972483">
      <ele>1521.7</ele>
    </trkpt>
    <trkpt lat="42.258729" lon="-2.972328">
      <ele>1522.1</ele>
    </trkpt>
    <trkpt lat="42.258616" lon="-2.9722">
      <ele>1522.7</ele>
    </trkpt>
    <trkpt lat="42.258587" lon="-2.972176">
      <ele>1522.8</ele>
    </trkpt>
    <trkpt lat="42.258145" lon="-2.971808">
      <ele>1526.8</ele>
    </trkpt>
    <trkpt lat="42.258088" lon="-2.971943">
      <ele>1527.9</ele>
    </trkpt>
    <trkpt lat="42.257744" lon="-2.971727">
      <ele>1531.2</ele>
    </trkpt>
    <trkpt lat="42.257449" lon="-2.971622">
      <ele>1533.8</ele>
    </trkpt>
    <trkpt lat="42.257295" lon="-2.971616">
      <ele>1535.2</ele>
    </trkpt>
    <trkpt lat="42.257166" lon="-2.971647">
      <ele>1536.3</ele>
    </trkpt>
    <trkpt lat="42.257148" lon="-2.971651">
      <ele>1536.5</ele>
    </trkpt>
    <trkpt lat="42.256969" lon="-2.971749">
      <ele>1538.3</ele>
    </trkpt>
    <trkpt lat="42.256928" lon="-2.97181">
      <ele>1538.8</ele>
    </trkpt>
    <trkpt lat="42.25683" lon="-2.971719">
      <ele>1539.8</ele>
    </trkpt>
    <trkpt lat="42.256809" lon="-2.971694">
      <ele>1539.9</ele>
    </trkpt>
    <trkpt lat="42.256766" lon="-2.971607">
      <ele>1540.5</ele>
    </trkpt>
    <trkpt lat="42.256801" lon="-2.971416">
      <ele>1541.2</ele>
    </trkpt>
    <trkpt lat="42.256855" lon="-2.971332">
      <ele>1541.5</ele>
    </trkpt>
    <trkpt lat="42.256999" lon="-2.971213">
      <ele>1542.1</ele>
    </trkpt>
    <trkpt lat="42.257016" lon="-2.971166">
      <ele>1542.3</ele>
    </trkpt>
    <trkpt lat="42.257024" lon="-2.971142">
      <ele>1542.3</ele>
    </trkpt>
    <trkpt lat="42.257047" lon="-2.971081">
      <ele>1542.4</ele>
    </trkpt>
    <trkpt lat="42.257237" lon="-2.971088">
      <ele>1542.6</ele>
    </trkpt>
    <trkpt lat="42.257674" lon="-2.971167">
      <ele>1542.5</ele>
    </trkpt>
    <trkpt lat="42.257725" lon="-2.971163">
      <ele>1542.4</ele>
    </trkpt>
    <trkpt lat="42.257769" lon="-2.971111">
      <ele>1542.3</ele>
    </trkpt>
    <trkpt lat="42.257932" lon="-2.971047">
      <ele>1541.9</ele>
    </trkpt>
    <trkpt lat="42.258159" lon="-2.97113">
      <ele>1541.3</ele>
    </trkpt>
    <trkpt lat="42.258348" lon="-2.971243">
      <ele>1540.6</ele>
    </trkpt>
    <trkpt lat="42.258434" lon="-2.971324">
      <ele>1540.3</ele>
    </trkpt>
    <trkpt lat="42.258869" lon="-2.971925">
      <ele>1538.8</ele>
    </trkpt>
    <trkpt lat="42.259116" lon="-2.972178">
      <ele>1537.9</ele>
    </trkpt>
    <trkpt lat="42.259453" lon="-2.972705">
      <ele>1536.1</ele>
    </trkpt>
    <trkpt lat="42.259795" lon="-2.973155">
      <ele>1534.8</ele>
    </trkpt>
    <trkpt lat="42.259969" lon="-2.973338">
      <ele>1533.7</ele>
    </trkpt>
    <trkpt lat="42.26027" lon="-2.973561">
      <ele>1531.7</ele>
    </trkpt>
    <trkpt lat="42.260308" lon="-2.97358">
      <ele>1531.4</ele>
    </trkpt>
    <trkpt lat="42.260426" lon="-2.973621">
      <ele>1530.5</ele>
    </trkpt>
    <trkpt lat="42.260615" lon="-2.973672">
      <ele>1529.1</ele>
    </trkpt>
    <trkpt lat="42.260659" lon="-2.973709">
      <ele>1528.7</ele>
    </trkpt>
    <trkpt lat="42.261469" lon="-2.973889">
      <ele>1523.1</ele>
    </trkpt>
    <trkpt lat="42.262532" lon="-2.974019">
      <ele>1519.1</ele>
    </trkpt>
    <trkpt lat="42.263343" lon="-2.973983">
      <ele>1521.9</ele>
    </trkpt>
    <trkpt lat="42.263904" lon="-2.973896">
      <ele>1524.3</ele>
    </trkpt>
    <trkpt lat="42.264177" lon="-2.973796">
      <ele>1525.4</ele>
    </trkpt>
    <trkpt lat="42.264293" lon="-2.973711">
      <ele>1525.8</ele>
    </trkpt>
    <trkpt lat="42.264385" lon="-2.973584">
      <ele>1526.2</ele>
    </trkpt>
    <trkpt lat="42.264523" lon="-2.973241">
      <ele>1526.7</ele>
    </trkpt>
    <trkpt lat="42.264758" lon="-2.972809">
      <ele>1526.6</ele>
    </trkpt>
    <trkpt lat="42.264891" lon="-2.972655">
      <ele>1526.1</ele>
    </trkpt>
    <trkpt lat="42.265249" lon="-2.972372">
      <ele>1524.3</ele>
    </trkpt>
    <trkpt lat="42.265547" lon="-2.972242">
      <ele>1523.1</ele>
    </trkpt>
    <trkpt lat="42.266279" lon="-2.972146">
      <ele>1522.1</ele>
    </trkpt>
    <trkpt lat="42.266427" lon="-2.972045">
      <ele>1522.1</ele>
    </trkpt>
    <trkpt lat="42.26653" lon="-2.971884">
      <ele>1522.1</ele>
    </trkpt>
    <trkpt lat="42.266694" lon="-2.971306">
      <ele>1521.9</ele>
    </trkpt>
    <trkpt lat="42.266769" lon="-2.971215">
      <ele>1521.9</ele>
    </trkpt>
    <trkpt lat="42.266997" lon="-2.971182">
      <ele>1521.6</ele>
    </trkpt>
    <trkpt lat="42.267409" lon="-2.971418">
      <ele>1519.5</ele>
    </trkpt>
    <trkpt lat="42.267795" lon="-2.971466">
      <ele>1515.6</ele>
    </trkpt>
    <trkpt lat="42.267871" lon="-2.971491">
      <ele>1514.7</ele>
    </trkpt>
    <trkpt lat="42.267955" lon="-2.971562">
      <ele>1513.2</ele>
    </trkpt>
    <trkpt lat="42.267987" lon="-2.971667">
      <ele>1512</ele>
    </trkpt>
    <trkpt lat="42.268006" lon="-2.972281">
      <ele>1504.4</ele>
    </trkpt>
    <trkpt lat="42.268135" lon="-2.973453">
      <ele>1491.9</ele>
    </trkpt>
    <trkpt lat="42.268198" lon="-2.973708">
      <ele>1490.1</ele>
    </trkpt>
    <trkpt lat="42.268324" lon="-2.973993">
      <ele>1488.5</ele>
    </trkpt>
    <trkpt lat="42.268767" lon="-2.974511">
      <ele>1486.9</ele>
    </trkpt>
    <trkpt lat="42.269143" lon="-2.974884">
      <ele>1486.9</ele>
    </trkpt>
    <trkpt lat="42.269483" lon="-2.975145">
      <ele>1486.6</ele>
    </trkpt>
    <trkpt lat="42.270391" lon="-2.975954">
      <ele>1485.8</ele>
    </trkpt>
    <trkpt lat="42.270621" lon="-2.976113">
      <ele>1486.1</ele>
    </trkpt>
    <trkpt lat="42.270762" lon="-2.976145">
      <ele>1486.4</ele>
    </trkpt>
    <trkpt lat="42.270876" lon="-2.976118">
      <ele>1486.6</ele>
    </trkpt>
    <trkpt lat="42.270997" lon="-2.97604">
      <ele>1486.8</ele>
    </trkpt>
    <trkpt lat="42.271514" lon="-2.975566">
      <ele>1487.6</ele>
    </trkpt>
    <trkpt lat="42.27212" lon="-2.975383">
      <ele>1486.9</ele>
    </trkpt>
    <trkpt lat="42.272531" lon="-2.975343">
      <ele>1484.7</ele>
    </trkpt>
    <trkpt lat="42.273383" lon="-2.975464">
      <ele>1478.2</ele>
    </trkpt>
    <trkpt lat="42.273954" lon="-2.975626">
      <ele>1475.8</ele>
    </trkpt>
    <trkpt lat="42.274162" lon="-2.975571">
      <ele>1475.5</ele>
    </trkpt>
    <trkpt lat="42.274372" lon="-2.975333">
      <ele>1475.5</ele>
    </trkpt>
    <trkpt lat="42.27455" lon="-2.97503">
      <ele>1476</ele>
    </trkpt>
    <trkpt lat="42.275261" lon="-2.973475">
      <ele>1480.1</ele>
    </trkpt>
    <trkpt lat="42.275932" lon="-2.972141">
      <ele>1480</ele>
    </trkpt>
    <trkpt lat="42.276171" lon="-2.9716">
      <ele>1478.6</ele>
    </trkpt>
    <trkpt lat="42.276278" lon="-2.971466">
      <ele>1477.9</ele>
    </trkpt>
    <trkpt lat="42.276504" lon="-2.971367">
      <ele>1476.3</ele>
    </trkpt>
    <trkpt lat="42.276798" lon="-2.971341">
      <ele>1473.5</ele>
    </trkpt>
    <trkpt lat="42.277165" lon="-2.971378">
      <ele>1469.7</ele>
    </trkpt>
    <trkpt lat="42.277837" lon="-2.971542">
      <ele>1464.9</ele>
    </trkpt>
    <trkpt lat="42.277979" lon="-2.97148">
      <ele>1464.3</ele>
    </trkpt>
    <trkpt lat="42.278045" lon="-2.971361">
      <ele>1464.1</ele>
    </trkpt>
    <trkpt lat="42.278069" lon="-2.971197">
      <ele>1463.9</ele>
    </trkpt>
    <trkpt lat="42.278061" lon="-2.971104">
      <ele>1463.8</ele>
    </trkpt>
    <trkpt lat="42.277797" lon="-2.970289">
      <ele>1466.5</ele>
    </trkpt>
    <trkpt lat="42.27772" lon="-2.969984">
      <ele>1468.7</ele>
    </trkpt>
    <trkpt lat="42.277702" lon="-2.969828">
      <ele>1469.7</ele>
    </trkpt>
    <trkpt lat="42.277695" lon="-2.969694">
      <ele>1470.6</ele>
    </trkpt>
    <trkpt lat="42.277805" lon="-2.968554">
      <ele>1474.1</ele>
    </trkpt>
    <trkpt lat="42.277811" lon="-2.967868">
      <ele>1471.5</ele>
    </trkpt>
    <trkpt lat="42.27785" lon="-2.967684">
      <ele>1470.3</ele>
    </trkpt>
    <trkpt lat="42.277937" lon="-2.967568">
      <ele>1469.1</ele>
    </trkpt>
    <trkpt lat="42.278042" lon="-2.967563">
      <ele>1468</ele>
    </trkpt>
    <trkpt lat="42.278495" lon="-2.967754">
      <ele>1462.1</ele>
    </trkpt>
    <trkpt lat="42.278707" lon="-2.967803">
      <ele>1459.4</ele>
    </trkpt>
    <trkpt lat="42.279332" lon="-2.96787">
      <ele>1453.6</ele>
    </trkpt>
    <trkpt lat="42.27975" lon="-2.967774">
      <ele>1453</ele>
    </trkpt>
    <trkpt lat="42.279876" lon="-2.96769">
      <ele>1453.5</ele>
    </trkpt>
    <trkpt lat="42.279964" lon="-2.967574">
      <ele>1454</ele>
    </trkpt>
    <trkpt lat="42.280141" lon="-2.96714">
      <ele>1456.3</ele>
    </trkpt>
    <trkpt lat="42.280233" lon="-2.966838">
      <ele>1458.3</ele>
    </trkpt>
    <trkpt lat="42.280276" lon="-2.966314">
      <ele>1461.6</ele>
    </trkpt>
    <trkpt lat="42.280412" lon="-2.965464">
      <ele>1467</ele>
    </trkpt>
    <trkpt lat="42.280562" lon="-2.964979">
      <ele>1469.9</ele>
    </trkpt>
    <trkpt lat="42.280579" lon="-2.964849">
      <ele>1470.5</ele>
    </trkpt>
    <trkpt lat="42.280574" lon="-2.964785">
      <ele>1470.7</ele>
    </trkpt>
    <trkpt lat="42.280533" lon="-2.964701">
      <ele>1471</ele>
    </trkpt>
    <trkpt lat="42.28017" lon="-2.964354">
      <ele>1471.4</ele>
    </trkpt>
    <trkpt lat="42.280019" lon="-2.963999">
      <ele>1470.3</ele>
    </trkpt>
    <trkpt lat="42.279986" lon="-2.963723">
      <ele>1469</ele>
    </trkpt>
    <trkpt lat="42.28004" lon="-2.963639">
      <ele>1468.3</ele>
    </trkpt>
    <trkpt lat="42.280596" lon="-2.963204">
      <ele>1462.3</ele>
    </trkpt>
    <trkpt lat="42.280908" lon="-2.962872">
      <ele>1457.9</ele>
    </trkpt>
    <trkpt lat="42.281001" lon="-2.96268">
      <ele>1456</ele>
    </trkpt>
    <trkpt lat="42.281305" lon="-2.961852">
      <ele>1450.4</ele>
    </trkpt>
    <trkpt lat="42.281713" lon="-2.961033">
      <ele>1445</ele>
    </trkpt>
    <trkpt lat="42.281806" lon="-2.960917">
      <ele>1443.6</ele>
    </trkpt>
    <trkpt lat="42.281857" lon="-2.960903">
      <ele>1443</ele>
    </trkpt>
    <trkpt lat="42.281952" lon="-2.960932">
      <ele>1441.8</ele>
    </trkpt>
    <trkpt lat="42.282035" lon="-2.961045">
      <ele>1440.2</ele>
    </trkpt>
    <trkpt lat="42.282065" lon="-2.961134">
      <ele>1439.2</ele>
    </trkpt>
    <trkpt lat="42.282221" lon="-2.961629">
      <ele>1433.2</ele>
    </trkpt>
    <trkpt lat="42.28297" lon="-2.963408">
      <ele>1410.1</ele>
    </trkpt>
    <trkpt lat="42.283119" lon="-2.963716">
      <ele>1407.1</ele>
    </trkpt>
    <trkpt lat="42.284019" lon="-2.965306">
      <ele>1396.3</ele>
    </trkpt>
    <trkpt lat="42.284189" lon="-2.965697">
      <ele>1395.3</ele>
    </trkpt>
    <trkpt lat="42.284394" lon="-2.966349">
      <ele>1395.1</ele>
    </trkpt>
    <trkpt lat="42.284484" lon="-2.966515">
      <ele>1395.2</ele>
    </trkpt>
    <trkpt lat="42.284606" lon="-2.966575">
      <ele>1395.4</ele>
    </trkpt>
    <trkpt lat="42.284736" lon="-2.966557">
      <ele>1395.6</ele>
    </trkpt>
    <trkpt lat="42.285173" lon="-2.966387">
      <ele>1395.8</ele>
    </trkpt>
    <trkpt lat="42.285807" lon="-2.96626">
      <ele>1394.9</ele>
    </trkpt>
    <trkpt lat="42.286004" lon="-2.966271">
      <ele>1393.6</ele>
    </trkpt>
    <trkpt lat="42.286118" lon="-2.966342">
      <ele>1392.6</ele>
    </trkpt>
    <trkpt lat="42.28618" lon="-2.966483">
      <ele>1391.6</ele>
    </trkpt>
    <trkpt lat="42.286246" lon="-2.966837">
      <ele>1389.1</ele>
    </trkpt>
    <trkpt lat="42.28637" lon="-2.96715">
      <ele>1386.5</ele>
    </trkpt>
    <trkpt lat="42.286619" lon="-2.967558">
      <ele>1382.4</ele>
    </trkpt>
    <trkpt lat="42.287" lon="-2.9681">
      <ele>1377.8</ele>
    </trkpt>
    <trkpt lat="42.28737" lon="-2.96871">
      <ele>1374.6</ele>
    </trkpt>
    <trkpt lat="42.287996" lon="-2.96996">
      <ele>1368.8</ele>
    </trkpt>
    <trkpt lat="42.288099" lon="-2.970343">
      <ele>1367.1</ele>
    </trkpt>
    <trkpt lat="42.288136" lon="-2.970746">
      <ele>1365.4</ele>
    </trkpt>
    <trkpt lat="42.288095" lon="-2.971173">
      <ele>1363.5</ele>
    </trkpt>
    <trkpt lat="42.287989" lon="-2.971581">
      <ele>1361.6</ele>
    </trkpt>
    <trkpt lat="42.287719" lon="-2.97232">
      <ele>1358.7</ele>
    </trkpt>
    <trkpt lat="42.287645" lon="-2.972714">
      <ele>1357.5</ele>
    </trkpt>
    <trkpt lat="42.287645" lon="-2.9732">
      <ele>1356.3</ele>
    </trkpt>
    <trkpt lat="42.287688" lon="-2.973717">
      <ele>1355.1</ele>
    </trkpt>
    <trkpt lat="42.287866" lon="-2.975152">
      <ele>1351.1</ele>
    </trkpt>
    <trkpt lat="42.287769" lon="-2.976766">
      <ele>1343.5</ele>
    </trkpt>
    <trkpt lat="42.287715" lon="-2.976949">
      <ele>1342.3</ele>
    </trkpt>
    <trkpt lat="42.287499" lon="-2.977453">
      <ele>1339.1</ele>
    </trkpt>
    <trkpt lat="42.287175" lon="-2.978022">
      <ele>1335.3</ele>
    </trkpt>
    <trkpt lat="42.286838" lon="-2.978738">
      <ele>1331.3</ele>
    </trkpt>
    <trkpt lat="42.286381" lon="-2.979513">
      <ele>1327.8</ele>
    </trkpt>
    <trkpt lat="42.286251" lon="-2.979774">
      <ele>1326.8</ele>
    </trkpt>
    <trkpt lat="42.286009" lon="-2.980376">
      <ele>1324.5</ele>
    </trkpt>
    <trkpt lat="42.285955" lon="-2.980587">
      <ele>1323.7</ele>
    </trkpt>
    <trkpt lat="42.285906" lon="-2.980996">
      <ele>1322.3</ele>
    </trkpt>
    <trkpt lat="42.285908" lon="-2.981549">
      <ele>1320.5</ele>
    </trkpt>
    <trkpt lat="42.285983" lon="-2.981846">
      <ele>1319.4</ele>
    </trkpt>
    <trkpt lat="42.286327" lon="-2.982734">
      <ele>1315.3</ele>
    </trkpt>
    <trkpt lat="42.286402" lon="-2.983073">
      <ele>1313.7</ele>
    </trkpt>
    <trkpt lat="42.286396" lon="-2.983366">
      <ele>1312.5</ele>
    </trkpt>
    <trkpt lat="42.2862" lon="-2.98442">
      <ele>1308.4</ele>
    </trkpt>
    <trkpt lat="42.286076" lon="-2.984865">
      <ele>1306.7</ele>
    </trkpt>
    <trkpt lat="42.28593" lon="-2.985157">
      <ele>1305.4</ele>
    </trkpt>
    <trkpt lat="42.285555" lon="-2.985559">
      <ele>1302.9</ele>
    </trkpt>
    <trkpt lat="42.285453" lon="-2.985749">
      <ele>1302</ele>
    </trkpt>
    <trkpt lat="42.285391" lon="-2.986059">
      <ele>1300.8</ele>
    </trkpt>
    <trkpt lat="42.285316" lon="-2.986755">
      <ele>1298</ele>
    </trkpt>
    <trkpt lat="42.285166" lon="-2.987421">
      <ele>1295.8</ele>
    </trkpt>
    <trkpt lat="42.285142" lon="-2.987783">
      <ele>1295</ele>
    </trkpt>
    <trkpt lat="42.285161" lon="-2.987941">
      <ele>1294.7</ele>
    </trkpt>
    <trkpt lat="42.285237" lon="-2.988136">
      <ele>1294.3</ele>
    </trkpt>
    <trkpt lat="42.285365" lon="-2.988268">
      <ele>1294.1</ele>
    </trkpt>
    <trkpt lat="42.285436" lon="-2.988302">
      <ele>1293.9</ele>
    </trkpt>
    <trkpt lat="42.285637" lon="-2.988322">
      <ele>1293.6</ele>
    </trkpt>
    <trkpt lat="42.286342" lon="-2.988172">
      <ele>1291.1</ele>
    </trkpt>
    <trkpt lat="42.286585" lon="-2.988155">
      <ele>1289.5</ele>
    </trkpt>
    <trkpt lat="42.286732" lon="-2.988217">
      <ele>1288.3</ele>
    </trkpt>
    <trkpt lat="42.286795" lon="-2.988284">
      <ele>1287.6</ele>
    </trkpt>
    <trkpt lat="42.287669" lon="-2.990218">
      <ele>1265.2</ele>
    </trkpt>
    <trkpt lat="42.287947" lon="-2.990757">
      <ele>1258.7</ele>
    </trkpt>
    <trkpt lat="42.288274" lon="-2.991285">
      <ele>1255.6</ele>
    </trkpt>
    <trkpt lat="42.288424" lon="-2.99142">
      <ele>1255.2</ele>
    </trkpt>
    <trkpt lat="42.288523" lon="-2.991434">
      <ele>1255.1</ele>
    </trkpt>
    <trkpt lat="42.28869" lon="-2.991344">
      <ele>1255</ele>
    </trkpt>
    <trkpt lat="42.289001" lon="-2.991002">
      <ele>1255.6</ele>
    </trkpt>
    <trkpt lat="42.289241" lon="-2.990835">
      <ele>1256.3</ele>
    </trkpt>
    <trkpt lat="42.289798" lon="-2.990623">
      <ele>1256.6</ele>
    </trkpt>
    <trkpt lat="42.290033" lon="-2.990579">
      <ele>1255.2</ele>
    </trkpt>
    <trkpt lat="42.29028" lon="-2.99064">
      <ele>1253.1</ele>
    </trkpt>
    <trkpt lat="42.291045" lon="-2.991144">
      <ele>1242.7</ele>
    </trkpt>
    <trkpt lat="42.291376" lon="-2.991335">
      <ele>1237.9</ele>
    </trkpt>
    <trkpt lat="42.291785" lon="-2.991523">
      <ele>1232.5</ele>
    </trkpt>
    <trkpt lat="42.292009" lon="-2.991683">
      <ele>1229.6</ele>
    </trkpt>
    <trkpt lat="42.292208" lon="-2.991923">
      <ele>1226.7</ele>
    </trkpt>
    <trkpt lat="42.292324" lon="-2.992127">
      <ele>1224.7</ele>
    </trkpt>
    <trkpt lat="42.292815" lon="-2.993543">
      <ele>1213.3</ele>
    </trkpt>
    <trkpt lat="42.292921" lon="-2.994206">
      <ele>1209.1</ele>
    </trkpt>
    <trkpt lat="42.293182" lon="-2.995076">
      <ele>1203.8</ele>
    </trkpt>
    <trkpt lat="42.29334" lon="-2.995841">
      <ele>1200.7</ele>
    </trkpt>
    <trkpt lat="42.293531" lon="-2.996712">
      <ele>1198</ele>
    </trkpt>
    <trkpt lat="42.293641" lon="-2.996958">
      <ele>1197.2</ele>
    </trkpt>
    <trkpt lat="42.293797" lon="-2.997177">
      <ele>1196.5</ele>
    </trkpt>
    <trkpt lat="42.293933" lon="-2.997307">
      <ele>1196</ele>
    </trkpt>
    <trkpt lat="42.294203" lon="-2.99749">
      <ele>1194.9</ele>
    </trkpt>
    <trkpt lat="42.294931" lon="-2.997831">
      <ele>1190.6</ele>
    </trkpt>
    <trkpt lat="42.295211" lon="-2.997994">
      <ele>1188.3</ele>
    </trkpt>
    <trkpt lat="42.29532" lon="-2.998093">
      <ele>1187.1</ele>
    </trkpt>
    <trkpt lat="42.295451" lon="-2.998305">
      <ele>1185.4</ele>
    </trkpt>
    <trkpt lat="42.295519" lon="-2.998566">
      <ele>1183.5</ele>
    </trkpt>
    <trkpt lat="42.295547" lon="-2.999041">
      <ele>1180.1</ele>
    </trkpt>
    <trkpt lat="42.295556" lon="-3.000075">
      <ele>1172.7</ele>
    </trkpt>
    <trkpt lat="42.295512" lon="-3.001097">
      <ele>1166.7</ele>
    </trkpt>
    <trkpt lat="42.295578" lon="-3.002112">
      <ele>1163.2</ele>
    </trkpt>
    <trkpt lat="42.295592" lon="-3.002812">
      <ele>1161.8</ele>
    </trkpt>
    <trkpt lat="42.295653" lon="-3.003375">
      <ele>1160.7</ele>
    </trkpt>
    <trkpt lat="42.295758" lon="-3.004002">
      <ele>1159.1</ele>
    </trkpt>
    <trkpt lat="42.295804" lon="-3.004887">
      <ele>1155.6</ele>
    </trkpt>
    <trkpt lat="42.295915" lon="-3.005483">
      <ele>1152.6</ele>
    </trkpt>
    <trkpt lat="42.296079" lon="-3.005995">
      <ele>1150.4</ele>
    </trkpt>
    <trkpt lat="42.296329" lon="-3.006468">
      <ele>1148.7</ele>
    </trkpt>
    <trkpt lat="42.296904" lon="-3.007347">
      <ele>1145.7</ele>
    </trkpt>
    <trkpt lat="42.296975" lon="-3.007531">
      <ele>1145</ele>
    </trkpt>
    <trkpt lat="42.296986" lon="-3.007741">
      <ele>1144.3</ele>
    </trkpt>
    <trkpt lat="42.296944" lon="-3.00826">
      <ele>1142.1</ele>
    </trkpt>
    <trkpt lat="42.296986" lon="-3.009085">
      <ele>1137.3</ele>
    </trkpt>
    <trkpt lat="42.296888" lon="-3.010336">
      <ele>1129.5</ele>
    </trkpt>
    <trkpt lat="42.296903" lon="-3.010606">
      <ele>1128</ele>
    </trkpt>
    <trkpt lat="42.29702" lon="-3.01132">
      <ele>1123.6</ele>
    </trkpt>
    <trkpt lat="42.297161" lon="-3.01168">
      <ele>1121.2</ele>
    </trkpt>
    <trkpt lat="42.297505" lon="-3.012246">
      <ele>1116.6</ele>
    </trkpt>
    <trkpt lat="42.298011" lon="-3.013302">
      <ele>1108.9</ele>
    </trkpt>
    <trkpt lat="42.298163" lon="-3.013781">
      <ele>1106.3</ele>
    </trkpt>
    <trkpt lat="42.298372" lon="-3.014702">
      <ele>1102.1</ele>
    </trkpt>
    <trkpt lat="42.29849" lon="-3.015035">
      <ele>1100.8</ele>
    </trkpt>
    <trkpt lat="42.298718" lon="-3.015432">
      <ele>1099.2</ele>
    </trkpt>
    <trkpt lat="42.298908" lon="-3.015649">
      <ele>1098.1</ele>
    </trkpt>
    <trkpt lat="42.299002" lon="-3.0157">
      <ele>1097.7</ele>
    </trkpt>
    <trkpt lat="42.299593" lon="-3.015787">
      <ele>1095.5</ele>
    </trkpt>
    <trkpt lat="42.299985" lon="-3.015731">
      <ele>1093.8</ele>
    </trkpt>
    <trkpt lat="42.300066" lon="-3.015698">
      <ele>1093.4</ele>
    </trkpt>
    <trkpt lat="42.300242" lon="-3.01556">
      <ele>1092.4</ele>
    </trkpt>
    <trkpt lat="42.301148" lon="-3.014748">
      <ele>1083.3</ele>
    </trkpt>
    <trkpt lat="42.301792" lon="-3.014422">
      <ele>1075.4</ele>
    </trkpt>
    <trkpt lat="42.302035" lon="-3.014384">
      <ele>1073</ele>
    </trkpt>
    <trkpt lat="42.302464" lon="-3.014524">
      <ele>1069.6</ele>
    </trkpt>
    <trkpt lat="42.302719" lon="-3.014522">
      <ele>1068.2</ele>
    </trkpt>
    <trkpt lat="42.30282" lon="-3.014469">
      <ele>1067.6</ele>
    </trkpt>
    <trkpt lat="42.302912" lon="-3.014361">
      <ele>1067</ele>
    </trkpt>
    <trkpt lat="42.303097" lon="-3.014054">
      <ele>1065.5</ele>
    </trkpt>
    <trkpt lat="42.303459" lon="-3.013789">
      <ele>1063.5</ele>
    </trkpt>
    <trkpt lat="42.303604" lon="-3.013733">
      <ele>1062.6</ele>
    </trkpt>
    <trkpt lat="42.304301" lon="-3.013702">
      <ele>1056.6</ele>
    </trkpt>
    <trkpt lat="42.305024" lon="-3.013299">
      <ele>1047.5</ele>
    </trkpt>
    <trkpt lat="42.305987" lon="-3.013193">
      <ele>1041</ele>
    </trkpt>
    <trkpt lat="42.306142" lon="-3.013076">
      <ele>1040.3</ele>
    </trkpt>
    <trkpt lat="42.306239" lon="-3.012906">
      <ele>1039.7</ele>
    </trkpt>
    <trkpt lat="42.306405" lon="-3.012274">
      <ele>1038.2</ele>
    </trkpt>
    <trkpt lat="42.306595" lon="-3.011853">
      <ele>1037.1</ele>
    </trkpt>
    <trkpt lat="42.306672" lon="-3.011591">
      <ele>1036.3</ele>
    </trkpt>
    <trkpt lat="42.306716" lon="-3.01122">
      <ele>1034.9</ele>
    </trkpt>
    <trkpt lat="42.306741" lon="-3.010496">
      <ele>1031.1</ele>
    </trkpt>
    <trkpt lat="42.306843" lon="-3.009984">
      <ele>1027.9</ele>
    </trkpt>
    <trkpt lat="42.306887" lon="-3.009605">
      <ele>1025.5</ele>
    </trkpt>
    <trkpt lat="42.306842" lon="-3.008459">
      <ele>1017.2</ele>
    </trkpt>
    <trkpt lat="42.307055" lon="-3.007683">
      <ele>1011.5</ele>
    </trkpt>
    <trkpt lat="42.307107" lon="-3.007173">
      <ele>1008.5</ele>
    </trkpt>
    <trkpt lat="42.307187" lon="-3.007066">
      <ele>1007.6</ele>
    </trkpt>
    <trkpt lat="42.307227" lon="-3.007059">
      <ele>1007.3</ele>
    </trkpt>
    <trkpt lat="42.307273" lon="-3.007096">
      <ele>1006.9</ele>
    </trkpt>
    <trkpt lat="42.307315" lon="-3.00725">
      <ele>1006.1</ele>
    </trkpt>
    <trkpt lat="42.307351" lon="-3.00776">
      <ele>1003.7</ele>
    </trkpt>
    <trkpt lat="42.307327" lon="-3.008268">
      <ele>1001.7</ele>
    </trkpt>
    <trkpt lat="42.307349" lon="-3.008502">
      <ele>1000.9</ele>
    </trkpt>
    <trkpt lat="42.307826" lon="-3.009541">
      <ele>996.2</ele>
    </trkpt>
    <trkpt lat="42.308144" lon="-3.010713">
      <ele>989.5</ele>
    </trkpt>
    <trkpt lat="42.308216" lon="-3.010835">
      <ele>988.7</ele>
    </trkpt>
    <trkpt lat="42.308283" lon="-3.010865">
      <ele>988.2</ele>
    </trkpt>
    <trkpt lat="42.30833" lon="-3.010825">
      <ele>987.9</ele>
    </trkpt>
    <trkpt lat="42.308359" lon="-3.010713">
      <ele>987.3</ele>
    </trkpt>
    <trkpt lat="42.308298" lon="-3.009504">
      <ele>981.1</ele>
    </trkpt>
    <trkpt lat="42.308266" lon="-3.009302">
      <ele>980.1</ele>
    </trkpt>
    <trkpt lat="42.308212" lon="-3.009132">
      <ele>979.3</ele>
    </trkpt>
    <trkpt lat="42.308015" lon="-3.008708">
      <ele>976.7</ele>
    </trkpt>
    <trkpt lat="42.307976" lon="-3.008566">
      <ele>975.8</ele>
    </trkpt>
    <trkpt lat="42.307985" lon="-3.008461">
      <ele>975.1</ele>
    </trkpt>
    <trkpt lat="42.308021" lon="-3.008381">
      <ele>974.5</ele>
    </trkpt>
    <trkpt lat="42.30812" lon="-3.008359">
      <ele>973.5</ele>
    </trkpt>
    <trkpt lat="42.308177" lon="-3.008416">
      <ele>972.8</ele>
    </trkpt>
    <trkpt lat="42.308359" lon="-3.008842">
      <ele>969</ele>
    </trkpt>
    <trkpt lat="42.308861" lon="-3.00966">
      <ele>960.2</ele>
    </trkpt>
    <trkpt lat="42.308936" lon="-3.009876">
      <ele>958.1</ele>
    </trkpt>
    <trkpt lat="42.309232" lon="-3.011118">
      <ele>945.6</ele>
    </trkpt>
    <trkpt lat="42.309366" lon="-3.011518">
      <ele>940.9</ele>
    </trkpt>
    <trkpt lat="42.309506" lon="-3.011835">
      <ele>936.8</ele>
    </trkpt>
    <trkpt lat="42.309732" lon="-3.012135">
      <ele>932.4</ele>
    </trkpt>
    <trkpt lat="42.309794" lon="-3.012285">
      <ele>930.7</ele>
    </trkpt>
    <trkpt lat="42.309818" lon="-3.01245">
      <ele>929.1</ele>
    </trkpt>
    <trkpt lat="42.309795" lon="-3.012651">
      <ele>927.4</ele>
    </trkpt>
    <trkpt lat="42.309644" lon="-3.013164">
      <ele>923</ele>
    </trkpt>
    <trkpt lat="42.309517" lon="-3.013367">
      <ele>921</ele>
    </trkpt>
    <trkpt lat="42.309136" lon="-3.013748">
      <ele>916.4</ele>
    </trkpt>
    <trkpt lat="42.309055" lon="-3.013883">
      <ele>915.1</ele>
    </trkpt>
    <trkpt lat="42.30904" lon="-3.01395">
      <ele>914.6</ele>
    </trkpt>
    <trkpt lat="42.309064" lon="-3.014075">
      <ele>913.7</ele>
    </trkpt>
    <trkpt lat="42.309221" lon="-3.014322">
      <ele>911.2</ele>
    </trkpt>
    <trkpt lat="42.309283" lon="-3.014463">
      <ele>909.9</ele>
    </trkpt>
    <trkpt lat="42.309306" lon="-3.014553">
      <ele>909</ele>
    </trkpt>
    <trkpt lat="42.309309" lon="-3.014759">
      <ele>907.2</ele>
    </trkpt>
    <trkpt lat="42.309227" lon="-3.01505">
      <ele>904.2</ele>
    </trkpt>
    <trkpt lat="42.308839" lon="-3.015885">
      <ele>894.4</ele>
    </trkpt>
    <trkpt lat="42.308622" lon="-3.016232">
      <ele>890.6</ele>
    </trkpt>
    <trkpt lat="42.308112" lon="-3.01684">
      <ele>884.5</ele>
    </trkpt>
    <trkpt lat="42.307628" lon="-3.017551">
      <ele>879.1</ele>
    </trkpt>
    <trkpt lat="42.307456" lon="-3.017714">
      <ele>877.5</ele>
    </trkpt>
    <trkpt lat="42.307124" lon="-3.017855">
      <ele>874.9</ele>
    </trkpt>
    <trkpt lat="42.306984" lon="-3.01795">
      <ele>873.8</ele>
    </trkpt>
    <trkpt lat="42.306928" lon="-3.018027">
      <ele>873.1</ele>
    </trkpt>
    <trkpt lat="42.306725" lon="-3.018468">
      <ele>870.1</ele>
    </trkpt>
    <trkpt lat="42.306573" lon="-3.018716">
      <ele>868.2</ele>
    </trkpt>
    <trkpt lat="42.306202" lon="-3.019048">
      <ele>864.5</ele>
    </trkpt>
    <trkpt lat="42.305983" lon="-3.019514">
      <ele>861.2</ele>
    </trkpt>
    <trkpt lat="42.305592" lon="-3.019995">
      <ele>857</ele>
    </trkpt>
    <trkpt lat="42.305049" lon="-3.020923">
      <ele>850.2</ele>
    </trkpt>
    <trkpt lat="42.305005" lon="-3.021021">
      <ele>849.7</ele>
    </trkpt>
    <trkpt lat="42.304982" lon="-3.021154">
      <ele>849.1</ele>
    </trkpt>
    <trkpt lat="42.305025" lon="-3.021345">
      <ele>848.4</ele>
    </trkpt>
    <trkpt lat="42.30507" lon="-3.021433">
      <ele>848</ele>
    </trkpt>
    <trkpt lat="42.305126" lon="-3.021486">
      <ele>847.7</ele>
    </trkpt>
    <trkpt lat="42.305222" lon="-3.021511">
      <ele>847.2</ele>
    </trkpt>
    <trkpt lat="42.305317" lon="-3.021485">
      <ele>846.8</ele>
    </trkpt>
    <trkpt lat="42.305588" lon="-3.021156">
      <ele>845.3</ele>
    </trkpt>
    <trkpt lat="42.305824" lon="-3.020946">
      <ele>844.3</ele>
    </trkpt>
    <trkpt lat="42.305881" lon="-3.020923">
      <ele>844.1</ele>
    </trkpt>
    <trkpt lat="42.306517" lon="-3.020326">
      <ele>843.1</ele>
    </trkpt>
    <trkpt lat="42.307577" lon="-3.019327">
      <ele>841.4</ele>
    </trkpt>
    <trkpt lat="42.308646" lon="-3.018376">
      <ele>838.8</ele>
    </trkpt>
    <trkpt lat="42.310097" lon="-3.017159">
      <ele>834.8</ele>
    </trkpt>
    <trkpt lat="42.310255" lon="-3.017049">
      <ele>834.4</ele>
    </trkpt>
    <trkpt lat="42.31076" lon="-3.016834">
      <ele>833.3</ele>
    </trkpt>
    <trkpt lat="42.31129" lon="-3.016538">
      <ele>832.3</ele>
    </trkpt>
    <trkpt lat="42.31224" lon="-3.015886">
      <ele>830.3</ele>
    </trkpt>
    <trkpt lat="42.312462" lon="-3.015776">
      <ele>829.9</ele>
    </trkpt>
    <trkpt lat="42.313041" lon="-3.015561">
      <ele>829.1</ele>
    </trkpt>
    <trkpt lat="42.313269" lon="-3.015477">
      <ele>828.8</ele>
    </trkpt>
    <trkpt lat="42.313609" lon="-3.015345">
      <ele>828.6</ele>
    </trkpt>
    <trkpt lat="42.313816" lon="-3.01521">
      <ele>828.4</ele>
    </trkpt>
    <trkpt lat="42.313948" lon="-3.015122">
      <ele>828.4</ele>
    </trkpt>
    <trkpt lat="42.314673" lon="-3.014537">
      <ele>828</ele>
    </trkpt>
    <trkpt lat="42.315885" lon="-3.013434">
      <ele>826.4</ele>
    </trkpt>
    <trkpt lat="42.316087" lon="-3.013283">
      <ele>826.2</ele>
    </trkpt>
    <trkpt lat="42.316812" lon="-3.01288">
      <ele>825.4</ele>
    </trkpt>
    <trkpt lat="42.317681" lon="-3.01243">
      <ele>824.6</ele>
    </trkpt>
    <trkpt lat="42.317947" lon="-3.012328">
      <ele>824.3</ele>
    </trkpt>
    <trkpt lat="42.318435" lon="-3.012242">
      <ele>823.8</ele>
    </trkpt>
    <trkpt lat="42.318838" lon="-3.012214">
      <ele>823.5</ele>
    </trkpt>
    <trkpt lat="42.319117" lon="-3.012247">
      <ele>823.4</ele>
    </trkpt>
    <trkpt lat="42.31931" lon="-3.012299">
      <ele>823.3</ele>
    </trkpt>
    <trkpt lat="42.319987" lon="-3.01264">
      <ele>821.5</ele>
    </trkpt>
    <trkpt lat="42.320056" lon="-3.012713">
      <ele>821.2</ele>
    </trkpt>
    <trkpt lat="42.320396" lon="-3.012868">
      <ele>820.1</ele>
    </trkpt>
    <trkpt lat="42.320416" lon="-3.012944">
      <ele>819.9</ele>
    </trkpt>
    <trkpt lat="42.320562" lon="-3.013404">
      <ele>818.9</ele>
    </trkpt>
    <trkpt lat="42.320644" lon="-3.013661">
      <ele>818.3</ele>
    </trkpt>
    <trkpt lat="42.320661" lon="-3.013755">
      <ele>818.1</ele>
    </trkpt>
    <trkpt lat="42.32139" lon="-3.013343">
      <ele>816.2</ele>
    </trkpt>
    <trkpt lat="42.322219" lon="-3.012966">
      <ele>816.5</ele>
    </trkpt>
    <trkpt lat="42.32241" lon="-3.013622">
      <ele>817.1</ele>
    </trkpt>
    <trkpt lat="42.322518" lon="-3.013999">
      <ele>817.5</ele>
    </trkpt>
    <trkpt lat="42.322559" lon="-3.014151">
      <ele>817.6</ele>
    </trkpt>
    <trkpt lat="42.322629" lon="-3.014397">
      <ele>817.9</ele>
    </trkpt>
    <trkpt lat="42.323081" lon="-3.01438">
      <ele>818.8</ele>
    </trkpt>
    <trkpt lat="42.323194" lon="-3.01444">
      <ele>819</ele>
    </trkpt>
    <trkpt lat="42.323425" lon="-3.014451">
      <ele>819.4</ele>
    </trkpt>
    <trkpt lat="42.323461" lon="-3.01463">
      <ele>819.6</ele>
    </trkpt>
    <trkpt lat="42.32351" lon="-3.014796">
      <ele>819.7</ele>
    </trkpt>
    <trkpt lat="42.323499" lon="-3.015068">
      <ele>819.8</ele>
    </trkpt>
    <trkpt lat="42.323552" lon="-3.01529">
      <ele>819.9</ele>
    </trkpt>
    <trkpt lat="42.323502" lon="-3.015535">
      <ele>820</ele>
    </trkpt>
    <trkpt lat="42.323743" lon="-3.015648">
      <ele>820</ele>
    </trkpt>
    <trkpt lat="42.323869" lon="-3.015704">
      <ele>819.9</ele>
    </trkpt>
    <trkpt lat="42.323946" lon="-3.015738">
      <ele>819.9</ele>
    </trkpt>
    <trkpt lat="42.324132" lon="-3.015826">
      <ele>819.8</ele>
    </trkpt>
    <trkpt lat="42.324467" lon="-3.01599">
      <ele>819.6</ele>
    </trkpt>
    <trkpt lat="42.324786" lon="-3.016163">
      <ele>819.2</ele>
    </trkpt>
    <trkpt lat="42.324891" lon="-3.015335">
      <ele>818.4</ele>
    </trkpt>
    <trkpt lat="42.324921" lon="-3.015148">
      <ele>818.1</ele>
    </trkpt>
    <trkpt lat="42.325603" lon="-3.015255">
      <ele>816.8</ele>
    </trkpt>
    <trkpt lat="42.325641" lon="-3.014845">
      <ele>816.2</ele>
    </trkpt>
    <trkpt lat="42.325645" lon="-3.014812">
      <ele>816.1</ele>
    </trkpt>
    <trkpt lat="42.325673" lon="-3.014693">
      <ele>815.9</ele>
    </trkpt>
    <trkpt lat="42.325775" lon="-3.014472">
      <ele>815.3</ele>
    </trkpt>
    <trkpt lat="42.325877" lon="-3.01436">
      <ele>814.8</ele>
    </trkpt>
    <trkpt lat="42.326073" lon="-3.014296">
      <ele>814.2</ele>
    </trkpt>
    <trkpt lat="42.326115" lon="-3.014283">
      <ele>814</ele>
    </trkpt>
    <trkpt lat="42.326286" lon="-3.014251">
      <ele>813.4</ele>
    </trkpt>
    <trkpt lat="42.326389" lon="-3.01421">
      <ele>813</ele>
    </trkpt>
    <trkpt lat="42.326694" lon="-3.013967">
      <ele>811.9</ele>
    </trkpt>
    <trkpt lat="42.326814" lon="-3.013922">
      <ele>811.5</ele>
    </trkpt>
    <trkpt lat="42.326947" lon="-3.013918">
      <ele>811.2</ele>
    </trkpt>
    <trkpt lat="42.327652" lon="-3.014066">
      <ele>809.3</ele>
    </trkpt>
    <trkpt lat="42.328248" lon="-3.013957">
      <ele>808.2</ele>
    </trkpt>
    <trkpt lat="42.328667" lon="-3.013871">
      <ele>807.7</ele>
    </trkpt>
    <trkpt lat="42.328903" lon="-3.013825">
      <ele>807.4</ele>
    </trkpt>
    <trkpt lat="42.328999" lon="-3.013805">
      <ele>807.2</ele>
    </trkpt>
    <trkpt lat="42.329075" lon="-3.013786">
      <ele>807.1</ele>
    </trkpt>
    <trkpt lat="42.329359" lon="-3.013708">
      <ele>806.7</ele>
    </trkpt>
    <trkpt lat="42.330935" lon="-3.013265">
      <ele>804.2</ele>
    </trkpt>
    <trkpt lat="42.33157" lon="-3.013091">
      <ele>803</ele>
    </trkpt>
    <trkpt lat="42.3323" lon="-3.012893">
      <ele>801.7</ele>
    </trkpt>
    <trkpt lat="42.332673" lon="-3.012731">
      <ele>800.9</ele>
    </trkpt>
    <trkpt lat="42.332996" lon="-3.012554">
      <ele>800.2</ele>
    </trkpt>
    <trkpt lat="42.333098" lon="-3.012495">
      <ele>800</ele>
    </trkpt>
    <trkpt lat="42.33346" lon="-3.012271">
      <ele>799.3</ele>
    </trkpt>
    <trkpt lat="42.333833" lon="-3.012046">
      <ele>798.7</ele>
    </trkpt>
    <trkpt lat="42.335275" lon="-3.011209">
      <ele>796.5</ele>
    </trkpt>
    <trkpt lat="42.33563" lon="-3.011023">
      <ele>796.1</ele>
    </trkpt>
    <trkpt lat="42.33712" lon="-3.010265">
      <ele>794.7</ele>
    </trkpt>
    <trkpt lat="42.337622" lon="-3.010084">
      <ele>794.5</ele>
    </trkpt>
    <trkpt lat="42.338519" lon="-3.009701">
      <ele>794.4</ele>
    </trkpt>
    <trkpt lat="42.338983" lon="-3.009451">
      <ele>793.7</ele>
    </trkpt>
    <trkpt lat="42.339229" lon="-3.009266">
      <ele>793.3</ele>
    </trkpt>
    <trkpt lat="42.339599" lon="-3.00891">
      <ele>792.6</ele>
    </trkpt>
    <trkpt lat="42.339854" lon="-3.008583">
      <ele>792</ele>
    </trkpt>
    <trkpt lat="42.339983" lon="-3.00838">
      <ele>791.6</ele>
    </trkpt>
    <trkpt lat="42.340021" lon="-3.00832">
      <ele>791.5</ele>
    </trkpt>
    <trkpt lat="42.340389" lon="-3.007565">
      <ele>790.5</ele>
    </trkpt>
    <trkpt lat="42.34045" lon="-3.007429">
      <ele>790.4</ele>
    </trkpt>
    <trkpt lat="42.340849" lon="-3.006634">
      <ele>789.5</ele>
    </trkpt>
    <trkpt lat="42.341635" lon="-3.005263">
      <ele>787.5</ele>
    </trkpt>
    <trkpt lat="42.342026" lon="-3.004689">
      <ele>786.5</ele>
    </trkpt>
    <trkpt lat="42.342147" lon="-3.004579">
      <ele>786.3</ele>
    </trkpt>
    <trkpt lat="42.342523" lon="-3.004332">
      <ele>785.6</ele>
    </trkpt>
    <trkpt lat="42.343409" lon="-3.003815">
      <ele>784</ele>
    </trkpt>
    <trkpt lat="42.344087" lon="-3.003639">
      <ele>782.3</ele>
    </trkpt>
    <trkpt lat="42.344389" lon="-3.003465">
      <ele>781.4</ele>
    </trkpt>
    <trkpt lat="42.345147" lon="-3.00299">
      <ele>779.8</ele>
    </trkpt>
    <trkpt lat="42.346812" lon="-3.002005">
      <ele>779.3</ele>
    </trkpt>
    <trkpt lat="42.347735" lon="-3.001519">
      <ele>778.2</ele>
    </trkpt>
    <trkpt lat="42.349565" lon="-3.000104">
      <ele>773</ele>
    </trkpt>
    <trkpt lat="42.349855" lon="-2.999871">
      <ele>772.3</ele>
    </trkpt>
    <trkpt lat="42.350321" lon="-2.99941">
      <ele>771.4</ele>
    </trkpt>
    <trkpt lat="42.35073" lon="-2.99897">
      <ele>770.6</ele>
    </trkpt>
    <trkpt lat="42.350849" lon="-2.998809">
      <ele>770.4</ele>
    </trkpt>
    <trkpt lat="42.351088" lon="-2.998393">
      <ele>769.9</ele>
    </trkpt>
    <trkpt lat="42.351396" lon="-2.997753">
      <ele>769.3</ele>
    </trkpt>
    <trkpt lat="42.351434" lon="-2.997671">
      <ele>769.2</ele>
    </trkpt>
    <trkpt lat="42.352123" lon="-2.996262">
      <ele>769.7</ele>
    </trkpt>
    <trkpt lat="42.352523" lon="-2.995448">
      <ele>771.3</ele>
    </trkpt>
    <trkpt lat="42.352819" lon="-2.994926">
      <ele>773.1</ele>
    </trkpt>
    <trkpt lat="42.353132" lon="-2.994536">
      <ele>774.8</ele>
    </trkpt>
    <trkpt lat="42.353836" lon="-2.993823">
      <ele>775</ele>
    </trkpt>
    <trkpt lat="42.35408" lon="-2.993602">
      <ele>774.4</ele>
    </trkpt>
    <trkpt lat="42.35486" lon="-2.993167">
      <ele>770.8</ele>
    </trkpt>
    <trkpt lat="42.355295" lon="-2.992873">
      <ele>768.2</ele>
    </trkpt>
    <trkpt lat="42.356061" lon="-2.992107">
      <ele>764.7</ele>
    </trkpt>
    <trkpt lat="42.356802" lon="-2.991367">
      <ele>762.5</ele>
    </trkpt>
    <trkpt lat="42.358273" lon="-2.989954">
      <ele>760.9</ele>
    </trkpt>
    <trkpt lat="42.35944" lon="-2.989022">
      <ele>760.1</ele>
    </trkpt>
    <trkpt lat="42.361891" lon="-2.986971">
      <ele>754.2</ele>
    </trkpt>
    <trkpt lat="42.363716" lon="-2.985501">
      <ele>756.5</ele>
    </trkpt>
    <trkpt lat="42.363688" lon="-2.985343">
      <ele>757.2</ele>
    </trkpt>
    <trkpt lat="42.363789" lon="-2.984883">
      <ele>759.5</ele>
    </trkpt>
    <trkpt lat="42.363796" lon="-2.984547">
      <ele>761.2</ele>
    </trkpt>
    <trkpt lat="42.36372" lon="-2.984131">
      <ele>763.3</ele>
    </trkpt>
    <trkpt lat="42.363343" lon="-2.983769">
      <ele>765.9</ele>
    </trkpt>
    <trkpt lat="42.365348" lon="-2.982447">
      <ele>764.2</ele>
    </trkpt>
    <trkpt lat="42.368175" lon="-2.980676">
      <ele>758</ele>
    </trkpt>
    <trkpt lat="42.36922" lon="-2.979976">
      <ele>756.5</ele>
    </trkpt>
    <trkpt lat="42.370238" lon="-2.979059">
      <ele>755.2</ele>
    </trkpt>
    <trkpt lat="42.370398" lon="-2.978918">
      <ele>755.1</ele>
    </trkpt>
    <trkpt lat="42.370602" lon="-2.978699">
      <ele>755</ele>
    </trkpt>
    <trkpt lat="42.370803" lon="-2.978564">
      <ele>755</ele>
    </trkpt>
    <trkpt lat="42.372472" lon="-2.977057">
      <ele>755.1</ele>
    </trkpt>
    <trkpt lat="42.374087" lon="-2.975895">
      <ele>751.5</ele>
    </trkpt>
    <trkpt lat="42.379346" lon="-2.972439">
      <ele>740.6</ele>
    </trkpt>
    <trkpt lat="42.381236" lon="-2.971196">
      <ele>735.9</ele>
    </trkpt>
    <trkpt lat="42.382615" lon="-2.970445">
      <ele>732.4</ele>
    </trkpt>
    <trkpt lat="42.383304" lon="-2.970176">
      <ele>729.3</ele>
    </trkpt>
    <trkpt lat="42.384097" lon="-2.969994">
      <ele>726</ele>
    </trkpt>
    <trkpt lat="42.387507" lon="-2.969686">
      <ele>721.7</ele>
    </trkpt>
    <trkpt lat="42.387552" lon="-2.970045">
      <ele>720.7</ele>
    </trkpt>
    <trkpt lat="42.387658" lon="-2.970503">
      <ele>719.3</ele>
    </trkpt>
    <trkpt lat="42.387928" lon="-2.971674">
      <ele>716.1</ele>
    </trkpt>
    <trkpt lat="42.387972" lon="-2.971852">
      <ele>715.8</ele>
    </trkpt>
    <trkpt lat="42.387845" lon="-2.971903">
      <ele>715.6</ele>
    </trkpt>
    <trkpt lat="42.387878" lon="-2.971813">
      <ele>715.5</ele>
    </trkpt>
    </trkseg>
  </trk>
</gpx>
