<?xml version="1.0" encoding="UTF-8"?>
<gpx version="1.1" creator="fitAI Komoot downloader" xmlns="http://www.topografix.com/GPX/1/1">
  <metadata>
    <name>Vista de Navarrete y Alto de San Antón - Recorrido circular desde Nájera</name>
    <desc>43 visitas · Dificultad: moderate · Distancia: 46.6 km · Desnivel +: 568 m</desc>
    <link href="https://www.komoot.com/smarttour/e43318384"><text>Komoot</text></link>
  </metadata>
  <trk>
    <name>Vista de Navarrete y Alto de San Antón - Recorrido circular desde Nájera</name>
    <type>mtb</type>
    <trkseg>
    <trkpt lat="42.418908" lon="-2.725034">
      <ele>503.6</ele>
    </trkpt>
    <trkpt lat="42.419003" lon="-2.724962">
      <ele>503.6</ele>
    </trkpt>
    <trkpt lat="42.41911" lon="-2.724686">
      <ele>503.8</ele>
    </trkpt>
    <trkpt lat="42.419169" lon="-2.724465">
      <ele>503.9</ele>
    </trkpt>
    <trkpt lat="42.419418" lon="-2.723248">
      <ele>505.1</ele>
    </trkpt>
    <trkpt lat="42.419467" lon="-2.723019">
      <ele>505.5</ele>
    </trkpt>
    <trkpt lat="42.418945" lon="-2.722787">
      <ele>506.4</ele>
    </trkpt>
    <trkpt lat="42.418819" lon="-2.722757">
      <ele>506.6</ele>
    </trkpt>
    <trkpt lat="42.418534" lon="-2.722762">
      <ele>507</ele>
    </trkpt>
    <trkpt lat="42.418475" lon="-2.722764">
      <ele>507</ele>
    </trkpt>
    <trkpt lat="42.418483" lon="-2.722674">
      <ele>507.1</ele>
    </trkpt>
    <trkpt lat="42.418567" lon="-2.721747">
      <ele>507.7</ele>
    </trkpt>
    <trkpt lat="42.418573" lon="-2.721685">
      <ele>507.7</ele>
    </trkpt>
    <trkpt lat="42.4186" lon="-2.721293">
      <ele>507.7</ele>
    </trkpt>
    <trkpt lat="42.418597" lon="-2.721201">
      <ele>507.7</ele>
    </trkpt>
    <trkpt lat="42.418591" lon="-2.720821">
      <ele>507.7</ele>
    </trkpt>
    <trkpt lat="42.418524" lon="-2.719897">
      <ele>507.8</ele>
    </trkpt>
    <trkpt lat="42.418462" lon="-2.719183">
      <ele>508.2</ele>
    </trkpt>
    <trkpt lat="42.418417" lon="-2.718961">
      <ele>508.4</ele>
    </trkpt>
    <trkpt lat="42.41832" lon="-2.718647">
      <ele>508.7</ele>
    </trkpt>
    <trkpt lat="42.417995" lon="-2.71783">
      <ele>510.3</ele>
    </trkpt>
    <trkpt lat="42.417938" lon="-2.717285">
      <ele>511.4</ele>
    </trkpt>
    <trkpt lat="42.417873" lon="-2.716925">
      <ele>512.1</ele>
    </trkpt>
    <trkpt lat="42.417783" lon="-2.716611">
      <ele>512.8</ele>
    </trkpt>
    <trkpt lat="42.417581" lon="-2.716065">
      <ele>514</ele>
    </trkpt>
    <trkpt lat="42.417576" lon="-2.715873">
      <ele>514.3</ele>
    </trkpt>
    <trkpt lat="42.417625" lon="-2.715664">
      <ele>514.6</ele>
    </trkpt>
    <trkpt lat="42.417659" lon="-2.715562">
      <ele>514.8</ele>
    </trkpt>
    <trkpt lat="42.41772" lon="-2.715382">
      <ele>515.1</ele>
    </trkpt>
    <trkpt lat="42.41722" lon="-2.714915">
      <ele>516.2</ele>
    </trkpt>
    <trkpt lat="42.417167" lon="-2.714777">
      <ele>516.4</ele>
    </trkpt>
    <trkpt lat="42.417003" lon="-2.714183">
      <ele>517.2</ele>
    </trkpt>
    <trkpt lat="42.416641" lon="-2.712639">
      <ele>519.6</ele>
    </trkpt>
    <trkpt lat="42.416536" lon="-2.712085">
      <ele>520.6</ele>
    </trkpt>
    <trkpt lat="42.416373" lon="-2.710963">
      <ele>522.9</ele>
    </trkpt>
    <trkpt lat="42.416211" lon="-2.710172">
      <ele>524</ele>
    </trkpt>
    <trkpt lat="42.41612" lon="-2.710037">
      <ele>524.2</ele>
    </trkpt>
    <trkpt lat="42.416342" lon="-2.709632">
      <ele>524.6</ele>
    </trkpt>
    <trkpt lat="42.416469" lon="-2.709159">
      <ele>524.9</ele>
    </trkpt>
    <trkpt lat="42.416786" lon="-2.707642">
      <ele>525</ele>
    </trkpt>
    <trkpt lat="42.416612" lon="-2.705295">
      <ele>524.6</ele>
    </trkpt>
    <trkpt lat="42.416366" lon="-2.703374">
      <ele>524.6</ele>
    </trkpt>
    <trkpt lat="42.416366" lon="-2.703248">
      <ele>524.6</ele>
    </trkpt>
    <trkpt lat="42.416399" lon="-2.703127">
      <ele>524.6</ele>
    </trkpt>
    <trkpt lat="42.416471" lon="-2.702995">
      <ele>524.6</ele>
    </trkpt>
    <trkpt lat="42.417045" lon="-2.702065">
      <ele>524.8</ele>
    </trkpt>
    <trkpt lat="42.417132" lon="-2.701987">
      <ele>524.9</ele>
    </trkpt>
    <trkpt lat="42.417304" lon="-2.70166">
      <ele>524.9</ele>
    </trkpt>
    <trkpt lat="42.417613" lon="-2.701277">
      <ele>524.9</ele>
    </trkpt>
    <trkpt lat="42.41772" lon="-2.700864">
      <ele>525.1</ele>
    </trkpt>
    <trkpt lat="42.417771" lon="-2.700544">
      <ele>525.2</ele>
    </trkpt>
    <trkpt lat="42.417811" lon="-2.700271">
      <ele>525.4</ele>
    </trkpt>
    <trkpt lat="42.417798" lon="-2.700019">
      <ele>525.5</ele>
    </trkpt>
    <trkpt lat="42.417789" lon="-2.699866">
      <ele>525.7</ele>
    </trkpt>
    <trkpt lat="42.417794" lon="-2.699619">
      <ele>525.8</ele>
    </trkpt>
    <trkpt lat="42.417727" lon="-2.699511">
      <ele>526</ele>
    </trkpt>
    <trkpt lat="42.417163" lon="-2.699443">
      <ele>526.8</ele>
    </trkpt>
    <trkpt lat="42.416987" lon="-2.699421">
      <ele>527.2</ele>
    </trkpt>
    <trkpt lat="42.4166" lon="-2.699343">
      <ele>528</ele>
    </trkpt>
    <trkpt lat="42.416357" lon="-2.699261">
      <ele>528.6</ele>
    </trkpt>
    <trkpt lat="42.415998" lon="-2.69922">
      <ele>529.3</ele>
    </trkpt>
    <trkpt lat="42.415582" lon="-2.699072">
      <ele>530.3</ele>
    </trkpt>
    <trkpt lat="42.415342" lon="-2.698993">
      <ele>530.8</ele>
    </trkpt>
    <trkpt lat="42.415079" lon="-2.698827">
      <ele>531.6</ele>
    </trkpt>
    <trkpt lat="42.41446" lon="-2.698192">
      <ele>533.5</ele>
    </trkpt>
    <trkpt lat="42.414343" lon="-2.697963">
      <ele>534</ele>
    </trkpt>
    <trkpt lat="42.414126" lon="-2.697277">
      <ele>535.3</ele>
    </trkpt>
    <trkpt lat="42.414097" lon="-2.697049">
      <ele>535.7</ele>
    </trkpt>
    <trkpt lat="42.414121" lon="-2.69673">
      <ele>536.4</ele>
    </trkpt>
    <trkpt lat="42.414168" lon="-2.696468">
      <ele>536.9</ele>
    </trkpt>
    <trkpt lat="42.414232" lon="-2.69626">
      <ele>537.4</ele>
    </trkpt>
    <trkpt lat="42.414242" lon="-2.696172">
      <ele>537.6</ele>
    </trkpt>
    <trkpt lat="42.414121" lon="-2.695232">
      <ele>539.7</ele>
    </trkpt>
    <trkpt lat="42.414079" lon="-2.695052">
      <ele>540.2</ele>
    </trkpt>
    <trkpt lat="42.41412" lon="-2.695">
      <ele>540.4</ele>
    </trkpt>
    <trkpt lat="42.414164" lon="-2.694904">
      <ele>540.7</ele>
    </trkpt>
    <trkpt lat="42.413827" lon="-2.694394">
      <ele>542.7</ele>
    </trkpt>
    <trkpt lat="42.413584" lon="-2.693975">
      <ele>544.4</ele>
    </trkpt>
    <trkpt lat="42.413513" lon="-2.693604">
      <ele>545.7</ele>
    </trkpt>
    <trkpt lat="42.413255" lon="-2.692252">
      <ele>550.2</ele>
    </trkpt>
    <trkpt lat="42.413231" lon="-2.691962">
      <ele>551</ele>
    </trkpt>
    <trkpt lat="42.413233" lon="-2.691321">
      <ele>552.5</ele>
    </trkpt>
    <trkpt lat="42.413248" lon="-2.691108">
      <ele>552.9</ele>
    </trkpt>
    <trkpt lat="42.413331" lon="-2.690623">
      <ele>553.7</ele>
    </trkpt>
    <trkpt lat="42.413412" lon="-2.689242">
      <ele>555</ele>
    </trkpt>
    <trkpt lat="42.413419" lon="-2.688846">
      <ele>555.3</ele>
    </trkpt>
    <trkpt lat="42.413331" lon="-2.68782">
      <ele>556.4</ele>
    </trkpt>
    <trkpt lat="42.413334" lon="-2.687267">
      <ele>557.3</ele>
    </trkpt>
    <trkpt lat="42.413373" lon="-2.686949">
      <ele>557.9</ele>
    </trkpt>
    <trkpt lat="42.413415" lon="-2.686586">
      <ele>558.8</ele>
    </trkpt>
    <trkpt lat="42.41343" lon="-2.686344">
      <ele>559.3</ele>
    </trkpt>
    <trkpt lat="42.413542" lon="-2.686015">
      <ele>560.3</ele>
    </trkpt>
    <trkpt lat="42.413642" lon="-2.685328">
      <ele>562.2</ele>
    </trkpt>
    <trkpt lat="42.413697" lon="-2.685095">
      <ele>562.9</ele>
    </trkpt>
    <trkpt lat="42.414087" lon="-2.683732">
      <ele>566.6</ele>
    </trkpt>
    <trkpt lat="42.414246" lon="-2.683318">
      <ele>567.7</ele>
    </trkpt>
    <trkpt lat="42.414312" lon="-2.682749">
      <ele>569.1</ele>
    </trkpt>
    <trkpt lat="42.414342" lon="-2.682025">
      <ele>570.8</ele>
    </trkpt>
    <trkpt lat="42.414447" lon="-2.680702">
      <ele>574.9</ele>
    </trkpt>
    <trkpt lat="42.414682" lon="-2.679889">
      <ele>578.2</ele>
    </trkpt>
    <trkpt lat="42.414828" lon="-2.679216">
      <ele>580.5</ele>
    </trkpt>
    <trkpt lat="42.414889" lon="-2.678749">
      <ele>581.6</ele>
    </trkpt>
    <trkpt lat="42.414994" lon="-2.678244">
      <ele>582.2</ele>
    </trkpt>
    <trkpt lat="42.414951" lon="-2.677605">
      <ele>581.9</ele>
    </trkpt>
    <trkpt lat="42.414919" lon="-2.677447">
      <ele>581.6</ele>
    </trkpt>
    <trkpt lat="42.414823" lon="-2.677284">
      <ele>581.2</ele>
    </trkpt>
    <trkpt lat="42.41466" lon="-2.676839">
      <ele>580.1</ele>
    </trkpt>
    <trkpt lat="42.413919" lon="-2.67549">
      <ele>576.1</ele>
    </trkpt>
    <trkpt lat="42.413878" lon="-2.675281">
      <ele>575.7</ele>
    </trkpt>
    <trkpt lat="42.413635" lon="-2.67453">
      <ele>574.6</ele>
    </trkpt>
    <trkpt lat="42.413616" lon="-2.674398">
      <ele>574.5</ele>
    </trkpt>
    <trkpt lat="42.413637" lon="-2.673824">
      <ele>574.6</ele>
    </trkpt>
    <trkpt lat="42.413586" lon="-2.673503">
      <ele>575.1</ele>
    </trkpt>
    <trkpt lat="42.413451" lon="-2.673068">
      <ele>576.1</ele>
    </trkpt>
    <trkpt lat="42.413383" lon="-2.67272">
      <ele>577.2</ele>
    </trkpt>
    <trkpt lat="42.413386" lon="-2.672271">
      <ele>578.8</ele>
    </trkpt>
    <trkpt lat="42.413241" lon="-2.671333">
      <ele>582.9</ele>
    </trkpt>
    <trkpt lat="42.412788" lon="-2.669965">
      <ele>588.2</ele>
    </trkpt>
    <trkpt lat="42.41242" lon="-2.668641">
      <ele>591.3</ele>
    </trkpt>
    <trkpt lat="42.412189" lon="-2.667664">
      <ele>593.2</ele>
    </trkpt>
    <trkpt lat="42.412079" lon="-2.666944">
      <ele>594.7</ele>
    </trkpt>
    <trkpt lat="42.411795" lon="-2.665477">
      <ele>598.3</ele>
    </trkpt>
    <trkpt lat="42.411698" lon="-2.664544">
      <ele>601.1</ele>
    </trkpt>
    <trkpt lat="42.411677" lon="-2.664053">
      <ele>602.5</ele>
    </trkpt>
    <trkpt lat="42.411631" lon="-2.663915">
      <ele>602.9</ele>
    </trkpt>
    <trkpt lat="42.411483" lon="-2.663629">
      <ele>603.8</ele>
    </trkpt>
    <trkpt lat="42.41143" lon="-2.663425">
      <ele>604.2</ele>
    </trkpt>
    <trkpt lat="42.411352" lon="-2.662599">
      <ele>605.6</ele>
    </trkpt>
    <trkpt lat="42.411404" lon="-2.662416">
      <ele>605.8</ele>
    </trkpt>
    <trkpt lat="42.411423" lon="-2.662124">
      <ele>606.1</ele>
    </trkpt>
    <trkpt lat="42.411407" lon="-2.661296">
      <ele>606.9</ele>
    </trkpt>
    <trkpt lat="42.411325" lon="-2.660454">
      <ele>607.8</ele>
    </trkpt>
    <trkpt lat="42.411308" lon="-2.659917">
      <ele>608.6</ele>
    </trkpt>
    <trkpt lat="42.41092" lon="-2.657219">
      <ele>612.4</ele>
    </trkpt>
    <trkpt lat="42.410704" lon="-2.655223">
      <ele>614.5</ele>
    </trkpt>
    <trkpt lat="42.410663" lon="-2.654633">
      <ele>615.3</ele>
    </trkpt>
    <trkpt lat="42.410686" lon="-2.653874">
      <ele>616.4</ele>
    </trkpt>
    <trkpt lat="42.410931" lon="-2.653067">
      <ele>617.7</ele>
    </trkpt>
    <trkpt lat="42.41095" lon="-2.652435">
      <ele>618.4</ele>
    </trkpt>
    <trkpt lat="42.410904" lon="-2.652055">
      <ele>618.8</ele>
    </trkpt>
    <trkpt lat="42.41091" lon="-2.651956">
      <ele>618.9</ele>
    </trkpt>
    <trkpt lat="42.411027" lon="-2.651334">
      <ele>619.9</ele>
    </trkpt>
    <trkpt lat="42.411068" lon="-2.651219">
      <ele>620.1</ele>
    </trkpt>
    <trkpt lat="42.411209" lon="-2.650968">
      <ele>620.8</ele>
    </trkpt>
    <trkpt lat="42.411251" lon="-2.650846">
      <ele>621.1</ele>
    </trkpt>
    <trkpt lat="42.411256" lon="-2.650754">
      <ele>621.3</ele>
    </trkpt>
    <trkpt lat="42.411218" lon="-2.650704">
      <ele>621.5</ele>
    </trkpt>
    <trkpt lat="42.411106" lon="-2.650572">
      <ele>622</ele>
    </trkpt>
    <trkpt lat="42.411107" lon="-2.650398">
      <ele>622.6</ele>
    </trkpt>
    <trkpt lat="42.411178" lon="-2.650232">
      <ele>623.2</ele>
    </trkpt>
    <trkpt lat="42.411467" lon="-2.649885">
      <ele>625.6</ele>
    </trkpt>
    <trkpt lat="42.411539" lon="-2.649863">
      <ele>626.2</ele>
    </trkpt>
    <trkpt lat="42.411723" lon="-2.64969">
      <ele>628</ele>
    </trkpt>
    <trkpt lat="42.411988" lon="-2.649506">
      <ele>630.6</ele>
    </trkpt>
    <trkpt lat="42.412121" lon="-2.649362">
      <ele>632.2</ele>
    </trkpt>
    <trkpt lat="42.412415" lon="-2.648821">
      <ele>636.8</ele>
    </trkpt>
    <trkpt lat="42.412649" lon="-2.648534">
      <ele>639.6</ele>
    </trkpt>
    <trkpt lat="42.41266" lon="-2.64839">
      <ele>640.6</ele>
    </trkpt>
    <trkpt lat="42.412572" lon="-2.647916">
      <ele>643.7</ele>
    </trkpt>
    <trkpt lat="42.412568" lon="-2.647438">
      <ele>646.5</ele>
    </trkpt>
    <trkpt lat="42.412556" lon="-2.647201">
      <ele>647.8</ele>
    </trkpt>
    <trkpt lat="42.412487" lon="-2.646799">
      <ele>649.9</ele>
    </trkpt>
    <trkpt lat="42.412466" lon="-2.646533">
      <ele>651.2</ele>
    </trkpt>
    <trkpt lat="42.412444" lon="-2.645444">
      <ele>656.5</ele>
    </trkpt>
    <trkpt lat="42.412365" lon="-2.644525">
      <ele>660.3</ele>
    </trkpt>
    <trkpt lat="42.412385" lon="-2.644436">
      <ele>660.6</ele>
    </trkpt>
    <trkpt lat="42.412458" lon="-2.643841">
      <ele>661.7</ele>
    </trkpt>
    <trkpt lat="42.412432" lon="-2.643709">
      <ele>661.8</ele>
    </trkpt>
    <trkpt lat="42.412229" lon="-2.643245">
      <ele>661.5</ele>
    </trkpt>
    <trkpt lat="42.412062" lon="-2.642973">
      <ele>660.6</ele>
    </trkpt>
    <trkpt lat="42.41198" lon="-2.64271">
      <ele>659.5</ele>
    </trkpt>
    <trkpt lat="42.411743" lon="-2.642525">
      <ele>657.9</ele>
    </trkpt>
    <trkpt lat="42.411634" lon="-2.642286">
      <ele>656.3</ele>
    </trkpt>
    <trkpt lat="42.411428" lon="-2.641973">
      <ele>653.9</ele>
    </trkpt>
    <trkpt lat="42.411372" lon="-2.641791">
      <ele>652.7</ele>
    </trkpt>
    <trkpt lat="42.411321" lon="-2.641457">
      <ele>650.6</ele>
    </trkpt>
    <trkpt lat="42.411346" lon="-2.640979">
      <ele>647.6</ele>
    </trkpt>
    <trkpt lat="42.411304" lon="-2.639774">
      <ele>641.6</ele>
    </trkpt>
    <trkpt lat="42.411366" lon="-2.638974">
      <ele>638.4</ele>
    </trkpt>
    <trkpt lat="42.411483" lon="-2.638427">
      <ele>636.3</ele>
    </trkpt>
    <trkpt lat="42.411484" lon="-2.63821">
      <ele>635.5</ele>
    </trkpt>
    <trkpt lat="42.411419" lon="-2.637416">
      <ele>632.9</ele>
    </trkpt>
    <trkpt lat="42.41151" lon="-2.636753">
      <ele>630.8</ele>
    </trkpt>
    <trkpt lat="42.411359" lon="-2.634854">
      <ele>625.8</ele>
    </trkpt>
    <trkpt lat="42.411364" lon="-2.634702">
      <ele>625.5</ele>
    </trkpt>
    <trkpt lat="42.411405" lon="-2.634519">
      <ele>625</ele>
    </trkpt>
    <trkpt lat="42.411571" lon="-2.633974">
      <ele>623.8</ele>
    </trkpt>
    <trkpt lat="42.411502" lon="-2.631904">
      <ele>620.8</ele>
    </trkpt>
    <trkpt lat="42.41156" lon="-2.630939">
      <ele>619.7</ele>
    </trkpt>
    <trkpt lat="42.411558" lon="-2.630205">
      <ele>618.5</ele>
    </trkpt>
    <trkpt lat="42.41159" lon="-2.629603">
      <ele>617.3</ele>
    </trkpt>
    <trkpt lat="42.411572" lon="-2.629217">
      <ele>616.5</ele>
    </trkpt>
    <trkpt lat="42.411731" lon="-2.62806">
      <ele>613.7</ele>
    </trkpt>
    <trkpt lat="42.411769" lon="-2.627916">
      <ele>613.3</ele>
    </trkpt>
    <trkpt lat="42.411734" lon="-2.62772">
      <ele>612.9</ele>
    </trkpt>
    <trkpt lat="42.411741" lon="-2.627354">
      <ele>612.1</ele>
    </trkpt>
    <trkpt lat="42.41178" lon="-2.626581">
      <ele>610.5</ele>
    </trkpt>
    <trkpt lat="42.411892" lon="-2.624546">
      <ele>606.7</ele>
    </trkpt>
    <trkpt lat="42.41199" lon="-2.623377">
      <ele>605.3</ele>
    </trkpt>
    <trkpt lat="42.411974" lon="-2.622798">
      <ele>604.8</ele>
    </trkpt>
    <trkpt lat="42.411998" lon="-2.622597">
      <ele>604.6</ele>
    </trkpt>
    <trkpt lat="42.412089" lon="-2.622421">
      <ele>604.4</ele>
    </trkpt>
    <trkpt lat="42.412108" lon="-2.622238">
      <ele>604.3</ele>
    </trkpt>
    <trkpt lat="42.41206" lon="-2.621846">
      <ele>603.9</ele>
    </trkpt>
    <trkpt lat="42.412045" lon="-2.621191">
      <ele>603.2</ele>
    </trkpt>
    <trkpt lat="42.412106" lon="-2.620069">
      <ele>601.2</ele>
    </trkpt>
    <trkpt lat="42.412107" lon="-2.620035">
      <ele>601.2</ele>
    </trkpt>
    <trkpt lat="42.412126" lon="-2.618772">
      <ele>599</ele>
    </trkpt>
    <trkpt lat="42.412194" lon="-2.614148">
      <ele>593.5</ele>
    </trkpt>
    <trkpt lat="42.412234" lon="-2.613093">
      <ele>591.5</ele>
    </trkpt>
    <trkpt lat="42.412296" lon="-2.612504">
      <ele>590.3</ele>
    </trkpt>
    <trkpt lat="42.412419" lon="-2.611696">
      <ele>588.6</ele>
    </trkpt>
    <trkpt lat="42.412578" lon="-2.610827">
      <ele>586.6</ele>
    </trkpt>
    <trkpt lat="42.412721" lon="-2.610161">
      <ele>584.9</ele>
    </trkpt>
    <trkpt lat="42.41288" lon="-2.609547">
      <ele>583.2</ele>
    </trkpt>
    <trkpt lat="42.413123" lon="-2.608711">
      <ele>580.9</ele>
    </trkpt>
    <trkpt lat="42.41327" lon="-2.608287">
      <ele>579.9</ele>
    </trkpt>
    <trkpt lat="42.413844" lon="-2.606706">
      <ele>577.3</ele>
    </trkpt>
    <trkpt lat="42.414506" lon="-2.604875">
      <ele>574.2</ele>
    </trkpt>
    <trkpt lat="42.41491" lon="-2.603704">
      <ele>572</ele>
    </trkpt>
    <trkpt lat="42.415462" lon="-2.602217">
      <ele>569.6</ele>
    </trkpt>
    <trkpt lat="42.415792" lon="-2.601279">
      <ele>568.3</ele>
    </trkpt>
    <trkpt lat="42.416125" lon="-2.600418">
      <ele>566.8</ele>
    </trkpt>
    <trkpt lat="42.416716" lon="-2.599182">
      <ele>563.7</ele>
    </trkpt>
    <trkpt lat="42.417136" lon="-2.598238">
      <ele>560.9</ele>
    </trkpt>
    <trkpt lat="42.418591" lon="-2.595145">
      <ele>554.1</ele>
    </trkpt>
    <trkpt lat="42.419423" lon="-2.593263">
      <ele>554.3</ele>
    </trkpt>
    <trkpt lat="42.419637" lon="-2.592739">
      <ele>554.6</ele>
    </trkpt>
    <trkpt lat="42.41998" lon="-2.591734">
      <ele>555</ele>
    </trkpt>
    <trkpt lat="42.420284" lon="-2.590714">
      <ele>555.9</ele>
    </trkpt>
    <trkpt lat="42.420291" lon="-2.590454">
      <ele>556.2</ele>
    </trkpt>
    <trkpt lat="42.42024" lon="-2.590363">
      <ele>556.4</ele>
    </trkpt>
    <trkpt lat="42.420138" lon="-2.590308">
      <ele>556.6</ele>
    </trkpt>
    <trkpt lat="42.41998" lon="-2.590316">
      <ele>557</ele>
    </trkpt>
    <trkpt lat="42.419927" lon="-2.590216">
      <ele>557.2</ele>
    </trkpt>
    <trkpt lat="42.419456" lon="-2.590577">
      <ele>558.9</ele>
    </trkpt>
    <trkpt lat="42.417587" lon="-2.591761">
      <ele>566.4</ele>
    </trkpt>
    <trkpt lat="42.417183" lon="-2.591942">
      <ele>568.1</ele>
    </trkpt>
    <trkpt lat="42.415962" lon="-2.592331">
      <ele>573.7</ele>
    </trkpt>
    <trkpt lat="42.415707" lon="-2.592411">
      <ele>574.9</ele>
    </trkpt>
    <trkpt lat="42.415437" lon="-2.592451">
      <ele>575.9</ele>
    </trkpt>
    <trkpt lat="42.414812" lon="-2.59243">
      <ele>577.3</ele>
    </trkpt>
    <trkpt lat="42.414887" lon="-2.592118">
      <ele>577.5</ele>
    </trkpt>
    <trkpt lat="42.415024" lon="-2.590533">
      <ele>575.5</ele>
    </trkpt>
    <trkpt lat="42.415061" lon="-2.589712">
      <ele>573.8</ele>
    </trkpt>
    <trkpt lat="42.415187" lon="-2.58885">
      <ele>572</ele>
    </trkpt>
    <trkpt lat="42.41504" lon="-2.587737">
      <ele>569.7</ele>
    </trkpt>
    <trkpt lat="42.415069" lon="-2.587676">
      <ele>569.6</ele>
    </trkpt>
    <trkpt lat="42.415124" lon="-2.587643">
      <ele>569.4</ele>
    </trkpt>
    <trkpt lat="42.415893" lon="-2.587318">
      <ele>566.7</ele>
    </trkpt>
    <trkpt lat="42.416237" lon="-2.587108">
      <ele>565.2</ele>
    </trkpt>
    <trkpt lat="42.41658" lon="-2.586756">
      <ele>563.5</ele>
    </trkpt>
    <trkpt lat="42.416858" lon="-2.586362">
      <ele>561.8</ele>
    </trkpt>
    <trkpt lat="42.41806" lon="-2.585169">
      <ele>555.4</ele>
    </trkpt>
    <trkpt lat="42.418068" lon="-2.585161">
      <ele>555.4</ele>
    </trkpt>
    <trkpt lat="42.418134" lon="-2.585103">
      <ele>555</ele>
    </trkpt>
    <trkpt lat="42.418647" lon="-2.58465">
      <ele>552.6</ele>
    </trkpt>
    <trkpt lat="42.418777" lon="-2.584522">
      <ele>552</ele>
    </trkpt>
    <trkpt lat="42.419004" lon="-2.584158">
      <ele>550.8</ele>
    </trkpt>
    <trkpt lat="42.419079" lon="-2.58396">
      <ele>550.2</ele>
    </trkpt>
    <trkpt lat="42.419183" lon="-2.583785">
      <ele>549.6</ele>
    </trkpt>
    <trkpt lat="42.419449" lon="-2.583453">
      <ele>548.4</ele>
    </trkpt>
    <trkpt lat="42.419586" lon="-2.582979">
      <ele>547.2</ele>
    </trkpt>
    <trkpt lat="42.419657" lon="-2.582862">
      <ele>546.8</ele>
    </trkpt>
    <trkpt lat="42.419806" lon="-2.582722">
      <ele>546.2</ele>
    </trkpt>
    <trkpt lat="42.420563" lon="-2.582151">
      <ele>543.2</ele>
    </trkpt>
    <trkpt lat="42.421032" lon="-2.581592">
      <ele>540.8</ele>
    </trkpt>
    <trkpt lat="42.42136" lon="-2.581091">
      <ele>538.7</ele>
    </trkpt>
    <trkpt lat="42.421454" lon="-2.580881">
      <ele>538</ele>
    </trkpt>
    <trkpt lat="42.421604" lon="-2.580694">
      <ele>537.1</ele>
    </trkpt>
    <trkpt lat="42.421828" lon="-2.580392">
      <ele>535.9</ele>
    </trkpt>
    <trkpt lat="42.422258" lon="-2.579939">
      <ele>533.8</ele>
    </trkpt>
    <trkpt lat="42.422484" lon="-2.579763">
      <ele>532.8</ele>
    </trkpt>
    <trkpt lat="42.422934" lon="-2.579543">
      <ele>531</ele>
    </trkpt>
    <trkpt lat="42.423425" lon="-2.579096">
      <ele>528.7</ele>
    </trkpt>
    <trkpt lat="42.424221" lon="-2.578566">
      <ele>525.1</ele>
    </trkpt>
    <trkpt lat="42.424683" lon="-2.578279">
      <ele>523.1</ele>
    </trkpt>
    <trkpt lat="42.424865" lon="-2.578042">
      <ele>522.2</ele>
    </trkpt>
    <trkpt lat="42.425459" lon="-2.577502">
      <ele>519.7</ele>
    </trkpt>
    <trkpt lat="42.425765" lon="-2.57708">
      <ele>518.3</ele>
    </trkpt>
    <trkpt lat="42.425852" lon="-2.577059">
      <ele>518</ele>
    </trkpt>
    <trkpt lat="42.426615" lon="-2.575318">
      <ele>513.4</ele>
    </trkpt>
    <trkpt lat="42.427111" lon="-2.574235">
      <ele>510.8</ele>
    </trkpt>
    <trkpt lat="42.427286" lon="-2.573858">
      <ele>509.9</ele>
    </trkpt>
    <trkpt lat="42.427328" lon="-2.573813">
      <ele>509.7</ele>
    </trkpt>
    <trkpt lat="42.42737" lon="-2.573818">
      <ele>509.6</ele>
    </trkpt>
    <trkpt lat="42.427407" lon="-2.573822">
      <ele>509.5</ele>
    </trkpt>
    <trkpt lat="42.427473" lon="-2.573685">
      <ele>509.2</ele>
    </trkpt>
    <trkpt lat="42.427493" lon="-2.573642">
      <ele>509.1</ele>
    </trkpt>
    <trkpt lat="42.42768" lon="-2.573253">
      <ele>508.4</ele>
    </trkpt>
    <trkpt lat="42.429127" lon="-2.570235">
      <ele>504.6</ele>
    </trkpt>
    <trkpt lat="42.429833" lon="-2.568722">
      <ele>503.6</ele>
    </trkpt>
    <trkpt lat="42.430104" lon="-2.568085">
      <ele>503.3</ele>
    </trkpt>
    <trkpt lat="42.430185" lon="-2.567601">
      <ele>503</ele>
    </trkpt>
    <trkpt lat="42.430208" lon="-2.567457">
      <ele>502.9</ele>
    </trkpt>
    <trkpt lat="42.430555" lon="-2.565414">
      <ele>504</ele>
    </trkpt>
    <trkpt lat="42.430597" lon="-2.565144">
      <ele>504.9</ele>
    </trkpt>
    <trkpt lat="42.430655" lon="-2.5647">
      <ele>506.3</ele>
    </trkpt>
    <trkpt lat="42.430679" lon="-2.564664">
      <ele>506.4</ele>
    </trkpt>
    <trkpt lat="42.430743" lon="-2.56429">
      <ele>507.5</ele>
    </trkpt>
    <trkpt lat="42.430782" lon="-2.563683">
      <ele>508.9</ele>
    </trkpt>
    <trkpt lat="42.431032" lon="-2.563715">
      <ele>509.3</ele>
    </trkpt>
    <trkpt lat="42.431504" lon="-2.563788">
      <ele>509.4</ele>
    </trkpt>
    <trkpt lat="42.431811" lon="-2.563825">
      <ele>508.7</ele>
    </trkpt>
    <trkpt lat="42.432232" lon="-2.563807">
      <ele>507.4</ele>
    </trkpt>
    <trkpt lat="42.432335" lon="-2.563805">
      <ele>507.1</ele>
    </trkpt>
    <trkpt lat="42.432914" lon="-2.562699">
      <ele>504.9</ele>
    </trkpt>
    <trkpt lat="42.432946" lon="-2.562607">
      <ele>504.9</ele>
    </trkpt>
    <trkpt lat="42.432972" lon="-2.562534">
      <ele>504.8</ele>
    </trkpt>
    <trkpt lat="42.433026" lon="-2.562253">
      <ele>504.8</ele>
    </trkpt>
    <trkpt lat="42.433038" lon="-2.561917">
      <ele>504.5</ele>
    </trkpt>
    <trkpt lat="42.43301" lon="-2.561694">
      <ele>504.2</ele>
    </trkpt>
    <trkpt lat="42.432994" lon="-2.561568">
      <ele>503.9</ele>
    </trkpt>
    <trkpt lat="42.432789" lon="-2.560849">
      <ele>501.3</ele>
    </trkpt>
    <trkpt lat="42.432695" lon="-2.560537">
      <ele>499.7</ele>
    </trkpt>
    <trkpt lat="42.432403" lon="-2.559544">
      <ele>493.7</ele>
    </trkpt>
    <trkpt lat="42.432339" lon="-2.559324">
      <ele>492</ele>
    </trkpt>
    <trkpt lat="42.432286" lon="-2.559142">
      <ele>490.5</ele>
    </trkpt>
    <trkpt lat="42.432333" lon="-2.559114">
      <ele>489.9</ele>
    </trkpt>
    <trkpt lat="42.432426" lon="-2.559262">
      <ele>488.4</ele>
    </trkpt>
    <trkpt lat="42.432624" lon="-2.559327">
      <ele>486.2</ele>
    </trkpt>
    <trkpt lat="42.432608" lon="-2.559265">
      <ele>485.7</ele>
    </trkpt>
    <trkpt lat="42.432562" lon="-2.55916">
      <ele>484.8</ele>
    </trkpt>
    <trkpt lat="42.432572" lon="-2.559034">
      <ele>483.9</ele>
    </trkpt>
    <trkpt lat="42.432754" lon="-2.558692">
      <ele>481</ele>
    </trkpt>
    <trkpt lat="42.432857" lon="-2.5584">
      <ele>479.1</ele>
    </trkpt>
    <trkpt lat="42.433024" lon="-2.557771">
      <ele>475.3</ele>
    </trkpt>
    <trkpt lat="42.43369" lon="-2.555417">
      <ele>469.1</ele>
    </trkpt>
    <trkpt lat="42.433811" lon="-2.554929">
      <ele>468.6</ele>
    </trkpt>
    <trkpt lat="42.434032" lon="-2.554258">
      <ele>468.1</ele>
    </trkpt>
    <trkpt lat="42.434212" lon="-2.553597">
      <ele>467.8</ele>
    </trkpt>
    <trkpt lat="42.434532" lon="-2.552623">
      <ele>467.5</ele>
    </trkpt>
    <trkpt lat="42.43471" lon="-2.5519">
      <ele>467.2</ele>
    </trkpt>
    <trkpt lat="42.434909" lon="-2.551217">
      <ele>467</ele>
    </trkpt>
    <trkpt lat="42.434953" lon="-2.551064">
      <ele>466.9</ele>
    </trkpt>
    <trkpt lat="42.434992" lon="-2.550926">
      <ele>466.9</ele>
    </trkpt>
    <trkpt lat="42.435055" lon="-2.550815">
      <ele>466.8</ele>
    </trkpt>
    <trkpt lat="42.435422" lon="-2.550361">
      <ele>466.7</ele>
    </trkpt>
    <trkpt lat="42.43589" lon="-2.549765">
      <ele>466.7</ele>
    </trkpt>
    <trkpt lat="42.435918" lon="-2.549674">
      <ele>466.7</ele>
    </trkpt>
    <trkpt lat="42.435917" lon="-2.549499">
      <ele>466.7</ele>
    </trkpt>
    <trkpt lat="42.435674" lon="-2.548972">
      <ele>467</ele>
    </trkpt>
    <trkpt lat="42.435585" lon="-2.548559">
      <ele>467.3</ele>
    </trkpt>
    <trkpt lat="42.43555" lon="-2.548354">
      <ele>467.5</ele>
    </trkpt>
    <trkpt lat="42.435547" lon="-2.548093">
      <ele>467.8</ele>
    </trkpt>
    <trkpt lat="42.435587" lon="-2.547928">
      <ele>467.9</ele>
    </trkpt>
    <trkpt lat="42.435682" lon="-2.547529">
      <ele>468.4</ele>
    </trkpt>
    <trkpt lat="42.435832" lon="-2.546416">
      <ele>469.6</ele>
    </trkpt>
    <trkpt lat="42.436052" lon="-2.545206">
      <ele>471.3</ele>
    </trkpt>
    <trkpt lat="42.436326" lon="-2.542873">
      <ele>477</ele>
    </trkpt>
    <trkpt lat="42.436427" lon="-2.542481">
      <ele>478.6</ele>
    </trkpt>
    <trkpt lat="42.436602" lon="-2.541774">
      <ele>481.9</ele>
    </trkpt>
    <trkpt lat="42.436623" lon="-2.541557">
      <ele>483</ele>
    </trkpt>
    <trkpt lat="42.436668" lon="-2.541092">
      <ele>485.3</ele>
    </trkpt>
    <trkpt lat="42.436733" lon="-2.540827">
      <ele>486.7</ele>
    </trkpt>
    <trkpt lat="42.436941" lon="-2.540358">
      <ele>489.2</ele>
    </trkpt>
    <trkpt lat="42.437118" lon="-2.540024">
      <ele>491</ele>
    </trkpt>
    <trkpt lat="42.437336" lon="-2.539613">
      <ele>492.8</ele>
    </trkpt>
    <trkpt lat="42.437415" lon="-2.539459">
      <ele>493.3</ele>
    </trkpt>
    <trkpt lat="42.437596" lon="-2.538996">
      <ele>494.5</ele>
    </trkpt>
    <trkpt lat="42.437638" lon="-2.538825">
      <ele>494.8</ele>
    </trkpt>
    <trkpt lat="42.437796" lon="-2.537796">
      <ele>495.8</ele>
    </trkpt>
    <trkpt lat="42.437836" lon="-2.537602">
      <ele>495.9</ele>
    </trkpt>
    <trkpt lat="42.437945" lon="-2.537153">
      <ele>496.3</ele>
    </trkpt>
    <trkpt lat="42.438044" lon="-2.536833">
      <ele>496.6</ele>
    </trkpt>
    <trkpt lat="42.438251" lon="-2.536171">
      <ele>497.5</ele>
    </trkpt>
    <trkpt lat="42.43828" lon="-2.536092">
      <ele>497.7</ele>
    </trkpt>
    <trkpt lat="42.438463" lon="-2.535587">
      <ele>498.7</ele>
    </trkpt>
    <trkpt lat="42.438518" lon="-2.535305">
      <ele>499.3</ele>
    </trkpt>
    <trkpt lat="42.438605" lon="-2.534661">
      <ele>500.4</ele>
    </trkpt>
    <trkpt lat="42.438626" lon="-2.534338">
      <ele>500.8</ele>
    </trkpt>
    <trkpt lat="42.43878" lon="-2.533424">
      <ele>501.7</ele>
    </trkpt>
    <trkpt lat="42.438861" lon="-2.532231">
      <ele>503.7</ele>
    </trkpt>
    <trkpt lat="42.438916" lon="-2.531922">
      <ele>504.3</ele>
    </trkpt>
    <trkpt lat="42.439094" lon="-2.531366">
      <ele>505.6</ele>
    </trkpt>
    <trkpt lat="42.439217" lon="-2.530874">
      <ele>506.6</ele>
    </trkpt>
    <trkpt lat="42.43936" lon="-2.530056">
      <ele>508.2</ele>
    </trkpt>
    <trkpt lat="42.43955" lon="-2.529125">
      <ele>509.9</ele>
    </trkpt>
    <trkpt lat="42.439566" lon="-2.528964">
      <ele>510.2</ele>
    </trkpt>
    <trkpt lat="42.439572" lon="-2.528731">
      <ele>510.8</ele>
    </trkpt>
    <trkpt lat="42.439712" lon="-2.527795">
      <ele>513.7</ele>
    </trkpt>
    <trkpt lat="42.439772" lon="-2.527191">
      <ele>515.4</ele>
    </trkpt>
    <trkpt lat="42.439783" lon="-2.526741">
      <ele>516.3</ele>
    </trkpt>
    <trkpt lat="42.439791" lon="-2.526616">
      <ele>516.5</ele>
    </trkpt>
    <trkpt lat="42.439907" lon="-2.524977">
      <ele>516.8</ele>
    </trkpt>
    <trkpt lat="42.439937" lon="-2.524755">
      <ele>516.3</ele>
    </trkpt>
    <trkpt lat="42.44007" lon="-2.524029">
      <ele>514.4</ele>
    </trkpt>
    <trkpt lat="42.440094" lon="-2.523912">
      <ele>514</ele>
    </trkpt>
    <trkpt lat="42.440035" lon="-2.523585">
      <ele>513</ele>
    </trkpt>
    <trkpt lat="42.439864" lon="-2.523168">
      <ele>511.4</ele>
    </trkpt>
    <trkpt lat="42.439739" lon="-2.522981">
      <ele>510.4</ele>
    </trkpt>
    <trkpt lat="42.439638" lon="-2.522829">
      <ele>509.5</ele>
    </trkpt>
    <trkpt lat="42.43949" lon="-2.522483">
      <ele>507.6</ele>
    </trkpt>
    <trkpt lat="42.439299" lon="-2.52182">
      <ele>504.1</ele>
    </trkpt>
    <trkpt lat="42.439141" lon="-2.52127">
      <ele>501.3</ele>
    </trkpt>
    <trkpt lat="42.438882" lon="-2.520851">
      <ele>498.6</ele>
    </trkpt>
    <trkpt lat="42.438583" lon="-2.520075">
      <ele>494.1</ele>
    </trkpt>
    <trkpt lat="42.438481" lon="-2.519887">
      <ele>493</ele>
    </trkpt>
    <trkpt lat="42.438297" lon="-2.519639">
      <ele>491.4</ele>
    </trkpt>
    <trkpt lat="42.438001" lon="-2.519042">
      <ele>488.4</ele>
    </trkpt>
    <trkpt lat="42.437815" lon="-2.518434">
      <ele>486</ele>
    </trkpt>
    <trkpt lat="42.437613" lon="-2.517876">
      <ele>484.3</ele>
    </trkpt>
    <trkpt lat="42.437261" lon="-2.517339">
      <ele>482.2</ele>
    </trkpt>
    <trkpt lat="42.436815" lon="-2.516746">
      <ele>478.5</ele>
    </trkpt>
    <trkpt lat="42.436749" lon="-2.516617">
      <ele>477.7</ele>
    </trkpt>
    <trkpt lat="42.436547" lon="-2.516337">
      <ele>475.2</ele>
    </trkpt>
    <trkpt lat="42.436542" lon="-2.516265">
      <ele>474.7</ele>
    </trkpt>
    <trkpt lat="42.436584" lon="-2.51615">
      <ele>473.8</ele>
    </trkpt>
    <trkpt lat="42.436789" lon="-2.515825">
      <ele>470.5</ele>
    </trkpt>
    <trkpt lat="42.437194" lon="-2.515489">
      <ele>465</ele>
    </trkpt>
    <trkpt lat="42.437329" lon="-2.515307">
      <ele>463</ele>
    </trkpt>
    <trkpt lat="42.4375" lon="-2.514922">
      <ele>460</ele>
    </trkpt>
    <trkpt lat="42.437744" lon="-2.514417">
      <ele>456.6</ele>
    </trkpt>
    <trkpt lat="42.437808" lon="-2.514372">
      <ele>456.2</ele>
    </trkpt>
    <trkpt lat="42.437916" lon="-2.514388">
      <ele>455.5</ele>
    </trkpt>
    <trkpt lat="42.438395" lon="-2.514689">
      <ele>452.8</ele>
    </trkpt>
    <trkpt lat="42.438494" lon="-2.514809">
      <ele>452.2</ele>
    </trkpt>
    <trkpt lat="42.438827" lon="-2.515213">
      <ele>450.6</ele>
    </trkpt>
    <trkpt lat="42.438948" lon="-2.515295">
      <ele>450.2</ele>
    </trkpt>
    <trkpt lat="42.439086" lon="-2.515323">
      <ele>449.7</ele>
    </trkpt>
    <trkpt lat="42.4392" lon="-2.515318">
      <ele>449.3</ele>
    </trkpt>
    <trkpt lat="42.439333" lon="-2.515266">
      <ele>448.9</ele>
    </trkpt>
    <trkpt lat="42.439585" lon="-2.515063">
      <ele>448.1</ele>
    </trkpt>
    <trkpt lat="42.439791" lon="-2.514949">
      <ele>447.5</ele>
    </trkpt>
    <trkpt lat="42.439975" lon="-2.514906">
      <ele>447.1</ele>
    </trkpt>
    <trkpt lat="42.440607" lon="-2.514816">
      <ele>446.3</ele>
    </trkpt>
    <trkpt lat="42.44153" lon="-2.514796">
      <ele>445.2</ele>
    </trkpt>
    <trkpt lat="42.441556" lon="-2.51473">
      <ele>445.1</ele>
    </trkpt>
    <trkpt lat="42.44156" lon="-2.514623">
      <ele>445</ele>
    </trkpt>
    <trkpt lat="42.441408" lon="-2.51398">
      <ele>444.3</ele>
    </trkpt>
    <trkpt lat="42.441315" lon="-2.513735">
      <ele>444</ele>
    </trkpt>
    <trkpt lat="42.441369" lon="-2.513366">
      <ele>443.6</ele>
    </trkpt>
    <trkpt lat="42.441414" lon="-2.513158">
      <ele>443.4</ele>
    </trkpt>
    <trkpt lat="42.44158" lon="-2.512603">
      <ele>442.9</ele>
    </trkpt>
    <trkpt lat="42.441515" lon="-2.512538">
      <ele>442.9</ele>
    </trkpt>
    <trkpt lat="42.441384" lon="-2.512493">
      <ele>442.9</ele>
    </trkpt>
    <trkpt lat="42.441191" lon="-2.512368">
      <ele>442.8</ele>
    </trkpt>
    <trkpt lat="42.441004" lon="-2.51231">
      <ele>442.9</ele>
    </trkpt>
    <trkpt lat="42.440871" lon="-2.512222">
      <ele>442.9</ele>
    </trkpt>
    <trkpt lat="42.440621" lon="-2.512226">
      <ele>443</ele>
    </trkpt>
    <trkpt lat="42.440369" lon="-2.512214">
      <ele>443.1</ele>
    </trkpt>
    <trkpt lat="42.440157" lon="-2.512107">
      <ele>443.2</ele>
    </trkpt>
    <trkpt lat="42.439664" lon="-2.511516">
      <ele>443.5</ele>
    </trkpt>
    <trkpt lat="42.439417" lon="-2.511322">
      <ele>443.5</ele>
    </trkpt>
    <trkpt lat="42.439325" lon="-2.511179">
      <ele>443.5</ele>
    </trkpt>
    <trkpt lat="42.439292" lon="-2.511072">
      <ele>443.4</ele>
    </trkpt>
    <trkpt lat="42.439292" lon="-2.510932">
      <ele>443.4</ele>
    </trkpt>
    <trkpt lat="42.43932" lon="-2.510806">
      <ele>443.4</ele>
    </trkpt>
    <trkpt lat="42.439438" lon="-2.510518">
      <ele>443.3</ele>
    </trkpt>
    <trkpt lat="42.439618" lon="-2.510163">
      <ele>443.4</ele>
    </trkpt>
    <trkpt lat="42.439612" lon="-2.510029">
      <ele>443.4</ele>
    </trkpt>
    <trkpt lat="42.439651" lon="-2.509886">
      <ele>443.4</ele>
    </trkpt>
    <trkpt lat="42.439767" lon="-2.509753">
      <ele>443.4</ele>
    </trkpt>
    <trkpt lat="42.439807" lon="-2.509586">
      <ele>443.3</ele>
    </trkpt>
    <trkpt lat="42.439822" lon="-2.509307">
      <ele>443.3</ele>
    </trkpt>
    <trkpt lat="42.439746" lon="-2.50872">
      <ele>443.2</ele>
    </trkpt>
    <trkpt lat="42.439793" lon="-2.508036">
      <ele>443.1</ele>
    </trkpt>
    <trkpt lat="42.439891" lon="-2.50736">
      <ele>443</ele>
    </trkpt>
    <trkpt lat="42.439906" lon="-2.507116">
      <ele>442.9</ele>
    </trkpt>
    <trkpt lat="42.43982" lon="-2.506484">
      <ele>443.1</ele>
    </trkpt>
    <trkpt lat="42.439785" lon="-2.506358">
      <ele>443.2</ele>
    </trkpt>
    <trkpt lat="42.43977" lon="-2.505738">
      <ele>443.7</ele>
    </trkpt>
    <trkpt lat="42.439804" lon="-2.505383">
      <ele>444.2</ele>
    </trkpt>
    <trkpt lat="42.439777" lon="-2.505253">
      <ele>444.3</ele>
    </trkpt>
    <trkpt lat="42.439798" lon="-2.505054">
      <ele>444.6</ele>
    </trkpt>
    <trkpt lat="42.439992" lon="-2.504232">
      <ele>445.5</ele>
    </trkpt>
    <trkpt lat="42.440018" lon="-2.503853">
      <ele>445.9</ele>
    </trkpt>
    <trkpt lat="42.440209" lon="-2.503068">
      <ele>446.3</ele>
    </trkpt>
    <trkpt lat="42.440308" lon="-2.502533">
      <ele>446.5</ele>
    </trkpt>
    <trkpt lat="42.440517" lon="-2.501875">
      <ele>446.7</ele>
    </trkpt>
    <trkpt lat="42.440533" lon="-2.501573">
      <ele>446.7</ele>
    </trkpt>
    <trkpt lat="42.441007" lon="-2.500886">
      <ele>446.6</ele>
    </trkpt>
    <trkpt lat="42.44126" lon="-2.500351">
      <ele>446.6</ele>
    </trkpt>
    <trkpt lat="42.441378" lon="-2.500197">
      <ele>446.6</ele>
    </trkpt>
    <trkpt lat="42.441463" lon="-2.500119">
      <ele>446.6</ele>
    </trkpt>
    <trkpt lat="42.441583" lon="-2.500142">
      <ele>446.7</ele>
    </trkpt>
    <trkpt lat="42.441657" lon="-2.50022">
      <ele>446.7</ele>
    </trkpt>
    <trkpt lat="42.44167" lon="-2.499953">
      <ele>446.9</ele>
    </trkpt>
    <trkpt lat="42.441651" lon="-2.499763">
      <ele>447</ele>
    </trkpt>
    <trkpt lat="42.441769" lon="-2.499668">
      <ele>447</ele>
    </trkpt>
    <trkpt lat="42.441836" lon="-2.499556">
      <ele>447.1</ele>
    </trkpt>
    <trkpt lat="42.441856" lon="-2.499352">
      <ele>447.1</ele>
    </trkpt>
    <trkpt lat="42.44184" lon="-2.499159">
      <ele>447.1</ele>
    </trkpt>
    <trkpt lat="42.44178" lon="-2.498567">
      <ele>447.3</ele>
    </trkpt>
    <trkpt lat="42.442089" lon="-2.498551">
      <ele>447.1</ele>
    </trkpt>
    <trkpt lat="42.442306" lon="-2.498585">
      <ele>446.9</ele>
    </trkpt>
    <trkpt lat="42.442865" lon="-2.498792">
      <ele>445.7</ele>
    </trkpt>
    <trkpt lat="42.443139" lon="-2.498996">
      <ele>444.8</ele>
    </trkpt>
    <trkpt lat="42.443229" lon="-2.499003">
      <ele>444.5</ele>
    </trkpt>
    <trkpt lat="42.443318" lon="-2.498937">
      <ele>444.1</ele>
    </trkpt>
    <trkpt lat="42.443496" lon="-2.498687">
      <ele>443.2</ele>
    </trkpt>
    <trkpt lat="42.443583" lon="-2.498641">
      <ele>442.9</ele>
    </trkpt>
    <trkpt lat="42.443753" lon="-2.498647">
      <ele>442.1</ele>
    </trkpt>
    <trkpt lat="42.443961" lon="-2.498745">
      <ele>441.3</ele>
    </trkpt>
    <trkpt lat="42.444136" lon="-2.498885">
      <ele>440.5</ele>
    </trkpt>
    <trkpt lat="42.444386" lon="-2.499291">
      <ele>439.3</ele>
    </trkpt>
    <trkpt lat="42.444541" lon="-2.49946">
      <ele>438.7</ele>
    </trkpt>
    <trkpt lat="42.444609" lon="-2.499478">
      <ele>438.5</ele>
    </trkpt>
    <trkpt lat="42.444662" lon="-2.499403">
      <ele>438.4</ele>
    </trkpt>
    <trkpt lat="42.444707" lon="-2.499416">
      <ele>438.3</ele>
    </trkpt>
    <trkpt lat="42.444735" lon="-2.499477">
      <ele>438.1</ele>
    </trkpt>
    <trkpt lat="42.444715" lon="-2.499552">
      <ele>438</ele>
    </trkpt>
    <trkpt lat="42.444665" lon="-2.499574">
      <ele>437.9</ele>
    </trkpt>
    <trkpt lat="42.444639" lon="-2.499631">
      <ele>437.7</ele>
    </trkpt>
    <trkpt lat="42.444823" lon="-2.499562">
      <ele>437.4</ele>
    </trkpt>
    <trkpt lat="42.444959" lon="-2.499435">
      <ele>437.1</ele>
    </trkpt>
    <trkpt lat="42.44514" lon="-2.499321">
      <ele>436.8</ele>
    </trkpt>
    <trkpt lat="42.445349" lon="-2.499236">
      <ele>436.6</ele>
    </trkpt>
    <trkpt lat="42.44584" lon="-2.499109">
      <ele>436.2</ele>
    </trkpt>
    <trkpt lat="42.446064" lon="-2.499103">
      <ele>436</ele>
    </trkpt>
    <trkpt lat="42.446199" lon="-2.499182">
      <ele>435.8</ele>
    </trkpt>
    <trkpt lat="42.446414" lon="-2.499517">
      <ele>435.3</ele>
    </trkpt>
    <trkpt lat="42.446781" lon="-2.499876">
      <ele>434.8</ele>
    </trkpt>
    <trkpt lat="42.447045" lon="-2.500293">
      <ele>434.5</ele>
    </trkpt>
    <trkpt lat="42.447047" lon="-2.500408">
      <ele>434.5</ele>
    </trkpt>
    <trkpt lat="42.447125" lon="-2.500631">
      <ele>434.5</ele>
    </trkpt>
    <trkpt lat="42.448146" lon="-2.503498">
      <ele>435.4</ele>
    </trkpt>
    <trkpt lat="42.448142" lon="-2.503713">
      <ele>435.6</ele>
    </trkpt>
    <trkpt lat="42.448077" lon="-2.503825">
      <ele>435.8</ele>
    </trkpt>
    <trkpt lat="42.447966" lon="-2.5039">
      <ele>435.9</ele>
    </trkpt>
    <trkpt lat="42.447763" lon="-2.5038">
      <ele>436</ele>
    </trkpt>
    <trkpt lat="42.447599" lon="-2.503778">
      <ele>436.1</ele>
    </trkpt>
    <trkpt lat="42.447523" lon="-2.503797">
      <ele>436.1</ele>
    </trkpt>
    <trkpt lat="42.447415" lon="-2.503882">
      <ele>436.1</ele>
    </trkpt>
    <trkpt lat="42.447302" lon="-2.503901">
      <ele>436.1</ele>
    </trkpt>
    <trkpt lat="42.447282" lon="-2.503916">
      <ele>436.1</ele>
    </trkpt>
    <trkpt lat="42.44729" lon="-2.504004">
      <ele>436.2</ele>
    </trkpt>
    <trkpt lat="42.447186" lon="-2.503968">
      <ele>436.1</ele>
    </trkpt>
    <trkpt lat="42.446675" lon="-2.504167">
      <ele>435.9</ele>
    </trkpt>
    <trkpt lat="42.446509" lon="-2.50429">
      <ele>435.9</ele>
    </trkpt>
    <trkpt lat="42.446459" lon="-2.504451">
      <ele>435.8</ele>
    </trkpt>
    <trkpt lat="42.446438" lon="-2.504521">
      <ele>435.7</ele>
    </trkpt>
    <trkpt lat="42.446406" lon="-2.504837">
      <ele>435.5</ele>
    </trkpt>
    <trkpt lat="42.446489" lon="-2.505127">
      <ele>435.5</ele>
    </trkpt>
    <trkpt lat="42.446572" lon="-2.505749">
      <ele>435.6</ele>
    </trkpt>
    <trkpt lat="42.446628" lon="-2.505915">
      <ele>435.8</ele>
    </trkpt>
    <trkpt lat="42.446729" lon="-2.506413">
      <ele>436.2</ele>
    </trkpt>
    <trkpt lat="42.446724" lon="-2.506577">
      <ele>436.4</ele>
    </trkpt>
    <trkpt lat="42.447098" lon="-2.507778">
      <ele>437.7</ele>
    </trkpt>
    <trkpt lat="42.447121" lon="-2.508043">
      <ele>437.9</ele>
    </trkpt>
    <trkpt lat="42.447033" lon="-2.508516">
      <ele>438.3</ele>
    </trkpt>
    <trkpt lat="42.446985" lon="-2.508644">
      <ele>438.4</ele>
    </trkpt>
    <trkpt lat="42.446755" lon="-2.509108">
      <ele>439</ele>
    </trkpt>
    <trkpt lat="42.44656" lon="-2.509428">
      <ele>439.4</ele>
    </trkpt>
    <trkpt lat="42.44636" lon="-2.509972">
      <ele>440</ele>
    </trkpt>
    <trkpt lat="42.44616" lon="-2.510373">
      <ele>440.4</ele>
    </trkpt>
    <trkpt lat="42.446001" lon="-2.510851">
      <ele>440.8</ele>
    </trkpt>
    <trkpt lat="42.445661" lon="-2.511304">
      <ele>441.1</ele>
    </trkpt>
    <trkpt lat="42.445328" lon="-2.512125">
      <ele>441.3</ele>
    </trkpt>
    <trkpt lat="42.445027" lon="-2.512702">
      <ele>441.6</ele>
    </trkpt>
    <trkpt lat="42.444965" lon="-2.512863">
      <ele>441.6</ele>
    </trkpt>
    <trkpt lat="42.444913" lon="-2.513108">
      <ele>441.7</ele>
    </trkpt>
    <trkpt lat="42.444792" lon="-2.513285">
      <ele>441.7</ele>
    </trkpt>
    <trkpt lat="42.444612" lon="-2.513377">
      <ele>441.7</ele>
    </trkpt>
    <trkpt lat="42.444512" lon="-2.513383">
      <ele>441.7</ele>
    </trkpt>
    <trkpt lat="42.444459" lon="-2.513331">
      <ele>441.7</ele>
    </trkpt>
    <trkpt lat="42.444408" lon="-2.513228">
      <ele>441.7</ele>
    </trkpt>
    <trkpt lat="42.444309" lon="-2.512803">
      <ele>441.6</ele>
    </trkpt>
    <trkpt lat="42.444122" lon="-2.512186">
      <ele>441.4</ele>
    </trkpt>
    <trkpt lat="42.444008" lon="-2.512099">
      <ele>441.3</ele>
    </trkpt>
    <trkpt lat="42.443929" lon="-2.512093">
      <ele>441.3</ele>
    </trkpt>
    <trkpt lat="42.443657" lon="-2.512514">
      <ele>441.3</ele>
    </trkpt>
    <trkpt lat="42.443322" lon="-2.513149">
      <ele>441.8</ele>
    </trkpt>
    <trkpt lat="42.443246" lon="-2.513202">
      <ele>441.9</ele>
    </trkpt>
    <trkpt lat="42.442768" lon="-2.513283">
      <ele>442.5</ele>
    </trkpt>
    <trkpt lat="42.442328" lon="-2.513208">
      <ele>442.9</ele>
    </trkpt>
    <trkpt lat="42.442166" lon="-2.513206">
      <ele>443.1</ele>
    </trkpt>
    <trkpt lat="42.442008" lon="-2.513247">
      <ele>443.2</ele>
    </trkpt>
    <trkpt lat="42.441751" lon="-2.513387">
      <ele>443.5</ele>
    </trkpt>
    <trkpt lat="42.441523" lon="-2.513389">
      <ele>443.7</ele>
    </trkpt>
    <trkpt lat="42.441369" lon="-2.513366">
      <ele>443.8</ele>
    </trkpt>
    <trkpt lat="42.441315" lon="-2.513735">
      <ele>444.2</ele>
    </trkpt>
    <trkpt lat="42.441408" lon="-2.51398">
      <ele>444.4</ele>
    </trkpt>
    <trkpt lat="42.44156" lon="-2.514623">
      <ele>445</ele>
    </trkpt>
    <trkpt lat="42.441556" lon="-2.51473">
      <ele>445.1</ele>
    </trkpt>
    <trkpt lat="42.44153" lon="-2.514796">
      <ele>445.2</ele>
    </trkpt>
    <trkpt lat="42.440607" lon="-2.514816">
      <ele>446.3</ele>
    </trkpt>
    <trkpt lat="42.439975" lon="-2.514906">
      <ele>447.1</ele>
    </trkpt>
    <trkpt lat="42.439791" lon="-2.514949">
      <ele>447.5</ele>
    </trkpt>
    <trkpt lat="42.439585" lon="-2.515063">
      <ele>448.1</ele>
    </trkpt>
    <trkpt lat="42.439333" lon="-2.515266">
      <ele>448.9</ele>
    </trkpt>
    <trkpt lat="42.4392" lon="-2.515318">
      <ele>449.3</ele>
    </trkpt>
    <trkpt lat="42.439086" lon="-2.515323">
      <ele>449.7</ele>
    </trkpt>
    <trkpt lat="42.438948" lon="-2.515295">
      <ele>450.2</ele>
    </trkpt>
    <trkpt lat="42.438827" lon="-2.515213">
      <ele>450.6</ele>
    </trkpt>
    <trkpt lat="42.438395" lon="-2.514689">
      <ele>452.8</ele>
    </trkpt>
    <trkpt lat="42.437916" lon="-2.514388">
      <ele>455.5</ele>
    </trkpt>
    <trkpt lat="42.437808" lon="-2.514372">
      <ele>456.2</ele>
    </trkpt>
    <trkpt lat="42.437744" lon="-2.514417">
      <ele>456.6</ele>
    </trkpt>
    <trkpt lat="42.4375" lon="-2.514922">
      <ele>460</ele>
    </trkpt>
    <trkpt lat="42.437329" lon="-2.515307">
      <ele>463</ele>
    </trkpt>
    <trkpt lat="42.437194" lon="-2.515489">
      <ele>465</ele>
    </trkpt>
    <trkpt lat="42.436789" lon="-2.515825">
      <ele>470.5</ele>
    </trkpt>
    <trkpt lat="42.436584" lon="-2.51615">
      <ele>473.8</ele>
    </trkpt>
    <trkpt lat="42.436542" lon="-2.516265">
      <ele>474.7</ele>
    </trkpt>
    <trkpt lat="42.436547" lon="-2.516337">
      <ele>475.2</ele>
    </trkpt>
    <trkpt lat="42.436749" lon="-2.516617">
      <ele>477.7</ele>
    </trkpt>
    <trkpt lat="42.436815" lon="-2.516746">
      <ele>478.5</ele>
    </trkpt>
    <trkpt lat="42.437261" lon="-2.517339">
      <ele>482.2</ele>
    </trkpt>
    <trkpt lat="42.437613" lon="-2.517876">
      <ele>484.3</ele>
    </trkpt>
    <trkpt lat="42.437815" lon="-2.518434">
      <ele>486</ele>
    </trkpt>
    <trkpt lat="42.438001" lon="-2.519042">
      <ele>488.4</ele>
    </trkpt>
    <trkpt lat="42.438297" lon="-2.519639">
      <ele>491.4</ele>
    </trkpt>
    <trkpt lat="42.438481" lon="-2.519887">
      <ele>493</ele>
    </trkpt>
    <trkpt lat="42.438583" lon="-2.520075">
      <ele>494.1</ele>
    </trkpt>
    <trkpt lat="42.438882" lon="-2.520851">
      <ele>498.6</ele>
    </trkpt>
    <trkpt lat="42.439141" lon="-2.52127">
      <ele>501.3</ele>
    </trkpt>
    <trkpt lat="42.439299" lon="-2.52182">
      <ele>504.1</ele>
    </trkpt>
    <trkpt lat="42.43949" lon="-2.522483">
      <ele>507.6</ele>
    </trkpt>
    <trkpt lat="42.439638" lon="-2.522829">
      <ele>509.5</ele>
    </trkpt>
    <trkpt lat="42.439739" lon="-2.522981">
      <ele>510.4</ele>
    </trkpt>
    <trkpt lat="42.439864" lon="-2.523168">
      <ele>511.4</ele>
    </trkpt>
    <trkpt lat="42.440035" lon="-2.523585">
      <ele>513</ele>
    </trkpt>
    <trkpt lat="42.440094" lon="-2.523912">
      <ele>514</ele>
    </trkpt>
    <trkpt lat="42.44007" lon="-2.524029">
      <ele>514.4</ele>
    </trkpt>
    <trkpt lat="42.439937" lon="-2.524755">
      <ele>516.3</ele>
    </trkpt>
    <trkpt lat="42.439907" lon="-2.524977">
      <ele>516.8</ele>
    </trkpt>
    <trkpt lat="42.439791" lon="-2.526616">
      <ele>516.5</ele>
    </trkpt>
    <trkpt lat="42.439783" lon="-2.526741">
      <ele>516.3</ele>
    </trkpt>
    <trkpt lat="42.439772" lon="-2.527191">
      <ele>515.4</ele>
    </trkpt>
    <trkpt lat="42.439712" lon="-2.527795">
      <ele>513.7</ele>
    </trkpt>
    <trkpt lat="42.439572" lon="-2.528731">
      <ele>510.8</ele>
    </trkpt>
    <trkpt lat="42.439566" lon="-2.528964">
      <ele>510.2</ele>
    </trkpt>
    <trkpt lat="42.43955" lon="-2.529125">
      <ele>509.9</ele>
    </trkpt>
    <trkpt lat="42.43936" lon="-2.530056">
      <ele>508.2</ele>
    </trkpt>
    <trkpt lat="42.439217" lon="-2.530874">
      <ele>506.6</ele>
    </trkpt>
    <trkpt lat="42.439094" lon="-2.531366">
      <ele>505.6</ele>
    </trkpt>
    <trkpt lat="42.438916" lon="-2.531922">
      <ele>504.3</ele>
    </trkpt>
    <trkpt lat="42.438861" lon="-2.532231">
      <ele>503.7</ele>
    </trkpt>
    <trkpt lat="42.43878" lon="-2.533424">
      <ele>501.7</ele>
    </trkpt>
    <trkpt lat="42.438626" lon="-2.534338">
      <ele>500.8</ele>
    </trkpt>
    <trkpt lat="42.438605" lon="-2.534661">
      <ele>500.4</ele>
    </trkpt>
    <trkpt lat="42.438518" lon="-2.535305">
      <ele>499.3</ele>
    </trkpt>
    <trkpt lat="42.438463" lon="-2.535587">
      <ele>498.7</ele>
    </trkpt>
    <trkpt lat="42.438251" lon="-2.536171">
      <ele>497.5</ele>
    </trkpt>
    <trkpt lat="42.438044" lon="-2.536833">
      <ele>496.6</ele>
    </trkpt>
    <trkpt lat="42.437945" lon="-2.537153">
      <ele>496.3</ele>
    </trkpt>
    <trkpt lat="42.437836" lon="-2.537602">
      <ele>495.9</ele>
    </trkpt>
    <trkpt lat="42.437796" lon="-2.537796">
      <ele>495.8</ele>
    </trkpt>
    <trkpt lat="42.437638" lon="-2.538825">
      <ele>494.8</ele>
    </trkpt>
    <trkpt lat="42.437596" lon="-2.538996">
      <ele>494.5</ele>
    </trkpt>
    <trkpt lat="42.437415" lon="-2.539459">
      <ele>493.3</ele>
    </trkpt>
    <trkpt lat="42.437336" lon="-2.539613">
      <ele>492.8</ele>
    </trkpt>
    <trkpt lat="42.436941" lon="-2.540358">
      <ele>489.2</ele>
    </trkpt>
    <trkpt lat="42.436733" lon="-2.540827">
      <ele>486.7</ele>
    </trkpt>
    <trkpt lat="42.436668" lon="-2.541092">
      <ele>485.3</ele>
    </trkpt>
    <trkpt lat="42.436623" lon="-2.541557">
      <ele>483</ele>
    </trkpt>
    <trkpt lat="42.436602" lon="-2.541774">
      <ele>481.9</ele>
    </trkpt>
    <trkpt lat="42.436427" lon="-2.542481">
      <ele>478.6</ele>
    </trkpt>
    <trkpt lat="42.436326" lon="-2.542873">
      <ele>477</ele>
    </trkpt>
    <trkpt lat="42.436052" lon="-2.545206">
      <ele>471.3</ele>
    </trkpt>
    <trkpt lat="42.435832" lon="-2.546416">
      <ele>469.6</ele>
    </trkpt>
    <trkpt lat="42.435682" lon="-2.547529">
      <ele>468.4</ele>
    </trkpt>
    <trkpt lat="42.435587" lon="-2.547928">
      <ele>467.9</ele>
    </trkpt>
    <trkpt lat="42.435547" lon="-2.548093">
      <ele>467.8</ele>
    </trkpt>
    <trkpt lat="42.43555" lon="-2.548354">
      <ele>467.5</ele>
    </trkpt>
    <trkpt lat="42.435585" lon="-2.548559">
      <ele>467.3</ele>
    </trkpt>
    <trkpt lat="42.435674" lon="-2.548972">
      <ele>467</ele>
    </trkpt>
    <trkpt lat="42.435917" lon="-2.549499">
      <ele>466.7</ele>
    </trkpt>
    <trkpt lat="42.435918" lon="-2.549674">
      <ele>466.7</ele>
    </trkpt>
    <trkpt lat="42.43589" lon="-2.549765">
      <ele>466.7</ele>
    </trkpt>
    <trkpt lat="42.435422" lon="-2.550361">
      <ele>466.7</ele>
    </trkpt>
    <trkpt lat="42.435055" lon="-2.550815">
      <ele>466.8</ele>
    </trkpt>
    <trkpt lat="42.434992" lon="-2.550926">
      <ele>466.9</ele>
    </trkpt>
    <trkpt lat="42.434909" lon="-2.551217">
      <ele>467</ele>
    </trkpt>
    <trkpt lat="42.43471" lon="-2.5519">
      <ele>467.2</ele>
    </trkpt>
    <trkpt lat="42.434532" lon="-2.552623">
      <ele>467.5</ele>
    </trkpt>
    <trkpt lat="42.434212" lon="-2.553597">
      <ele>467.8</ele>
    </trkpt>
    <trkpt lat="42.434032" lon="-2.554258">
      <ele>468.1</ele>
    </trkpt>
    <trkpt lat="42.433811" lon="-2.554929">
      <ele>468.6</ele>
    </trkpt>
    <trkpt lat="42.43369" lon="-2.555417">
      <ele>469.1</ele>
    </trkpt>
    <trkpt lat="42.433024" lon="-2.557771">
      <ele>475.3</ele>
    </trkpt>
    <trkpt lat="42.432857" lon="-2.5584">
      <ele>478.7</ele>
    </trkpt>
    <trkpt lat="42.432754" lon="-2.558692">
      <ele>480.4</ele>
    </trkpt>
    <trkpt lat="42.432572" lon="-2.559034">
      <ele>482.8</ele>
    </trkpt>
    <trkpt lat="42.432562" lon="-2.55916">
      <ele>483.6</ele>
    </trkpt>
    <trkpt lat="42.432608" lon="-2.559265">
      <ele>484.3</ele>
    </trkpt>
    <trkpt lat="42.432678" lon="-2.559311">
      <ele>484.9</ele>
    </trkpt>
    <trkpt lat="42.432909" lon="-2.559375">
      <ele>486.8</ele>
    </trkpt>
    <trkpt lat="42.432926" lon="-2.55947">
      <ele>487.4</ele>
    </trkpt>
    <trkpt lat="42.432805" lon="-2.559486">
      <ele>488.5</ele>
    </trkpt>
    <trkpt lat="42.432339" lon="-2.559324">
      <ele>492.5</ele>
    </trkpt>
    <trkpt lat="42.432403" lon="-2.559544">
      <ele>493.8</ele>
    </trkpt>
    <trkpt lat="42.432695" lon="-2.560537">
      <ele>499.8</ele>
    </trkpt>
    <trkpt lat="42.432789" lon="-2.560849">
      <ele>501.3</ele>
    </trkpt>
    <trkpt lat="42.432994" lon="-2.561568">
      <ele>503.9</ele>
    </trkpt>
    <trkpt lat="42.43301" lon="-2.561694">
      <ele>504.2</ele>
    </trkpt>
    <trkpt lat="42.433038" lon="-2.561917">
      <ele>504.5</ele>
    </trkpt>
    <trkpt lat="42.433026" lon="-2.562253">
      <ele>504.8</ele>
    </trkpt>
    <trkpt lat="42.432972" lon="-2.562534">
      <ele>504.8</ele>
    </trkpt>
    <trkpt lat="42.432946" lon="-2.562607">
      <ele>504.9</ele>
    </trkpt>
    <trkpt lat="42.432914" lon="-2.562699">
      <ele>504.9</ele>
    </trkpt>
    <trkpt lat="42.432335" lon="-2.563805">
      <ele>507.1</ele>
    </trkpt>
    <trkpt lat="42.432232" lon="-2.563807">
      <ele>507.4</ele>
    </trkpt>
    <trkpt lat="42.431811" lon="-2.563825">
      <ele>508.7</ele>
    </trkpt>
    <trkpt lat="42.431504" lon="-2.563788">
      <ele>509.4</ele>
    </trkpt>
    <trkpt lat="42.431032" lon="-2.563715">
      <ele>509.3</ele>
    </trkpt>
    <trkpt lat="42.430782" lon="-2.563683">
      <ele>508.9</ele>
    </trkpt>
    <trkpt lat="42.430743" lon="-2.56429">
      <ele>507.5</ele>
    </trkpt>
    <trkpt lat="42.430679" lon="-2.564664">
      <ele>506.4</ele>
    </trkpt>
    <trkpt lat="42.430655" lon="-2.5647">
      <ele>506.3</ele>
    </trkpt>
    <trkpt lat="42.430597" lon="-2.565144">
      <ele>504.9</ele>
    </trkpt>
    <trkpt lat="42.430555" lon="-2.565414">
      <ele>504</ele>
    </trkpt>
    <trkpt lat="42.430208" lon="-2.567457">
      <ele>502.9</ele>
    </trkpt>
    <trkpt lat="42.430185" lon="-2.567601">
      <ele>503</ele>
    </trkpt>
    <trkpt lat="42.430104" lon="-2.568085">
      <ele>503.3</ele>
    </trkpt>
    <trkpt lat="42.429833" lon="-2.568722">
      <ele>503.6</ele>
    </trkpt>
    <trkpt lat="42.429127" lon="-2.570235">
      <ele>504.6</ele>
    </trkpt>
    <trkpt lat="42.42768" lon="-2.573253">
      <ele>508.4</ele>
    </trkpt>
    <trkpt lat="42.427493" lon="-2.573642">
      <ele>509.1</ele>
    </trkpt>
    <trkpt lat="42.427407" lon="-2.573822">
      <ele>509.5</ele>
    </trkpt>
    <trkpt lat="42.42737" lon="-2.573818">
      <ele>509.6</ele>
    </trkpt>
    <trkpt lat="42.427328" lon="-2.573813">
      <ele>509.7</ele>
    </trkpt>
    <trkpt lat="42.427286" lon="-2.573858">
      <ele>509.9</ele>
    </trkpt>
    <trkpt lat="42.427111" lon="-2.574235">
      <ele>510.8</ele>
    </trkpt>
    <trkpt lat="42.426615" lon="-2.575318">
      <ele>513.4</ele>
    </trkpt>
    <trkpt lat="42.425852" lon="-2.577059">
      <ele>518</ele>
    </trkpt>
    <trkpt lat="42.425765" lon="-2.57708">
      <ele>518.3</ele>
    </trkpt>
    <trkpt lat="42.425459" lon="-2.577502">
      <ele>519.7</ele>
    </trkpt>
    <trkpt lat="42.424865" lon="-2.578042">
      <ele>522.2</ele>
    </trkpt>
    <trkpt lat="42.424683" lon="-2.578279">
      <ele>523.1</ele>
    </trkpt>
    <trkpt lat="42.424221" lon="-2.578566">
      <ele>525.1</ele>
    </trkpt>
    <trkpt lat="42.423425" lon="-2.579096">
      <ele>528.7</ele>
    </trkpt>
    <trkpt lat="42.422934" lon="-2.579543">
      <ele>531</ele>
    </trkpt>
    <trkpt lat="42.422484" lon="-2.579763">
      <ele>532.8</ele>
    </trkpt>
    <trkpt lat="42.422258" lon="-2.579939">
      <ele>533.8</ele>
    </trkpt>
    <trkpt lat="42.421828" lon="-2.580392">
      <ele>535.9</ele>
    </trkpt>
    <trkpt lat="42.421604" lon="-2.580694">
      <ele>537.1</ele>
    </trkpt>
    <trkpt lat="42.421454" lon="-2.580881">
      <ele>538</ele>
    </trkpt>
    <trkpt lat="42.42136" lon="-2.581091">
      <ele>538.7</ele>
    </trkpt>
    <trkpt lat="42.421032" lon="-2.581592">
      <ele>540.8</ele>
    </trkpt>
    <trkpt lat="42.420563" lon="-2.582151">
      <ele>543.2</ele>
    </trkpt>
    <trkpt lat="42.419806" lon="-2.582722">
      <ele>546.2</ele>
    </trkpt>
    <trkpt lat="42.419657" lon="-2.582862">
      <ele>546.8</ele>
    </trkpt>
    <trkpt lat="42.419586" lon="-2.582979">
      <ele>547.2</ele>
    </trkpt>
    <trkpt lat="42.419449" lon="-2.583453">
      <ele>548.4</ele>
    </trkpt>
    <trkpt lat="42.419183" lon="-2.583785">
      <ele>549.6</ele>
    </trkpt>
    <trkpt lat="42.419079" lon="-2.58396">
      <ele>550.2</ele>
    </trkpt>
    <trkpt lat="42.419004" lon="-2.584158">
      <ele>550.8</ele>
    </trkpt>
    <trkpt lat="42.418777" lon="-2.584522">
      <ele>552</ele>
    </trkpt>
    <trkpt lat="42.418647" lon="-2.58465">
      <ele>552.6</ele>
    </trkpt>
    <trkpt lat="42.418134" lon="-2.585103">
      <ele>555</ele>
    </trkpt>
    <trkpt lat="42.418068" lon="-2.585161">
      <ele>555.4</ele>
    </trkpt>
    <trkpt lat="42.41806" lon="-2.585169">
      <ele>555.4</ele>
    </trkpt>
    <trkpt lat="42.416858" lon="-2.586362">
      <ele>561.8</ele>
    </trkpt>
    <trkpt lat="42.41658" lon="-2.586756">
      <ele>563.5</ele>
    </trkpt>
    <trkpt lat="42.416237" lon="-2.587108">
      <ele>565.2</ele>
    </trkpt>
    <trkpt lat="42.415893" lon="-2.587318">
      <ele>566.7</ele>
    </trkpt>
    <trkpt lat="42.415124" lon="-2.587643">
      <ele>569.4</ele>
    </trkpt>
    <trkpt lat="42.415069" lon="-2.587676">
      <ele>569.6</ele>
    </trkpt>
    <trkpt lat="42.41504" lon="-2.587737">
      <ele>569.7</ele>
    </trkpt>
    <trkpt lat="42.415187" lon="-2.58885">
      <ele>572</ele>
    </trkpt>
    <trkpt lat="42.415061" lon="-2.589712">
      <ele>573.8</ele>
    </trkpt>
    <trkpt lat="42.415024" lon="-2.590533">
      <ele>575.5</ele>
    </trkpt>
    <trkpt lat="42.414887" lon="-2.592118">
      <ele>577.5</ele>
    </trkpt>
    <trkpt lat="42.414812" lon="-2.59243">
      <ele>577.3</ele>
    </trkpt>
    <trkpt lat="42.415437" lon="-2.592451">
      <ele>575.9</ele>
    </trkpt>
    <trkpt lat="42.415707" lon="-2.592411">
      <ele>574.9</ele>
    </trkpt>
    <trkpt lat="42.415962" lon="-2.592331">
      <ele>573.7</ele>
    </trkpt>
    <trkpt lat="42.417183" lon="-2.591942">
      <ele>568.1</ele>
    </trkpt>
    <trkpt lat="42.417587" lon="-2.591761">
      <ele>566.4</ele>
    </trkpt>
    <trkpt lat="42.419456" lon="-2.590577">
      <ele>558.9</ele>
    </trkpt>
    <trkpt lat="42.419927" lon="-2.590216">
      <ele>557.2</ele>
    </trkpt>
    <trkpt lat="42.41998" lon="-2.590316">
      <ele>557</ele>
    </trkpt>
    <trkpt lat="42.420138" lon="-2.590308">
      <ele>556.6</ele>
    </trkpt>
    <trkpt lat="42.42024" lon="-2.590363">
      <ele>556.4</ele>
    </trkpt>
    <trkpt lat="42.420291" lon="-2.590454">
      <ele>556.2</ele>
    </trkpt>
    <trkpt lat="42.420284" lon="-2.590714">
      <ele>555.9</ele>
    </trkpt>
    <trkpt lat="42.41998" lon="-2.591734">
      <ele>555</ele>
    </trkpt>
    <trkpt lat="42.419637" lon="-2.592739">
      <ele>554.6</ele>
    </trkpt>
    <trkpt lat="42.419423" lon="-2.593263">
      <ele>554.3</ele>
    </trkpt>
    <trkpt lat="42.418591" lon="-2.595145">
      <ele>554.1</ele>
    </trkpt>
    <trkpt lat="42.417136" lon="-2.598238">
      <ele>560.9</ele>
    </trkpt>
    <trkpt lat="42.416716" lon="-2.599182">
      <ele>563.7</ele>
    </trkpt>
    <trkpt lat="42.416125" lon="-2.600418">
      <ele>566.8</ele>
    </trkpt>
    <trkpt lat="42.415792" lon="-2.601279">
      <ele>568.3</ele>
    </trkpt>
    <trkpt lat="42.415462" lon="-2.602217">
      <ele>569.6</ele>
    </trkpt>
    <trkpt lat="42.41491" lon="-2.603704">
      <ele>572</ele>
    </trkpt>
    <trkpt lat="42.414506" lon="-2.604875">
      <ele>574.2</ele>
    </trkpt>
    <trkpt lat="42.413844" lon="-2.606706">
      <ele>577.3</ele>
    </trkpt>
    <trkpt lat="42.41327" lon="-2.608287">
      <ele>579.9</ele>
    </trkpt>
    <trkpt lat="42.413123" lon="-2.608711">
      <ele>580.9</ele>
    </trkpt>
    <trkpt lat="42.41288" lon="-2.609547">
      <ele>583.2</ele>
    </trkpt>
    <trkpt lat="42.412721" lon="-2.610161">
      <ele>584.9</ele>
    </trkpt>
    <trkpt lat="42.412578" lon="-2.610827">
      <ele>586.6</ele>
    </trkpt>
    <trkpt lat="42.412419" lon="-2.611696">
      <ele>588.6</ele>
    </trkpt>
    <trkpt lat="42.412296" lon="-2.612504">
      <ele>590.3</ele>
    </trkpt>
    <trkpt lat="42.412234" lon="-2.613093">
      <ele>591.5</ele>
    </trkpt>
    <trkpt lat="42.412194" lon="-2.614148">
      <ele>593.5</ele>
    </trkpt>
    <trkpt lat="42.412126" lon="-2.618772">
      <ele>599</ele>
    </trkpt>
    <trkpt lat="42.412107" lon="-2.620035">
      <ele>601.2</ele>
    </trkpt>
    <trkpt lat="42.412106" lon="-2.620069">
      <ele>601.2</ele>
    </trkpt>
    <trkpt lat="42.412045" lon="-2.621191">
      <ele>603.2</ele>
    </trkpt>
    <trkpt lat="42.41206" lon="-2.621846">
      <ele>603.9</ele>
    </trkpt>
    <trkpt lat="42.412108" lon="-2.622238">
      <ele>604.3</ele>
    </trkpt>
    <trkpt lat="42.412089" lon="-2.622421">
      <ele>604.4</ele>
    </trkpt>
    <trkpt lat="42.411998" lon="-2.622597">
      <ele>604.6</ele>
    </trkpt>
    <trkpt lat="42.411974" lon="-2.622798">
      <ele>604.8</ele>
    </trkpt>
    <trkpt lat="42.41199" lon="-2.623377">
      <ele>605.3</ele>
    </trkpt>
    <trkpt lat="42.411892" lon="-2.624546">
      <ele>606.7</ele>
    </trkpt>
    <trkpt lat="42.41178" lon="-2.626581">
      <ele>610.5</ele>
    </trkpt>
    <trkpt lat="42.411741" lon="-2.627354">
      <ele>612.1</ele>
    </trkpt>
    <trkpt lat="42.411734" lon="-2.62772">
      <ele>612.9</ele>
    </trkpt>
    <trkpt lat="42.411769" lon="-2.627916">
      <ele>613.3</ele>
    </trkpt>
    <trkpt lat="42.411731" lon="-2.62806">
      <ele>613.7</ele>
    </trkpt>
    <trkpt lat="42.411572" lon="-2.629217">
      <ele>616.5</ele>
    </trkpt>
    <trkpt lat="42.41159" lon="-2.629603">
      <ele>617.3</ele>
    </trkpt>
    <trkpt lat="42.411558" lon="-2.630205">
      <ele>618.5</ele>
    </trkpt>
    <trkpt lat="42.41156" lon="-2.630939">
      <ele>619.7</ele>
    </trkpt>
    <trkpt lat="42.411502" lon="-2.631904">
      <ele>620.8</ele>
    </trkpt>
    <trkpt lat="42.411571" lon="-2.633974">
      <ele>623.8</ele>
    </trkpt>
    <trkpt lat="42.411405" lon="-2.634519">
      <ele>625</ele>
    </trkpt>
    <trkpt lat="42.411364" lon="-2.634702">
      <ele>625.5</ele>
    </trkpt>
    <trkpt lat="42.411359" lon="-2.634854">
      <ele>625.8</ele>
    </trkpt>
    <trkpt lat="42.41151" lon="-2.636753">
      <ele>630.8</ele>
    </trkpt>
    <trkpt lat="42.411419" lon="-2.637416">
      <ele>632.9</ele>
    </trkpt>
    <trkpt lat="42.411484" lon="-2.63821">
      <ele>635.5</ele>
    </trkpt>
    <trkpt lat="42.411483" lon="-2.638427">
      <ele>636.3</ele>
    </trkpt>
    <trkpt lat="42.411366" lon="-2.638974">
      <ele>638.4</ele>
    </trkpt>
    <trkpt lat="42.411304" lon="-2.639774">
      <ele>641.6</ele>
    </trkpt>
    <trkpt lat="42.411346" lon="-2.640979">
      <ele>647.6</ele>
    </trkpt>
    <trkpt lat="42.411321" lon="-2.641457">
      <ele>650.6</ele>
    </trkpt>
    <trkpt lat="42.411372" lon="-2.641791">
      <ele>652.7</ele>
    </trkpt>
    <trkpt lat="42.411428" lon="-2.641973">
      <ele>653.9</ele>
    </trkpt>
    <trkpt lat="42.411634" lon="-2.642286">
      <ele>656.3</ele>
    </trkpt>
    <trkpt lat="42.411743" lon="-2.642525">
      <ele>657.9</ele>
    </trkpt>
    <trkpt lat="42.41198" lon="-2.64271">
      <ele>659.5</ele>
    </trkpt>
    <trkpt lat="42.412062" lon="-2.642973">
      <ele>660.6</ele>
    </trkpt>
    <trkpt lat="42.412126" lon="-2.643078">
      <ele>661</ele>
    </trkpt>
    <trkpt lat="42.412229" lon="-2.643245">
      <ele>661.5</ele>
    </trkpt>
    <trkpt lat="42.412432" lon="-2.643709">
      <ele>661.8</ele>
    </trkpt>
    <trkpt lat="42.412458" lon="-2.643841">
      <ele>661.7</ele>
    </trkpt>
    <trkpt lat="42.412385" lon="-2.644436">
      <ele>660.6</ele>
    </trkpt>
    <trkpt lat="42.412365" lon="-2.644525">
      <ele>660.3</ele>
    </trkpt>
    <trkpt lat="42.412444" lon="-2.645444">
      <ele>656.5</ele>
    </trkpt>
    <trkpt lat="42.412466" lon="-2.646533">
      <ele>651.2</ele>
    </trkpt>
    <trkpt lat="42.412487" lon="-2.646799">
      <ele>649.9</ele>
    </trkpt>
    <trkpt lat="42.412556" lon="-2.647201">
      <ele>647.8</ele>
    </trkpt>
    <trkpt lat="42.412568" lon="-2.647438">
      <ele>646.5</ele>
    </trkpt>
    <trkpt lat="42.412572" lon="-2.647916">
      <ele>643.7</ele>
    </trkpt>
    <trkpt lat="42.41266" lon="-2.64839">
      <ele>640.6</ele>
    </trkpt>
    <trkpt lat="42.412649" lon="-2.648534">
      <ele>639.6</ele>
    </trkpt>
    <trkpt lat="42.412415" lon="-2.648821">
      <ele>636.8</ele>
    </trkpt>
    <trkpt lat="42.412121" lon="-2.649362">
      <ele>632.2</ele>
    </trkpt>
    <trkpt lat="42.411988" lon="-2.649506">
      <ele>630.6</ele>
    </trkpt>
    <trkpt lat="42.411723" lon="-2.64969">
      <ele>628</ele>
    </trkpt>
    <trkpt lat="42.411539" lon="-2.649863">
      <ele>626.2</ele>
    </trkpt>
    <trkpt lat="42.411467" lon="-2.649885">
      <ele>625.6</ele>
    </trkpt>
    <trkpt lat="42.411178" lon="-2.650232">
      <ele>623.2</ele>
    </trkpt>
    <trkpt lat="42.411107" lon="-2.650398">
      <ele>622.6</ele>
    </trkpt>
    <trkpt lat="42.411106" lon="-2.650572">
      <ele>622</ele>
    </trkpt>
    <trkpt lat="42.411218" lon="-2.650704">
      <ele>621.5</ele>
    </trkpt>
    <trkpt lat="42.411256" lon="-2.650754">
      <ele>621.3</ele>
    </trkpt>
    <trkpt lat="42.411251" lon="-2.650846">
      <ele>621.1</ele>
    </trkpt>
    <trkpt lat="42.411209" lon="-2.650968">
      <ele>620.8</ele>
    </trkpt>
    <trkpt lat="42.411068" lon="-2.651219">
      <ele>620.1</ele>
    </trkpt>
    <trkpt lat="42.411027" lon="-2.651334">
      <ele>619.9</ele>
    </trkpt>
    <trkpt lat="42.41091" lon="-2.651956">
      <ele>618.9</ele>
    </trkpt>
    <trkpt lat="42.410904" lon="-2.652055">
      <ele>618.8</ele>
    </trkpt>
    <trkpt lat="42.41095" lon="-2.652435">
      <ele>618.4</ele>
    </trkpt>
    <trkpt lat="42.410931" lon="-2.653067">
      <ele>617.7</ele>
    </trkpt>
    <trkpt lat="42.410686" lon="-2.653874">
      <ele>616.4</ele>
    </trkpt>
    <trkpt lat="42.410663" lon="-2.654633">
      <ele>615.3</ele>
    </trkpt>
    <trkpt lat="42.410704" lon="-2.655223">
      <ele>614.5</ele>
    </trkpt>
    <trkpt lat="42.41092" lon="-2.657219">
      <ele>612.4</ele>
    </trkpt>
    <trkpt lat="42.411308" lon="-2.659917">
      <ele>608.6</ele>
    </trkpt>
    <trkpt lat="42.411325" lon="-2.660454">
      <ele>607.8</ele>
    </trkpt>
    <trkpt lat="42.411407" lon="-2.661296">
      <ele>606.9</ele>
    </trkpt>
    <trkpt lat="42.411423" lon="-2.662124">
      <ele>606.1</ele>
    </trkpt>
    <trkpt lat="42.411404" lon="-2.662416">
      <ele>605.8</ele>
    </trkpt>
    <trkpt lat="42.411352" lon="-2.662599">
      <ele>605.6</ele>
    </trkpt>
    <trkpt lat="42.41143" lon="-2.663425">
      <ele>604.2</ele>
    </trkpt>
    <trkpt lat="42.411483" lon="-2.663629">
      <ele>603.8</ele>
    </trkpt>
    <trkpt lat="42.411631" lon="-2.663915">
      <ele>602.9</ele>
    </trkpt>
    <trkpt lat="42.411677" lon="-2.664053">
      <ele>602.5</ele>
    </trkpt>
    <trkpt lat="42.411698" lon="-2.664544">
      <ele>601.1</ele>
    </trkpt>
    <trkpt lat="42.411795" lon="-2.665477">
      <ele>598.3</ele>
    </trkpt>
    <trkpt lat="42.412079" lon="-2.666944">
      <ele>594.7</ele>
    </trkpt>
    <trkpt lat="42.412189" lon="-2.667664">
      <ele>593.2</ele>
    </trkpt>
    <trkpt lat="42.41242" lon="-2.668641">
      <ele>591.3</ele>
    </trkpt>
    <trkpt lat="42.412788" lon="-2.669965">
      <ele>588.2</ele>
    </trkpt>
    <trkpt lat="42.413241" lon="-2.671333">
      <ele>582.9</ele>
    </trkpt>
    <trkpt lat="42.413386" lon="-2.672271">
      <ele>578.8</ele>
    </trkpt>
    <trkpt lat="42.413383" lon="-2.67272">
      <ele>577.2</ele>
    </trkpt>
    <trkpt lat="42.413451" lon="-2.673068">
      <ele>576.1</ele>
    </trkpt>
    <trkpt lat="42.413586" lon="-2.673503">
      <ele>575.1</ele>
    </trkpt>
    <trkpt lat="42.413637" lon="-2.673824">
      <ele>574.6</ele>
    </trkpt>
    <trkpt lat="42.413616" lon="-2.674398">
      <ele>574.5</ele>
    </trkpt>
    <trkpt lat="42.413635" lon="-2.67453">
      <ele>574.6</ele>
    </trkpt>
    <trkpt lat="42.413878" lon="-2.675281">
      <ele>575.7</ele>
    </trkpt>
    <trkpt lat="42.413919" lon="-2.67549">
      <ele>576.1</ele>
    </trkpt>
    <trkpt lat="42.41466" lon="-2.676839">
      <ele>580.1</ele>
    </trkpt>
    <trkpt lat="42.414823" lon="-2.677284">
      <ele>581.2</ele>
    </trkpt>
    <trkpt lat="42.414919" lon="-2.677447">
      <ele>581.6</ele>
    </trkpt>
    <trkpt lat="42.414951" lon="-2.677605">
      <ele>581.9</ele>
    </trkpt>
    <trkpt lat="42.414994" lon="-2.678244">
      <ele>582.2</ele>
    </trkpt>
    <trkpt lat="42.414889" lon="-2.678749">
      <ele>581.6</ele>
    </trkpt>
    <trkpt lat="42.414828" lon="-2.679216">
      <ele>580.5</ele>
    </trkpt>
    <trkpt lat="42.414682" lon="-2.679889">
      <ele>578.2</ele>
    </trkpt>
    <trkpt lat="42.414447" lon="-2.680702">
      <ele>574.9</ele>
    </trkpt>
    <trkpt lat="42.414342" lon="-2.682025">
      <ele>570.8</ele>
    </trkpt>
    <trkpt lat="42.414312" lon="-2.682749">
      <ele>569.1</ele>
    </trkpt>
    <trkpt lat="42.414246" lon="-2.683318">
      <ele>567.7</ele>
    </trkpt>
    <trkpt lat="42.414087" lon="-2.683732">
      <ele>566.6</ele>
    </trkpt>
    <trkpt lat="42.413697" lon="-2.685095">
      <ele>562.9</ele>
    </trkpt>
    <trkpt lat="42.413642" lon="-2.685328">
      <ele>562.2</ele>
    </trkpt>
    <trkpt lat="42.413542" lon="-2.686015">
      <ele>560.3</ele>
    </trkpt>
    <trkpt lat="42.41343" lon="-2.686344">
      <ele>559.3</ele>
    </trkpt>
    <trkpt lat="42.413415" lon="-2.686586">
      <ele>558.8</ele>
    </trkpt>
    <trkpt lat="42.413373" lon="-2.686949">
      <ele>557.9</ele>
    </trkpt>
    <trkpt lat="42.413334" lon="-2.687267">
      <ele>557.3</ele>
    </trkpt>
    <trkpt lat="42.413331" lon="-2.68782">
      <ele>556.4</ele>
    </trkpt>
    <trkpt lat="42.413419" lon="-2.688846">
      <ele>555.3</ele>
    </trkpt>
    <trkpt lat="42.413412" lon="-2.689242">
      <ele>555</ele>
    </trkpt>
    <trkpt lat="42.413331" lon="-2.690623">
      <ele>553.7</ele>
    </trkpt>
    <trkpt lat="42.413248" lon="-2.691108">
      <ele>552.9</ele>
    </trkpt>
    <trkpt lat="42.413233" lon="-2.691321">
      <ele>552.5</ele>
    </trkpt>
    <trkpt lat="42.413231" lon="-2.691962">
      <ele>551</ele>
    </trkpt>
    <trkpt lat="42.413255" lon="-2.692252">
      <ele>550.2</ele>
    </trkpt>
    <trkpt lat="42.413513" lon="-2.693604">
      <ele>545.7</ele>
    </trkpt>
    <trkpt lat="42.413584" lon="-2.693975">
      <ele>544.4</ele>
    </trkpt>
    <trkpt lat="42.413827" lon="-2.694394">
      <ele>542.7</ele>
    </trkpt>
    <trkpt lat="42.414164" lon="-2.694904">
      <ele>540.7</ele>
    </trkpt>
    <trkpt lat="42.41412" lon="-2.695">
      <ele>540.4</ele>
    </trkpt>
    <trkpt lat="42.414079" lon="-2.695052">
      <ele>540.2</ele>
    </trkpt>
    <trkpt lat="42.414121" lon="-2.695232">
      <ele>539.7</ele>
    </trkpt>
    <trkpt lat="42.414242" lon="-2.696172">
      <ele>537.6</ele>
    </trkpt>
    <trkpt lat="42.414232" lon="-2.69626">
      <ele>537.4</ele>
    </trkpt>
    <trkpt lat="42.414168" lon="-2.696468">
      <ele>536.9</ele>
    </trkpt>
    <trkpt lat="42.414121" lon="-2.69673">
      <ele>536.4</ele>
    </trkpt>
    <trkpt lat="42.414097" lon="-2.697049">
      <ele>535.7</ele>
    </trkpt>
    <trkpt lat="42.414126" lon="-2.697277">
      <ele>535.3</ele>
    </trkpt>
    <trkpt lat="42.414343" lon="-2.697963">
      <ele>534</ele>
    </trkpt>
    <trkpt lat="42.41446" lon="-2.698192">
      <ele>533.5</ele>
    </trkpt>
    <trkpt lat="42.415079" lon="-2.698827">
      <ele>531.6</ele>
    </trkpt>
    <trkpt lat="42.415342" lon="-2.698993">
      <ele>530.8</ele>
    </trkpt>
    <trkpt lat="42.415582" lon="-2.699072">
      <ele>530.3</ele>
    </trkpt>
    <trkpt lat="42.415998" lon="-2.69922">
      <ele>529.3</ele>
    </trkpt>
    <trkpt lat="42.416357" lon="-2.699261">
      <ele>528.6</ele>
    </trkpt>
    <trkpt lat="42.4166" lon="-2.699343">
      <ele>528</ele>
    </trkpt>
    <trkpt lat="42.416987" lon="-2.699421">
      <ele>527.2</ele>
    </trkpt>
    <trkpt lat="42.417163" lon="-2.699443">
      <ele>526.8</ele>
    </trkpt>
    <trkpt lat="42.417727" lon="-2.699511">
      <ele>526</ele>
    </trkpt>
    <trkpt lat="42.417794" lon="-2.699619">
      <ele>525.8</ele>
    </trkpt>
    <trkpt lat="42.417789" lon="-2.699866">
      <ele>525.7</ele>
    </trkpt>
    <trkpt lat="42.417798" lon="-2.700019">
      <ele>525.5</ele>
    </trkpt>
    <trkpt lat="42.417811" lon="-2.700271">
      <ele>525.4</ele>
    </trkpt>
    <trkpt lat="42.417771" lon="-2.700544">
      <ele>525.2</ele>
    </trkpt>
    <trkpt lat="42.41772" lon="-2.700864">
      <ele>525.1</ele>
    </trkpt>
    <trkpt lat="42.417613" lon="-2.701277">
      <ele>524.9</ele>
    </trkpt>
    <trkpt lat="42.417304" lon="-2.70166">
      <ele>524.9</ele>
    </trkpt>
    <trkpt lat="42.417132" lon="-2.701987">
      <ele>524.9</ele>
    </trkpt>
    <trkpt lat="42.417045" lon="-2.702065">
      <ele>524.8</ele>
    </trkpt>
    <trkpt lat="42.416471" lon="-2.702995">
      <ele>524.6</ele>
    </trkpt>
    <trkpt lat="42.416399" lon="-2.703127">
      <ele>524.6</ele>
    </trkpt>
    <trkpt lat="42.416366" lon="-2.703248">
      <ele>524.6</ele>
    </trkpt>
    <trkpt lat="42.416366" lon="-2.703374">
      <ele>524.6</ele>
    </trkpt>
    <trkpt lat="42.416612" lon="-2.705295">
      <ele>524.6</ele>
    </trkpt>
    <trkpt lat="42.416786" lon="-2.707642">
      <ele>525</ele>
    </trkpt>
    <trkpt lat="42.416469" lon="-2.709159">
      <ele>524.9</ele>
    </trkpt>
    <trkpt lat="42.416342" lon="-2.709632">
      <ele>524.6</ele>
    </trkpt>
    <trkpt lat="42.41612" lon="-2.710037">
      <ele>524.2</ele>
    </trkpt>
    <trkpt lat="42.416211" lon="-2.710172">
      <ele>524</ele>
    </trkpt>
    <trkpt lat="42.416373" lon="-2.710963">
      <ele>522.9</ele>
    </trkpt>
    <trkpt lat="42.416536" lon="-2.712085">
      <ele>520.6</ele>
    </trkpt>
    <trkpt lat="42.416641" lon="-2.712639">
      <ele>519.6</ele>
    </trkpt>
    <trkpt lat="42.417003" lon="-2.714183">
      <ele>517.2</ele>
    </trkpt>
    <trkpt lat="42.417167" lon="-2.714777">
      <ele>516.4</ele>
    </trkpt>
    <trkpt lat="42.41722" lon="-2.714915">
      <ele>516.2</ele>
    </trkpt>
    <trkpt lat="42.41772" lon="-2.715382">
      <ele>515.1</ele>
    </trkpt>
    <trkpt lat="42.417659" lon="-2.715562">
      <ele>514.8</ele>
    </trkpt>
    <trkpt lat="42.417625" lon="-2.715664">
      <ele>514.6</ele>
    </trkpt>
    <trkpt lat="42.417576" lon="-2.715873">
      <ele>514.3</ele>
    </trkpt>
    <trkpt lat="42.417581" lon="-2.716065">
      <ele>514</ele>
    </trkpt>
    <trkpt lat="42.417783" lon="-2.716611">
      <ele>512.8</ele>
    </trkpt>
    <trkpt lat="42.417873" lon="-2.716925">
      <ele>512.1</ele>
    </trkpt>
    <trkpt lat="42.417938" lon="-2.717285">
      <ele>511.4</ele>
    </trkpt>
    <trkpt lat="42.417995" lon="-2.71783">
      <ele>510.3</ele>
    </trkpt>
    <trkpt lat="42.41832" lon="-2.718647">
      <ele>508.7</ele>
    </trkpt>
    <trkpt lat="42.418417" lon="-2.718961">
      <ele>508.4</ele>
    </trkpt>
    <trkpt lat="42.418462" lon="-2.719183">
      <ele>508.2</ele>
    </trkpt>
    <trkpt lat="42.418524" lon="-2.719897">
      <ele>507.8</ele>
    </trkpt>
    <trkpt lat="42.418591" lon="-2.720821">
      <ele>507.7</ele>
    </trkpt>
    <trkpt lat="42.418597" lon="-2.721201">
      <ele>507.7</ele>
    </trkpt>
    <trkpt lat="42.4186" lon="-2.721293">
      <ele>507.7</ele>
    </trkpt>
    <trkpt lat="42.418573" lon="-2.721685">
      <ele>507.8</ele>
    </trkpt>
    <trkpt lat="42.418567" lon="-2.721747">
      <ele>507.8</ele>
    </trkpt>
    <trkpt lat="42.418483" lon="-2.722674">
      <ele>507.2</ele>
    </trkpt>
    <trkpt lat="42.418475" lon="-2.722764">
      <ele>507.2</ele>
    </trkpt>
    <trkpt lat="42.418332" lon="-2.724706">
      <ele>504.5</ele>
    </trkpt>
    <trkpt lat="42.418293" lon="-2.724859">
      <ele>504.3</ele>
    </trkpt>
    <trkpt lat="42.418219" lon="-2.724944">
      <ele>504.2</ele>
    </trkpt>
    <trkpt lat="42.418256" lon="-2.725062">
      <ele>504</ele>
    </trkpt>
    <trkpt lat="42.418291" lon="-2.725171">
      <ele>503.9</ele>
    </trkpt>
    <trkpt lat="42.418421" lon="-2.725313">
      <ele>503.7</ele>
    </trkpt>
    <trkpt lat="42.418456" lon="-2.725323">
      <ele>503.7</ele>
    </trkpt>
    <trkpt lat="42.418658" lon="-2.725223">
      <ele>503.5</ele>
    </trkpt>
    <trkpt lat="42.418908" lon="-2.725034">
      <ele>503.3</ele>
    </trkpt>
    </trkseg>
  </trk>
</gpx>
